{
  "id": 2048063473,
  "type": "Feature",
  "properties": {
    "geom:area": 0,
    "geom:bbox": "-122.756820,37.407800,-122.092530,38.504500",
    "geom:latitude": 37.84384351596789,
    "geom:longitude": -122.4651536495977,
    "src:alt_label": "swim-approach",
    "src:geom": "swim",
    "swim:elevations": [
      7977,
      7765,
      7658,
      7483,
      7210,
      6722,
      6514,
      6214,
      6125,
      5831,
      5412,
      5145,
      4843,
      4600,
      4422,
      4276,
      4029,
      3931,
      3870,
      3684,
      3484,
      3386,
      3353,
      3353,
      3356,
      3320,
      3078,
      2919,
      2644,
      2520,
      2396,
      2207,
      2075,
      1993,
      1770,
      1613,
      1521,
      1431,
      1346,
      1133,
      902,
      847,
      609,
      548,
      409,
      266,
      152,
      72
    ],
    "swim:geom": "approach",
    "swim:timestamps": [
      1787166189,
      1787166213,
      1787166223,
      1787166242,
      1787166273,
      1787166325,
      1787166348,
      1787166382,
      1787166394,
      1787166427,
      1787166473,
      1787166502,
      1787166538,
      1787166564,
      1787166586,
      1787166607,
      1787166654,
      1787166682,
      1787166707,
      1787166735,
      1787166775,
      1787166795,
      1787166834,
      1787166856,
      1787166872,
      1787166882,
      1787166926,
      1787166956,
      1787166986,
      1787166999,
      1787167023,
      1787167059,
      1787167103,
      1787167114,
      1787167154,
      1787167188,
      1787167222,
      1787167253,
      1787167272,
      1787167308,
      1787167346,
      1787167356,
      1787167403,
      1787167416,
      1787167451,
      1787167484,
      1787167516,
      1787167537
    ],
    "wof:geomhash": "94e61b76ac28c3c0d6c93fd886fc0b3b",
    "wof:id": 2048063473,
    "wof:repo": "sfomuseum-data-flights-2026-08"
  },
  "bbox": [
    -122.75682,
    37.4078,
    -122.09253,
    38.5045
  ],
  "geometry": {"type":"LineString","coordinates":[[-122.48107,38.5045],[-122.51299,38.4727],[-122.52628,38.4599],[-122.55239,38.43391],[-122.59356,38.39404],[-122.66339,38.32628],[-122.69345,38.29693],[-122.73731,38.25416],[-122.74991,38.23877],[-122.75682,38.18708],[-122.73509,38.11562],[-122.72247,38.07001],[-122.7063,38.01389],[-122.69459,37.97345],[-122.68459,37.93899],[-122.67496,37.90702],[-122.62001,37.84961],[-122.58668,37.81814],[-122.5597,37.79261],[-122.52928,37.76379],[-122.48857,37.72521],[-122.46888,37.70661],[-122.43021,37.6703],[-122.40849,37.64994],[-122.39231,37.63461],[-122.38278,37.62561],[-122.34665,37.58154],[-122.33046,37.54872],[-122.31239,37.5163],[-122.30408,37.5025],[-122.28887,37.4779],[-122.26623,37.4409],[-122.21515,37.41239],[-122.19988,37.4078],[-122.14522,37.40849],[-122.11185,37.43798],[-122.09253,37.47259],[-122.09581,37.50157],[-122.1136,37.51107],[-122.14904,37.52575],[-122.18695,37.54174],[-122.19805,37.54635],[-122.24405,37.56614],[-122.2564,37.57153],[-122.28713,37.58401],[-122.31165,37.59443],[-122.33438,37.60404],[-122.34827,37.6098]]}
}
