{
  "id": 2047917985,
  "type": "Feature",
  "properties": {
    "geom:area": 0,
    "geom:bbox": "-123.324560,37.626810,-122.394670,38.500360",
    "geom:latitude": 38.022419120084635,
    "geom:longitude": -122.892640898688,
    "src:alt_label": "swim-takeoff",
    "src:geom": "swim",
    "swim:elevations": [
      122,
      511,
      820,
      1074,
      1127,
      1269,
      1675,
      2061,
      2294,
      2745,
      2828,
      3208,
      3326,
      3569,
      3737,
      3972,
      4186,
      4538,
      4774,
      4955,
      5151,
      5388,
      5665,
      5821,
      6008,
      6631,
      6431
    ],
    "swim:geom": "takeoff",
    "swim:timestamps": [
      1786363941,
      1786363971,
      1786363999,
      1786364030,
      1786364043,
      1786364071,
      1786364119,
      1786364152,
      1786364173,
      1786364216,
      1786364223,
      1786364272,
      1786364290,
      1786364336,
      1786364367,
      1786364390,
      1786364415,
      1786364453,
      1786364487,
      1786364509,
      1786364529,
      1786364554,
      1786364586,
      1786364605,
      1786364626,
      1786364640,
      1786364679
    ],
    "wof:geomhash": "c0adb71730fdab8bccf0781db8ce73f0",
    "wof:id": 2047917985,
    "wof:repo": "sfomuseum-data-flights-2026-08"
  },
  "bbox": [
    -123.32456,
    37.62681,
    -122.39467,
    38.50036
  ],
  "geometry": {"type":"LineString","coordinates":[[-122.39467,37.62681],[-122.42416,37.63884],[-122.45201,37.65174],[-122.48386,37.66591],[-122.49877,37.67266],[-122.53087,37.6908],[-122.5911,37.72653],[-122.63399,37.75178],[-122.66255,37.76854],[-122.72074,37.80262],[-122.73061,37.80845],[-122.78732,37.86062],[-122.80585,37.88313],[-122.85895,37.94673],[-122.89698,37.99257],[-122.92601,38.0276],[-122.95804,38.06589],[-123.00757,38.12547],[-123.05333,38.18],[-123.08271,38.21502],[-123.11081,38.24839],[-123.14535,38.28944],[-123.19068,38.34332],[-123.21757,38.37516],[-123.24702,38.40962],[-123.26671,38.4336],[-123.32456,38.50036]]}
}
