{
  "id": 2032135521,
  "type": "Feature",
  "properties": {
    "geom:area": 0,
    "geom:bbox": "-159.333333,21.733333,-122.678056,37.562500",
    "geom:latitude": 28.890440805703072,
    "geom:longitude": -140.85386465685897,
    "src:alt_label": "swim-path",
    "src:geom": "swim",
    "swim:altitudes": [
      "098",
      "117",
      "137",
      "157",
      "177",
      "195",
      "210",
      "240",
      "252C",
      "256",
      "271",
      "282C",
      "285",
      "293C",
      "296",
      "303C",
      "306",
      "310C",
      "310C",
      "310C",
      "310",
      "310C",
      "310C",
      "310C",
      "310C",
      "310C",
      "310",
      "310C",
      "310",
      "310C",
      "310C",
      "310C",
      "310C",
      "310C",
      "310C",
      "320",
      "320",
      "320",
      "320",
      "320",
      "320",
      "320",
      "320",
      "320",
      "320",
      "320",
      "320",
      "320",
      "320",
      "320",
      "320",
      "320",
      "320",
      "320",
      "320",
      "320",
      "320",
      "320",
      "320",
      "320",
      "320",
      "320",
      "320",
      "320",
      "320",
      "320",
      "320",
      "320",
      "320",
      "320",
      "320",
      "318T",
      "308T",
      "298T",
      "288T",
      "278T",
      "268T",
      "258T",
      "248T",
      "234T",
      "206T",
      "177T",
      "152T",
      "124T",
      "105T",
      "098T",
      "083T",
      "067T",
      "054T",
      "045T",
      "037T",
      "024T",
      "015T",
      "008T",
      "003",
      "001"
    ],
    "swim:geom": "path",
    "swim:speeds": [
      278,
      312,
      335,
      354,
      365,
      376,
      392,
      418,
      420,
      423,
      426,
      430,
      429,
      440,
      436,
      440,
      444,
      453,
      455,
      455,
      460,
      455,
      454,
      454,
      453,
      454,
      450,
      455,
      460,
      456,
      457,
      458,
      459,
      460,
      460,
      450,
      450,
      450,
      450,
      450,
      450,
      450,
      450,
      450,
      450,
      460,
      460,
      460,
      460,
      460,
      450,
      450,
      450,
      450,
      450,
      450,
      450,
      450,
      450,
      440,
      440,
      440,
      440,
      440,
      440,
      440,
      440,
      440,
      440,
      440,
      440,
      440,
      430,
      440,
      440,
      440,
      430,
      420,
      420,
      420,
      410,
      400,
      390,
      380,
      370,
      310,
      290,
      290,
      280,
      260,
      220,
      200,
      160,
      140,
      140,
      70
    ],
    "swim:timestamps": [
      1786062614,
      1786062674,
      1786062734,
      1786062794,
      1786062854,
      1786062914,
      1786062974,
      1786063094,
      1786063140,
      1786063154,
      1786063215,
      1786063261,
      1786063275,
      1786063320,
      1786063335,
      1786063381,
      1786063395,
      1786063455,
      1786063515,
      1786063575,
      1786063621,
      1786063635,
      1786063695,
      1786063755,
      1786063815,
      1786063875,
      1786063921,
      1786063936,
      1786063981,
      1786063996,
      1786064056,
      1786064116,
      1786064176,
      1786064236,
      1786064296,
      1786076654,
      1786076714,
      1786076775,
      1786076835,
      1786076895,
      1786076955,
      1786077015,
      1786077076,
      1786077135,
      1786077196,
      1786077256,
      1786077316,
      1786077376,
      1786077436,
      1786077496,
      1786077557,
      1786077617,
      1786077677,
      1786077737,
      1786077797,
      1786077857,
      1786077917,
      1786077978,
      1786078038,
      1786078098,
      1786078159,
      1786078219,
      1786078279,
      1786078339,
      1786078399,
      1786078459,
      1786078519,
      1786078580,
      1786078640,
      1786078700,
      1786078760,
      1786078820,
      1786078880,
      1786078940,
      1786079000,
      1786079061,
      1786079121,
      1786079181,
      1786079241,
      1786079302,
      1786079361,
      1786079422,
      1786079482,
      1786079542,
      1786079602,
      1786079662,
      1786079723,
      1786079783,
      1786079843,
      1786079903,
      1786079963,
      1786080023,
      1786080084,
      1786080144,
      1786080181,
      1786080247
    ],
    "wof:geomhash": "e717775ae05ad50ce972b0afc57e1f06",
    "wof:id": 2032135521,
    "wof:repo": "sfomuseum-data-flights-2026-08"
  },
  "bbox": [
    -159.33333333333334,
    21.733333333333334,
    -122.67805555555556,
    37.5625
  ],
  "geometry": {"type":"LineString","coordinates":[[-122.67805555555556,37.5625],[-122.76138888888889,37.50861111111111],[-122.85083333333333,37.45111111111111],[-122.94972222222222,37.39388888888889],[-123.06083333333333,37.34305555555556],[-123.17416666666666,37.29111111111111],[-123.29166666666667,37.23722222222222],[-123.54166666666667,37.12138888888889],[-123.63333333333334,37.06666666666667],[-123.66861111111112,37.0625],[-123.79694444444445,37.0025],[-123.88333333333334,36.95],[-123.92722222222223,36.941111111111105],[-124.01666666666667,36.88333333333333],[-124.0586111111111,36.87916666666667],[-124.15,36.81666666666667],[-124.19111111111111,36.81638888888889],[-124.32666666666667,36.75222222222222],[-124.46194444444444,36.6875],[-124.59861111111111,36.621944444444445],[-124.7,36.583333333333336],[-124.73277777777778,36.55777777777777],[-124.86638888888888,36.49333333333333],[-125.00055555555555,36.42833333333333],[-125.13444444444445,36.36277777777778],[-125.26888888888888,36.29694444444444],[-125.36666666666666,36.25],[-125.40166666666667,36.231944444444444],[-125.5,36.18333333333333],[-125.53694444444444,36.165277777777774],[-125.67083333333333,36.09916666666667],[-125.80388888888889,36.033055555555556],[-125.94083333333333,35.965],[-126.07333333333332,35.89861111111111],[-126.205,35.8325],[-152.53333333333333,23.033333333333335],[-152.65,22.983333333333334],[-152.78333333333333,22.933333333333334],[-152.91666666666666,22.9],[-153.05,22.883333333333333],[-153.18333333333334,22.866666666666667],[-153.31666666666666,22.833333333333332],[-153.45,22.816666666666666],[-153.58333333333334,22.8],[-153.71666666666667,22.766666666666666],[-153.85,22.75],[-153.98333333333332,22.716666666666665],[-154.11666666666667,22.7],[-154.25,22.683333333333334],[-154.38333333333333,22.65],[-154.51666666666668,22.633333333333333],[-154.65,22.6],[-154.78333333333333,22.583333333333332],[-154.91666666666666,22.566666666666666],[-155.05,22.533333333333335],[-155.18333333333334,22.516666666666666],[-155.31666666666666,22.483333333333334],[-155.45,22.466666666666665],[-155.58333333333334,22.433333333333334],[-155.71666666666667,22.416666666666668],[-155.85,22.383333333333333],[-155.98333333333332,22.366666666666667],[-156.11666666666667,22.35],[-156.23333333333332,22.316666666666666],[-156.36666666666667,22.3],[-156.5,22.266666666666666],[-156.61666666666667,22.25],[-156.75,22.216666666666665],[-156.88333333333333,22.2],[-157.01666666666668,22.166666666666668],[-157.13333333333333,22.15],[-157.26666666666668,22.116666666666667],[-157.4,22.1],[-157.51666666666668,22.066666666666666],[-157.65,22.05],[-157.78333333333333,22.016666666666666],[-157.9,22],[-158.03333333333333,21.966666666666665],[-158.15,21.95],[-158.28333333333333,21.916666666666668],[-158.4,21.9],[-158.51666666666668,21.883333333333333],[-158.63333333333333,21.85],[-158.73333333333332,21.833333333333332],[-158.85,21.8],[-158.93333333333334,21.783333333333335],[-159.03333333333333,21.766666666666666],[-159.11666666666667,21.75],[-159.2,21.733333333333334],[-159.26666666666668,21.75],[-159.33333333333334,21.783333333333335],[-159.33333333333334,21.833333333333332],[-159.33333333333334,21.883333333333333],[-159.33333333333334,21.916666666666668],[-159.33333333333334,21.95],[-159.33333333333334,21.966666666666665]]}
}
