{
  "id": 2047880161,
  "type": "Feature",
  "properties": {
    "geom:area": 0,
    "geom:bbox": "-122.367920,37.667000,-121.301860,37.946400",
    "geom:latitude": 37.81864287282919,
    "geom:longitude": -121.83854383999946,
    "src:alt_label": "swim-takeoff",
    "src:geom": "swim",
    "swim:elevations": [
      964,
      1850,
      1947,
      2096,
      2441,
      2782,
      3075,
      3385,
      3933,
      3999,
      4197,
      4504,
      4634,
      4747,
      4862,
      4968,
      5060,
      5434,
      5551,
      5636,
      6130
    ],
    "swim:geom": "takeoff",
    "swim:timestamps": [
      1786096322,
      1786096436,
      1786096445,
      1786096458,
      1786096488,
      1786096515,
      1786096541,
      1786096567,
      1786096618,
      1786096625,
      1786096642,
      1786096669,
      1786096685,
      1786096711,
      1786096741,
      1786096766,
      1786096786,
      1786096826,
      1786096837,
      1786096845,
      1786096903
    ],
    "wof:geomhash": "cf43599050cd0cc1198034e36346df88",
    "wof:id": 2047880161,
    "wof:repo": "sfomuseum-data-flights-2026-08"
  },
  "bbox": [
    -122.36792,
    37.667,
    -121.30186,
    37.9464
  ],
  "geometry": {"type":"LineString","coordinates":[[-122.36792,37.667],[-122.21018,37.72035],[-122.1983,37.72656],[-122.17968,37.73649],[-122.13358,37.75411],[-122.08965,37.76465],[-122.04558,37.77521],[-122.00025,37.7858],[-121.91181,37.80656],[-121.8986,37.80964],[-121.86813,37.81668],[-121.82029,37.82764],[-121.79034,37.83451],[-121.73972,37.84606],[-121.67888,37.85995],[-121.62397,37.87257],[-121.57784,37.88323],[-121.48516,37.90459],[-121.45949,37.91043],[-121.4398,37.91494],[-121.30186,37.9464]]}
}
