{
  "id": 2047913623,
  "type": "Feature",
  "properties": {
    "date:cessation_lower": "2026-08-10",
    "date:cessation_upper": "2026-08-10",
    "date:inception_lower": "2026-08-10",
    "date:inception_upper": "2026-08-10",
    "edtf:cessation": "2026-08-10T00:04:35-07:00",
    "edtf:inception": "2026-08-10T12:05:00Z",
    "flysfo:actual_timestamp": -1,
    "flysfo:airline": "UA",
    "flysfo:base_airline": "",
    "flysfo:base_flight_number": "4033",
    "flysfo:date": "2026-08-10",
    "flysfo:estimated_timestamp": 1786371240,
    "flysfo:event": "A",
    "flysfo:flight_number": "UA538",
    "flysfo:gate": "D14",
    "flysfo:journey": "ABQ-SFO",
    "flysfo:scheduled_timestamp": 1786372560,
    "flysfo:timestamp": 1786372560,
    "geom:area": 0,
    "geom:bbox": "-122.370943,35.048762,-106.620586,37.617990",
    "geom:latitude": 36.333376,
    "geom:longitude": -114.4957645,
    "iata:airline": "UA",
    "iata:base_airline": "",
    "icao:aircraft": "A319",
    "icao:airline": "UAL",
    "icao:base_airline": "ACA",
    "lbl:latitude": 37.618149,
    "lbl:longitude": -122.381669,
    "sfomuseum:aircraft_id": 1159289407,
    "sfomuseum:airline_id": 1159285413,
    "sfomuseum:arrival_id": 102527513,
    "sfomuseum:base_flight_id": "20260810-A-ACA-4033",
    "sfomuseum:departure_id": 102529173,
    "sfomuseum:flight_id": "20260810-A-UAL-538",
    "sfomuseum:flight_number": [
      "UAL538",
      "UA538"
    ],
    "sfomuseum:placetype": "flight",
    "src:geom": "flysfo",
    "src:geom_alt": [
      "swim-path",
      "swim-approach"
    ],
    "swim:tail_number": "N804UA",
    "wof:belongsto": [
      1947304067,
      102527513,
      1947304595,
      102191575,
      85633793,
      102087579,
      85922583,
      554784711,
      85688637,
      1947304613,
      1947304591,
      102085387
    ],
    "wof:concordances": {
      "swim:flight_ref": "154196414"
    },
    "wof:country": "US",
    "wof:created": 1786464588,
    "wof:geomhash": "8fe6791c85dc44fbddffd72416ea0024",
    "wof:hierarchy": [
      {
        "building_id": 1947304067,
        "campus_id": 102527513,
        "concourse_id": 1947304595,
        "continent_id": 102191575,
        "country_id": 85633793,
        "county_id": 102087579,
        "custom_id": 2047913623,
        "flight_id": 2047913623,
        "locality_id": 85922583,
        "postalcode_id": 554784711,
        "region_id": 85688637,
        "venue_id": 1947304613,
        "wing_id": 1947304591
      },
      {
        "building_id": 1947304067,
        "campus_id": 102527513,
        "concourse_id": 1947304595,
        "continent_id": 102191575,
        "country_id": 85633793,
        "county_id": 102085387,
        "custom_id": 2047913623,
        "flight_id": 2047913623,
        "region_id": 85688637,
        "venue_id": 1947304613,
        "wing_id": 1947304591
      }
    ],
    "wof:id": 2047913623,
    "wof:involves": [
      1159283597,
      1159289407,
      102527513,
      102529173,
      1159285413,
      1947304613
    ],
    "wof:lastmodified": 1786465278,
    "wof:name": "UA538 (ABQ-SFO)",
    "wof:parent_id": 1947304613,
    "wof:placetype": "custom",
    "wof:placetype_alt": [
      "flight"
    ],
    "wof:repo": "sfomuseum-data-flights-2026-08",
    "wof:superseded_by": [],
    "wof:supersedes": []
  },
  "bbox": [
    -122.370943,
    35.048762,
    -106.620586,
    37.61799
  ],
  "geometry": {"type":"MultiPoint","coordinates":[[-106.620586,35.048762],[-122.370943,37.61799]]}
}
