{
  "id": 2047898689,
  "type": "Feature",
  "properties": {
    "geom:area": 0,
    "geom:bbox": "-122.940170,37.400720,-122.110700,38.482420",
    "geom:latitude": 37.819385165021515,
    "geom:longitude": -122.50320506681489,
    "src:alt_label": "swim-approach",
    "src:geom": "swim",
    "swim:elevations": [
      7559,
      7482,
      7220,
      6952,
      6550,
      6289,
      6115,
      5895,
      5787,
      5268,
      4981,
      4787,
      4492,
      4138,
      4054,
      3696,
      3447,
      3413,
      3353,
      3353,
      3353,
      3353,
      3353,
      3262,
      2994,
      2846,
      2800,
      2737,
      2667,
      2576,
      2319,
      2201,
      2064,
      1827,
      1653,
      1407,
      1306,
      1209,
      1106,
      1003,
      952,
      651,
      608,
      439,
      355,
      269,
      157,
      58
    ],
    "swim:geom": "approach",
    "swim:timestamps": [
      1786314625,
      1786314641,
      1786314677,
      1786314703,
      1786314743,
      1786314769,
      1786314786,
      1786314808,
      1786314820,
      1786314868,
      1786314897,
      1786314917,
      1786314948,
      1786314986,
      1786314994,
      1786315032,
      1786315075,
      1786315090,
      1786315135,
      1786315163,
      1786315176,
      1786315226,
      1786315232,
      1786315269,
      1786315310,
      1786315335,
      1786315344,
      1786315357,
      1786315372,
      1786315388,
      1786315429,
      1786315454,
      1786315472,
      1786315511,
      1786315536,
      1786315575,
      1786315612,
      1786315647,
      1786315672,
      1786315687,
      1786315693,
      1786315734,
      1786315740,
      1786315764,
      1786315793,
      1786315810,
      1786315840,
      1786315868
    ],
    "wof:geomhash": "17d05968aa26fbdce63707d4c3068626",
    "wof:id": 2047898689,
    "wof:repo": "sfomuseum-data-flights-2026-08"
  },
  "bbox": [
    -122.94017,
    37.40072,
    -122.1107,
    38.48242
  ],
  "geometry": {"type":"LineString","coordinates":[[-122.94017,38.48242],[-122.92154,38.45474],[-122.88084,38.394],[-122.85123,38.34969],[-122.80759,38.28442],[-122.77922,38.24179],[-122.76494,38.21261],[-122.75318,38.17385],[-122.74709,38.15329],[-122.72314,38.07121],[-122.70899,38.02254],[-122.69972,37.99043],[-122.68468,37.93884],[-122.65354,37.8817],[-122.64304,37.87147],[-122.59237,37.82346],[-122.53739,37.77141],[-122.51934,37.7543],[-122.46913,37.70689],[-122.44133,37.68083],[-122.42914,37.66943],[-122.3804,37.6235],[-122.37477,37.61807],[-122.35137,37.57985],[-122.32467,37.5366],[-122.30786,37.50919],[-122.30205,37.49969],[-122.29387,37.48645],[-122.28389,37.47028],[-122.27356,37.4534],[-122.23538,37.42014],[-122.20082,37.40867],[-122.17648,37.40072],[-122.12455,37.40898],[-122.1107,37.43445],[-122.11247,37.47762],[-122.13541,37.51062],[-122.16471,37.53236],[-122.18785,37.5424],[-122.20183,37.54796],[-122.20726,37.55023],[-122.24453,37.56633],[-122.25006,37.56868],[-122.27334,37.57851],[-122.29807,37.58879],[-122.31156,37.59454],[-122.3323,37.60312],[-122.35156,37.61119]]}
}
