{
  "id": 2047943609,
  "type": "Feature",
  "properties": {
    "geom:area": 0,
    "geom:bbox": "-122.400000,37.616667,-73.500000,48.186944",
    "geom:latitude": 44.8327071534757,
    "geom:longitude": -97.5518611321179,
    "src:alt_label": "swim-path",
    "src:geom": "swim",
    "swim:altitudes": [
      "004",
      "019",
      "020",
      "036",
      "062",
      "083",
      "103",
      "113",
      "131",
      "151",
      "173",
      "192",
      "210",
      "225",
      "235",
      "247",
      "260",
      "272",
      "280",
      "289",
      "298",
      "309",
      "310",
      "310",
      "310",
      "310",
      "312",
      "313",
      "321",
      "321",
      "330C",
      "330C",
      "330C",
      "330C",
      "330C",
      "330C",
      "330C",
      "330C",
      "330C",
      "330C",
      "330C",
      "330C",
      "330C",
      "330C",
      "330C",
      "330C",
      "330C",
      "330C",
      "330C",
      "330C",
      "330C",
      "330C",
      "330C",
      "330C",
      "330C",
      "330C",
      "330C",
      "330C",
      "330C",
      "330C",
      "330C",
      "330C",
      "330C",
      "330C",
      "330C",
      "330C",
      "330C",
      "330C",
      "330C",
      "330C",
      "330C",
      "330C",
      "330C",
      "330C",
      "330C",
      "330C",
      "330C",
      "330C",
      "330C",
      "330C",
      "330C",
      "330C",
      "330C",
      "330C",
      "330C",
      "330C",
      "330C",
      "330C",
      "330C",
      "330C",
      "330C",
      "330C",
      "330C",
      "330C",
      "330C",
      "330C",
      "330C",
      "330C",
      "330C",
      "330C",
      "330C",
      "330C",
      "330C",
      "330C",
      "330C",
      "330C",
      "330C",
      "330C",
      "330C",
      "330C",
      "330C",
      "330C",
      "330C",
      "330C",
      "330C",
      "330C",
      "330C",
      "330C",
      "330C",
      "330C",
      "330C",
      "330C",
      "330C",
      "330C",
      "330C",
      "330C",
      "330C",
      "330C",
      "330C",
      "330C",
      "330C",
      "330C",
      "330C",
      "330C",
      "330C",
      "330C",
      "330C",
      "330C",
      "330C",
      "330C",
      "330C",
      "330C",
      "330C",
      "330C",
      "330C",
      "330C",
      "330C",
      "330C",
      "330C",
      "330C",
      "330C",
      "330C",
      "330C",
      "330C",
      "330",
      "330",
      "330",
      "330",
      "330",
      "332",
      "340",
      "347",
      "350C",
      "350C",
      "350C",
      "350C",
      "350C",
      "350C",
      "350C",
      "350C",
      "350C",
      "350C",
      "350C",
      "350C",
      "350C",
      "350C",
      "350C",
      "350C",
      "350C",
      "350C",
      "350C",
      "350C",
      "350C",
      "350C",
      "350C",
      "350C",
      "350C",
      "350C",
      "350C",
      "350C",
      "350C",
      "350C",
      "350C",
      "350C",
      "350C",
      "350C",
      "350C",
      "350C",
      "350C",
      "350C",
      "350C",
      "350C",
      "350C",
      "350C",
      "350C",
      "350C",
      "350C",
      "350C",
      "350C",
      "350C",
      "350C",
      "350C",
      "350C",
      "350C",
      "350C",
      "350C",
      "350C",
      "350C",
      "350C",
      "350C",
      "350C",
      "350C",
      "350C",
      "350C",
      "350C",
      "350C",
      "350C",
      "350C",
      "350C",
      "350C",
      "350C",
      "350C",
      "350C",
      "350C",
      "350C",
      "350C",
      "350C",
      "350C",
      "350C",
      "350C",
      "350C",
      "350C",
      "350C",
      "350C",
      "350C",
      "350C",
      "350C",
      "350C",
      "350C",
      "350C",
      "350C",
      "350C",
      "350C",
      "350C",
      "350C",
      "350C",
      "350C",
      "350C",
      "350C",
      "350C",
      "350C",
      "350C",
      "350C",
      "350C",
      "350C",
      "350C",
      "350C",
      "350C",
      "350C",
      "350",
      "350",
      "346",
      "345",
      "338",
      "333",
      "332",
      "326",
      "324",
      "309",
      "293",
      "288",
      "280C",
      "280C",
      "280",
      "269",
      "267",
      "248",
      "246",
      "225",
      "222",
      "203",
      "200",
      "200",
      "200",
      "200",
      "200",
      "200",
      "199",
      "198",
      "195",
      "192C",
      "191C",
      "190",
      "190C",
      "190C",
      "189",
      "179",
      "171",
      "160",
      "149",
      "141",
      "136",
      "132",
      "130",
      "126",
      "115",
      "110",
      "106",
      "100",
      "094",
      "090",
      "084",
      "078",
      "074",
      "068",
      "064",
      "060",
      "054",
      "049",
      "044",
      "040",
      "040",
      "040",
      "034",
      "030",
      "030",
      "030",
      "030",
      "030",
      "030",
      "030",
      "030",
      "030",
      "030",
      "030",
      "030",
      "030",
      "030",
      "026",
      "020",
      "016",
      "012",
      "009",
      "005",
      "003"
    ],
    "swim:geom": "path",
    "swim:speeds": [
      179,
      240,
      236,
      269,
      281,
      298,
      312,
      361,
      385,
      395,
      402,
      409,
      417,
      426,
      437,
      448,
      454,
      462,
      464,
      468,
      472,
      479,
      480,
      481,
      482,
      483,
      486,
      486,
      487,
      489,
      495,
      489,
      488,
      482,
      481,
      480,
      481,
      482,
      483,
      484,
      488,
      491,
      495,
      495,
      497,
      497,
      497,
      497,
      496,
      497,
      498,
      501,
      502,
      503,
      504,
      504,
      503,
      502,
      508,
      508,
      507,
      508,
      509,
      509,
      510,
      510,
      511,
      511,
      510,
      511,
      511,
      510,
      510,
      510,
      510,
      510,
      510,
      511,
      511,
      510,
      510,
      510,
      509,
      509,
      510,
      509,
      511,
      513,
      514,
      514,
      514,
      514,
      515,
      515,
      515,
      516,
      519,
      521,
      523,
      523,
      523,
      524,
      523,
      523,
      524,
      524,
      525,
      525,
      525,
      525,
      525,
      525,
      525,
      526,
      527,
      527,
      526,
      526,
      525,
      524,
      525,
      525,
      526,
      528,
      530,
      532,
      534,
      535,
      533,
      536,
      533,
      535,
      533,
      533,
      533,
      532,
      532,
      531,
      531,
      531,
      531,
      529,
      529,
      528,
      528,
      527,
      527,
      527,
      529,
      530,
      531,
      532,
      534,
      534,
      536,
      536,
      538,
      539,
      539,
      544,
      547,
      546,
      546,
      547,
      546,
      547,
      548,
      549,
      549,
      550,
      550,
      550,
      550,
      552,
      554,
      555,
      556,
      557,
      558,
      560,
      567,
      571,
      576,
      580,
      581,
      581,
      580,
      580,
      579,
      578,
      578,
      578,
      578,
      578,
      578,
      579,
      580,
      581,
      582,
      585,
      586,
      586,
      585,
      586,
      587,
      587,
      588,
      588,
      589,
      590,
      590,
      590,
      590,
      590,
      589,
      581,
      577,
      575,
      573,
      570,
      568,
      565,
      564,
      565,
      565,
      565,
      564,
      563,
      562,
      560,
      559,
      557,
      556,
      554,
      553,
      552,
      550,
      549,
      547,
      545,
      542,
      539,
      536,
      533,
      532,
      531,
      532,
      533,
      528,
      523,
      522,
      522,
      521,
      519,
      518,
      510,
      515,
      517,
      517,
      526,
      528,
      529,
      530,
      530,
      530,
      530,
      530,
      529,
      523,
      519,
      518,
      517,
      517,
      516,
      514,
      512,
      509,
      505,
      492,
      497,
      500,
      503,
      504,
      505,
      475,
      474,
      457,
      454,
      436,
      434,
      422,
      393,
      393,
      406,
      402,
      402,
      402,
      401,
      401,
      380,
      367,
      359,
      341,
      338,
      338,
      336,
      339,
      344,
      344,
      333,
      329,
      322,
      315,
      317,
      317,
      316,
      311,
      303,
      303,
      299,
      300,
      299,
      300,
      303,
      295,
      290,
      283,
      283,
      280,
      279,
      280,
      280,
      273,
      275,
      275,
      270,
      273,
      266,
      262,
      232,
      232,
      226,
      228,
      224,
      206,
      181,
      185,
      184,
      185,
      183,
      173,
      142,
      142,
      135,
      139
    ],
    "swim:timestamps": [
      1786571545,
      1786571605,
      1786571616,
      1786571677,
      1786571737,
      1786571797,
      1786571857,
      1786571917,
      1786571977,
      1786572037,
      1786572097,
      1786572157,
      1786572217,
      1786572277,
      1786572337,
      1786572398,
      1786572458,
      1786572513,
      1786572573,
      1786572633,
      1786572693,
      1786572753,
      1786572813,
      1786572873,
      1786572933,
      1786572993,
      1786573053,
      1786573059,
      1786573113,
      1786573119,
      1786573173,
      1786573179,
      1786573234,
      1786573294,
      1786573354,
      1786573414,
      1786573474,
      1786573534,
      1786573594,
      1786573654,
      1786573714,
      1786573780,
      1786573834,
      1786573840,
      1786573894,
      1786573900,
      1786573954,
      1786573960,
      1786574015,
      1786574075,
      1786574135,
      1786574195,
      1786574255,
      1786574315,
      1786574375,
      1786574435,
      1786574495,
      1786574555,
      1786574615,
      1786574675,
      1786574736,
      1786574796,
      1786574856,
      1786574916,
      1786574976,
      1786575036,
      1786575096,
      1786575156,
      1786575216,
      1786575276,
      1786575336,
      1786575396,
      1786575456,
      1786575517,
      1786575577,
      1786575637,
      1786575697,
      1786575757,
      1786575817,
      1786575877,
      1786575937,
      1786575997,
      1786576057,
      1786576117,
      1786576177,
      1786576238,
      1786576298,
      1786576430,
      1786576490,
      1786576550,
      1786576610,
      1786576670,
      1786576730,
      1786576790,
      1786576850,
      1786576910,
      1786576971,
      1786577031,
      1786577091,
      1786577151,
      1786577211,
      1786577271,
      1786577331,
      1786577391,
      1786577451,
      1786577511,
      1786577571,
      1786577631,
      1786577692,
      1786577752,
      1786577812,
      1786577872,
      1786577932,
      1786577992,
      1786578052,
      1786578112,
      1786578172,
      1786578232,
      1786578292,
      1786578352,
      1786578412,
      1786578473,
      1786578533,
      1786578593,
      1786578653,
      1786578713,
      1786578773,
      1786578833,
      1786578869,
      1786578893,
      1786578929,
      1786578953,
      1786578989,
      1786579013,
      1786579049,
      1786579073,
      1786579109,
      1786579133,
      1786579169,
      1786579194,
      1786579229,
      1786579254,
      1786579289,
      1786579314,
      1786579349,
      1786579374,
      1786579409,
      1786579434,
      1786579469,
      1786579494,
      1786579529,
      1786579554,
      1786579590,
      1786579614,
      1786579662,
      1786579674,
      1786579722,
      1786579782,
      1786579842,
      1786579902,
      1786579962,
      1786580022,
      1786580082,
      1786580142,
      1786580202,
      1786580262,
      1786580323,
      1786580383,
      1786580443,
      1786580503,
      1786580563,
      1786580623,
      1786580683,
      1786580743,
      1786580803,
      1786580863,
      1786580923,
      1786580983,
      1786581044,
      1786581104,
      1786581164,
      1786581224,
      1786581284,
      1786581344,
      1786581404,
      1786581464,
      1786581524,
      1786581584,
      1786581644,
      1786581704,
      1786581765,
      1786581825,
      1786581885,
      1786581945,
      1786582005,
      1786582065,
      1786582125,
      1786582185,
      1786582245,
      1786582305,
      1786582365,
      1786582425,
      1786582485,
      1786582546,
      1786582606,
      1786582666,
      1786582726,
      1786582786,
      1786582846,
      1786582906,
      1786582966,
      1786583026,
      1786583086,
      1786583146,
      1786583206,
      1786583267,
      1786583327,
      1786583387,
      1786583447,
      1786583507,
      1786583567,
      1786583627,
      1786583687,
      1786583747,
      1786583807,
      1786583867,
      1786583927,
      1786583988,
      1786584048,
      1786584108,
      1786584168,
      1786584228,
      1786584288,
      1786584348,
      1786584408,
      1786584468,
      1786584528,
      1786584588,
      1786584648,
      1786584709,
      1786584769,
      1786584829,
      1786584889,
      1786584949,
      1786585009,
      1786585069,
      1786585129,
      1786585189,
      1786586283,
      1786586343,
      1786586463,
      1786586523,
      1786586583,
      1786586643,
      1786586703,
      1786586763,
      1786586823,
      1786586873,
      1786586883,
      1786586943,
      1786587004,
      1786587064,
      1786587114,
      1786587124,
      1786587174,
      1786587184,
      1786587234,
      1786587244,
      1786587304,
      1786587354,
      1786587364,
      1786587414,
      1786587424,
      1786587484,
      1786587534,
      1786587544,
      1786587594,
      1786587604,
      1786587654,
      1786587714,
      1786587724,
      1786587775,
      1786587784,
      1786587844,
      1786587895,
      1786587905,
      1786587955,
      1786587965,
      1786588015,
      1786588025,
      1786588075,
      1786588135,
      1786588145,
      1786588175,
      1786588195,
      1786588205,
      1786588229,
      1786588255,
      1786588265,
      1786588289,
      1786588315,
      1786588325,
      1786588349,
      1786588375,
      1786588385,
      1786588409,
      1786588436,
      1786588457,
      1786588496,
      1786588529,
      1786588556,
      1786588577,
      1786588589,
      1786588616,
      1786588637,
      1786588676,
      1786588697,
      1786588710,
      1786588736,
      1786588758,
      1786588770,
      1786588796,
      1786588818,
      1786588830,
      1786588856,
      1786588878,
      1786588890,
      1786588916,
      1786588938,
      1786588950,
      1786588976,
      1786588998,
      1786589010,
      1786589036,
      1786589058,
      1786589070,
      1786589096,
      1786589130,
      1786589157,
      1786589190,
      1786589217,
      1786589250,
      1786589277,
      1786589310,
      1786589337,
      1786589370,
      1786589397,
      1786589430,
      1786589457,
      1786589490,
      1786589517,
      1786589550,
      1786589577,
      1786589610,
      1786589637
    ],
    "wof:geomhash": "4ae87467d47ded9938dd9a5453b2c5b4",
    "wof:id": 2047943609,
    "wof:repo": "sfomuseum-data-flights-2026-08"
  },
  "bbox": [
    -122.4,
    37.61666666666667,
    -73.5,
    48.18694444444444
  ],
  "geometry": {"type":"LineString","coordinates":[[-122.38333333333334,37.61666666666667],[-122.4,37.666666666666664],[-122.39972222222222,37.676944444444445],[-122.31388888888888,37.68888888888888],[-122.2225,37.71805555555556],[-122.15583333333333,37.78138888888889],[-122.09305555555555,37.85166666666667],[-122.0225,37.92972222222222],[-121.94250000000001,38.01777777777777],[-121.8611111111111,38.106944444444444],[-121.76638888888888,38.21083333333333],[-121.67861111111111,38.30138888888889],[-121.58527777777778,38.393055555555556],[-121.49055555555556,38.48722222222222],[-121.41194444444444,38.565],[-121.30833333333334,38.66722222222222],[-121.20583333333333,38.768055555555556],[-121.10388888888889,38.86222222222222],[-121.00138888888888,38.96416666666667],[-120.89416666666668,39.06777777777778],[-120.80777777777777,39.15083333333333],[-120.68,39.27916666666667],[-120.58833333333332,39.39277777777778],[-120.49694444444445,39.50861111111111],[-120.40416666666667,39.623333333333335],[-120.31277777777777,39.73833333333334],[-120.22,39.85444444444445],[-120.21611111111112,39.85944444444445],[-120.12555555555555,39.97083333333334],[-120.12249999999999,39.975],[-120.01611111111112,40.07833333333333],[-120.01527777777778,40.07916666666667],[-119.88111111111111,40.16722222222222],[-119.71916666666667,40.212500000000006],[-119.55027777777778,40.25138888888889],[-119.38472222222222,40.28861111111111],[-119.21472222222222,40.32694444444445],[-119.04638888888888,40.36472222222223],[-118.87444444444444,40.403055555555554],[-118.70416666666667,40.44083333333333],[-118.53305555555555,40.47833333333333],[-118.35833333333333,40.51638888888889],[-118.18361111111112,40.553888888888885],[-118.18194444444445,40.55444444444444],[-118.00972222222222,40.59111111111111],[-118.00805555555556,40.59138888888889],[-117.83611111111111,40.628055555555555],[-117.83138888888888,40.62916666666667],[-117.66000000000001,40.665277777777774],[-117.48277777777778,40.702222222222225],[-117.30694444444444,40.73888888888889],[-117.12833333333333,40.775555555555556],[-116.9475,40.81222222222222],[-116.76666666666667,40.848888888888894],[-116.6211111111111,40.878055555555555],[-116.44083333333333,40.91361111111111],[-116.26277777777777,40.94888888888889],[-116.08527777777778,40.983333333333334],[-115.92583333333334,41.055],[-115.79333333333334,41.15222222222222],[-115.65972222222223,41.249722222222225],[-115.52305555555556,41.349444444444444],[-115.38861111111112,41.44694444444444],[-115.25333333333333,41.544999999999995],[-115.11583333333333,41.64416666666666],[-114.97916666666667,41.74138888888889],[-114.84194444444444,41.83916666666667],[-114.70444444444445,41.93611111111111],[-114.5375,42.053888888888885],[-114.41583333333334,42.13972222222222],[-114.27666666666667,42.236666666666665],[-114.13722222222223,42.33305555555556],[-113.9975,42.43055555555555],[-113.85722222222222,42.526944444444446],[-113.71666666666667,42.623333333333335],[-113.55805555555555,42.73111111111111],[-113.41583333333334,42.8275],[-113.2725,42.924166666666665],[-113.13083333333333,43.01916666666666],[-112.98916666666666,43.11388888888889],[-112.84416666666667,43.21027777777778],[-112.70138888888889,43.30472222222222],[-112.55833333333334,43.39888888888889],[-112.41222222222223,43.494166666666665],[-112.2675,43.58833333333334],[-112.12333333333332,43.68222222222222],[-111.97694444444444,43.77638888888889],[-111.65277777777779,43.98388888888889],[-111.50444444444445,44.0775],[-111.35583333333332,44.17111111111111],[-111.19555555555556,44.25416666666667],[-111.01722222222222,44.31166666666666],[-110.83527777777778,44.37],[-110.655,44.42805555555555],[-110.4738888888889,44.486111111111114],[-110.29083333333332,44.54388888888889],[-110.10638888888889,44.60305555555556],[-109.91861111111112,44.66361111111111],[-109.71777777777778,44.728611111111114],[-109.53888888888889,44.795833333333334],[-109.37388888888889,44.88444444444444],[-109.21083333333334,44.97138888888889],[-109.045,45.059444444444445],[-108.88138888888888,45.14555555555555],[-108.71361111111112,45.23305555555556],[-108.54444444444444,45.32083333333334],[-108.37722222222222,45.40694444444444],[-108.20916666666668,45.49305555555556],[-108.07166666666666,45.56333333333333],[-107.90444444444445,45.64833333333333],[-107.73388888888888,45.73444444444444],[-107.56527777777778,45.81888888888889],[-107.39333333333335,45.90472222222222],[-107.22305555555556,45.98916666666667],[-107.04944444444445,46.074444444444445],[-106.87777777777777,46.15861111111111],[-106.70694444444445,46.24166666666667],[-106.53222222222222,46.32611111111112],[-106.36027777777777,46.40888888888889],[-106.18722222222223,46.49138888888889],[-106.0125,46.574444444444445],[-105.83749999999999,46.65694444444444],[-105.66166666666668,46.739444444444445],[-105.47916666666667,46.824444444444445],[-105.29555555555555,46.909166666666664],[-105.11333333333333,46.99277777777778],[-104.93305555555555,47.075],[-104.74694444444445,47.14972222222222],[-104.62555555555555,47.18416666666666],[-104.54527777777777,47.20638888888889],[-104.4263888888889,47.239444444444445],[-104.34222222222222,47.2625],[-104.22916666666667,47.29361111111111],[-104.1413888888889,47.31777777777778],[-104.06638888888888,47.33833333333334],[-103.9413888888889,47.3725],[-103.82972222222222,47.40277777777778],[-103.74361111111111,47.42583333333333],[-103.62638888888888,47.4575],[-103.50638888888889,47.48972222222222],[-103.42444444444445,47.51166666666666],[-103.30916666666667,47.54194444444444],[-103.22583333333334,47.56388888888888],[-103.10666666666665,47.595555555555556],[-103.02333333333333,47.617222222222225],[-102.90916666666668,47.64694444444444],[-102.82166666666666,47.669444444444444],[-102.70694444444445,47.69888888888889],[-102.61583333333333,47.72222222222222],[-102.49888888888889,47.75222222222222],[-102.41083333333334,47.77472222222222],[-102.2961111111111,47.803888888888885],[-102.16388888888889,47.837500000000006],[-102.08749999999999,47.856944444444444],[-101.95694444444445,47.88944444444444],[-101.88,47.90861111111111],[-101.7038888888889,47.952222222222225],[-101.495,48.00361111111111],[-101.28333333333333,48.055],[-101.07222222222222,48.10611111111111],[-100.86861111111111,48.15277777777778],[-100.64472222222223,48.16777777777777],[-100.41833333333334,48.17194444444444],[-100.19111111111111,48.17527777777777],[-99.96444444444445,48.17833333333333],[-99.73722222222223,48.18083333333333],[-99.50944444444444,48.18277777777777],[-99.27916666666667,48.18472222222222],[-99.04861111111111,48.18611111111111],[-98.82138888888889,48.18666666666666],[-98.59055555555555,48.18694444444444],[-98.36361111111111,48.18694444444444],[-98.13194444444444,48.186388888888885],[-97.90055555555556,48.18555555555555],[-97.67055555555557,48.183611111111105],[-97.48194444444445,48.18222222222222],[-97.20277777777778,48.17916666666667],[-96.96916666666667,48.17583333333333],[-96.7388888888889,48.1725],[-96.50083333333333,48.16861111111111],[-96.26472222222222,48.16444444444444],[-96.02583333333334,48.159444444444446],[-95.78527777777778,48.15416666666667],[-95.5436111111111,48.14805555555556],[-95.34555555555555,48.1425],[-95.10527777777777,48.135555555555555],[-94.86305555555555,48.12777777777778],[-94.62416666666665,48.12],[-94.38194444444444,48.11138888888889],[-94.14416666666668,48.102222222222224],[-93.90333333333334,48.09277777777778],[-93.66527777777779,48.08277777777778],[-93.47194444444445,48.075],[-93.18388888888889,48.06194444444444],[-92.93972222222223,48.05],[-92.70055555555555,48.03777777777778],[-92.4563888888889,48.025],[-92.21805555555555,48.0125],[-91.97583333333334,47.995],[-91.73777777777778,47.95416666666667],[-91.50444444444445,47.91277777777778],[-91.26861111111111,47.87027777777778],[-91.0363888888889,47.82833333333333],[-90.80166666666666,47.785],[-90.56944444444444,47.74111111111111],[-90.33722222222222,47.697222222222216],[-90.10527777777777,47.65277777777778],[-89.86999999999999,47.60777777777778],[-89.63916666666667,47.56194444444444],[-89.4075,47.51611111111111],[-89.17222222222223,47.469166666666666],[-88.94027777777778,47.42194444444444],[-88.685,47.369166666666665],[-88.45527777777778,47.32138888888889],[-88.2275,47.27305555555555],[-88.00111111111111,47.224722222222226],[-87.77833333333334,47.17722222222222],[-87.55777777777777,47.129444444444445],[-87.33527777777778,47.08027777777778],[-87.11638888888888,47.031666666666666],[-86.89694444444446,46.98222222222223],[-86.68111111111112,46.933055555555555],[-86.46222222222222,46.8825],[-86.24583333333334,46.831944444444446],[-86.02777777777777,46.780833333333334],[-85.81333333333333,46.730000000000004],[-85.59861111111111,46.678888888888885],[-85.38138888888888,46.626666666666665],[-85.16805555555555,46.574444444444445],[-84.95555555555556,46.52222222222222],[-84.74583333333334,46.47],[-84.53611111111111,46.4175],[-84.33055555555555,46.36527777777778],[-84.11972222222222,46.31111111111111],[-83.91472222222222,46.25861111111111],[-83.7063888888889,46.20472222222222],[-83.49972222222222,46.15],[-83.29833333333333,46.09638888888889],[-83.09138888888889,46.04083333333333],[-82.8913888888889,45.98722222222222],[-82.6888888888889,45.9325],[-82.49277777777777,45.87916666666667],[-82.29638888888888,45.824444444444445],[-82.10027777777778,45.76972222222222],[-81.9038888888889,45.71472222222223],[-81.7088888888889,45.659444444444446],[-81.51472222222222,45.60388888888889],[-81.35805555555555,45.558611111111105],[-77.97361111111111,44.308055555555555],[-77.80194444444444,44.22972222222222],[-77.46222222222222,44.075833333333335],[-77.29166666666667,43.99722222222222],[-77.12388888888889,43.91972222222222],[-76.94388888888889,43.836666666666666],[-76.7775,43.75944444444445],[-76.63305555555554,43.666666666666664],[-76.49583333333334,43.56333333333333],[-76.39222222222223,43.485],[-76.35888888888888,43.45944444444445],[-76.2075,43.365833333333335],[-76.04027777777777,43.2825],[-75.87638888888888,43.20138888888889],[-75.74361111111111,43.135555555555555],[-75.70972222222223,43.11888888888889],[-75.57888888888888,43.05416666666667],[-75.54472222222222,43.036944444444444],[-75.41305555555556,42.97138888888889],[-75.38027777777778,42.95527777777778],[-75.23666666666666,42.86083333333333],[-75.13444444444445,42.76611111111111],[-75.11611111111111,42.74888888888889],[-75.01388888888889,42.654444444444444],[-74.99583333333334,42.6375],[-74.8736111111111,42.524166666666666],[-74.77305555555556,42.43],[-74.75527777777778,42.41305555555555],[-74.6563888888889,42.32],[-74.63861111111112,42.30333333333333],[-74.54305555555555,42.21222222222222],[-74.43027777777779,42.10472222222222],[-74.41166666666668,42.08694444444445],[-74.31583333333333,41.995555555555555],[-74.29166666666667,41.972500000000004],[-74.17777777777778,41.86027777777778],[-74.14277777777778,41.75805555555556],[-74.14111111111112,41.74472222222222],[-74.12527777777777,41.632222222222225],[-74.12333333333332,41.61944444444445],[-74.10777777777777,41.499722222222225],[-74.10499999999999,41.47916666666667],[-74.0925,41.38333333333333],[-74.14694444444446,41.281666666666666],[-74.15222222222222,41.26361111111111],[-74.15,41.2],[-74.14583333333334,41.17111111111111],[-74.1438888888889,41.150555555555556],[-74.13333333333334,41.1],[-74.13555555555556,41.06055555555555],[-74.13361111111112,41.040277777777774],[-74.13333333333334,41],[-74.12527777777777,40.95416666666667],[-74.1236111111111,40.93611111111111],[-74.11666666666666,40.9],[-74.09444444444443,40.863055555555555],[-74.08694444444444,40.846944444444446],[-74.06666666666666,40.81666666666667],[-74.05388888888889,40.776666666666664],[-74.03666666666666,40.74027777777778],[-74.01277777777777,40.686388888888885],[-73.98333333333333,40.63333333333333],[-73.97361111111111,40.591944444444444],[-73.96194444444444,40.56388888888888],[-73.95,40.55],[-73.93916666666667,40.510555555555555],[-73.92694444444444,40.481388888888894],[-73.90444444444445,40.427499999999995],[-73.89333333333335,40.39944444444444],[-73.88333333333334,40.38333333333333],[-73.87222222222222,40.346944444444446],[-73.86166666666666,40.32027777777778],[-73.85,40.3],[-73.81333333333333,40.283055555555556],[-73.77666666666667,40.28138888888889],[-73.75,40.28333333333333],[-73.71083333333334,40.30472222222222],[-73.69027777777778,40.32361111111111],[-73.66666666666667,40.333333333333336],[-73.64527777777778,40.36472222222223],[-73.62416666666665,40.384166666666665],[-73.6,40.4],[-73.58138888888888,40.425555555555555],[-73.56611111111111,40.447222222222216],[-73.55,40.46666666666667],[-73.54666666666667,40.49583333333334],[-73.5411111111111,40.52027777777778],[-73.53333333333333,40.53333333333333],[-73.53111111111112,40.56805555555556],[-73.51666666666667,40.61666666666667],[-73.51555555555555,40.641666666666666],[-73.5,40.68333333333333],[-73.50583333333333,40.705555555555556],[-73.51666666666667,40.733333333333334],[-73.53388888888888,40.76416666666667],[-73.55,40.8],[-73.57166666666666,40.81444444444444],[-73.61666666666666,40.81666666666667],[-73.6261111111111,40.80888888888889],[-73.65,40.78333333333333],[-73.6613888888889,40.764722222222225],[-73.68333333333334,40.733333333333334],[-73.69638888888889,40.72],[-73.71666666666667,40.7],[-73.72166666666666,40.687777777777775],[-73.73333333333333,40.666666666666664],[-73.7475,40.65472222222222]]}
}
