{
  "id": 2047879933,
  "type": "Feature",
  "properties": {
    "geom:area": 0,
    "geom:bbox": "-122.404370,37.625860,-121.245700,38.426460",
    "geom:latitude": 38.02114449210848,
    "geom:longitude": -121.8289347219244,
    "src:alt_label": "swim-takeoff",
    "src:geom": "swim",
    "swim:elevations": [
      244,
      361,
      1214,
      1511,
      2363,
      2666,
      2908,
      3121,
      3282,
      3648,
      5000,
      5242,
      5551,
      6169,
      6646,
      6910
    ],
    "swim:geom": "takeoff",
    "swim:timestamps": [
      1786111636,
      1786111650,
      1786111737,
      1786111780,
      1786111852,
      1786111876,
      1786111897,
      1786111925,
      1786111962,
      1786112021,
      1786112166,
      1786112197,
      1786112227,
      1786112300,
      1786112348,
      1786112381
    ],
    "wof:geomhash": "7afb7743cf52ef8e30c93c2d7760893b",
    "wof:id": 2047879933,
    "wof:repo": "sfomuseum-data-flights-2026-08"
  },
  "bbox": [
    -122.40437,
    37.62586,
    -121.2457,
    38.42646
  ],
  "geometry": {"type":"LineString","coordinates":[[-122.39258,37.62586],[-122.40437,37.6325],[-122.34256,37.67884],[-122.28235,37.69677],[-122.19061,37.7556],[-122.1605,37.77766],[-122.13372,37.7973],[-122.09726,37.824],[-122.04436,37.86282],[-121.94561,37.93493],[-121.68341,38.12546],[-121.62362,38.16842],[-121.56525,38.21087],[-121.42021,38.31506],[-121.31838,38.38118],[-121.2457,38.42646]]}
}
