{
  "id": 2047974887,
  "type": "Feature",
  "properties": {
    "geom:area": 0,
    "geom:bbox": "-122.648830,36.734310,-121.382740,37.668740",
    "geom:latitude": 37.1981555518864,
    "geom:longitude": -122.13122344735841,
    "src:alt_label": "swim-takeoff",
    "src:geom": "swim",
    "swim:elevations": [
      277,
      591,
      968,
      1049,
      1233,
      1648,
      2328,
      2345,
      2656,
      3070,
      3252,
      3521,
      3566,
      3776,
      3831,
      3875,
      4313,
      4520,
      4799,
      4904,
      5032,
      5333,
      5460,
      5557,
      5837,
      6035,
      6226,
      6490,
      6708,
      6984,
      7092,
      7176,
      7377,
      7683,
      7753,
      7918,
      8098,
      8237
    ],
    "swim:geom": "takeoff",
    "swim:timestamps": [
      1786752958,
      1786752979,
      1786753016,
      1786753037,
      1786753055,
      1786753085,
      1786753138,
      1786753141,
      1786753168,
      1786753198,
      1786753213,
      1786753243,
      1786753264,
      1786753303,
      1786753315,
      1786753324,
      1786753367,
      1786753396,
      1786753429,
      1786753461,
      1786753482,
      1786753520,
      1786753540,
      1786753549,
      1786753584,
      1786753611,
      1786753623,
      1786753650,
      1786753681,
      1786753722,
      1786753737,
      1786753749,
      1786753783,
      1786753826,
      1786753838,
      1786753864,
      1786753901,
      1786753932
    ],
    "wof:geomhash": "526f777c8478ae3a5029e56663dfdd18",
    "wof:id": 2047974887,
    "wof:repo": "sfomuseum-data-flights-2026-08"
  },
  "bbox": [
    -122.64883,
    36.73431,
    -121.38274,
    37.66874
  ],
  "geometry": {"type":"LineString","coordinates":[[-122.40513,37.63168],[-122.4252,37.64046],[-122.46061,37.65567],[-122.48385,37.66489],[-122.50812,37.66874],[-122.54801,37.65611],[-122.61506,37.62846],[-122.61801,37.62584],[-122.63295,37.59528],[-122.64369,37.56052],[-122.64883,37.54219],[-122.63319,37.5069],[-122.61712,37.48143],[-122.58243,37.43028],[-122.57046,37.41316],[-122.56132,37.40034],[-122.498,37.35121],[-122.4463,37.32225],[-122.38549,37.28874],[-122.32595,37.25574],[-122.28568,37.23361],[-122.21252,37.19356],[-122.17356,37.17224],[-122.15553,37.16237],[-122.08679,37.12473],[-122.03318,37.09523],[-122.00937,37.08217],[-121.95706,37.05339],[-121.89727,37.02023],[-121.8147,36.9744],[-121.78453,36.95772],[-121.76043,36.9443],[-121.69266,36.90661],[-121.60416,36.85719],[-121.57947,36.84464],[-121.52455,36.81304],[-121.44798,36.77004],[-121.38274,36.73431]]}
}
