{
  "id": 2047954091,
  "type": "Feature",
  "properties": {
    "geom:area": 0,
    "geom:bbox": "-122.409990,37.624690,-121.300410,37.950090",
    "geom:latitude": 37.81297254391411,
    "geom:longitude": -121.87673206205034,
    "src:alt_label": "swim-takeoff",
    "src:geom": "swim",
    "swim:elevations": [
      122,
      600,
      758,
      1037,
      1110,
      1223,
      1389,
      1675,
      2018,
      2354,
      2890,
      3291,
      3451,
      3722,
      3864,
      4052,
      4209,
      4722,
      4854,
      5331,
      5698,
      5914,
      6282,
      6463,
      6647,
      6763
    ],
    "swim:geom": "takeoff",
    "swim:timestamps": [
      1786615705,
      1786615735,
      1786615747,
      1786615779,
      1786615789,
      1786615807,
      1786615831,
      1786615857,
      1786615875,
      1786615896,
      1786615936,
      1786615970,
      1786615991,
      1786616034,
      1786616055,
      1786616075,
      1786616089,
      1786616127,
      1786616138,
      1786616179,
      1786616209,
      1786616228,
      1786616270,
      1786616285,
      1786616308,
      1786616324
    ],
    "wof:geomhash": "98472c3a1d396244298cc35fc82372d8",
    "wof:id": 2047954091,
    "wof:repo": "sfomuseum-data-flights-2026-08"
  },
  "bbox": [
    -122.40999,
    37.62469,
    -121.30041,
    37.95009
  ],
  "geometry": {"type":"LineString","coordinates":[[-122.38928,37.62469],[-122.40999,37.64241],[-122.40786,37.65224],[-122.37947,37.66453],[-122.36846,37.66703],[-122.34646,37.67268],[-122.31456,37.68293],[-122.2763,37.69723],[-122.24806,37.7068],[-122.21627,37.71787],[-122.15853,37.74675],[-122.10715,37.77236],[-122.06911,37.78343],[-121.98238,37.80103],[-121.93884,37.81036],[-121.89273,37.82118],[-121.86103,37.82799],[-121.77319,37.84683],[-121.74918,37.85224],[-121.65311,37.87384],[-121.58107,37.88958],[-121.53804,37.89901],[-121.43501,37.92123],[-121.39866,37.92909],[-121.34114,37.94142],[-121.30041,37.95009]]}
}
