{
  "id": 2032116739,
  "type": "Feature",
  "properties": {
    "geom:area": 0,
    "geom:bbox": "-122.064260,36.754940,-121.897000,37.237160",
    "geom:latitude": 36.9978618506239,
    "geom:longitude": -121.9752696584886,
    "src:alt_label": "swim-approach",
    "src:geom": "swim",
    "swim:elevations": [
      5121,
      4942,
      4672,
      4413,
      4257,
      4044,
      4016,
      3666,
      3482,
      3320,
      2715,
      2590
    ],
    "swim:geom": "approach",
    "swim:timestamps": [
      1785944127,
      1785944148,
      1785944179,
      1785944213,
      1785944228,
      1785944248,
      1785944253,
      1785944296,
      1785944321,
      1785944346,
      1785944426,
      1785944456
    ],
    "wof:geomhash": "80bbba4009cf74adeb153dcccd782d6b",
    "wof:id": 2032116739,
    "wof:repo": "sfomuseum-data-flights-2026-08"
  },
  "bbox": [
    -122.06426,
    36.75494,
    -121.897,
    37.23716
  ],
  "geometry": {"type":"LineString","coordinates":[[-121.897,36.75494],[-121.90649,36.7869],[-121.92056,36.83519],[-121.93522,36.88727],[-121.94181,36.91078],[-121.9501,36.94158],[-121.95214,36.94903],[-121.97603,37.01184],[-121.99064,37.04898],[-122.00457,37.08455],[-122.04858,37.19622],[-122.06426,37.23716]]}
}
