{
  "id": 2032119983,
  "type": "Feature",
  "properties": {
    "geom:area": 0,
    "geom:bbox": "-122.404170,37.625640,-121.268410,37.991380",
    "geom:latitude": 37.93427906661964,
    "geom:longitude": -121.95309480388114,
    "src:alt_label": "swim-takeoff",
    "src:geom": "swim",
    "swim:elevations": [
      183,
      529,
      625,
      766,
      959,
      1379,
      1577,
      1898,
      2119,
      2291,
      2682,
      3205,
      3324,
      3410,
      3886,
      4157,
      4193,
      4437,
      4560,
      4780,
      5192,
      5310,
      5538,
      5703,
      5960,
      6045,
      6216
    ],
    "swim:geom": "takeoff",
    "swim:timestamps": [
      1785976670,
      1785976708,
      1785976731,
      1785976768,
      1785976787,
      1785976829,
      1785976853,
      1785976883,
      1785976910,
      1785976927,
      1785976971,
      1785977036,
      1785977064,
      1785977085,
      1785977155,
      1785977188,
      1785977191,
      1785977215,
      1785977233,
      1785977268,
      1785977307,
      1785977324,
      1785977360,
      1785977384,
      1785977425,
      1785977438,
      1785977465
    ],
    "wof:geomhash": "9f885667cfc81f79db5bcfd8df42fe8a",
    "wof:id": 2032119983,
    "wof:repo": "sfomuseum-data-flights-2026-08"
  },
  "bbox": [
    -122.40417,
    37.62564,
    -121.26841,
    37.99138
  ],
  "geometry": {"type":"LineString","coordinates":[[-122.39136,37.62564],[-122.40417,37.65136],[-122.39016,37.66853],[-122.35831,37.70185],[-122.34112,37.72058],[-122.34411,37.77136],[-122.36099,37.79997],[-122.38326,37.83622],[-122.38673,37.87394],[-122.38495,37.89748],[-122.34735,37.94771],[-122.23586,37.97024],[-122.182,37.98116],[-122.14091,37.98803],[-121.98698,37.98909],[-121.91327,37.98965],[-121.9065,37.98967],[-121.85267,37.99],[-121.81202,37.99023],[-121.73162,37.99068],[-121.6423,37.9909],[-121.60507,37.99095],[-121.52095,37.99109],[-121.46354,37.99117],[-121.36643,37.99138],[-121.33317,37.99134],[-121.26841,37.99124]]}
}
