{
  "id": 2032088217,
  "type": "Feature",
  "properties": {
    "geom:area": 0,
    "geom:bbox": "-122.331944,37.492500,-74.090000,41.548333",
    "geom:latitude": 39.92891714075417,
    "geom:longitude": -98.18739737941327,
    "src:alt_label": "swim-path",
    "src:geom": "swim",
    "swim:altitudes": [
      "020",
      "024",
      "031",
      "036",
      "059",
      "097",
      "113",
      "135",
      "158",
      "180",
      "203",
      "221",
      "236",
      "254",
      "285",
      "298",
      "317",
      "319C",
      "320C",
      "320C",
      "320C",
      "320C",
      "320",
      "332",
      "340C",
      "340C",
      "340C",
      "340C",
      "340C",
      "340C",
      "340C",
      "340C",
      "340C",
      "340C",
      "340C",
      "340C",
      "340C",
      "340C",
      "340C",
      "340C",
      "339",
      "320C",
      "320C",
      "320C",
      "320C",
      "320C",
      "320C",
      "320C",
      "320C",
      "320C",
      "320C",
      "320C",
      "320C",
      "320C",
      "320C",
      "320C",
      "320C",
      "320C",
      "320C",
      "320C",
      "320C",
      "320C",
      "320C",
      "320C",
      "320C",
      "320C",
      "320C",
      "320C",
      "320C",
      "320C",
      "320C",
      "320C",
      "320C",
      "320C",
      "320C",
      "320C",
      "320C",
      "320C",
      "320C",
      "320C",
      "320C",
      "320C",
      "320C",
      "320C",
      "320C",
      "320C",
      "320C",
      "320C",
      "320C",
      "320C",
      "320C",
      "320C",
      "320C",
      "320C",
      "320C",
      "320C",
      "320C",
      "320C",
      "320C",
      "320C",
      "320C",
      "320C",
      "320C",
      "320C",
      "320C",
      "320C",
      "320C",
      "320C",
      "320C",
      "320C",
      "320C",
      "320C",
      "320C",
      "320C",
      "320C",
      "320C",
      "320C",
      "320C",
      "320C",
      "320C",
      "320C",
      "320C",
      "320C",
      "320C",
      "320C",
      "320C",
      "320C",
      "320C",
      "320C",
      "320C",
      "320C",
      "320C",
      "320C",
      "320C",
      "320C",
      "320C",
      "320C",
      "320C",
      "320C",
      "320C",
      "320C",
      "320C",
      "320C",
      "320C",
      "320C",
      "320C",
      "320C",
      "320C",
      "320C",
      "320C",
      "320C",
      "320C",
      "320C",
      "320C",
      "320C",
      "320C",
      "320C",
      "320C",
      "320C",
      "320C",
      "320C",
      "320C",
      "320C",
      "320C",
      "320C",
      "320C",
      "320C",
      "320C",
      "320C",
      "320C",
      "320C",
      "320C",
      "320C",
      "320C",
      "320C",
      "320C",
      "320C",
      "320C",
      "320C",
      "320C",
      "320C",
      "320C",
      "320C",
      "320C",
      "320",
      "321",
      "333",
      "336",
      "340",
      "340",
      "340",
      "340",
      "340",
      "340",
      "340",
      "340",
      "340",
      "340",
      "340",
      "340",
      "340",
      "340",
      "340",
      "340",
      "340",
      "340",
      "340",
      "340",
      "340",
      "340",
      "340",
      "340",
      "340",
      "340",
      "340",
      "340",
      "340",
      "340",
      "340",
      "340",
      "340",
      "341",
      "350",
      "350",
      "350",
      "350",
      "353",
      "360C",
      "360C",
      "360C",
      "360C",
      "360C",
      "360C",
      "360C",
      "360C",
      "360C",
      "360C",
      "360C",
      "360C",
      "360C",
      "360C",
      "360C",
      "360C",
      "360C",
      "360C",
      "360C",
      "360C",
      "360C",
      "360C",
      "360C",
      "360C",
      "360C",
      "360C",
      "360C",
      "360C",
      "360C",
      "360C",
      "360C",
      "360C",
      "360C",
      "360C",
      "360C",
      "360C",
      "360C",
      "360C",
      "360C",
      "360C",
      "360C",
      "360C",
      "360C",
      "360C",
      "360C",
      "360C",
      "360C",
      "360C",
      "360C",
      "360C",
      "360C",
      "360C",
      "360C",
      "360C",
      "360C",
      "360C",
      "360C",
      "360C",
      "360C",
      "360C",
      "360C",
      "360C",
      "360C",
      "360C",
      "360C",
      "360C",
      "360C",
      "360C",
      "360C",
      "360C",
      "360C",
      "360C",
      "360C",
      "360C",
      "360C",
      "360C",
      "360C",
      "360C",
      "360C",
      "360C",
      "360C",
      "360C",
      "360C",
      "360C",
      "360C",
      "360C",
      "360C",
      "360C",
      "360C",
      "360C",
      "360C",
      "360C",
      "360C",
      "360C",
      "360C",
      "360C",
      "360C",
      "360C",
      "360C",
      "360C",
      "360C",
      "360C",
      "360C",
      "360C",
      "360C",
      "360C",
      "360C",
      "360C",
      "360C",
      "360C",
      "360C",
      "360C",
      "360C",
      "360C",
      "360C",
      "360C",
      "360C",
      "360C",
      "360C",
      "360C",
      "360C",
      "360C",
      "360C",
      "360C",
      "360C",
      "360C",
      "360C",
      "360C",
      "360C",
      "360C",
      "360C",
      "360",
      "342",
      "330",
      "320C",
      "320C",
      "320",
      "320",
      "274",
      "271",
      "249",
      "229",
      "227",
      "213",
      "212",
      "192",
      "172",
      "153",
      "152",
      "133",
      "118",
      "115",
      "102",
      "090",
      "081",
      "080",
      "072",
      "070",
      "060",
      "059",
      "047",
      "043",
      "031",
      "022",
      "014",
      "012",
      "007",
      "005"
    ],
    "swim:geom": "path",
    "swim:speeds": [
      203,
      229,
      253,
      246,
      251,
      259,
      306,
      337,
      345,
      353,
      363,
      372,
      380,
      386,
      395,
      397,
      394,
      398,
      390,
      386,
      405,
      410,
      413,
      410,
      404,
      406,
      409,
      412,
      415,
      415,
      416,
      418,
      419,
      423,
      425,
      439,
      439,
      442,
      442,
      444,
      446,
      442,
      440,
      440,
      455,
      459,
      461,
      461,
      461,
      462,
      463,
      464,
      465,
      465,
      466,
      468,
      469,
      471,
      477,
      474,
      472,
      468,
      467,
      467,
      467,
      469,
      470,
      472,
      472,
      474,
      474,
      477,
      478,
      479,
      479,
      478,
      478,
      477,
      477,
      476,
      475,
      474,
      472,
      471,
      470,
      470,
      470,
      471,
      472,
      473,
      474,
      475,
      475,
      475,
      475,
      471,
      473,
      471,
      472,
      471,
      471,
      471,
      467,
      468,
      463,
      461,
      460,
      459,
      459,
      457,
      459,
      458,
      456,
      458,
      456,
      457,
      456,
      457,
      457,
      463,
      459,
      462,
      459,
      461,
      460,
      461,
      460,
      461,
      460,
      460,
      459,
      459,
      458,
      458,
      458,
      458,
      458,
      458,
      458,
      458,
      458,
      459,
      459,
      459,
      460,
      460,
      460,
      460,
      460,
      460,
      460,
      460,
      461,
      461,
      460,
      459,
      458,
      458,
      458,
      457,
      457,
      456,
      451,
      455,
      458,
      455,
      457,
      455,
      457,
      455,
      456,
      456,
      455,
      455,
      454,
      455,
      454,
      454,
      454,
      454,
      454,
      454,
      454,
      454,
      453,
      453,
      452,
      452,
      451,
      451,
      451,
      449,
      448,
      446,
      443,
      443,
      444,
      446,
      446,
      448,
      449,
      449,
      450,
      451,
      453,
      456,
      457,
      456,
      454,
      451,
      450,
      447,
      445,
      445,
      445,
      444,
      443,
      443,
      444,
      446,
      446,
      445,
      438,
      436,
      436,
      435,
      436,
      435,
      436,
      441,
      440,
      438,
      434,
      438,
      428,
      434,
      427,
      429,
      426,
      424,
      426,
      425,
      427,
      430,
      428,
      433,
      432,
      436,
      434,
      437,
      435,
      439,
      441,
      437,
      441,
      441,
      440,
      441,
      438,
      440,
      437,
      440,
      435,
      433,
      436,
      433,
      435,
      432,
      434,
      431,
      433,
      431,
      432,
      432,
      433,
      433,
      434,
      434,
      433,
      433,
      432,
      432,
      432,
      432,
      432,
      432,
      433,
      433,
      434,
      434,
      433,
      433,
      431,
      431,
      430,
      430,
      431,
      431,
      429,
      430,
      431,
      432,
      432,
      433,
      433,
      434,
      434,
      435,
      435,
      435,
      435,
      435,
      437,
      439,
      441,
      443,
      443,
      443,
      442,
      441,
      442,
      440,
      441,
      441,
      438,
      438,
      440,
      439,
      440,
      439,
      440,
      439,
      439,
      438,
      438,
      438,
      438,
      437,
      438,
      437,
      437,
      437,
      436,
      437,
      437,
      437,
      438,
      438,
      439,
      438,
      439,
      439,
      439,
      440,
      440,
      440,
      440,
      440,
      439,
      440,
      444,
      451,
      452,
      453,
      454,
      430,
      430,
      420,
      409,
      412,
      387,
      391,
      383,
      368,
      358,
      362,
      352,
      342,
      343,
      335,
      294,
      272,
      268,
      267,
      263,
      261,
      241,
      202,
      206,
      195,
      186,
      143,
      143,
      146,
      142
    ],
    "swim:timestamps": [
      1785795398,
      1785795410,
      1785795458,
      1785795470,
      1785795518,
      1785795638,
      1785795698,
      1785795758,
      1785795819,
      1785795879,
      1785795939,
      1785795999,
      1785796059,
      1785796119,
      1785796239,
      1785796299,
      1785796359,
      1785796365,
      1785796425,
      1785796480,
      1785796540,
      1785796600,
      1785796660,
      1785796720,
      1785796840,
      1785796900,
      1785796966,
      1785797020,
      1785797080,
      1785797086,
      1785797141,
      1785797201,
      1785797261,
      1785797321,
      1785797381,
      1785797561,
      1785797567,
      1785797621,
      1785797627,
      1785797687,
      1785797747,
      1785797867,
      1785797927,
      1785797987,
      1785798047,
      1785798107,
      1785798228,
      1785798348,
      1785798408,
      1785798468,
      1785798588,
      1785798648,
      1785798708,
      1785798768,
      1785798829,
      1785798949,
      1785799069,
      1785799124,
      1785799184,
      1785799245,
      1785799305,
      1785799369,
      1785799485,
      1785799545,
      1785799605,
      1785799665,
      1785799725,
      1785799785,
      1785799850,
      1785799906,
      1785799970,
      1785800026,
      1785800086,
      1785800146,
      1785800206,
      1785800266,
      1785800326,
      1785800386,
      1785800447,
      1785800507,
      1785800567,
      1785800627,
      1785800687,
      1785800747,
      1785800808,
      1785800868,
      1785800928,
      1785800988,
      1785801048,
      1785801108,
      1785801168,
      1785801228,
      1785801288,
      1785801348,
      1785801409,
      1785801442,
      1785801469,
      1785801502,
      1785801529,
      1785801562,
      1785801589,
      1785801622,
      1785801649,
      1785801683,
      1785801709,
      1785801769,
      1785801803,
      1785801829,
      1785801863,
      1785801889,
      1785801923,
      1785801983,
      1785802010,
      1785802043,
      1785802070,
      1785802103,
      1785802130,
      1785802163,
      1785802190,
      1785802223,
      1785802250,
      1785802283,
      1785802310,
      1785802343,
      1785802370,
      1785802404,
      1785802430,
      1785802464,
      1785802490,
      1785802550,
      1785802610,
      1785802671,
      1785802704,
      1785802731,
      1785802764,
      1785802791,
      1785802824,
      1785802851,
      1785802884,
      1785802911,
      1785802944,
      1785802971,
      1785803004,
      1785803031,
      1785803064,
      1785803091,
      1785803185,
      1785803245,
      1785803305,
      1785803485,
      1785803545,
      1785803605,
      1785803665,
      1785803725,
      1785803785,
      1785803846,
      1785803906,
      1785803966,
      1785804026,
      1785804086,
      1785804146,
      1785804206,
      1785804240,
      1785804266,
      1785804300,
      1785804326,
      1785804360,
      1785804386,
      1785804420,
      1785804446,
      1785804480,
      1785804541,
      1785804567,
      1785804601,
      1785804627,
      1785804661,
      1785804687,
      1785804747,
      1785804781,
      1785804807,
      1785804853,
      1785804867,
      1785804913,
      1785804927,
      1785804973,
      1785804987,
      1785805033,
      1785805047,
      1785805107,
      1785805153,
      1785805167,
      1785805213,
      1785805227,
      1785805274,
      1785805394,
      1785805454,
      1785805514,
      1785805574,
      1785805634,
      1785805694,
      1785805754,
      1785805814,
      1785805874,
      1785805934,
      1785805994,
      1785806055,
      1785806115,
      1785806175,
      1785806235,
      1785806295,
      1785806355,
      1785806415,
      1785806475,
      1785806535,
      1785806595,
      1785806655,
      1785806716,
      1785806776,
      1785806836,
      1785806896,
      1785806956,
      1785806974,
      1785807016,
      1785807076,
      1785807094,
      1785807136,
      1785807154,
      1785807196,
      1785807214,
      1785807256,
      1785807316,
      1785807334,
      1785807376,
      1785807394,
      1785807437,
      1785807454,
      1785807497,
      1785807515,
      1785807557,
      1785807575,
      1785807617,
      1785807635,
      1785807695,
      1785807737,
      1785807755,
      1785807797,
      1785807815,
      1785807857,
      1785807875,
      1785807917,
      1785807935,
      1785807977,
      1785808037,
      1785808055,
      1785808097,
      1785808115,
      1785808158,
      1785808175,
      1785808218,
      1785808235,
      1785808278,
      1785808296,
      1785808338,
      1785808398,
      1785808416,
      1785808458,
      1785808476,
      1785808518,
      1785808536,
      1785808578,
      1785808596,
      1785808638,
      1785808656,
      1785808698,
      1785808716,
      1785808758,
      1785808776,
      1785808818,
      1785808879,
      1785808896,
      1785808939,
      1785808956,
      1785808999,
      1785809017,
      1785809059,
      1785809077,
      1785809119,
      1785809137,
      1785809179,
      1785809197,
      1785809239,
      1785809257,
      1785809317,
      1785809377,
      1785809437,
      1785809497,
      1785809557,
      1785809617,
      1785809677,
      1785809738,
      1785809798,
      1785809858,
      1785809918,
      1785809978,
      1785810038,
      1785810158,
      1785810218,
      1785810338,
      1785810398,
      1785810459,
      1785810519,
      1785810579,
      1785810639,
      1785810699,
      1785810759,
      1785810819,
      1785810879,
      1785810939,
      1785810999,
      1785811059,
      1785811094,
      1785811119,
      1785811154,
      1785811214,
      1785811240,
      1785811300,
      1785811334,
      1785811360,
      1785811394,
      1785811420,
      1785811454,
      1785811480,
      1785811514,
      1785811540,
      1785811600,
      1785811634,
      1785811660,
      1785811720,
      1785811754,
      1785811780,
      1785811840,
      1785811875,
      1785811901,
      1785811947,
      1785812007,
      1785812021,
      1785812067,
      1785812081,
      1785812127,
      1785812141,
      1785812247,
      1785812261,
      1785812307,
      1785812321,
      1785812367,
      1785812381,
      1785812427,
      1785812487,
      1785812547,
      1785812667,
      1785812727,
      1785812788,
      1785812848,
      1785812908,
      1785812968,
      1785813133,
      1785813148,
      1785813208,
      1785813253,
      1785813268,
      1785813313,
      1785813328,
      1785813388,
      1785813448,
      1785813499,
      1785813508,
      1785813568,
      1785813613,
      1785813628,
      1785813689,
      1785813749,
      1785813793,
      1785813809,
      1785813859,
      1785813869,
      1785813929,
      1785813989,
      1785814033,
      1785814049,
      1785814109,
      1785814159,
      1785814213,
      1785814229,
      1785814273,
      1785814289
    ],
    "wof:geomhash": "ca5662ff865e61ad5c98b0d4a29ea928",
    "wof:id": 2032088217,
    "wof:repo": "sfomuseum-data-flights-2026-08"
  },
  "bbox": [
    -122.33194444444445,
    37.4925,
    -74.08999999999999,
    41.54833333333333
  ],
  "geometry": {"type":"LineString","coordinates":[[-74.12444444444444,40.73388888888889],[-74.11666666666666,40.75],[-74.08999999999999,40.79222222222222],[-74.1,40.8],[-74.17194444444445,40.81666666666667],[-74.36055555555555,40.83388888888889],[-74.46388888888889,40.845555555555556],[-74.58611111111111,40.85916666666667],[-74.71000000000001,40.8725],[-74.8386111111111,40.88666666666666],[-74.97361111111111,40.901111111111106],[-75.1036111111111,40.915],[-75.2225,40.91027777777778],[-75.36194444444443,40.87722222222222],[-75.6388888888889,40.811388888888885],[-75.7786111111111,40.778055555555554],[-75.91694444444445,40.745],[-75.94361111111111,40.73833333333334],[-76.07722222222222,40.705555555555556],[-76.18777777777778,40.67916666666667],[-76.33222222222221,40.68],[-76.47361111111111,40.70111111111111],[-76.62305555555555,40.72361111111111],[-76.77694444444444,40.74611111111111],[-77.06888888888888,40.78805555555555],[-77.21444444444445,40.808611111111105],[-77.36944444444444,40.830555555555556],[-77.51888888888888,40.85138888888889],[-77.66944444444445,40.87277777777778],[-77.66944444444445,40.87277777777778],[-77.82,40.89277777777778],[-77.97083333333333,40.91305555555555],[-78.12249999999999,40.9325],[-78.27638888888889,40.95111111111111],[-78.43277777777779,40.97027777777778],[-78.90194444444445,41.02611111111111],[-78.9225,41.02833333333333],[-79.06611111111111,41.044999999999995],[-79.08527777777778,41.04722222222222],[-79.24944444444445,41.066111111111105],[-79.40916666666668,41.08388888888889],[-79.73083333333334,41.11944444444445],[-79.88944444444445,41.13666666666666],[-80.0525,41.15416666666667],[-80.21888888888888,41.17166666666667],[-80.38666666666667,41.189166666666665],[-80.72305555555556,41.223333333333336],[-81.06,41.25666666666667],[-81.22805555555556,41.272777777777776],[-81.39694444444446,41.28861111111111],[-81.74027777777778,41.32055555555556],[-81.91444444444446,41.336111111111116],[-82.08472222222221,41.35111111111111],[-82.26055555555556,41.36472222222223],[-82.43361111111112,41.37388888888889],[-82.7786111111111,41.39333333333333],[-83.12444444444444,41.411944444444444],[-83.27638888888889,41.41916666666666],[-83.45277777777778,41.42833333333333],[-83.62444444444444,41.43666666666666],[-83.7961111111111,41.44472222222222],[-83.99055555555556,41.45333333333333],[-84.31444444444445,41.467222222222226],[-84.48222222222222,41.473888888888894],[-84.65833333333335,41.48083333333334],[-84.83333333333333,41.487500000000004],[-85.00916666666667,41.49388888888889],[-85.18361111111112,41.499722222222225],[-85.3611111111111,41.50555555555555],[-85.54527777777777,41.51138888888889],[-85.72083333333333,41.516666666666666],[-85.90027777777779,41.52166666666667],[-86.04305555555555,41.525555555555556],[-86.22083333333333,41.52861111111111],[-86.43333333333334,41.532222222222224],[-86.57527777777777,41.534166666666664],[-86.7675,41.536944444444444],[-86.94500000000001,41.53916666666667],[-87.11944444444444,41.54111111111111],[-87.29527777777777,41.5425],[-87.46972222222223,41.54388888888889],[-87.64222222222223,41.54472222222222],[-87.81472222222222,41.54555555555555],[-87.98555555555555,41.54611111111111],[-88.15416666666667,41.546388888888885],[-88.35749999999999,41.546388888888885],[-88.53055555555555,41.5475],[-88.70583333333333,41.54805555555556],[-88.88055555555555,41.54833333333333],[-89.05611111111111,41.54833333333333],[-89.23083333333334,41.54833333333333],[-89.40805555555556,41.547777777777775],[-89.58361111111111,41.54694444444444],[-89.75527777777778,41.54611111111111],[-89.92944444444444,41.54472222222222],[-90.02111111111111,41.54388888888889],[-90.10166666666666,41.54333333333333],[-90.19500000000001,41.54194444444444],[-90.27472222222222,41.54138888888889],[-90.36916666666666,41.53972222222222],[-90.44833333333334,41.53944444444444],[-90.5436111111111,41.53722222222222],[-90.61944444444444,41.536944444444444],[-90.71472222222222,41.53527777777778],[-90.78194444444445,41.53472222222222],[-90.95361111111112,41.53194444444444],[-91.05388888888889,41.529444444444444],[-91.12055555555555,41.52916666666667],[-91.2225,41.52722222222222],[-91.28999999999999,41.52583333333333],[-91.39222222222223,41.52305555555555],[-91.5611111111111,41.519444444444446],[-91.6286111111111,41.51694444444444],[-91.72805555555556,41.507777777777775],[-91.79722222222222,41.50194444444445],[-91.88083333333333,41.49277777777778],[-91.96555555555555,41.48555555555556],[-92.0475,41.47638888888889],[-92.13,41.45861111111111],[-92.22361111111111,41.43444444444444],[-92.2925,41.41777777777777],[-92.40583333333333,41.39194444444444],[-92.46944444444445,41.37777777777778],[-92.56861111111111,41.353611111111114],[-92.63027777777778,41.33777777777778],[-92.72722222222222,41.312777777777775],[-92.78833333333333,41.29694444444444],[-92.88555555555556,41.27194444444444],[-92.95083333333334,41.255],[-93.1086111111111,41.21416666666667],[-93.26666666666667,41.172777777777775],[-93.42583333333334,41.130833333333335],[-93.52277777777778,41.105000000000004],[-93.58388888888888,41.08888888888889],[-93.68,41.06305555555555],[-93.74277777777777,41.046388888888885],[-93.83805555555556,41.020833333333336],[-93.90027777777779,41.00416666666667],[-93.99527777777777,40.97833333333333],[-94.05888888888889,40.961111111111116],[-94.15472222222223,40.93527777777778],[-94.21666666666667,40.91833333333333],[-94.31083333333333,40.8925],[-94.37527777777777,40.874722222222225],[-94.46944444444445,40.84861111111111],[-94.53166666666667,40.831388888888895],[-94.78305555555555,40.76166666666666],[-94.94250000000001,40.717222222222226],[-95.09833333333333,40.67305555555555],[-95.57333333333332,40.5375],[-95.72972222222222,40.4925],[-95.8863888888889,40.44694444444444],[-96.04444444444444,40.400555555555556],[-96.20333333333333,40.35388888888889],[-96.36333333333333,40.31888888888889],[-96.5275,40.309999999999995],[-96.69472222222223,40.30166666666666],[-96.8611111111111,40.29333333333333],[-97.02777777777777,40.28472222222222],[-97.19250000000001,40.27611111111111],[-97.35944444444443,40.26694444444444],[-97.5225,40.25805555555556],[-97.61638888888888,40.257222222222225],[-97.6875,40.24777777777778],[-97.7825,40.228611111111114],[-97.84666666666666,40.21222222222222],[-97.93916666666667,40.18833333333333],[-98.00305555555556,40.1725],[-98.095,40.14944444444444],[-98.16000000000001,40.13305555555556],[-98.2525,40.11],[-98.40916666666668,40.071111111111115],[-98.47583333333334,40.05472222222222],[-98.56666666666666,40.0325],[-98.63083333333333,40.01694444444444],[-98.72416666666666,39.99444444444445],[-98.7863888888889,39.97944444444445],[-98.94361111111111,39.942499999999995],[-99.03805555555556,39.919999999999995],[-99.10055555555554,39.905],[-99.22500000000001,39.875277777777775],[-99.25555555555556,39.86805555555556],[-99.38083333333333,39.83861111111111],[-99.4113888888889,39.831388888888895],[-99.53833333333333,39.80027777777777],[-99.56861111111111,39.79277777777778],[-99.69444444444444,39.76222222222222],[-99.72305555555556,39.75416666666667],[-99.87472222222222,39.70888888888889],[-99.9961111111111,39.67305555555555],[-100.02388888888889,39.664722222222224],[-100.14750000000001,39.628055555555555],[-100.17277777777778,39.62083333333334],[-100.2975,39.58444444444444],[-100.59472222222222,39.49805555555556],[-100.74444444444444,39.45472222222222],[-100.89222222222223,39.4075],[-101.04222222222222,39.359722222222224],[-101.19027777777778,39.3125],[-101.33944444444444,39.26444444444444],[-101.48694444444445,39.217777777777776],[-101.63722222222223,39.169999999999995],[-101.76055555555556,39.13111111111111],[-101.91333333333334,39.08305555555556],[-102.03555555555555,39.044444444444444],[-102.21666666666667,38.98694444444445],[-102.36999999999999,38.94833333333333],[-102.56472222222222,38.952222222222225],[-102.72361111111111,38.965],[-102.86361111111111,38.988055555555555],[-103.01916666666666,39.014722222222225],[-103.17166666666667,39.043055555555554],[-103.325,39.07333333333334],[-103.47944444444444,39.10527777777778],[-103.63416666666667,39.135],[-103.79055555555556,39.14805555555556],[-103.95,39.14861111111111],[-104.10722222222222,39.14888888888889],[-104.26861111111111,39.14888888888889],[-104.43027777777779,39.14861111111111],[-104.59194444444444,39.14833333333333],[-104.63805555555557,39.150555555555556],[-104.74888888888889,39.147777777777776],[-104.90472222222223,39.14694444444444],[-104.94861111111112,39.14861111111111],[-105.06138888888889,39.145833333333336],[-105.10333333333332,39.145833333333336],[-105.21722222222222,39.14472222222222],[-105.25861111111111,39.14527777777778],[-105.37527777777777,39.14333333333333],[-105.53444444444445,39.141666666666666],[-105.57416666666666,39.14333333333333],[-105.68777777777778,39.13972222222222],[-105.72805555555556,39.14055555555556],[-105.83999999999999,39.13777777777778],[-105.88027777777778,39.13805555555555],[-105.99194444444444,39.135555555555555],[-106.03166666666667,39.13388888888889],[-106.14277777777778,39.13305555555556],[-106.18222222222222,39.132777777777775],[-106.30527777777777,39.13027777777778],[-106.33638888888889,39.12833333333333],[-106.48861111111111,39.126666666666665],[-106.61222222222221,39.12083333333334],[-106.64361111111111,39.119166666666665],[-106.76944444444445,39.11277777777778],[-106.79916666666666,39.11027777777778],[-106.92527777777778,39.10527777777778],[-106.95527777777778,39.103611111111114],[-107.08138888888888,39.097500000000004],[-107.1125,39.09527777777778],[-107.23944444444444,39.08916666666667],[-107.39722222222223,39.08083333333334],[-107.42666666666668,39.078611111111115],[-107.55305555555556,39.07222222222222],[-107.58555555555554,39.069722222222225],[-107.71111111111111,39.06333333333333],[-107.74194444444444,39.06111111111111],[-107.86472222222221,39.05444444444444],[-107.89666666666668,39.05166666666666],[-108.02111111111111,39.04527777777778],[-108.05222222222221,39.04222222222222],[-108.17527777777778,39.03583333333333],[-108.32888888888888,39.02638888888889],[-108.36055555555555,39.02333333333333],[-108.45194444444445,39.01861111111111],[-108.51527777777778,39.01361111111111],[-108.6061111111111,39.00888888888889],[-108.6675,39.00472222222222],[-108.75805555555556,38.99888888888889],[-108.82194444444444,38.99472222222222],[-108.91361111111112,38.98833333333334],[-108.9775,38.98416666666667],[-109.06972222222223,38.97777777777778],[-109.13138888888888,38.97361111111111],[-109.2238888888889,38.967222222222226],[-109.2863888888889,38.96277777777778],[-109.37777777777777,38.95611111111111],[-109.53166666666667,38.94499999999999],[-109.59444444444443,38.940555555555555],[-109.68694444444445,38.933611111111105],[-109.74777777777778,38.92916666666667],[-109.83972222222222,38.92222222222222],[-109.90111111111112,38.9175],[-109.99222222222222,38.910555555555554],[-110.05472222222222,38.905833333333334],[-110.1463888888889,38.89861111111111],[-110.20861111111111,38.89388888888889],[-110.30027777777778,38.88666666666666],[-110.36305555555555,38.88138888888889],[-110.45222222222222,38.87444444444444],[-110.51444444444445,38.869166666666665],[-110.66666666666667,38.85666666666667],[-110.82083333333333,38.84388888888889],[-110.9738888888889,38.83083333333334],[-111.13222222222221,38.81722222222223],[-111.28444444444445,38.803888888888885],[-111.43777777777778,38.790277777777774],[-111.58722222222222,38.776944444444446],[-111.73916666666666,38.76305555555555],[-111.89277777777778,38.74861111111111],[-112.04388888888889,38.73444444444444],[-112.19555555555556,38.72],[-112.35027777777778,38.705000000000005],[-112.50111111111111,38.69],[-112.80583333333333,38.65972222222222],[-112.95916666666668,38.64388888888889],[-113.26472222222222,38.61222222222222],[-113.41527777777779,38.596111111111114],[-113.56861111111111,38.57944444444445],[-113.72,38.56305555555555],[-113.87333333333332,38.54611111111111],[-114.02527777777777,38.52916666666667],[-114.18138888888889,38.51138888888889],[-114.33527777777778,38.49388888888889],[-114.49055555555556,38.475833333333334],[-114.64611111111111,38.4575],[-114.79972222222221,38.43944444444444],[-114.95444444444445,38.420833333333334],[-115.10833333333333,38.40222222222222],[-115.18833333333333,38.39277777777778],[-115.26083333333334,38.38361111111111],[-115.34222222222222,38.37388888888889],[-115.49444444444444,38.35444444444445],[-115.55416666666666,38.346944444444446],[-115.70833333333334,38.327222222222225],[-115.80027777777778,38.316944444444445],[-115.86138888888888,38.30777777777777],[-115.95444444444445,38.295833333333334],[-116.01444444444445,38.28805555555555],[-116.10777777777777,38.27583333333333],[-116.16638888888889,38.268055555555556],[-116.26055555555556,38.25555555555555],[-116.32,38.24777777777778],[-116.47166666666666,38.2275],[-116.56361111111111,38.215],[-116.62444444444444,38.206944444444446],[-116.77527777777777,38.18611111111111],[-116.86944444444444,38.17333333333333],[-116.92666666666668,38.165277777777774],[-117.08083333333333,38.14388888888889],[-117.17500000000001,38.130833333333335],[-117.24361111111111,38.12111111111111],[-117.32638888888889,38.10944444444445],[-117.51944444444445,38.08166666666667],[-117.54916666666666,38.0775],[-117.67305555555556,38.059444444444445],[-117.70083333333334,38.05555555555555],[-117.82416666666666,38.0375],[-117.85388888888889,38.033055555555556],[-118.12833333333333,37.9925],[-118.15861111111111,37.988055555555555],[-118.28222222222222,37.96944444444445],[-118.30972222222222,37.96527777777778],[-118.43388888888889,37.94638888888888],[-118.46138888888889,37.94222222222222],[-118.58527777777778,37.92333333333333],[-118.73722222222223,37.9],[-118.88916666666667,37.880833333333335],[-119.17194444444445,37.849444444444444],[-119.3286111111111,37.83083333333334],[-119.48444444444445,37.8125],[-119.64277777777778,37.79333333333333],[-119.80138888888888,37.774166666666666],[-119.95972222222223,37.75472222222222],[-120.4,37.7],[-120.41527777777779,37.69777777777777],[-120.56194444444444,37.68083333333333],[-120.7,37.666666666666664],[-120.70583333333333,37.663888888888884],[-120.83333333333333,37.65],[-120.8411111111111,37.647777777777776],[-120.97361111111111,37.63166666666667],[-121.10222222222221,37.614444444444445],[-121.23333333333333,37.6],[-121.23777777777778,37.596111111111114],[-121.35972222222222,37.581388888888895],[-121.45,37.56666666666667],[-121.47916666666667,37.56805555555556],[-121.56972222222223,37.55722222222222],[-121.69305555555556,37.53472222222222],[-121.76666666666667,37.516666666666666],[-121.78527777777778,37.51222222222222],[-121.86666666666666,37.5],[-121.87333333333332,37.4925],[-121.96444444444445,37.49583333333334],[-122.05222222222221,37.50111111111111],[-122.11666666666666,37.516666666666666],[-122.12277777777777,37.51444444444444],[-122.18305555555555,37.540277777777774],[-122.23333333333333,37.56666666666667],[-122.28333333333333,37.583333333333336],[-122.28833333333333,37.58444444444444],[-122.31666666666666,37.6],[-122.33194444444445,37.60277777777778]]}
}
