{
  "id": 2047880423,
  "type": "Feature",
  "properties": {
    "geom:area": 0,
    "geom:bbox": "-122.521667,34.197500,-118.341111,37.666667",
    "geom:latitude": 35.82827008047957,
    "geom:longitude": -120.56899896989532,
    "src:alt_label": "swim-path",
    "src:geom": "swim",
    "swim:altitudes": [
      "011",
      "030",
      "038",
      "056",
      "086",
      "101",
      "121",
      "143",
      "168",
      "183",
      "200",
      "228",
      "250",
      "264",
      "270C",
      "270C",
      "270C",
      "270C",
      "270C",
      "270C",
      "270C",
      "270C",
      "270C",
      "270C",
      "270C",
      "270C",
      "270C",
      "270C",
      "270",
      "270",
      "270",
      "262",
      "245",
      "225",
      "205",
      "186",
      "168",
      "152",
      "138",
      "126",
      "124",
      "113",
      "108",
      "095",
      "082",
      "078",
      "070",
      "066",
      "053",
      "050",
      "045",
      "043",
      "040",
      "040",
      "040",
      "031",
      "028",
      "021",
      "019",
      "012",
      "007"
    ],
    "swim:geom": "path",
    "swim:speeds": [
      143,
      157,
      219,
      286,
      289,
      297,
      361,
      369,
      373,
      384,
      391,
      412,
      417,
      417,
      417,
      417,
      422,
      421,
      420,
      418,
      418,
      418,
      418,
      419,
      419,
      420,
      420,
      420,
      419,
      419,
      419,
      419,
      420,
      407,
      395,
      380,
      367,
      354,
      329,
      312,
      315,
      319,
      302,
      298,
      293,
      288,
      274,
      274,
      271,
      264,
      227,
      222,
      198,
      201,
      190,
      186,
      189,
      184,
      168,
      149,
      148
    ],
    "swim:timestamps": [
      1786141459,
      1786141504,
      1786141564,
      1786141639,
      1786141699,
      1786141754,
      1786141819,
      1786141879,
      1786141939,
      1786142000,
      1786142055,
      1786142175,
      1786142235,
      1786142295,
      1786142355,
      1786142475,
      1786142535,
      1786142595,
      1786142655,
      1786142661,
      1786142716,
      1786142776,
      1786142836,
      1786142896,
      1786142956,
      1786143016,
      1786143076,
      1786143136,
      1786143196,
      1786143256,
      1786143316,
      1786143377,
      1786143437,
      1786143497,
      1786143557,
      1786143617,
      1786143677,
      1786143737,
      1786143797,
      1786143838,
      1786143857,
      1786143895,
      1786143977,
      1786144018,
      1786144075,
      1786144098,
      1786144135,
      1786144158,
      1786144195,
      1786144218,
      1786144254,
      1786144278,
      1786144315,
      1786144338,
      1786144375,
      1786144435,
      1786144458,
      1786144495,
      1786144518,
      1786144578,
      1786144638
    ],
    "wof:geomhash": "fc9fb223e3ce08c4f23a20932f745398",
    "wof:id": 2047880423,
    "wof:repo": "sfomuseum-data-flights-2026-08"
  },
  "bbox": [
    -122.52166666666666,
    34.1975,
    -118.3411111111111,
    37.666666666666664
  ],
  "geometry": {"type":"LineString","coordinates":[[-122.3913888888889,37.628055555555555],[-122.43333333333334,37.65],[-122.5,37.666666666666664],[-122.52166666666666,37.60472222222222],[-122.48722222222223,37.52777777777778],[-122.46333333333334,37.46416666666667],[-122.35277777777777,37.38861111111111],[-122.26388888888889,37.315],[-122.1725,37.23916666666667],[-122.08138888888888,37.163333333333334],[-121.99305555555556,37.08416666666667],[-121.81333333333333,36.934999999999995],[-121.69333333333334,36.8325],[-121.59305555555555,36.749722222222225],[-121.49416666666667,36.665277777777774],[-121.29722222222222,36.49722222222222],[-121.19555555555556,36.411944444444444],[-121.10138888888888,36.323888888888895],[-121.01,36.23444444444444],[-121.00694444444444,36.231388888888894],[-120.91777777777779,36.144444444444446],[-120.82722222222222,36.05555555555555],[-120.735,35.96472222222223],[-120.64361111111111,35.874722222222225],[-120.55277777777778,35.78444444444444],[-120.46111111111111,35.69333333333333],[-120.36527777777778,35.59777777777778],[-120.27194444444444,35.50805555555556],[-120.18027777777779,35.419999999999995],[-120.08694444444444,35.33027777777778],[-119.995,35.24138888888889],[-119.90333333333334,35.152499999999996],[-119.81083333333333,35.062777777777775],[-119.72277777777778,34.97694444444445],[-119.63527777777779,34.891666666666666],[-119.53888888888889,34.82166666666667],[-119.44250000000001,34.75694444444444],[-119.34972222222221,34.69638888888888],[-119.25944444444444,34.638888888888886],[-119.2,34.6],[-119.17611111111111,34.59777777777778],[-119.1,34.56666666666667],[-119.01027777777777,34.500277777777775],[-118.96666666666667,34.45],[-118.91666666666667,34.38333333333333],[-118.89722222222223,34.365833333333335],[-118.83333333333333,34.333333333333336],[-118.82138888888889,34.32194444444445],[-118.76666666666667,34.28333333333333],[-118.74666666666667,34.278888888888886],[-118.7,34.25],[-118.68333333333334,34.2425],[-118.65,34.21666666666667],[-118.62777777777777,34.21055555555556],[-118.58333333333333,34.2],[-118.51666666666667,34.2],[-118.50333333333333,34.19972222222222],[-118.45,34.2],[-118.44333333333334,34.19888888888889],[-118.3938888888889,34.19833333333333],[-118.3411111111111,34.1975]]}
}
