{
  "id": 2047997127,
  "type": "Feature",
  "properties": {
    "date:cessation_lower": "1970-01-01",
    "date:cessation_upper": "1970-01-01",
    "date:inception_lower": "2026-08-16",
    "date:inception_upper": "2026-08-16",
    "edtf:cessation": "1970-01-01T00:00:00Z",
    "edtf:inception": "2026-08-16T02:12:33-07:00",
    "flysfo:actual_timestamp": -1,
    "flysfo:airline": "WN",
    "flysfo:date": "2026-08-16",
    "flysfo:estimated_timestamp": -1,
    "flysfo:event": "D",
    "flysfo:flight_number": "WN2499",
    "flysfo:gate": "D3",
    "flysfo:journey": "SFO-MDW",
    "flysfo:scheduled_timestamp": 1786895400,
    "flysfo:timestamp": 1786895400,
    "geom:area": 0,
    "geom:bbox": "-87.745903,0.000000,0.000000,41.787532",
    "geom:latitude": 20.893766,
    "geom:longitude": -43.8729515,
    "iata:airline": "WN",
    "icao:aircraft": "B38M",
    "icao:airline": "SWA",
    "lbl:latitude": 37.617092,
    "lbl:longitude": -122.381656,
    "sfomuseum:aircraft_id": 1528104575,
    "sfomuseum:airline_id": 1159285591,
    "sfomuseum:arrival_id": 102531205,
    "sfomuseum:departure_id": 102527513,
    "sfomuseum:flight_id": "20260816-D-SWA-2499",
    "sfomuseum:flight_number": [
      "SWA2499",
      "WN2499"
    ],
    "sfomuseum:placetype": "flight",
    "src:geom": "flysfo",
    "src:geom_alt": [
      "swim-takeoff"
    ],
    "swim:tail_number": "N8957Q",
    "wof:belongsto": [
      1947304067,
      102527513,
      1947304595,
      102191575,
      85633793,
      102087579,
      85922583,
      554784711,
      85688637,
      1947304597,
      1947304591,
      102085387
    ],
    "wof:country": "US",
    "wof:created": 1786983828,
    "wof:geomhash": "ab5eeca433e13bb0972ff98b18a62688",
    "wof:hierarchy": [
      {
        "building_id": 1947304067,
        "campus_id": 102527513,
        "concourse_id": 1947304595,
        "continent_id": 102191575,
        "country_id": 85633793,
        "county_id": 102087579,
        "custom_id": 2047997127,
        "flight_id": 2047997127,
        "locality_id": 85922583,
        "postalcode_id": 554784711,
        "region_id": 85688637,
        "venue_id": 1947304597,
        "wing_id": 1947304591
      },
      {
        "building_id": 1947304067,
        "campus_id": 102527513,
        "concourse_id": 1947304595,
        "continent_id": 102191575,
        "country_id": 85633793,
        "county_id": 102085387,
        "custom_id": 2047997127,
        "flight_id": 2047997127,
        "region_id": 85688637,
        "venue_id": 1947304597,
        "wing_id": 1947304591
      }
    ],
    "wof:id": 2047997127,
    "wof:involves": [
      1528104575,
      102531205,
      102527513,
      1159285591,
      1947304597
    ],
    "wof:lastmodified": 1786984091,
    "wof:name": "WN2499 (SFO-MDW)",
    "wof:parent_id": 1947304597,
    "wof:placetype": "custom",
    "wof:placetype_alt": [
      "flight"
    ],
    "wof:repo": "sfomuseum-data-flights-2026-08",
    "wof:superseded_by": [],
    "wof:supersedes": []
  },
  "bbox": [
    -87.745903,
    0,
    0,
    41.787532
  ],
  "geometry": {"type":"MultiPoint","coordinates":[[0,0],[-87.745903,41.787532]]}
}
