{
  "id": 2047995649,
  "type": "Feature",
  "properties": {
    "date:inception_lower": "2026-08-16",
    "date:inception_upper": "2026-08-16",
    "edtf:cessation": "",
    "edtf:inception": "2026-08-16",
    "flysfo:actual_timestamp": -1,
    "flysfo:airline": "AV",
    "flysfo:base_airline": "",
    "flysfo:base_flight_number": "4508",
    "flysfo:date": "2026-08-16",
    "flysfo:estimated_timestamp": 1786910400,
    "flysfo:event": "D",
    "flysfo:flight_number": "AV4508",
    "flysfo:gate": "A9",
    "flysfo:journey": "SFO-TPE",
    "flysfo:scheduled_timestamp": 1786910400,
    "flysfo:timestamp": 1786910400,
    "geom:area": 0,
    "geom:bbox": "0.000000,0.000000,121.233152,25.078566",
    "geom:latitude": 12.539283,
    "geom:longitude": 60.616576,
    "iata:airline": "AV",
    "iata:base_airline": "",
    "icao:airline": "AVA",
    "icao:base_airline": "AVA",
    "lbl:latitude": 37.612893,
    "lbl:longitude": -122.389652,
    "sfomuseum:airline_id": 1159285749,
    "sfomuseum:arrival_id": 102551487,
    "sfomuseum:base_flight_id": "20260816-D-AVA-4508",
    "sfomuseum:departure_id": 102527513,
    "sfomuseum:flight_id": "20260816-D-AVA-4508",
    "sfomuseum:flight_number": [
      "AVA4508",
      "AV4508"
    ],
    "sfomuseum:placetype": "flight",
    "src:geom": "flysfo",
    "wof:belongsto": [
      1947304067,
      102527513,
      1947304073,
      102191575,
      85633793,
      102087579,
      85922583,
      554784711,
      85688637,
      1947304077,
      1947304069,
      102085387
    ],
    "wof:country": "US",
    "wof:created": 1786983660,
    "wof:geomhash": "4c24192f8c3b126371b205731712e444",
    "wof:hierarchy": [
      {
        "building_id": 1947304067,
        "campus_id": 102527513,
        "concourse_id": 1947304073,
        "continent_id": 102191575,
        "country_id": 85633793,
        "county_id": 102087579,
        "custom_id": 2047995649,
        "flight_id": 2047995649,
        "locality_id": 85922583,
        "postalcode_id": 554784711,
        "region_id": 85688637,
        "venue_id": 1947304077,
        "wing_id": 1947304069
      },
      {
        "building_id": 1947304067,
        "campus_id": 102527513,
        "concourse_id": 1947304073,
        "continent_id": 102191575,
        "country_id": 85633793,
        "county_id": 102085387,
        "custom_id": 2047995649,
        "flight_id": 2047995649,
        "region_id": 85688637,
        "venue_id": 1947304077,
        "wing_id": 1947304069
      }
    ],
    "wof:id": 2047995649,
    "wof:involves": [
      102551487,
      102527513,
      1159285749,
      1947304077,
      1159285749
    ],
    "wof:lastmodified": 1786983660,
    "wof:name": "AV4508 (SFO-TPE)",
    "wof:parent_id": 1947304077,
    "wof:placetype": "custom",
    "wof:placetype_alt": [
      "flight"
    ],
    "wof:repo": "sfomuseum-data-flights-2026-08",
    "wof:superseded_by": [],
    "wof:supersedes": []
  },
  "bbox": [
    0,
    0,
    121.233152,
    25.078566
  ],
  "geometry": {"type":"MultiPoint","coordinates":[[0,0],[121.233152,25.078566]]}
}
