{
  "id": 2032087831,
  "type": "Feature",
  "properties": {
    "geom:area": 0,
    "geom:bbox": "-122.366170,36.735880,-121.887320,37.616770",
    "geom:latitude": 37.236720540414055,
    "geom:longitude": -122.16611988139735,
    "src:alt_label": "swim-approach",
    "src:geom": "swim",
    "swim:elevations": [
      5373,
      5304,
      5038,
      4823,
      4457,
      4115,
      4054,
      3578,
      3298,
      3082,
      3048,
      3048,
      2926,
      2897,
      2854,
      2822,
      2628,
      2414,
      2286,
      2151,
      1961,
      1829,
      1829,
      1774,
      1617,
      1556,
      1484,
      1213,
      1157,
      1095,
      906,
      830,
      616,
      483,
      381,
      248,
      34,
      481
    ],
    "swim:geom": "approach",
    "swim:timestamps": [
      1785757432,
      1785757448,
      1785757485,
      1785757512,
      1785757550,
      1785757585,
      1785757590,
      1785757638,
      1785757666,
      1785757696,
      1785757734,
      1785757761,
      1785757798,
      1785757809,
      1785757826,
      1785757833,
      1785757869,
      1785757905,
      1785757928,
      1785757951,
      1785757985,
      1785758034,
      1785758049,
      1785758097,
      1785758124,
      1785758141,
      1785758174,
      1785758213,
      1785758221,
      1785758231,
      1785758276,
      1785758292,
      1785758327,
      1785758354,
      1785758374,
      1785758403,
      1785758458,
      1785758467
    ],
    "wof:geomhash": "7d6eba25ea3c6cf74b0ac89b90afdf33",
    "wof:id": 2032087831,
    "wof:repo": "sfomuseum-data-flights-2026-08"
  },
  "bbox": [
    -122.36617,
    36.73588,
    -121.88732,
    37.61677
  ],
  "geometry": {"type":"LineString","coordinates":[[-121.88732,36.73588],[-121.8981,36.75881],[-121.91463,36.81444],[-121.92563,36.85392],[-121.95169,36.90443],[-121.98836,36.94561],[-121.99328,36.95114],[-122.04198,37.00496],[-122.06977,37.03584],[-122.09933,37.07001],[-122.13637,37.112],[-122.16284,37.14182],[-122.19827,37.18154],[-122.20781,37.1922],[-122.22297,37.2091],[-122.22935,37.21621],[-122.26012,37.25044],[-122.29092,37.28505],[-122.31013,37.30648],[-122.32978,37.32892],[-122.35865,37.36154],[-122.36093,37.41295],[-122.34209,37.42282],[-122.275,37.41561],[-122.23627,37.40903],[-122.21341,37.41292],[-122.17297,37.43155],[-122.16126,37.47262],[-122.16413,37.4814],[-122.16826,37.49239],[-122.18499,37.537],[-122.19819,37.54974],[-122.23991,37.56403],[-122.26899,37.57651],[-122.28906,37.58491],[-122.31394,37.59546],[-122.35643,37.61323],[-122.36617,37.61677]]}
}
