{
  "id": 2048080069,
  "type": "Feature",
  "properties": {
    "geom:area": 0,
    "geom:bbox": "-122.393220,37.622190,-121.253890,37.964240",
    "geom:latitude": 37.83201173189132,
    "geom:longitude": -121.84706209265966,
    "src:alt_label": "swim-takeoff",
    "src:geom": "swim",
    "swim:elevations": [
      122,
      548,
      575,
      850,
      1047,
      1509,
      2073,
      2411,
      2588,
      2892,
      3168,
      3412,
      3494,
      3679,
      3890,
      4179,
      4228,
      4515,
      4856,
      5162,
      5395,
      5518
    ],
    "swim:geom": "takeoff",
    "swim:timestamps": [
      1787229127,
      1787229176,
      1787229184,
      1787229231,
      1787229242,
      1787229279,
      1787229325,
      1787229352,
      1787229366,
      1787229396,
      1787229423,
      1787229476,
      1787229498,
      1787229536,
      1787229565,
      1787229594,
      1787229601,
      1787229636,
      1787229674,
      1787229717,
      1787229745,
      1787229763
    ],
    "wof:geomhash": "7f48d5b07db698674392896fc403c4c0",
    "wof:id": 2048080069,
    "wof:repo": "sfomuseum-data-flights-2026-08"
  },
  "bbox": [
    -122.39322,
    37.62219,
    -121.25389,
    37.96424
  ],
  "geometry": {"type":"LineString","coordinates":[[-122.38331,37.62219],[-122.39322,37.65307],[-122.38551,37.65744],[-122.3223,37.67932],[-122.30608,37.68496],[-122.25289,37.70402],[-122.18559,37.73291],[-122.14646,37.75342],[-122.12618,37.76379],[-122.08196,37.78653],[-122.04128,37.80747],[-121.94409,37.83703],[-121.89798,37.84572],[-121.81133,37.86205],[-121.74321,37.87471],[-121.67484,37.88731],[-121.65693,37.89063],[-121.5734,37.90607],[-121.48026,37.92318],[-121.3728,37.9427],[-121.30081,37.95578],[-121.25389,37.96424]]}
}
