{
  "id": 2047888673,
  "type": "Feature",
  "properties": {
    "geom:area": 0,
    "geom:bbox": "-122.555000,29.976667,-87.398056,41.966667",
    "geom:latitude": 38.52544312794739,
    "geom:longitude": -102.97390428657316,
    "src:alt_label": "swim-path",
    "src:geom": "swim",
    "swim:altitudes": [
      "014",
      "017",
      "036",
      "042",
      "058",
      "084",
      "104",
      "119",
      "142",
      "171",
      "188",
      "205",
      "216",
      "231",
      "247",
      "259",
      "269",
      "281",
      "291",
      "309",
      "320",
      "322",
      "335",
      "340C",
      "340C",
      "340C",
      "340C",
      "340C",
      "340C",
      "340C",
      "340C",
      "340C",
      "340C",
      "340C",
      "340C",
      "340C",
      "340C",
      "340C",
      "340C",
      "340C",
      "340C",
      "340C",
      "340C",
      "340C",
      "340C",
      "340C",
      "340C",
      "340C",
      "340C",
      "340C",
      "340C",
      "340C",
      "340C",
      "340C",
      "340C",
      "340C",
      "340C",
      "340C",
      "340C",
      "340C",
      "340C",
      "340C",
      "340C",
      "340C",
      "340C",
      "340C",
      "340C",
      "340C",
      "340C",
      "340C",
      "340C",
      "340C",
      "337",
      "330C",
      "330C",
      "330C",
      "330C",
      "330C",
      "330C",
      "330C",
      "330C",
      "330C",
      "330C",
      "330C",
      "330C",
      "330C",
      "330C",
      "330C",
      "330C",
      "330C",
      "330C",
      "330C",
      "330C",
      "330C",
      "330C",
      "330C",
      "330C",
      "330C",
      "330C",
      "330C",
      "330",
      "329",
      "323",
      "319",
      "305",
      "296",
      "278",
      "270",
      "263",
      "259",
      "237",
      "216",
      "206",
      "193",
      "185",
      "172",
      "163",
      "147",
      "143",
      "125",
      "110",
      "110",
      "110",
      "110",
      "109",
      "108",
      "100",
      "089",
      "078",
      "070",
      "070",
      "058",
      "058",
      "050",
      "050",
      "050",
      "050",
      "050",
      "050",
      "050",
      "050",
      "050",
      "050",
      "043",
      "034",
      "024",
      "016",
      "008",
      "004",
      "027",
      "034",
      "054",
      "082",
      "107",
      "116",
      "137",
      "160",
      "181",
      "196",
      "214",
      "226",
      "244",
      "260",
      "270C",
      "270C",
      "270C",
      "270C",
      "270C",
      "270C",
      "270C",
      "270C",
      "270C",
      "270C",
      "270C",
      "270C",
      "270C",
      "270",
      "270",
      "270",
      "270",
      "270",
      "268",
      "248",
      "227",
      "207",
      "191",
      "180",
      "173",
      "156",
      "155",
      "142",
      "137",
      "130",
      "128",
      "120",
      "116",
      "109",
      "106",
      "097",
      "094",
      "089",
      "088",
      "078",
      "074",
      "067",
      "064",
      "060",
      "059",
      "049",
      "047",
      "043",
      "042",
      "037",
      "036",
      "034",
      "032",
      "027",
      "024",
      "019",
      "016",
      "011",
      "009",
      "003",
      "002"
    ],
    "swim:geom": "path",
    "swim:speeds": [
      176,
      215,
      225,
      235,
      259,
      283,
      313,
      314,
      330,
      369,
      371,
      379,
      418,
      427,
      433,
      445,
      455,
      467,
      472,
      465,
      460,
      459,
      458,
      456,
      456,
      456,
      455,
      454,
      454,
      455,
      455,
      454,
      454,
      453,
      449,
      450,
      451,
      451,
      452,
      454,
      455,
      459,
      459,
      459,
      460,
      459,
      458,
      458,
      458,
      457,
      457,
      457,
      457,
      458,
      459,
      460,
      462,
      463,
      465,
      467,
      467,
      467,
      467,
      465,
      464,
      462,
      461,
      460,
      460,
      461,
      461,
      468,
      471,
      469,
      469,
      470,
      471,
      486,
      473,
      479,
      474,
      476,
      473,
      469,
      469,
      467,
      467,
      466,
      466,
      465,
      464,
      463,
      462,
      462,
      462,
      461,
      461,
      461,
      461,
      460,
      461,
      462,
      463,
      463,
      464,
      465,
      465,
      468,
      481,
      482,
      464,
      464,
      464,
      437,
      428,
      413,
      411,
      403,
      395,
      387,
      378,
      367,
      367,
      365,
      351,
      351,
      310,
      302,
      301,
      303,
      303,
      289,
      290,
      277,
      243,
      247,
      244,
      246,
      237,
      237,
      220,
      210,
      179,
      177,
      176,
      173,
      162,
      155,
      162,
      159,
      207,
      286,
      294,
      299,
      331,
      360,
      375,
      386,
      396,
      409,
      410,
      425,
      425,
      425,
      419,
      419,
      426,
      422,
      421,
      421,
      420,
      420,
      420,
      420,
      419,
      418,
      418,
      418,
      419,
      419,
      418,
      451,
      432,
      407,
      393,
      385,
      373,
      374,
      360,
      362,
      349,
      352,
      326,
      318,
      295,
      297,
      294,
      292,
      279,
      280,
      258,
      253,
      239,
      242,
      243,
      242,
      245,
      244,
      238,
      240,
      212,
      206,
      207,
      208,
      181,
      180,
      174,
      175,
      154,
      152,
      138,
      142,
      138,
      140
    ],
    "swim:timestamps": [
      1786216115,
      1786216132,
      1786216175,
      1786216186,
      1786216236,
      1786216296,
      1786216356,
      1786216412,
      1786216472,
      1786216532,
      1786216592,
      1786216652,
      1786216712,
      1786216772,
      1786216832,
      1786216892,
      1786216953,
      1786217017,
      1786217073,
      1786217133,
      1786217193,
      1786217253,
      1786217313,
      1786217373,
      1786217433,
      1786217493,
      1786217553,
      1786217613,
      1786217674,
      1786217734,
      1786217794,
      1786217854,
      1786217912,
      1786217972,
      1786218032,
      1786218092,
      1786218154,
      1786218214,
      1786218274,
      1786218334,
      1786218393,
      1786218453,
      1786218515,
      1786218575,
      1786218635,
      1786218695,
      1786218755,
      1786218813,
      1786218873,
      1786218935,
      1786218995,
      1786219055,
      1786219114,
      1786219176,
      1786219236,
      1786219294,
      1786219356,
      1786219411,
      1786219471,
      1786219536,
      1786219591,
      1786219652,
      1786219712,
      1786219772,
      1786219832,
      1786219892,
      1786219952,
      1786220012,
      1786220072,
      1786220132,
      1786220192,
      1786220252,
      1786220313,
      1786220373,
      1786220433,
      1786220493,
      1786220553,
      1786220597,
      1786220613,
      1786220657,
      1786220673,
      1786220717,
      1786220733,
      1786220777,
      1786220793,
      1786220837,
      1786220853,
      1786220897,
      1786220914,
      1786220974,
      1786221017,
      1786221034,
      1786221077,
      1786221094,
      1786221137,
      1786221154,
      1786221198,
      1786221214,
      1786221258,
      1786221274,
      1786221318,
      1786221334,
      1786221378,
      1786221394,
      1786221438,
      1786221454,
      1786221498,
      1786221514,
      1786221558,
      1786221575,
      1786221635,
      1786221678,
      1786221695,
      1786221738,
      1786221755,
      1786221799,
      1786221815,
      1786221859,
      1786221866,
      1786221920,
      1786221979,
      1786222040,
      1786222111,
      1786222171,
      1786222220,
      1786222231,
      1786222291,
      1786222346,
      1786222412,
      1786222461,
      1786222472,
      1786222521,
      1786222532,
      1786222592,
      1786222640,
      1786222652,
      1786222701,
      1786222712,
      1786222760,
      1786222772,
      1786222832,
      1786222892,
      1786222947,
      1786223013,
      1786223073,
      1786223127,
      1786223193,
      1786223253,
      1786256787,
      1786256852,
      1786256912,
      1786256972,
      1786257032,
      1786257092,
      1786257149,
      1786257209,
      1786257269,
      1786257329,
      1786257389,
      1786257449,
      1786257510,
      1786257570,
      1786257630,
      1786257690,
      1786257750,
      1786257810,
      1786257870,
      1786257930,
      1786257990,
      1786258050,
      1786258110,
      1786258170,
      1786258230,
      1786258410,
      1786258470,
      1786258530,
      1786258590,
      1786258650,
      1786258710,
      1786258770,
      1786258830,
      1786258950,
      1786259011,
      1786259071,
      1786259131,
      1786259191,
      1786259218,
      1786259251,
      1786259296,
      1786259311,
      1786259341,
      1786259371,
      1786259401,
      1786259431,
      1786259461,
      1786259491,
      1786259521,
      1786259551,
      1786259582,
      1786259611,
      1786259642,
      1786259671,
      1786259702,
      1786259731,
      1786259759,
      1786259791,
      1786259819,
      1786259851,
      1786259882,
      1786259911,
      1786259945,
      1786259971,
      1786260002,
      1786260031,
      1786260065,
      1786260091,
      1786260125,
      1786260151,
      1786260185,
      1786260211,
      1786260245,
      1786260271,
      1786260308,
      1786260331
    ],
    "wof:geomhash": "285f1705a224babe000ec1467529dd6d",
    "wof:id": 2047888673,
    "wof:repo": "sfomuseum-data-flights-2026-08"
  },
  "bbox": [
    -122.55499999999999,
    29.976666666666667,
    -87.39805555555556,
    41.96666666666667
  ],
  "geometry": {"type":"LineString","coordinates":[[-90.22666666666667,29.982499999999998],[-90.20833333333334,29.976666666666667],[-90.16111111111111,29.985],[-90.15444444444445,29.998055555555556],[-90.17722222222223,30.048055555555557],[-90.22277777777778,30.115833333333335],[-90.27222222222223,30.18888888888889],[-90.31944444444444,30.26],[-90.37722222222222,30.34861111111111],[-90.43972222222223,30.4475],[-90.49638888888889,30.53888888888889],[-90.55611111111111,30.633333333333333],[-90.56888888888888,30.747777777777777],[-90.55722222222222,30.866388888888892],[-90.54444444444444,30.987222222222222],[-90.5436111111111,31.11277777777778],[-90.55055555555555,31.240833333333335],[-90.55777777777777,31.385833333333334],[-90.56416666666667,31.504722222222224],[-90.57083333333333,31.63361111111111],[-90.5775,31.760833333333334],[-90.58416666666666,31.890555555555554],[-90.59083333333332,32.01611111111111],[-90.59722222222221,32.14388888888889],[-90.60388888888889,32.26972222222222],[-90.61055555555555,32.39666666666667],[-90.61749999999999,32.525277777777774],[-90.62416666666665,32.65083333333333],[-90.63111111111111,32.77916666666667],[-90.63722222222223,32.904444444444444],[-90.64416666666668,33.03138888888889],[-90.65138888888889,33.16],[-90.65472222222223,33.27055555555555],[-90.66277777777778,33.39555555555555],[-90.66388888888889,33.52027777777778],[-90.65305555555557,33.64611111111111],[-90.64500000000001,33.78944444444444],[-90.635,33.914722222222224],[-90.625,34.040277777777774],[-90.61416666666666,34.16833333333333],[-90.60333333333332,34.27583333333333],[-90.6,34.403888888888886],[-90.61361111111111,34.55166666666666],[-90.62138888888889,34.655],[-90.63166666666666,34.782777777777774],[-90.64250000000001,34.91138888888889],[-90.65305555555557,35.03805555555555],[-90.66111111111111,35.15222222222222],[-90.6713888888889,35.27972222222222],[-90.685,35.420833333333334],[-90.69555555555556,35.547777777777775],[-90.7063888888889,35.67611111111111],[-90.71527777777779,35.79],[-90.72916666666667,35.94472222222222],[-90.74,36.07194444444445],[-90.74916666666667,36.177499999999995],[-90.76194444444444,36.33166666666667],[-90.77111111111111,36.436388888888885],[-90.7825,36.56805555555556],[-90.7961111111111,36.72555555555556],[-90.80499999999999,36.8275],[-90.81638888888888,36.96],[-90.82777777777777,37.08888888888889],[-90.83888888888889,37.21388888888889],[-90.84972222222221,37.34138888888889],[-90.8611111111111,37.46888888888889],[-90.87222222222222,37.597500000000004],[-90.88583333333334,37.74333333333333],[-90.89722222222223,37.87222222222222],[-90.90861111111111,38.00138888888889],[-90.91972222222223,38.12833333333333],[-90.9038888888889,38.256388888888885],[-90.84166666666667,38.38],[-90.78027777777778,38.5025],[-90.71916666666667,38.62361111111111],[-90.66222222222223,38.73583333333333],[-90.6,38.85805555555556],[-90.55111111111111,38.94194444444444],[-90.54166666666667,38.971944444444446],[-90.49111111111111,39.06583333333333],[-90.4786111111111,39.094722222222224],[-90.42972222222222,39.18833333333333],[-90.415,39.216944444444444],[-90.36833333333333,39.30916666666666],[-90.35277777777777,39.33916666666667],[-90.30666666666666,39.428888888888885],[-90.2911111111111,39.45861111111111],[-90.24416666666667,39.54805555555556],[-90.22833333333334,39.578611111111115],[-90.16555555555556,39.698055555555555],[-90.11861111111111,39.78722222222222],[-90.1061111111111,39.81083333333333],[-90.05638888888889,39.906666666666666],[-90.03138888888888,39.95388888888889],[-89.99416666666667,40.024166666666666],[-89.96861111111112,40.073055555555555],[-89.93138888888889,40.143055555555556],[-89.90611111111112,40.190555555555555],[-89.86861111111111,40.26083333333333],[-89.84277777777777,40.30916666666666],[-89.79083333333332,40.37361111111111],[-89.74583333333334,40.413333333333334],[-89.68222222222222,40.469166666666666],[-89.6363888888889,40.509166666666665],[-89.575,40.5625],[-89.53972222222222,40.593333333333334],[-89.46027777777778,40.66222222222222],[-89.41555555555556,40.70111111111111],[-89.34666666666666,40.76083333333333],[-89.29972222222221,40.80027777777777],[-89.18444444444445,40.895833333333336],[-89.11694444444444,40.95277777777778],[-89.07027777777778,40.99166666666667],[-89.00583333333333,41.046388888888885],[-88.96444444444445,41.080000000000005],[-88.90194444444445,41.13111111111111],[-88.86277777777777,41.16305555555555],[-88.79027777777777,41.223333333333336],[-88.76666666666667,41.233333333333334],[-88.68333333333334,41.31666666666667],[-88.59222222222222,41.38666666666666],[-88.5,41.46666666666667],[-88.41111111111111,41.53916666666667],[-88.30722222222222,41.62583333333333],[-88.23333333333333,41.7],[-88.22,41.69944444444444],[-88.14111111111112,41.76555555555556],[-88.06666666666666,41.833333333333336],[-87.97916666666667,41.88],[-87.88333333333334,41.88333333333333],[-87.86722222222221,41.88444444444444],[-87.76666666666667,41.88333333333333],[-87.75805555555556,41.88444444444444],[-87.65194444444445,41.88388888888889],[-87.56666666666666,41.88333333333333],[-87.56083333333333,41.88361111111111],[-87.48333333333333,41.88333333333333],[-87.46916666666667,41.88361111111111],[-87.4,41.9],[-87.39805555555556,41.910555555555554],[-87.4263888888889,41.96222222222222],[-87.50444444444445,41.965833333333336],[-87.56666666666666,41.96666666666667],[-87.6375,41.96555555555556],[-87.70166666666667,41.965833333333336],[-87.76666666666667,41.96666666666667],[-87.82916666666667,41.965833333333336],[-87.88666666666667,41.965833333333336],[-122.38333333333334,37.61666666666667],[-122.42833333333334,37.64111111111111],[-122.48416666666667,37.66555555555556],[-122.55499999999999,37.62972222222222],[-122.50111111111111,37.56472222222222],[-122.42555555555556,37.50694444444444],[-122.34777777777778,37.44027777777777],[-122.25138888888888,37.36638888888889],[-122.155,37.29277777777778],[-122.05888888888889,37.21611111111111],[-121.95777777777778,37.13861111111111],[-121.85638888888889,37.05722222222222],[-121.75305555555556,36.97638888888889],[-121.64611111111111,36.89194444444444],[-121.54027777777777,36.81083333333333],[-121.43611111111112,36.72888888888889],[-121.33638888888889,36.646388888888886],[-121.2325,36.56361111111111],[-121.12555555555555,36.48277777777778],[-121.01972222222223,36.402499999999996],[-120.91000000000001,36.325833333333335],[-120.80083333333333,36.249722222222225],[-120.6913888888889,36.17305555555555],[-120.58222222222221,36.09638888888889],[-120.4725,36.01888888888889],[-120.18027777777779,35.76222222222222],[-120.10444444444444,35.66166666666666],[-120.02944444444444,35.5625],[-119.95361111111112,35.461666666666666],[-119.87944444444443,35.363055555555555],[-119.80111111111111,35.26444444444444],[-119.71361111111112,35.170833333333334],[-119.6275,35.07833333333333],[-119.44611111111111,34.882222222222225],[-119.3586111111111,34.78388888888889],[-119.27638888888889,34.691111111111105],[-119.19694444444445,34.599444444444444],[-119.13361111111112,34.526666666666664],[-119.08333333333333,34.483333333333334],[-119.06,34.44361111111111],[-119,34.36666666666667],[-118.98916666666666,34.36194444444445],[-118.93333333333334,34.3],[-118.91888888888889,34.28333333333333],[-118.86666666666666,34.233333333333334],[-118.85277777777777,34.211111111111116],[-118.81666666666666,34.166666666666664],[-118.79027777777777,34.14666666666667],[-118.75,34.1],[-118.72444444444444,34.086111111111116],[-118.68333333333334,34.05],[-118.6588888888889,34.03138888888889],[-118.6,34.016666666666666],[-118.57333333333332,34.02166666666667],[-118.51666666666667,34.016666666666666],[-118.49333333333334,34.013888888888886],[-118.45,34.016666666666666],[-118.41222222222223,34.01861111111111],[-118.36666666666666,34.03333333333333],[-118.33083333333333,34.03055555555555],[-118.28333333333333,34.03333333333333],[-118.25166666666667,34.038333333333334],[-118.2,34.05],[-118.17888888888889,34.04416666666666],[-118.15,34.016666666666666],[-118.15,33.99583333333334],[-118.16666666666667,33.96666666666667],[-118.18305555555555,33.95861111111111],[-118.21666666666667,33.95],[-118.23972222222223,33.95194444444445],[-118.28333333333333,33.95],[-118.2925,33.94638888888888],[-118.31666666666666,33.95],[-118.3386111111111,33.94194444444444],[-118.36666666666666,33.93333333333333],[-118.38361111111112,33.93722222222222]]}
}
