{
  "id": 2047974509,
  "type": "Feature",
  "properties": {
    "geom:area": 0,
    "geom:bbox": "-122.545050,36.725740,-121.303460,37.664840",
    "geom:latitude": 37.20545297415914,
    "geom:longitude": -122.00457276512569,
    "src:alt_label": "swim-takeoff",
    "src:geom": "swim",
    "swim:elevations": [
      247,
      738,
      1035,
      1258,
      1788,
      2211,
      2652,
      2880,
      3488,
      3529,
      3875,
      4565,
      4967,
      5241,
      5500,
      5806,
      6116,
      6448,
      6703,
      6824,
      7186,
      7640,
      7905,
      8165,
      8249,
      8522,
      8819,
      9037,
      9206,
      9358,
      9412,
      9714
    ],
    "swim:geom": "takeoff",
    "swim:timestamps": [
      1786736145,
      1786736182,
      1786736208,
      1786736238,
      1786736278,
      1786736304,
      1786736330,
      1786736343,
      1786736396,
      1786736403,
      1786736430,
      1786736484,
      1786736514,
      1786736535,
      1786736558,
      1786736580,
      1786736605,
      1786736634,
      1786736658,
      1786736670,
      1786736709,
      1786736756,
      1786736788,
      1786736817,
      1786736831,
      1786736866,
      1786736908,
      1786736938,
      1786736966,
      1786736990,
      1786737003,
      1786737035
    ],
    "wof:geomhash": "3f745dd4f238c71251d352ac4742a250",
    "wof:id": 2047974509,
    "wof:repo": "sfomuseum-data-flights-2026-08"
  },
  "bbox": [
    -122.54505,
    36.72574,
    -121.30346,
    37.66484
  ],
  "geometry": {"type":"LineString","coordinates":[[-122.39539,37.6281],[-122.42601,37.64156],[-122.45057,37.65108],[-122.48281,37.66484],[-122.5372,37.65765],[-122.54505,37.62671],[-122.52846,37.59588],[-122.51997,37.58054],[-122.48553,37.5125],[-122.47985,37.50323],[-122.44578,37.4714],[-122.35771,37.41514],[-122.30672,37.38219],[-122.27183,37.35945],[-122.23317,37.33438],[-122.194,37.30904],[-122.15115,37.28132],[-122.09828,37.2471],[-122.05522,37.2191],[-122.03337,37.20495],[-121.96028,37.15736],[-121.87187,37.09972],[-121.80947,37.05896],[-121.75163,37.02054],[-121.72477,37.00292],[-121.65431,36.95661],[-121.56955,36.90079],[-121.50796,36.86008],[-121.44781,36.82036],[-121.39909,36.78846],[-121.37022,36.76976],[-121.30346,36.72574]]}
}
