{
  "id": 2047903059,
  "type": "Feature",
  "properties": {
    "geom:area": 0,
    "geom:bbox": "-122.420730,37.629640,-121.371830,37.983470",
    "geom:latitude": 37.91381408781634,
    "geom:longitude": -122.00638682405771,
    "src:alt_label": "swim-takeoff",
    "src:geom": "swim",
    "swim:elevations": [
      183,
      521,
      688,
      921,
      1282,
      1408,
      1580,
      2049,
      2358,
      2615,
      2923,
      3079,
      3254,
      3420,
      3564,
      3633,
      4180,
      4341,
      4633,
      5180,
      5828,
      5980,
      6052
    ],
    "swim:geom": "takeoff",
    "swim:timestamps": [
      1786321977,
      1786322007,
      1786322028,
      1786322051,
      1786322106,
      1786322127,
      1786322153,
      1786322205,
      1786322239,
      1786322266,
      1786322296,
      1786322321,
      1786322350,
      1786322384,
      1786322414,
      1786322433,
      1786322514,
      1786322531,
      1786322572,
      1786322624,
      1786322686,
      1786322702,
      1786322712
    ],
    "wof:geomhash": "62a31808f83f39c10662e55d8bd27660",
    "wof:id": 2047903059,
    "wof:repo": "sfomuseum-data-flights-2026-08"
  },
  "bbox": [
    -122.42073,
    37.62964,
    -121.37183,
    37.98347
  ],
  "geometry": {"type":"LineString","coordinates":[[-122.40169,37.62964],[-122.42073,37.65099],[-122.41331,37.67029],[-122.39012,37.68444],[-122.3393,37.725],[-122.33463,37.74942],[-122.34662,37.77857],[-122.38285,37.83885],[-122.38563,37.88519],[-122.37718,37.92184],[-122.33837,37.94856],[-122.29245,37.95229],[-122.23573,37.95307],[-122.16682,37.95404],[-122.10191,37.95744],[-122.05984,37.95979],[-121.86744,37.96679],[-121.82642,37.96839],[-121.72707,37.97246],[-121.59859,37.97595],[-121.4395,37.98167],[-121.39677,37.98277],[-121.37183,37.98347]]}
}
