{
  "id": 2047899131,
  "type": "Feature",
  "properties": {
    "geom:area": 0,
    "geom:bbox": "-127.457778,37.416667,-122.100000,40.843889",
    "geom:latitude": 39.21251237774195,
    "geom:longitude": -124.48485053490575,
    "src:alt_label": "swim-path",
    "src:geom": "swim",
    "swim:altitudes": [
      "340C",
      "340C",
      "340C",
      "340C",
      "340C",
      "340C",
      "340C",
      "340C",
      "340",
      "340C",
      "340",
      "340C",
      "340C",
      "340C",
      "340C",
      "340C",
      "340C",
      "340C",
      "340C",
      "340C",
      "340C",
      "340C",
      "340C",
      "340",
      "340",
      "340",
      "338",
      "325",
      "312",
      "290",
      "273",
      "258",
      "242",
      "225",
      "209",
      "192",
      "176",
      "165",
      "161",
      "146",
      "145",
      "132",
      "123",
      "123",
      "116",
      "110C",
      "108C",
      "093",
      "080",
      "068",
      "068",
      "060",
      "060",
      "052",
      "052",
      "042",
      "043",
      "035",
      "035",
      "025",
      "025",
      "016",
      "016",
      "007",
      "007",
      "110"
    ],
    "swim:geom": "path",
    "swim:speeds": [
      519,
      518,
      518,
      517,
      517,
      517,
      516,
      515,
      510,
      514,
      500,
      512,
      511,
      510,
      509,
      509,
      508,
      507,
      506,
      505,
      503,
      503,
      501,
      500,
      500,
      499,
      496,
      492,
      493,
      487,
      466,
      426,
      415,
      405,
      394,
      380,
      366,
      358,
      360,
      352,
      355,
      348,
      296,
      301,
      259,
      252,
      251,
      246,
      241,
      242,
      243,
      228,
      232,
      215,
      222,
      206,
      211,
      194,
      198,
      183,
      187,
      187,
      186,
      159,
      163,
      152
    ],
    "swim:timestamps": [
      1786368200,
      1786368260,
      1786368320,
      1786368380,
      1786368440,
      1786368500,
      1786368560,
      1786368620,
      1786368633,
      1786368680,
      1786368703,
      1786368740,
      1786368800,
      1786368860,
      1786368920,
      1786368980,
      1786369041,
      1786369101,
      1786369161,
      1786369221,
      1786369281,
      1786369341,
      1786369401,
      1786369461,
      1786369521,
      1786369581,
      1786369641,
      1786369701,
      1786369761,
      1786369821,
      1786369881,
      1786369941,
      1786370001,
      1786370062,
      1786370122,
      1786370182,
      1786370242,
      1786370278,
      1786370302,
      1786370350,
      1786370362,
      1786370422,
      1786370470,
      1786370482,
      1786370542,
      1786370602,
      1786370662,
      1786370711,
      1786370771,
      1786370831,
      1786370842,
      1786370891,
      1786370902,
      1786370951,
      1786370962,
      1786371011,
      1786371022,
      1786371071,
      1786371083,
      1786371131,
      1786371143,
      1786371191,
      1786371203,
      1786371251,
      1786371263,
      1786371323
    ],
    "wof:geomhash": "14ea658693a4832e455252277af41746",
    "wof:id": 2047899131,
    "wof:repo": "sfomuseum-data-flights-2026-08"
  },
  "bbox": [
    -127.45777777777778,
    37.416666666666664,
    -122.1,
    40.84388888888889
  ],
  "geometry": {"type":"LineString","coordinates":[[-127.45777777777778,40.84388888888889],[-127.29722222222222,40.7675],[-127.13777777777779,40.69138888888889],[-126.97694444444444,40.61416666666667],[-126.81722222222221,40.538333333333334],[-126.6588888888889,40.462500000000006],[-126.50166666666667,40.386944444444445],[-126.34388888888888,40.31055555555555],[-126.3,40.3],[-126.1875,40.234722222222224],[-126.11666666666666,40.2],[-126.03194444444445,40.15861111111111],[-125.87638888888888,40.08222222222223],[-125.7225,40.006388888888885],[-125.56694444444445,39.92944444444444],[-125.41416666666667,39.85305555555556],[-125.26083333333334,39.77638888888889],[-125.10777777777777,39.69944444444444],[-124.95777777777778,39.62361111111111],[-124.80833333333334,39.547777777777775],[-124.65777777777778,39.47083333333334],[-124.49555555555555,39.38777777777778],[-124.34638888888888,39.31083333333333],[-124.19944444444445,39.234722222222224],[-124.06416666666667,39.16444444444444],[-123.91555555555556,39.086666666666666],[-123.75722222222223,39.00083333333333],[-123.62944444444443,38.906388888888884],[-123.50527777777778,38.80916666666666],[-123.38333333333334,38.71333333333334],[-123.26444444444445,38.61944444444445],[-123.15611111111112,38.53388888888889],[-123.05361111111111,38.4525],[-122.95194444444445,38.371944444444445],[-122.85472222222222,38.294444444444444],[-122.76805555555555,38.21416666666667],[-122.73527777777778,38.11555555555556],[-122.71666666666667,38.05],[-122.70805555555556,38.01916666666666],[-122.68333333333334,37.93333333333333],[-122.68111111111112,37.92611111111111],[-122.61833333333333,37.847500000000004],[-122.55,37.78333333333333],[-122.54944444444445,37.782777777777774],[-122.4888888888889,37.72527777777778],[-122.43194444444445,37.67194444444444],[-122.37555555555555,37.61888888888889],[-122.33333333333333,37.56666666666667],[-122.3,37.5],[-122.25,37.45],[-122.24888888888889,37.44638888888888],[-122.18333333333334,37.416666666666664],[-122.17333333333333,37.42333333333333],[-122.11666666666666,37.43333333333333],[-122.10777777777777,37.43944444444444],[-122.1,37.5],[-122.10305555555556,37.49527777777778],[-122.15,37.53333333333333],[-122.1563888888889,37.52861111111111],[-122.21666666666667,37.55],[-122.21416666666667,37.55333333333333],[-122.26666666666667,37.583333333333336],[-122.27083333333333,37.577222222222225],[-122.31666666666666,37.6],[-122.32305555555556,37.59916666666667],[-122.37055555555555,37.619166666666665]]}
}
