{
  "id": 2032115087,
  "type": "Feature",
  "properties": {
    "geom:area": 0,
    "geom:bbox": "-122.333333,37.491389,-83.441389,42.502778",
    "geom:latitude": 40.919718425771194,
    "geom:longitude": -102.98453074995831,
    "src:alt_label": "swim-path",
    "src:geom": "swim",
    "swim:altitudes": [
      "031",
      "056",
      "073",
      "086",
      "097",
      "105",
      "122",
      "142",
      "164",
      "183",
      "240",
      "249",
      "258",
      "270",
      "280",
      "298",
      "306",
      "320C",
      "320C",
      "320C",
      "320C",
      "320C",
      "320C",
      "320C",
      "320C",
      "320C",
      "320C",
      "320C",
      "320C",
      "320C",
      "320C",
      "320C",
      "320C",
      "320",
      "320",
      "320",
      "325",
      "334",
      "340C",
      "340C",
      "340C",
      "340C",
      "340C",
      "340C",
      "340C",
      "340C",
      "340C",
      "340C",
      "340C",
      "340C",
      "340C",
      "340C",
      "340C",
      "340C",
      "340C",
      "340C",
      "340C",
      "340C",
      "340C",
      "340C",
      "340C",
      "340C",
      "340C",
      "340C",
      "340C",
      "340C",
      "340C",
      "340C",
      "340C",
      "340C",
      "340C",
      "340C",
      "340C",
      "340C",
      "340C",
      "340C",
      "340C",
      "340C",
      "340C",
      "340C",
      "340C",
      "340C",
      "340C",
      "340C",
      "340C",
      "340C",
      "340C",
      "340C",
      "340C",
      "340C",
      "340C",
      "340C",
      "340C",
      "340C",
      "340C",
      "340C",
      "340C",
      "340C",
      "340C",
      "340C",
      "340C",
      "340C",
      "340C",
      "340C",
      "340C",
      "340C",
      "340C",
      "340C",
      "340C",
      "340C",
      "340C",
      "340C",
      "340C",
      "340C",
      "340C",
      "340C",
      "340C",
      "340C",
      "340C",
      "340C",
      "340C",
      "340C",
      "340C",
      "340C",
      "340C",
      "340C",
      "340C",
      "340C",
      "340C",
      "340C",
      "340C",
      "340C",
      "340C",
      "340C",
      "340C",
      "340C",
      "340C",
      "340C",
      "340C",
      "340C",
      "340C",
      "340C",
      "340C",
      "340C",
      "340C",
      "340C",
      "340C",
      "340C",
      "340C",
      "340C",
      "340C",
      "340C",
      "340C",
      "340C",
      "340C",
      "340C",
      "340C",
      "340C",
      "340C",
      "340C",
      "340C",
      "340C",
      "340C",
      "340C",
      "340C",
      "340C",
      "340C",
      "340C",
      "340C",
      "340C",
      "340C",
      "340C",
      "340C",
      "340C",
      "340C",
      "340C",
      "340C",
      "340C",
      "340C",
      "340C",
      "340C",
      "340C",
      "340C",
      "340C",
      "340C",
      "340C",
      "340C",
      "340C",
      "340C",
      "340C",
      "340C",
      "340C",
      "340C",
      "340C",
      "340C",
      "340C",
      "340C",
      "340C",
      "340C",
      "340C",
      "340C",
      "340C",
      "340C",
      "340C",
      "340C",
      "340C",
      "340C",
      "340C",
      "340C",
      "340C",
      "340C",
      "340C",
      "340C",
      "340C",
      "340C",
      "340C",
      "340C",
      "340C",
      "340C",
      "340C",
      "340C",
      "340C",
      "340C",
      "340C",
      "340C",
      "340C",
      "340C",
      "340C",
      "340C",
      "340C",
      "340C",
      "340C",
      "340C",
      "340C",
      "340C",
      "340C",
      "340C",
      "340C",
      "340C",
      "340C",
      "340C",
      "340C",
      "340",
      "340",
      "335",
      "322",
      "289",
      "268",
      "257",
      "245",
      "226",
      "215",
      "205",
      "194",
      "185",
      "174",
      "164",
      "155",
      "145",
      "136",
      "127",
      "118",
      "109",
      "105",
      "097",
      "090",
      "085",
      "081",
      "069C",
      "060",
      "054",
      "049",
      "044",
      "039",
      "034",
      "027",
      "022",
      "017",
      "013",
      "008",
      "004"
    ],
    "swim:geom": "path",
    "swim:speeds": [
      244,
      273,
      278,
      274,
      282,
      293,
      322,
      334,
      338,
      357,
      395,
      409,
      418,
      421,
      423,
      426,
      427,
      431,
      430,
      429,
      429,
      428,
      427,
      426,
      423,
      420,
      417,
      416,
      419,
      421,
      423,
      422,
      421,
      420,
      418,
      417,
      417,
      416,
      414,
      411,
      409,
      411,
      409,
      409,
      410,
      414,
      416,
      417,
      416,
      415,
      413,
      397,
      396,
      395,
      395,
      399,
      401,
      403,
      404,
      404,
      404,
      403,
      398,
      392,
      391,
      392,
      393,
      394,
      395,
      395,
      395,
      395,
      395,
      395,
      396,
      396,
      397,
      398,
      399,
      401,
      403,
      404,
      407,
      410,
      415,
      412,
      414,
      411,
      410,
      412,
      410,
      409,
      413,
      417,
      417,
      418,
      419,
      418,
      416,
      411,
      415,
      410,
      415,
      415,
      411,
      412,
      412,
      415,
      411,
      405,
      409,
      405,
      407,
      405,
      405,
      404,
      400,
      398,
      398,
      394,
      394,
      394,
      393,
      392,
      392,
      392,
      393,
      393,
      395,
      393,
      395,
      393,
      393,
      394,
      393,
      392,
      393,
      393,
      393,
      396,
      394,
      397,
      402,
      402,
      403,
      405,
      406,
      405,
      409,
      410,
      413,
      415,
      418,
      422,
      422,
      421,
      422,
      422,
      422,
      421,
      423,
      428,
      429,
      431,
      431,
      429,
      430,
      431,
      430,
      429,
      429,
      429,
      429,
      428,
      427,
      429,
      428,
      427,
      428,
      429,
      430,
      430,
      431,
      432,
      432,
      432,
      432,
      433,
      433,
      433,
      433,
      431,
      430,
      429,
      428,
      428,
      428,
      428,
      428,
      427,
      428,
      427,
      428,
      428,
      428,
      428,
      428,
      427,
      428,
      427,
      428,
      428,
      427,
      427,
      428,
      428,
      429,
      430,
      430,
      431,
      431,
      431,
      431,
      432,
      432,
      432,
      432,
      432,
      432,
      432,
      432,
      432,
      433,
      433,
      433,
      434,
      434,
      434,
      433,
      432,
      431,
      431,
      431,
      430,
      431,
      435,
      448,
      432,
      426,
      424,
      411,
      396,
      397,
      389,
      388,
      376,
      373,
      359,
      359,
      351,
      347,
      337,
      338,
      327,
      281,
      263,
      242,
      238,
      240,
      241,
      236,
      238,
      232,
      236,
      231,
      230,
      211,
      200,
      175,
      159,
      148
    ],
    "swim:timestamps": [
      1785949472,
      1785949538,
      1785949598,
      1785949640,
      1785949658,
      1785949700,
      1785949760,
      1785949821,
      1785949880,
      1785950001,
      1785950241,
      1785950301,
      1785950361,
      1785950421,
      1785950482,
      1785950602,
      1785950661,
      1785950782,
      1785950842,
      1785950902,
      1785950963,
      1785951023,
      1785951083,
      1785951143,
      1785951203,
      1785951263,
      1785951323,
      1785951383,
      1785951443,
      1785951503,
      1785951624,
      1785951684,
      1785951744,
      1785951804,
      1785951864,
      1785951924,
      1785951984,
      1785952044,
      1785952104,
      1785952165,
      1785952225,
      1785952284,
      1785952344,
      1785952405,
      1785952465,
      1785952525,
      1785952585,
      1785952645,
      1785952706,
      1785952766,
      1785952826,
      1785953006,
      1785953066,
      1785953186,
      1785953246,
      1785953307,
      1785953366,
      1785953427,
      1785953487,
      1785953547,
      1785953606,
      1785953666,
      1785953726,
      1785953847,
      1785953907,
      1785953967,
      1785954027,
      1785954087,
      1785954147,
      1785954207,
      1785954267,
      1785954327,
      1785954387,
      1785954447,
      1785954507,
      1785954568,
      1785954628,
      1785954688,
      1785954748,
      1785954868,
      1785954988,
      1785955048,
      1785955168,
      1785955228,
      1785955264,
      1785955289,
      1785955324,
      1785955349,
      1785955409,
      1785955444,
      1785955469,
      1785955589,
      1785955624,
      1785955684,
      1785955709,
      1785955769,
      1785955801,
      1785955829,
      1785955861,
      1785955889,
      1785955921,
      1785955949,
      1785955981,
      1785956042,
      1785956070,
      1785956105,
      1785956130,
      1785956162,
      1785956190,
      1785956282,
      1785956310,
      1785956342,
      1785956370,
      1785956402,
      1785956430,
      1785956462,
      1785956526,
      1785956586,
      1785956642,
      1785956702,
      1785956763,
      1785956943,
      1785957003,
      1785957063,
      1785957123,
      1785957243,
      1785957303,
      1785957423,
      1785957487,
      1785957544,
      1785957607,
      1785957664,
      1785957724,
      1785957784,
      1785957844,
      1785957908,
      1785957964,
      1785958024,
      1785958084,
      1785958148,
      1785958204,
      1785958265,
      1785958328,
      1785958385,
      1785958445,
      1785958508,
      1785958568,
      1785958625,
      1785958685,
      1785958745,
      1785958865,
      1785958986,
      1785959046,
      1785959106,
      1785959166,
      1785959286,
      1785959346,
      1785959466,
      1785959526,
      1785959586,
      1785959646,
      1785959767,
      1785959827,
      1785959887,
      1785959947,
      1785960067,
      1785960131,
      1785960251,
      1785960307,
      1785960367,
      1785960488,
      1785960548,
      1785960608,
      1785960668,
      1785960728,
      1785960968,
      1785961028,
      1785961088,
      1785961149,
      1785961269,
      1785961389,
      1785961509,
      1785961569,
      1785961629,
      1785961689,
      1785961749,
      1785961809,
      1785961870,
      1785961930,
      1785961990,
      1785962050,
      1785962110,
      1785962170,
      1785962230,
      1785962290,
      1785962350,
      1785962410,
      1785962470,
      1785962491,
      1785962530,
      1785962551,
      1785962590,
      1785962612,
      1785962651,
      1785962672,
      1785962771,
      1785962792,
      1785962831,
      1785962852,
      1785962891,
      1785962972,
      1785963032,
      1785963071,
      1785963092,
      1785963131,
      1785963191,
      1785963251,
      1785963272,
      1785963311,
      1785963333,
      1785963372,
      1785963393,
      1785963432,
      1785963453,
      1785963492,
      1785963513,
      1785963552,
      1785963573,
      1785963633,
      1785963672,
      1785963693,
      1785963732,
      1785963753,
      1785963792,
      1785963813,
      1785963873,
      1785963933,
      1785963993,
      1785964053,
      1785964114,
      1785964174,
      1785964234,
      1785964294,
      1785964354,
      1785964414,
      1785964474,
      1785964534,
      1785964594,
      1785964616,
      1785964654,
      1785964714,
      1785964736,
      1785964774,
      1785964796,
      1785964835,
      1785964856,
      1785964895,
      1785964916,
      1785964955,
      1785964976,
      1785965015,
      1785965036,
      1785965075,
      1785965091,
      1785965156,
      1785965195,
      1785965216,
      1785965255,
      1785965315,
      1785965375,
      1785965396,
      1785965435,
      1785965456,
      1785965495,
      1785965517,
      1785965555,
      1785965577,
      1785965615,
      1785965631,
      1785965676,
      1785965697
    ],
    "wof:geomhash": "257369424149f5c7f49f5bffe6d67529",
    "wof:id": 2032115087,
    "wof:repo": "sfomuseum-data-flights-2026-08"
  },
  "bbox": [
    -122.33333333333333,
    37.49138888888889,
    -83.4413888888889,
    42.50277777777778
  ],
  "geometry": {"type":"LineString","coordinates":[[-83.4413888888889,42.15416666666667],[-83.53999999999999,42.17361111111111],[-83.6375,42.203611111111115],[-83.68861111111111,42.222500000000004],[-83.73222222222222,42.23555555555556],[-83.78611111111111,42.25472222222222],[-83.89611111111111,42.290277777777774],[-84.01638888888888,42.31638888888889],[-84.14472222222223,42.33527777777778],[-84.39888888888889,42.370555555555555],[-84.96472222222222,42.44611111111111],[-85.12027777777777,42.45],[-85.27416666666666,42.45305555555556],[-85.43555555555555,42.45583333333334],[-85.59666666666666,42.45861111111111],[-85.92166666666667,42.46361111111111],[-86.07916666666667,42.46611111111111],[-86.40444444444445,42.43111111111111],[-86.56611111111111,42.41027777777778],[-86.72500000000001,42.38944444444444],[-86.87944444444443,42.36888888888889],[-87.03861111111111,42.34777777777778],[-87.19444444444444,42.327222222222225],[-87.34944444444444,42.30583333333333],[-87.5038888888889,42.284166666666664],[-87.65527777777778,42.26305555555555],[-87.80722222222222,42.24194444444444],[-87.96000000000001,42.22416666666667],[-88.14472222222223,42.234722222222224],[-88.30166666666666,42.245555555555555],[-88.61611111111111,42.26611111111111],[-88.77472222222222,42.27638888888889],[-88.92361111111111,42.285555555555554],[-89.07916666666667,42.294999999999995],[-89.23722222222223,42.30444444444444],[-89.39083333333333,42.31333333333333],[-89.54777777777778,42.32222222222222],[-89.70166666666667,42.33083333333334],[-89.8536111111111,42.33722222222222],[-89.98805555555556,42.34638888888889],[-90.14194444444445,42.35416666666667],[-90.29472222222222,42.35944444444445],[-90.44666666666667,42.36944444444445],[-90.6,42.376666666666665],[-90.72416666666666,42.3825],[-90.91000000000001,42.39083333333333],[-91.06888888888888,42.397777777777776],[-91.22611111111111,42.404444444444444],[-91.38166666666666,42.410555555555554],[-91.53888888888889,42.41694444444444],[-91.69388888888889,42.422777777777775],[-92.14444444444445,42.43861111111111],[-92.29416666666667,42.44361111111111],[-92.59083333333332,42.45277777777778],[-92.73805555555556,42.456944444444446],[-92.89027777777778,42.461111111111116],[-93.0411111111111,42.46527777777778],[-93.19222222222223,42.469166666666666],[-93.34583333333333,42.472500000000004],[-93.4975,42.475833333333334],[-93.65138888888889,42.47916666666667],[-93.79972222222221,42.48222222222223],[-93.94944444444445,42.484722222222224],[-94.24333333333334,42.489444444444445],[-94.38916666666667,42.49166666666667],[-94.53777777777778,42.493611111111115],[-94.7075,42.49583333333334],[-94.85499999999999,42.49722222222222],[-95.00361111111111,42.49861111111111],[-95.15333333333334,42.499722222222225],[-95.30083333333333,42.50055555555556],[-95.44888888888889,42.50138888888889],[-95.59666666666666,42.50194444444445],[-95.74444444444444,42.50222222222222],[-95.89166666666668,42.50277777777778],[-96.0411111111111,42.50277777777778],[-96.19027777777778,42.5025],[-96.33999999999999,42.50194444444445],[-96.48861111111111,42.50138888888889],[-96.79166666666667,42.49944444444444],[-97.0925,42.49722222222222],[-97.24444444444444,42.495555555555555],[-97.55138888888888,42.49166666666667],[-97.70555555555556,42.489444444444445],[-97.77777777777777,42.488055555555555],[-97.86055555555555,42.48722222222222],[-97.965,42.48527777777778],[-98.01583333333333,42.48444444444444],[-98.16833333333334,42.48166666666667],[-98.2725,42.47944444444445],[-98.32277777777777,42.478611111111114],[-98.62888888888888,42.471944444444446],[-98.72833333333334,42.45166666666667],[-98.865,42.39111111111111],[-98.88055555555555,42.384166666666665],[-99.04083333333332,42.31194444444444],[-99.10555555555555,42.282222222222224],[-99.1738888888889,42.25222222222222],[-99.24111111111111,42.23416666666667],[-99.32333333333332,42.227222222222224],[-99.39888888888889,42.22166666666667],[-99.47277777777778,42.21611111111111],[-99.55305555555556,42.209722222222226],[-99.70861111111111,42.19833333333333],[-99.78055555555555,42.19305555555555],[-99.89027777777778,42.18472222222222],[-99.93527777777778,42.18111111111111],[-100.01444444444445,42.17444444444444],[-100.10222222222221,42.1675],[-100.32638888888889,42.14888888888889],[-100.40583333333333,42.143055555555556],[-100.47722222222222,42.135555555555555],[-100.55472222222222,42.13055555555555],[-100.62694444444443,42.12388888888889],[-100.7025,42.11805555555556],[-100.775,42.11138888888889],[-100.93583333333333,42.09805555555556],[-101.08166666666666,42.085],[-101.21472222222222,42.071111111111115],[-101.35916666666667,42.058611111111105],[-101.50472222222223,42.04527777777778],[-101.9388888888889,42.00472222222222],[-102.08222222222221,41.987500000000004],[-102.22472222222223,41.96027777777778],[-102.36666666666666,41.93138888888889],[-102.65194444444445,41.876666666666665],[-102.7936111111111,41.848333333333336],[-103.07833333333333,41.79222222222222],[-103.22111111111111,41.764722222222225],[-103.36305555555555,41.736111111111114],[-103.505,41.70777777777778],[-103.64666666666668,41.67805555555555],[-103.78777777777778,41.64888888888889],[-103.92777777777778,41.62083333333334],[-104.0675,41.592222222222226],[-104.20944444444444,41.56333333333333],[-104.34944444444444,41.532777777777774],[-104.49027777777778,41.50361111111111],[-104.63194444444444,41.474444444444444],[-104.77305555555556,41.44416666666666],[-104.91222222222223,41.41444444444444],[-105.05499999999999,41.38305555555556],[-105.20333333333333,41.35111111111111],[-105.34222222222222,41.32],[-105.48583333333333,41.288888888888884],[-105.63416666666667,41.25611111111111],[-105.78,41.223333333333336],[-105.91694444444445,41.191111111111105],[-106.06361111111111,41.159166666666664],[-106.2075,41.125277777777775],[-106.50055555555555,41.0575],[-106.79388888888889,40.989444444444445],[-106.94055555555556,40.95583333333334],[-107.09083333333332,40.92027777777778],[-107.2375,40.88527777777778],[-107.53305555555555,40.81388888888888],[-107.67805555555556,40.77861111111111],[-107.9725,40.70638888888889],[-108.12055555555555,40.66972222222222],[-108.26666666666667,40.632777777777775],[-108.41444444444446,40.59583333333334],[-108.71333333333334,40.52027777777778],[-108.86083333333333,40.48277777777778],[-109.00305555555556,40.44583333333333],[-109.15111111111112,40.4075],[-109.44555555555556,40.330555555555556],[-109.62027777777777,40.28472222222222],[-109.91666666666667,40.205555555555556],[-110.03416666666666,40.17388888888889],[-110.18027777777779,40.13527777777778],[-110.47472222222223,40.06305555555555],[-110.6236111111111,40.02583333333333],[-110.77083333333333,39.98861111111111],[-110.91722222222222,39.95138888888889],[-111.06083333333333,39.915],[-111.66777777777779,39.757777777777775],[-111.815,39.719166666666666],[-111.95916666666668,39.68083333333333],[-112.1061111111111,39.64222222222222],[-112.39916666666667,39.56361111111111],[-112.69527777777778,39.48305555555556],[-112.96138888888889,39.41],[-113.10666666666665,39.37],[-113.25333333333333,39.32916666666667],[-113.39861111111112,39.28861111111111],[-113.54388888888889,39.2475],[-113.71694444444445,39.198611111111106],[-113.8625,39.157222222222224],[-114.00694444444444,39.115833333333335],[-114.15305555555557,39.07361111111111],[-114.29694444444445,39.03194444444444],[-114.43944444444445,38.99055555555556],[-114.58138888888888,38.94888888888889],[-114.72305555555556,38.907222222222224],[-114.86666666666666,38.86472222222223],[-115.00833333333334,38.822500000000005],[-115.14944444444446,38.78055555555555],[-115.2936111111111,38.74472222222222],[-115.34583333333333,38.73527777777778],[-115.42916666666667,38.71388888888889],[-115.49194444444444,38.70277777777778],[-115.57694444444444,38.68],[-115.63722222222223,38.670833333333334],[-115.72055555555556,38.64694444444444],[-115.78388888888888,38.63666666666666],[-116.01416666666667,38.578611111111115],[-116.07277777777777,38.56472222222222],[-116.1575,38.544999999999995],[-116.21805555555555,38.53055555555555],[-116.30388888888889,38.51],[-116.50861111111111,38.46138888888889],[-116.6525,38.426944444444445],[-116.73833333333333,38.406388888888884],[-116.79694444444445,38.39194444444444],[-116.88166666666666,38.37166666666667],[-117.02583333333334,38.33638888888889],[-117.16777777777779,38.30166666666666],[-117.23166666666667,38.28583333333333],[-117.31194444444444,38.26611111111111],[-117.37833333333333,38.24944444444444],[-117.45305555555557,38.23111111111111],[-117.51388888888889,38.215833333333336],[-117.59944444444444,38.19444444444444],[-117.65777777777778,38.18],[-117.74166666666667,38.15888888888889],[-117.80222222222221,38.14361111111111],[-117.8888888888889,38.12138888888889],[-117.94638888888889,38.106944444444444],[-118.09055555555555,38.07027777777778],[-118.17722222222223,38.04805555555556],[-118.23694444444445,38.032777777777774],[-118.32111111111111,38.01111111111111],[-118.38277777777778,37.99527777777778],[-118.46777777777778,37.973055555555554],[-118.52777777777777,37.9575],[-118.6725,37.919999999999995],[-118.81972222222223,37.88944444444444],[-118.97055555555556,37.87222222222222],[-119.10916666666667,37.85638888888889],[-119.26083333333334,37.83861111111111],[-119.40916666666668,37.82138888888889],[-119.56,37.80305555555555],[-119.70833333333334,37.78527777777778],[-119.8586111111111,37.76722222222222],[-120.01,37.74861111111111],[-120.16111111111111,37.72972222222222],[-120.31527777777778,37.71055555555556],[-120.47055555555556,37.69166666666666],[-120.53333333333333,37.68333333333333],[-120.61583333333333,37.67472222222222],[-120.75861111111111,37.657777777777774],[-120.83333333333333,37.65],[-120.89694444444446,37.64111111111111],[-120.96666666666667,37.63333333333333],[-121.03055555555555,37.62388888888889],[-121.1,37.61666666666667],[-121.16027777777778,37.60666666666667],[-121.21666666666667,37.6],[-121.28944444444444,37.58888888888889],[-121.35,37.583333333333336],[-121.4088888888889,37.57638888888889],[-121.46666666666667,37.56666666666667],[-121.52555555555556,37.56222222222222],[-121.56666666666666,37.55],[-121.68333333333334,37.53333333333333],[-121.72666666666667,37.526944444444446],[-121.76666666666667,37.516666666666666],[-121.80638888888889,37.50694444444444],[-121.88777777777779,37.49138888888889],[-121.97222222222223,37.49638888888889],[-122,37.5],[-122.05416666666666,37.50111111111111],[-122.08333333333333,37.5],[-122.13083333333333,37.518055555555556],[-122.16666666666667,37.53333333333333],[-122.20361111111112,37.54888888888889],[-122.23333333333333,37.56666666666667],[-122.26527777777778,37.575],[-122.28333333333333,37.583333333333336],[-122.31666666666666,37.59638888888889],[-122.33333333333333,37.6]]}
}
