{
  "id": 2032060997,
  "type": "Feature",
  "properties": {
    "geom:area": 0,
    "geom:bbox": "-118.435556,32.625556,-117.063611,33.659444",
    "geom:latitude": 33.14469266688377,
    "geom:longitude": -117.7479325532448,
    "src:alt_label": "swim-path",
    "src:geom": "swim",
    "swim:altitudes": [
      "350C",
      "350C",
      "350C",
      "350C",
      "350C",
      "350C",
      "350C",
      "350C",
      "350C"
    ],
    "swim:geom": "path",
    "swim:speeds": [
      463,
      461,
      460,
      460,
      460,
      460,
      461,
      464,
      468
    ],
    "swim:timestamps": [
      1785596660,
      1785596720,
      1785596780,
      1785596840,
      1785596900,
      1785596960,
      1785597021,
      1785597201,
      1785597381
    ],
    "wof:geomhash": "13f1a844ba750ad0a8b61979beae455e",
    "wof:id": 2032060997,
    "wof:repo": "sfomuseum-data-flights-2026-08"
  },
  "bbox": [
    -118.43555555555555,
    32.62555555555556,
    -117.06361111111111,
    33.659444444444446
  ],
  "geometry": {"coordinates":[[-118.43555555555555,33.659444444444446],[-118.30083333333333,33.559999999999995],[-118.18694444444445,33.47555555555556],[-118.07472222222222,33.391666666666666],[-117.96055555555556,33.30611111111111],[-117.84694444444445,33.221111111111114],[-117.73194444444445,33.13444444444444],[-117.3913888888889,32.87638888888889],[-117.06361111111111,32.62555555555556]],"type":"LineString"}
}
