{
  "id": 2047944421,
  "type": "Feature",
  "properties": {
    "geom:area": 0,
    "geom:bbox": "-122.563360,37.192510,-121.257940,37.672490",
    "geom:latitude": 37.38742871250044,
    "geom:longitude": -122.01793091948431,
    "src:alt_label": "swim-takeoff",
    "src:geom": "swim",
    "swim:elevations": [
      213,
      616,
      677,
      949,
      1210,
      1743,
      2235,
      2398,
      2909,
      3282,
      3699,
      4020,
      4369,
      4613,
      5019,
      5290,
      5449,
      5694,
      6011,
      6133,
      6417,
      6657,
      6925,
      7024,
      7128,
      7219,
      7305,
      7487,
      7787,
      8069,
      8315,
      8504,
      8723
    ],
    "swim:geom": "takeoff",
    "swim:timestamps": [
      1786559113,
      1786559156,
      1786559164,
      1786559194,
      1786559220,
      1786559260,
      1786559298,
      1786559312,
      1786559355,
      1786559391,
      1786559427,
      1786559456,
      1786559488,
      1786559510,
      1786559543,
      1786559569,
      1786559587,
      1786559606,
      1786559638,
      1786559652,
      1786559685,
      1786559713,
      1786559746,
      1786559756,
      1786559770,
      1786559783,
      1786559796,
      1786559827,
      1786559865,
      1786559906,
      1786559943,
      1786559967,
      1786560008
    ],
    "wof:geomhash": "303528362c2c7e9441821e5bcce2f3e1",
    "wof:id": 2047944421,
    "wof:repo": "sfomuseum-data-flights-2026-08"
  },
  "bbox": [
    -122.56336,
    37.19251,
    -121.25794,
    37.67249
  ],
  "geometry": {"type":"LineString","coordinates":[[-122.39253,37.62619],[-122.432,37.64275],[-122.44009,37.64611],[-122.47593,37.66147],[-122.51043,37.67249],[-122.56336,37.65151],[-122.5616,37.60619],[-122.54898,37.59014],[-122.51158,37.54029],[-122.48046,37.49722],[-122.43083,37.46457],[-122.38623,37.43916],[-122.3367,37.41166],[-122.29592,37.40243],[-122.23296,37.39054],[-122.18168,37.38033],[-122.14824,37.3738],[-122.11051,37.36611],[-122.04662,37.35327],[-122.01793,37.34759],[-121.95223,37.33454],[-121.89447,37.32286],[-121.826,37.30904],[-121.80538,37.30493],[-121.77554,37.29888],[-121.74799,37.29322],[-121.72138,37.28791],[-121.65652,37.27458],[-121.57197,37.25733],[-121.48376,37.23935],[-121.40359,37.22227],[-121.34942,37.21146],[-121.25794,37.19251]]}
}
