{
  "id": 2047882331,
  "type": "Feature",
  "properties": {
    "geom:area": 0,
    "geom:bbox": "-122.853060,37.522070,-122.039180,38.514750",
    "geom:latitude": 37.86327111075837,
    "geom:longitude": -122.4804157030154,
    "src:alt_label": "swim-approach",
    "src:geom": "swim",
    "swim:elevations": [
      7806,
      7514,
      7345,
      6690,
      6435,
      6254,
      5979,
      5587,
      5191,
      4970,
      4651,
      4584,
      4572,
      4511,
      4412,
      4193,
      4086,
      3935,
      3536,
      3475,
      3444,
      3101,
      2627,
      2477,
      2272,
      2193,
      2043,
      1917,
      1741,
      1645,
      1512,
      1461,
      1285,
      1173,
      1103,
      946,
      824,
      766,
      605,
      488,
      320,
      185,
      83
    ],
    "swim:geom": "approach",
    "swim:timestamps": [
      1786197317,
      1786197350,
      1786197368,
      1786197436,
      1786197462,
      1786197482,
      1786197512,
      1786197554,
      1786197593,
      1786197615,
      1786197646,
      1786197654,
      1786197680,
      1786197727,
      1786197770,
      1786197828,
      1786197848,
      1786197870,
      1786197924,
      1786197933,
      1786197938,
      1786197969,
      1786198015,
      1786198039,
      1786198076,
      1786198095,
      1786198118,
      1786198140,
      1786198168,
      1786198187,
      1786198222,
      1786198235,
      1786198277,
      1786198316,
      1786198330,
      1786198370,
      1786198396,
      1786198411,
      1786198454,
      1786198480,
      1786198520,
      1786198552,
      1786198577
    ],
    "wof:geomhash": "b53c61cd3a45629f5240330acc4d5652",
    "wof:id": 2047882331,
    "wof:repo": "sfomuseum-data-flights-2026-08"
  },
  "bbox": [
    -122.85306,
    37.52207,
    -122.03918,
    38.51475
  ],
  "geometry": {"type":"LineString","coordinates":[[-122.85306,38.51475],[-122.83527,38.45554],[-122.8258,38.42314],[-122.79029,38.30231],[-122.7775,38.25836],[-122.76741,38.2239],[-122.75215,38.17226],[-122.73177,38.10144],[-122.71258,38.03541],[-122.7021,37.99928],[-122.68712,37.94676],[-122.68286,37.93252],[-122.66383,37.89364],[-122.60784,37.83756],[-122.56176,37.79429],[-122.50504,37.74056],[-122.48652,37.72218],[-122.4577,37.70737],[-122.37958,37.68633],[-122.36767,37.68308],[-122.36072,37.68117],[-122.31648,37.66918],[-122.25226,37.65141],[-122.21914,37.64227],[-122.17369,37.6293],[-122.1514,37.62284],[-122.12622,37.61551],[-122.10244,37.60605],[-122.07339,37.59018],[-122.05522,37.58036],[-122.03918,37.55234],[-122.04803,37.54168],[-122.08957,37.52332],[-122.12811,37.52207],[-122.14138,37.52399],[-122.17621,37.53722],[-122.19799,37.5465],[-122.21,37.5516],[-122.24605,37.56688],[-122.26733,37.57593],[-122.29922,37.58922],[-122.32559,37.60045],[-122.34435,37.60813]]}
}
