{
  "id": 2047939259,
  "type": "Feature",
  "properties": {
    "geom:area": 0,
    "geom:bbox": "-122.836440,37.539390,-122.078280,38.460280",
    "geom:latitude": 37.86041299034859,
    "geom:longitude": -122.48885657002964,
    "src:alt_label": "swim-approach",
    "src:geom": "swim",
    "swim:elevations": [
      7590,
      7498,
      6980,
      6888,
      6569,
      6204,
      5994,
      5470,
      5282,
      4979,
      4860,
      4372,
      4115,
      3932,
      3528,
      3441,
      3352,
      3353,
      3318,
      3254,
      3107,
      2835,
      2641,
      2524,
      2298,
      2231,
      2016,
      1867,
      1516,
      1331,
      1123,
      1037,
      788,
      581,
      513,
      265,
      138,
      70
    ],
    "swim:geom": "approach",
    "swim:timestamps": [
      1786538692,
      1786538703,
      1786538753,
      1786538762,
      1786538794,
      1786538832,
      1786538853,
      1786538906,
      1786538924,
      1786538959,
      1786538970,
      1786539022,
      1786539050,
      1786539071,
      1786539118,
      1786539134,
      1786539168,
      1786539193,
      1786539213,
      1786539243,
      1786539270,
      1786539319,
      1786539354,
      1786539378,
      1786539414,
      1786539424,
      1786539453,
      1786539488,
      1786539532,
      1786539559,
      1786539596,
      1786539612,
      1786539644,
      1786539680,
      1786539694,
      1786539734,
      1786539769,
      1786539781
    ],
    "wof:geomhash": "682e2311a16c4bd73253141ef27bda76",
    "wof:id": 2047939259,
    "wof:repo": "sfomuseum-data-flights-2026-08"
  },
  "bbox": [
    -122.83644,
    37.53939,
    -122.07828,
    38.46028
  ],
  "geometry": {"type":"LineString","coordinates":[[-122.83644,38.46028],[-122.83119,38.44233],[-122.80489,38.35269],[-122.8005,38.33756],[-122.78415,38.28195],[-122.7651,38.21654],[-122.75481,38.18101],[-122.72934,38.0932],[-122.72078,38.06379],[-122.70477,38.00811],[-122.69963,37.99038],[-122.67464,37.91016],[-122.64482,37.87263],[-122.61853,37.84794],[-122.55975,37.79224],[-122.53994,37.7737],[-122.50097,37.73671],[-122.46913,37.71241],[-122.43594,37.70324],[-122.39068,37.69316],[-122.35092,37.68413],[-122.27936,37.66761],[-122.22901,37.65647],[-122.19583,37.64905],[-122.15269,37.6296],[-122.14138,37.62419],[-122.10648,37.6074],[-122.07828,37.58023],[-122.10454,37.54148],[-122.13801,37.53939],[-122.18144,37.55472],[-122.19763,37.56187],[-122.23101,37.57349],[-122.26609,37.58475],[-122.27749,37.58826],[-122.30984,37.59723],[-122.33718,37.60594],[-122.34591,37.60908]]}
}
