{
  "id": 2048064839,
  "type": "Feature",
  "properties": {
    "geom:area": 0,
    "geom:bbox": "-122.758720,37.411330,-122.085320,38.503200",
    "geom:latitude": 37.83938135130219,
    "geom:longitude": -122.4617126496629,
    "src:alt_label": "swim-approach",
    "src:geom": "swim",
    "swim:elevations": [
      8259,
      8173,
      7589,
      7354,
      7091,
      6884,
      6565,
      6200,
      5984,
      5862,
      5547,
      5235,
      5007,
      4678,
      4443,
      4208,
      4081,
      3732,
      3430,
      3355,
      3353,
      3353,
      3255,
      3089,
      2767,
      2322,
      2243,
      1922,
      1864,
      1647,
      1346,
      1273,
      1219,
      1219,
      1219,
      1219,
      1219,
      1219,
      1124,
      1065,
      988,
      823,
      769,
      574,
      423,
      374,
      226,
      82,
      0
    ],
    "swim:geom": "approach",
    "swim:timestamps": [
      1787184981,
      1787184990,
      1787185047,
      1787185073,
      1787185102,
      1787185123,
      1787185159,
      1787185198,
      1787185224,
      1787185237,
      1787185273,
      1787185309,
      1787185336,
      1787185376,
      1787185402,
      1787185427,
      1787185442,
      1787185487,
      1787185526,
      1787185552,
      1787185585,
      1787185612,
      1787185646,
      1787185667,
      1787185694,
      1787185736,
      1787185742,
      1787185798,
      1787185810,
      1787185840,
      1787185882,
      1787185891,
      1787185942,
      1787185977,
      1787185983,
      1787186007,
      1787186025,
      1787186055,
      1787186094,
      1787186124,
      1787186145,
      1787186184,
      1787186193,
      1787186234,
      1787186272,
      1787186287,
      1787186327,
      1787186367,
      1787186388
    ],
    "wof:geomhash": "b43e42995519d39d0333924c4c21bca9",
    "wof:id": 2048064839,
    "wof:repo": "sfomuseum-data-flights-2026-08"
  },
  "bbox": [
    -122.75872,
    37.41133,
    -122.08532,
    38.5032
  ],
  "geometry": {"type":"LineString","coordinates":[[-122.48205,38.5032],[-122.49498,38.4905],[-122.5777,38.40909],[-122.6144,38.37347],[-122.65483,38.33409],[-122.68365,38.30618],[-122.73193,38.25906],[-122.75872,38.2017],[-122.74777,38.16064],[-122.74199,38.13956],[-122.72612,38.08316],[-122.70997,38.02702],[-122.69781,37.98503],[-122.67998,37.92374],[-122.65871,37.88647],[-122.62605,37.85559],[-122.60661,37.83699],[-122.54961,37.78322],[-122.50323,37.73925],[-122.47435,37.71199],[-122.43774,37.6777],[-122.40841,37.65009],[-122.37484,37.61828],[-122.36125,37.59789],[-122.3458,37.57116],[-122.32003,37.52925],[-122.31635,37.52329],[-122.28362,37.47036],[-122.27754,37.46043],[-122.26091,37.43658],[-122.2135,37.4245],[-122.20296,37.42267],[-122.14321,37.41133],[-122.10468,37.41559],[-122.10029,37.41994],[-122.09099,37.44082],[-122.08532,37.4569],[-122.09401,37.48197],[-122.11942,37.51002],[-122.14674,37.52453],[-122.16674,37.53326],[-122.20347,37.54894],[-122.21187,37.55248],[-122.24953,37.56829],[-122.28098,37.58158],[-122.29171,37.58605],[-122.31887,37.59745],[-122.34579,37.60875],[-122.35917,37.61448]]}
}
