{
  "id": 2032115387,
  "type": "Feature",
  "properties": {
    "geom:area": 0,
    "geom:bbox": "-122.356460,37.452240,-121.286330,37.619650",
    "geom:latitude": 37.54596623031261,
    "geom:longitude": -121.82746113838411,
    "src:alt_label": "swim-approach",
    "src:geom": "swim",
    "swim:elevations": [
      4397,
      4286,
      4000,
      3944,
      3822,
      3636,
      3406,
      3248,
      3123,
      3109,
      3100,
      3078,
      3048,
      3048,
      2832,
      2743,
      2703,
      2469,
      2463,
      2435,
      2341,
      2253,
      2134,
      2031,
      1893,
      1829,
      1829,
      1639,
      1337,
      1219,
      1056,
      1016,
      902,
      707,
      476,
      327,
      295,
      96,
      21
    ],
    "swim:geom": "approach",
    "swim:timestamps": [
      1785967611,
      1785967624,
      1785967654,
      1785967660,
      1785967673,
      1785967691,
      1785967715,
      1785967732,
      1785967765,
      1785967770,
      1785967773,
      1785967779,
      1785967886,
      1785967897,
      1785967947,
      1785967965,
      1785967997,
      1785968038,
      1785968041,
      1785968050,
      1785968098,
      1785968111,
      1785968150,
      1785968172,
      1785968191,
      1785968225,
      1785968246,
      1785968270,
      1785968299,
      1785968318,
      1785968342,
      1785968348,
      1785968372,
      1785968410,
      1785968456,
      1785968486,
      1785968495,
      1785968546,
      1785968567
    ],
    "wof:geomhash": "1b07364e206dc1158651439869980915",
    "wof:id": 2032115387,
    "wof:repo": "sfomuseum-data-flights-2026-08"
  },
  "bbox": [
    -122.35646,
    37.45224,
    -121.28633,
    37.61965
  ],
  "geometry": {"type":"LineString","coordinates":[[-121.28633,37.58968],[-121.31224,37.58648],[-121.37241,37.57969],[-121.38563,37.57828],[-121.411,37.57548],[-121.44582,37.57167],[-121.49049,37.5667],[-121.52148,37.56307],[-121.57593,37.55658],[-121.58349,37.55569],[-121.58807,37.55515],[-121.59715,37.55409],[-121.73551,37.61227],[-121.74848,37.61965],[-121.81247,37.61089],[-121.81799,37.59175],[-121.81233,37.5571],[-121.80834,37.51308],[-121.80959,37.51],[-121.8141,37.50088],[-121.85133,37.45903],[-121.86921,37.45638],[-121.92291,37.4537],[-121.95295,37.45224],[-121.98001,37.45561],[-122.02323,37.47258],[-122.04976,37.48397],[-122.0787,37.49623],[-122.11342,37.51093],[-122.13617,37.52059],[-122.16044,37.53075],[-122.16632,37.53319],[-122.18974,37.54303],[-122.22608,37.55846],[-122.27239,37.57794],[-122.29933,37.58929],[-122.3063,37.59218],[-122.34235,37.60735],[-122.35646,37.61321]]}
}
