{
  "id": 2032116487,
  "type": "Feature",
  "properties": {
    "geom:area": 0,
    "geom:bbox": "-156.400000,20.950000,-122.050000,37.600000",
    "geom:latitude": 29.838787802271334,
    "geom:longitude": -139.45799069356642,
    "src:alt_label": "swim-path",
    "src:geom": "swim",
    "swim:altitudes": [
      "025C",
      "048C",
      "073C",
      "120C",
      "146C",
      "159C",
      "174C",
      "185C",
      "197C",
      "210C",
      "221C",
      "230C",
      "239C",
      "249C",
      "258C",
      "267C",
      "277C",
      "289C",
      "317C",
      "326C",
      "333C",
      "340",
      "340",
      "340",
      "340",
      "340",
      "340",
      "340",
      "340",
      "340",
      "339",
      "339",
      "339C",
      "340C",
      "340C",
      "340C",
      "340C",
      "339C",
      "340C",
      "339C",
      "339C",
      "340",
      "340",
      "340",
      "339",
      "339",
      "340",
      "339",
      "335",
      "310",
      "282",
      "260",
      "237",
      "215",
      "193",
      "151",
      "141",
      "130",
      "118",
      "108",
      "100",
      "100",
      "097",
      "093",
      "087",
      "080",
      "080",
      "080",
      "080",
      "080",
      "080",
      "080",
      "075",
      "064",
      "053",
      "043",
      "034",
      "030",
      "030",
      "030",
      "030",
      "026",
      "021",
      "017",
      "013",
      "009",
      "004"
    ],
    "swim:geom": "path",
    "swim:speeds": [
      210,
      250,
      280,
      310,
      370,
      400,
      420,
      430,
      440,
      450,
      460,
      470,
      480,
      490,
      500,
      500,
      510,
      510,
      490,
      490,
      500,
      500,
      510,
      510,
      510,
      510,
      510,
      510,
      510,
      510,
      510,
      510,
      484,
      482,
      482,
      472,
      461,
      459,
      458,
      457,
      457,
      456,
      455,
      455,
      455,
      456,
      457,
      459,
      462,
      463,
      466,
      459,
      444,
      430,
      418,
      388,
      380,
      381,
      368,
      366,
      336,
      313,
      289,
      291,
      286,
      284,
      286,
      280,
      283,
      280,
      282,
      271,
      272,
      265,
      259,
      259,
      254,
      231,
      225,
      221,
      201,
      198,
      185,
      174,
      166,
      165,
      153
    ],
    "swim:timestamps": [
      1785917619,
      1785917679,
      1785917739,
      1785917859,
      1785917980,
      1785918040,
      1785918100,
      1785918160,
      1785918220,
      1785918280,
      1785918340,
      1785918400,
      1785918460,
      1785918520,
      1785918580,
      1785918640,
      1785918700,
      1785918760,
      1785918880,
      1785918940,
      1785919000,
      1785919060,
      1785919120,
      1785919180,
      1785919240,
      1785919300,
      1785919360,
      1785919421,
      1785919481,
      1785919541,
      1785919573,
      1785919634,
      1785930703,
      1785930763,
      1785930823,
      1785930883,
      1785930943,
      1785931003,
      1785931063,
      1785931123,
      1785931183,
      1785931243,
      1785931363,
      1785931423,
      1785931483,
      1785931544,
      1785931604,
      1785931664,
      1785931724,
      1785931784,
      1785931844,
      1785931904,
      1785931964,
      1785932024,
      1785932084,
      1785932204,
      1785932230,
      1785932264,
      1785932295,
      1785932324,
      1785932355,
      1785932384,
      1785932416,
      1785932444,
      1785932476,
      1785932536,
      1785932564,
      1785932596,
      1785932624,
      1785932656,
      1785932684,
      1785932722,
      1785932744,
      1785932782,
      1785932824,
      1785932864,
      1785932890,
      1785932924,
      1785932944,
      1785932984,
      1785933004,
      1785933044,
      1785933076,
      1785933104,
      1785933130,
      1785933164,
      1785933190
    ],
    "wof:geomhash": "5aae40b79eecb6233954cb887d0eca0c",
    "wof:id": 2032116487,
    "wof:repo": "sfomuseum-data-flights-2026-08"
  },
  "bbox": [
    -156.4,
    20.95,
    -122.05,
    37.6
  ],
  "geometry": {"type":"LineString","coordinates":[[-156.4,20.95],[-156.4,21.016666666666666],[-156.38333333333333,21.1],[-156.31666666666666,21.25],[-156.16666666666666,21.383333333333333],[-156.08333333333334,21.45],[-156,21.533333333333335],[-155.9,21.616666666666667],[-155.8,21.7],[-155.71666666666667,21.783333333333335],[-155.61666666666667,21.866666666666667],[-155.5,21.95],[-155.4,22.05],[-155.3,22.133333333333333],[-155.18333333333334,22.233333333333334],[-155.06666666666666,22.333333333333332],[-154.96666666666667,22.433333333333334],[-154.85,22.516666666666666],[-154.63333333333333,22.7],[-154.51666666666668,22.8],[-154.41666666666666,22.9],[-154.3,22.983333333333334],[-154.18333333333334,23.083333333333332],[-154.06666666666666,23.183333333333334],[-153.95,23.266666666666666],[-153.85,23.366666666666667],[-153.73333333333332,23.466666666666665],[-153.61666666666667,23.566666666666666],[-153.5,23.65],[-153.38333333333333,23.75],[-153.31666666666666,23.8],[-153.18333333333334,23.883333333333333],[-126.54027777777777,35.60333333333333],[-126.38416666666667,35.64833333333333],[-126.23111111111112,35.692499999999995],[-126.07638888888889,35.73777777777778],[-125.93305555555555,35.786944444444444],[-125.78916666666666,35.836111111111116],[-125.64472222222223,35.88583333333333],[-125.50194444444445,35.93388888888889],[-125.35805555555555,35.9825],[-125.21888888888888,36.03972222222222],[-124.93166666666667,36.19277777777778],[-124.80027777777778,36.26222222222222],[-124.67027777777778,36.33083333333334],[-124.53916666666666,36.39972222222222],[-124.405,36.47027777777778],[-124.27222222222223,36.53944444444444],[-124.13666666666667,36.609722222222224],[-124.00194444444445,36.67972222222222],[-123.86527777777778,36.75],[-123.73166666666667,36.81861111111112],[-123.60249999999999,36.88444444444444],[-123.47638888888889,36.948611111111106],[-123.35499999999999,37.01027777777778],[-123.12444444444444,37.126666666666665],[-123.08333333333333,37.15],[-123.01388888888889,37.1825],[-122.95,37.21666666666667],[-122.90694444444445,37.23583333333333],[-122.85,37.266666666666666],[-122.80083333333333,37.27194444444444],[-122.75,37.28333333333333],[-122.70472222222223,37.29472222222222],[-122.65,37.3],[-122.55,37.333333333333336],[-122.51444444444445,37.33888888888889],[-122.46666666666667,37.35],[-122.42166666666667,37.36027777777778],[-122.36666666666666,37.36666666666667],[-122.32805555555555,37.38166666666667],[-122.26666666666667,37.4],[-122.23694444444445,37.40277777777778],[-122.18333333333334,37.416666666666664],[-122.11666666666666,37.43333333333333],[-122.06472222222222,37.44472222222222],[-122.05,37.483333333333334],[-122.07583333333334,37.49888888888889],[-122.1,37.5],[-122.14527777777778,37.52444444444444],[-122.16666666666667,37.53333333333333],[-122.20722222222223,37.55027777777777],[-122.23333333333333,37.56666666666667],[-122.26277777777777,37.573888888888895],[-122.28333333333333,37.583333333333336],[-122.31305555555555,37.595],[-122.33333333333333,37.6]]}
}
