{
  "id": 2048078829,
  "type": "Feature",
  "properties": {
    "geom:area": 0,
    "geom:bbox": "-122.338220,37.483020,-121.263550,37.606260",
    "geom:latitude": 37.54677342869224,
    "geom:longitude": -121.80577527325912,
    "src:alt_label": "swim-approach",
    "src:geom": "swim",
    "swim:elevations": [
      4770,
      4402,
      4241,
      4084,
      4084,
      3922,
      3729,
      3539,
      3261,
      3149,
      3048,
      2986,
      2603,
      2485,
      2312,
      2038,
      1887,
      1837,
      1704,
      1419,
      1280,
      1100,
      964,
      812,
      549,
      479,
      383,
      216,
      142
    ],
    "swim:geom": "approach",
    "swim:timestamps": [
      1787236302,
      1787236337,
      1787236356,
      1787236402,
      1787236411,
      1787236447,
      1787236487,
      1787236513,
      1787236545,
      1787236562,
      1787236610,
      1787236636,
      1787236674,
      1787236694,
      1787236720,
      1787236755,
      1787236790,
      1787236808,
      1787236832,
      1787236878,
      1787236901,
      1787236934,
      1787236959,
      1787236981,
      1787237036,
      1787237050,
      1787237075,
      1787237114,
      1787237137
    ],
    "wof:geomhash": "5a8ae2ee64e9aaace277a204b6f90540",
    "wof:id": 2048078829,
    "wof:repo": "sfomuseum-data-flights-2026-08"
  },
  "bbox": [
    -122.33822,
    37.48302,
    -121.26355,
    37.60626
  ],
  "geometry": {"type":"LineString","coordinates":[[-121.26355,37.59263],[-121.33252,37.58464],[-121.36949,37.58056],[-121.45344,37.57089],[-121.46817,37.56917],[-121.5253,37.5624],[-121.58458,37.55555],[-121.621,37.5511],[-121.66386,37.54146],[-121.68664,37.53653],[-121.75044,37.55559],[-121.78305,37.54774],[-121.82111,37.51792],[-121.84088,37.50244],[-121.86687,37.48302],[-121.91263,37.48473],[-121.96012,37.49025],[-121.98502,37.49415],[-122.01466,37.50332],[-122.07318,37.52231],[-122.10281,37.532],[-122.14328,37.54492],[-122.1723,37.55439],[-122.1974,37.56261],[-122.25314,37.58058],[-122.26643,37.58475],[-122.28754,37.59045],[-122.31964,37.60013],[-122.33822,37.60626]]}
}
