{
  "id": 2047903543,
  "type": "Feature",
  "properties": {
    "geom:area": 0,
    "geom:bbox": "-122.527500,34.197500,-118.341111,37.667778",
    "geom:latitude": 35.833126123674944,
    "geom:longitude": -120.56261704422958,
    "src:alt_label": "swim-path",
    "src:geom": "swim",
    "swim:altitudes": [
      "007",
      "010",
      "030",
      "038",
      "056",
      "082",
      "136",
      "157",
      "168",
      "183",
      "195",
      "212",
      "213",
      "226",
      "238",
      "239",
      "251",
      "269C",
      "270C",
      "270C",
      "270C",
      "270C",
      "270C",
      "270C",
      "270C",
      "270C",
      "270C",
      "269C",
      "270C",
      "270C",
      "270",
      "270",
      "270",
      "270",
      "270",
      "270",
      "270",
      "261",
      "259",
      "241",
      "235",
      "214",
      "208",
      "189",
      "183",
      "149",
      "145",
      "129",
      "119",
      "110",
      "099",
      "085",
      "069",
      "055",
      "050",
      "044",
      "039",
      "029",
      "028",
      "021",
      "019",
      "012",
      "011",
      "007"
    ],
    "swim:geom": "path",
    "swim:speeds": [
      145,
      147,
      158,
      215,
      283,
      293,
      308,
      316,
      366,
      398,
      408,
      418,
      424,
      427,
      436,
      442,
      448,
      447,
      448,
      456,
      458,
      461,
      463,
      464,
      464,
      464,
      464,
      464,
      464,
      465,
      464,
      464,
      464,
      464,
      465,
      465,
      466,
      456,
      454,
      452,
      445,
      437,
      434,
      423,
      420,
      390,
      390,
      375,
      340,
      308,
      299,
      293,
      290,
      289,
      261,
      240,
      237,
      215,
      216,
      175,
      176,
      143,
      146,
      144
    ],
    "swim:timestamps": [
      1786310688,
      1786310706,
      1786310766,
      1786310826,
      1786310886,
      1786310946,
      1786311067,
      1786311127,
      1786311187,
      1786311247,
      1786311301,
      1786311361,
      1786311367,
      1786311421,
      1786311481,
      1786311487,
      1786311547,
      1786311607,
      1786311661,
      1786311667,
      1786311728,
      1786311788,
      1786311848,
      1786311908,
      1786311968,
      1786312028,
      1786312082,
      1786312088,
      1786312148,
      1786312202,
      1786312262,
      1786312268,
      1786312328,
      1786312382,
      1786312443,
      1786312449,
      1786312503,
      1786312563,
      1786312569,
      1786312623,
      1786312629,
      1786312683,
      1786312689,
      1786312743,
      1786312749,
      1786312863,
      1786312869,
      1786312929,
      1786312983,
      1786313043,
      1786313104,
      1786313150,
      1786313211,
      1786313284,
      1786313344,
      1786313404,
      1786313464,
      1786313512,
      1786313524,
      1786313572,
      1786313584,
      1786313630,
      1786313644,
      1786313704
    ],
    "wof:geomhash": "18f5985a08b7994f951e89121c569844",
    "wof:id": 2047903543,
    "wof:repo": "sfomuseum-data-flights-2026-08"
  },
  "bbox": [
    -122.5275,
    34.1975,
    -118.3411111111111,
    37.66777777777777
  ],
  "geometry": {"type":"LineString","coordinates":[[-122.38333333333334,37.61666666666667],[-122.39472222222223,37.62694444444445],[-122.44388888888889,37.64833333333333],[-122.5038888888889,37.66777777777777],[-122.5275,37.60722222222223],[-122.46027777777778,37.54611111111111],[-122.31611111111111,37.41972222222222],[-122.2425,37.35472222222222],[-122.16083333333334,37.2825],[-122.06777777777778,37.19972222222222],[-121.9786111111111,37.115],[-121.88222222222221,37.026666666666664],[-121.87249999999999,37.02611111111111],[-121.78083333333333,36.9375],[-121.67666666666668,36.84666666666667],[-121.67055555555557,36.845],[-121.565,36.75],[-121.46333333333334,36.657777777777774],[-121.36722222222221,36.566111111111105],[-121.35888888888888,36.562777777777775],[-121.25444444444445,36.467777777777776],[-121.14888888888889,36.37138888888889],[-121.04638888888888,36.270833333333336],[-120.94444444444444,36.170833333333334],[-120.84305555555555,36.07166666666667],[-120.74222222222222,35.97222222222222],[-120.64305555555556,35.87444444444444],[-120.6413888888889,35.87277777777778],[-120.54027777777777,35.7725],[-120.44083333333333,35.67361111111111],[-120.35388888888889,35.58694444444445],[-120.33722222222222,35.57027777777778],[-120.23138888888889,35.469722222222224],[-120.14861111111112,35.39],[-120.04805555555555,35.29277777777778],[-120.02416666666666,35.269999999999996],[-119.94416666666667,35.19277777777778],[-119.84444444444443,35.09583333333334],[-119.82194444444444,35.073888888888895],[-119.745,34.99888888888889],[-119.72444444444444,34.97888888888889],[-119.64972222222222,34.90611111111111],[-119.62833333333333,34.88527777777778],[-119.5461111111111,34.827222222222225],[-119.5213888888889,34.81027777777778],[-119.33638888888889,34.68833333333333],[-119.31277777777777,34.6725],[-119.2063888888889,34.61333333333334],[-119.12555555555555,34.57333333333334],[-119.03555555555555,34.53111111111111],[-118.97888888888889,34.46222222222222],[-118.93333333333334,34.4],[-118.86666666666666,34.333333333333336],[-118.80416666666666,34.269444444444446],[-118.73527777777778,34.223055555555554],[-118.65527777777778,34.20888888888889],[-118.57694444444444,34.20111111111111],[-118.51666666666667,34.2],[-118.50555555555556,34.19972222222222],[-118.45,34.2],[-118.4413888888889,34.19888888888889],[-118.4,34.2],[-118.39194444444445,34.19833333333333],[-118.3411111111111,34.1975]]}
}
