{
  "id": 2047945609,
  "type": "Feature",
  "properties": {
    "geom:area": 0,
    "geom:bbox": "-121.794150,37.865040,-121.286570,37.958790",
    "geom:latitude": 37.9119651327439,
    "geom:longitude": -121.54036905465088,
    "src:alt_label": "swim-takeoff",
    "src:geom": "swim",
    "swim:elevations": [
      3939,
      4106,
      4438,
      4654,
      4787,
      5304,
      5630,
      5945,
      6066
    ],
    "swim:geom": "takeoff",
    "swim:timestamps": [
      1786556171,
      1786556190,
      1786556221,
      1786556244,
      1786556258,
      1786556306,
      1786556332,
      1786556368,
      1786556386
    ],
    "wof:geomhash": "6b36b2a0db6c90c0ece047abcf9aa4ce",
    "wof:id": 2047945609,
    "wof:repo": "sfomuseum-data-flights-2026-08"
  },
  "bbox": [
    -121.79415,
    37.86504,
    -121.28657,
    37.95879
  ],
  "geometry": {"type":"LineString","coordinates":[[-121.79415,37.86504],[-121.75084,37.87306],[-121.68114,37.88605],[-121.62597,37.8963],[-121.59285,37.90239],[-121.47933,37.92311],[-121.4167,37.93465],[-121.33007,37.95091],[-121.28657,37.95879]]}
}
