{
  "id": 2032086809,
  "type": "Feature",
  "properties": {
    "geom:area": 0,
    "geom:bbox": "-122.354770,37.491800,-121.251930,37.612520",
    "geom:latitude": 37.54237089034235,
    "geom:longitude": -121.81033625159051,
    "src:alt_label": "swim-approach",
    "src:geom": "swim",
    "swim:elevations": [
      4504,
      4256,
      4030,
      3681,
      3481,
      3432,
      3416,
      3311,
      2992,
      2749,
      2495,
      2436,
      2437,
      2438,
      2381,
      2244,
      2035,
      2006,
      1889,
      1877,
      1845,
      1676,
      1405,
      1263,
      1053,
      960,
      794,
      611,
      420,
      321,
      202,
      69,
      31
    ],
    "swim:geom": "approach",
    "swim:timestamps": [
      1785761007,
      1785761033,
      1785761058,
      1785761095,
      1785761118,
      1785761158,
      1785761171,
      1785761201,
      1785761237,
      1785761263,
      1785761298,
      1785761311,
      1785761315,
      1785761318,
      1785761349,
      1785761375,
      1785761418,
      1785761422,
      1785761448,
      1785761453,
      1785761458,
      1785761498,
      1785761541,
      1785761568,
      1785761602,
      1785761618,
      1785761648,
      1785761681,
      1785761722,
      1785761743,
      1785761777,
      1785761809,
      1785761820
    ],
    "wof:geomhash": "a1de9183f9d6fe8cf9524b2807947512",
    "wof:id": 2032086809,
    "wof:repo": "sfomuseum-data-flights-2026-08"
  },
  "bbox": [
    -122.35477,
    37.4918,
    -121.25193,
    37.61252
  ],
  "geometry": {"type":"LineString","coordinates":[[-121.25193,37.59387],[-121.30468,37.58689],[-121.35488,37.58127],[-121.42593,37.57343],[-121.47034,37.56854],[-121.54021,37.5602],[-121.56127,37.55769],[-121.60622,37.5525],[-121.65541,37.54332],[-121.69118,37.53466],[-121.74019,37.52299],[-121.75749,37.51893],[-121.76309,37.51762],[-121.76712,37.51667],[-121.80884,37.50656],[-121.84392,37.498],[-121.90265,37.4918],[-121.90756,37.49207],[-121.94427,37.49443],[-121.95023,37.49481],[-121.95731,37.49525],[-122.01238,37.49858],[-122.07132,37.50197],[-122.10827,37.50818],[-122.1501,37.52645],[-122.16951,37.53459],[-122.20397,37.5489],[-122.23901,37.56389],[-122.27756,37.58013],[-122.29617,37.58789],[-122.32272,37.59915],[-122.3465,37.60901],[-122.35477,37.61252]]}
}
