{
  "id": 2048098055,
  "type": "Feature",
  "properties": {
    "geom:area": 0,
    "geom:bbox": "-122.392900,37.620940,-122.114380,38.512810",
    "geom:latitude": 38.044593911841595,
    "geom:longitude": -122.21200171003076,
    "src:alt_label": "swim-takeoff",
    "src:geom": "swim",
    "swim:elevations": [
      122,
      506,
      880,
      1005,
      1252,
      1447,
      1471,
      2083,
      2282,
      2802,
      3010,
      3322,
      3711,
      3908,
      4410,
      4448,
      4930,
      5085,
      5274,
      5478,
      5820,
      6059,
      6191,
      6398,
      6705
    ],
    "swim:geom": "takeoff",
    "swim:timestamps": [
      1787299863,
      1787299896,
      1787299939,
      1787299954,
      1787300007,
      1787300038,
      1787300041,
      1787300087,
      1787300103,
      1787300142,
      1787300158,
      1787300184,
      1787300214,
      1787300231,
      1787300278,
      1787300282,
      1787300323,
      1787300336,
      1787300362,
      1787300394,
      1787300429,
      1787300452,
      1787300466,
      1787300492,
      1787300527
    ],
    "wof:geomhash": "fc3cfad52a5de325fa6a0a6ad87fb047",
    "wof:id": 2048098055,
    "wof:repo": "sfomuseum-data-flights-2026-08"
  },
  "bbox": [
    -122.3929,
    37.62094,
    -122.11438,
    38.51281
  ],
  "geometry": {"type":"LineString","coordinates":[[-122.38008,37.62094],[-122.3929,37.63864],[-122.36045,37.65774],[-122.34818,37.66282],[-122.30766,37.69746],[-122.2963,37.7325],[-122.29513,37.7363],[-122.27627,37.7968],[-122.27012,37.81772],[-122.25377,37.87324],[-122.24626,37.89656],[-122.23442,37.93444],[-122.22105,37.97963],[-122.21378,38.00487],[-122.19107,38.07768],[-122.18892,38.08472],[-122.1696,38.14978],[-122.16282,38.17098],[-122.14965,38.21229],[-122.13232,38.26856],[-122.11463,38.32909],[-122.11438,38.37219],[-122.11622,38.39817],[-122.11964,38.44525],[-122.12461,38.51281]]}
}
