{
  "id": 2048068105,
  "type": "Feature",
  "properties": {
    "geom:area": 0,
    "geom:bbox": "-122.405850,37.627260,-121.481440,38.485690",
    "geom:latitude": 38.03487688947823,
    "geom:longitude": -121.93719392968517,
    "src:alt_label": "swim-takeoff",
    "src:geom": "swim",
    "swim:elevations": [
      293,
      405,
      547,
      721,
      997,
      1281,
      1749,
      2118,
      2139,
      2623,
      2806,
      3194,
      3288,
      3530,
      3775,
      4043,
      4136,
      4377,
      4768,
      4933,
      5223,
      5418,
      5487,
      5635,
      5883,
      6038
    ],
    "swim:geom": "takeoff",
    "swim:timestamps": [
      1787151922,
      1787151947,
      1787151972,
      1787152006,
      1787152033,
      1787152057,
      1787152104,
      1787152139,
      1787152142,
      1787152188,
      1787152208,
      1787152257,
      1787152279,
      1787152313,
      1787152343,
      1787152374,
      1787152385,
      1787152419,
      1787152468,
      1787152487,
      1787152525,
      1787152555,
      1787152572,
      1787152608,
      1787152646,
      1787152667
    ],
    "wof:geomhash": "6482324ff1da982898f2688aafbf4ae3",
    "wof:id": 2048068105,
    "wof:repo": "sfomuseum-data-flights-2026-08"
  },
  "bbox": [
    -122.40585,
    37.62726,
    -121.48144,
    38.48569
  ],
  "geometry": {"type":"LineString","coordinates":[[-122.3956,37.62726],[-122.40585,37.64485],[-122.3854,37.66375],[-122.33928,37.6762],[-122.29888,37.687],[-122.26439,37.69859],[-122.20077,37.73152],[-122.16774,37.76955],[-122.16451,37.77316],[-122.11723,37.82513],[-122.09678,37.84758],[-122.0452,37.90442],[-122.01951,37.93276],[-121.97983,37.97633],[-121.94238,38.01734],[-121.90284,38.06074],[-121.89014,38.07466],[-121.84661,38.12234],[-121.78123,38.19374],[-121.75514,38.22219],[-121.7047,38.27748],[-121.66355,38.3223],[-121.63933,38.34866],[-121.58772,38.40457],[-121.52483,38.46008],[-121.48144,38.48569]]}
}
