{
  "id": 2032119697,
  "type": "Feature",
  "properties": {
    "geom:area": 0,
    "geom:bbox": "-122.401330,37.623690,-121.256440,37.990900",
    "geom:latitude": 37.93415220743488,
    "geom:longitude": -121.9489566511828,
    "src:alt_label": "swim-takeoff",
    "src:geom": "swim",
    "swim:elevations": [
      152,
      477,
      669,
      1015,
      1368,
      1725,
      1875,
      2178,
      2228,
      2394,
      2560,
      2745,
      3040,
      3161,
      3183,
      3200,
      3236,
      3356,
      3466,
      3593,
      3659,
      3859,
      4129,
      4267,
      4309,
      4356,
      4492,
      4602,
      4650,
      4797,
      4887,
      4970,
      5088,
      5202,
      5348,
      5434,
      5519,
      5597,
      5747,
      5931,
      5959,
      6042,
      6488,
      6863,
      7015,
      7258,
      7581,
      7690
    ],
    "swim:geom": "takeoff",
    "swim:timestamps": [
      1785977860,
      1785977888,
      1785977918,
      1785977964,
      1785977994,
      1785978024,
      1785978037,
      1785978064,
      1785978067,
      1785978079,
      1785978091,
      1785978106,
      1785978133,
      1785978147,
      1785978150,
      1785978153,
      1785978165,
      1785978186,
      1785978198,
      1785978207,
      1785978213,
      1785978231,
      1785978251,
      1785978263,
      1785978268,
      1785978271,
      1785978282,
      1785978294,
      1785978300,
      1785978309,
      1785978315,
      1785978321,
      1785978333,
      1785978344,
      1785978358,
      1785978367,
      1785978377,
      1785978386,
      1785978401,
      1785978422,
      1785978425,
      1785978434,
      1785978482,
      1785978533,
      1785978551,
      1785978581,
      1785978624,
      1785978643
    ],
    "wof:geomhash": "7780c7df79baa021254f253bdf726a3c",
    "wof:id": 2032119697,
    "wof:repo": "sfomuseum-data-flights-2026-08"
  },
  "bbox": [
    -122.40133,
    37.62369,
    -121.25644,
    37.9909
  ],
  "geometry": {"type":"LineString","coordinates":[[-122.38689,37.62369],[-122.40133,37.63895],[-122.38996,37.66291],[-122.3524,37.70468],[-122.33443,37.73955],[-122.35008,37.77666],[-122.35897,37.79287],[-122.37726,37.82757],[-122.37929,37.83154],[-122.38539,37.84774],[-122.38639,37.86468],[-122.38569,37.88596],[-122.37718,37.92453],[-122.36179,37.93999],[-122.35741,37.94286],[-122.3527,37.94545],[-122.33144,37.95241],[-122.29043,37.96006],[-122.26613,37.96448],[-122.24785,37.96795],[-122.23564,37.97033],[-122.19872,37.97761],[-122.15738,37.98578],[-122.13206,37.98831],[-122.12189,37.98854],[-122.11549,37.98864],[-122.09113,37.98869],[-122.0654,37.98872],[-122.0524,37.98875],[-122.03281,37.98878],[-122.01986,37.98881],[-122.00694,37.98884],[-121.98123,37.98894],[-121.95721,37.98907],[-121.92776,37.98921],[-121.90809,37.98931],[-121.88706,37.98942],[-121.8673,37.98951],[-121.83161,37.98964],[-121.7844,37.98992],[-121.7776,37.98996],[-121.7572,37.99001],[-121.64598,37.9904],[-121.52529,37.99072],[-121.48186,37.99079],[-121.40902,37.9909],[-121.3042,37.9909],[-121.25644,37.99057]]}
}
