{
  "id": 2047993187,
  "type": "Feature",
  "properties": {
    "date:cessation_lower": "2026-08-16",
    "date:cessation_upper": "2026-08-16",
    "date:inception_lower": "1970-01-01",
    "date:inception_upper": "1970-01-01",
    "edtf:cessation": "2026-08-16T15:49:33-07:00",
    "edtf:inception": "1970-01-01T00:00:00Z",
    "flysfo:actual_timestamp": -1,
    "flysfo:airline": "UA",
    "flysfo:base_airline": "",
    "flysfo:base_flight_number": "3200",
    "flysfo:date": "2026-08-16",
    "flysfo:estimated_timestamp": 1786946280,
    "flysfo:event": "A",
    "flysfo:flight_number": "UA2384",
    "flysfo:gate": "E5",
    "flysfo:journey": "YUL-SFO",
    "flysfo:scheduled_timestamp": 1786942080,
    "flysfo:timestamp": 1786946280,
    "geom:area": 0,
    "geom:bbox": "-73.744749,0.000000,0.000000,45.462004",
    "geom:latitude": 22.731002,
    "geom:longitude": -36.8723745,
    "iata:airline": "UA",
    "iata:base_airline": "",
    "icao:aircraft": "B38M",
    "icao:airline": "UAL",
    "icao:base_airline": "ACA",
    "lbl:latitude": 37.618486,
    "lbl:longitude": -122.384457,
    "sfomuseum:aircraft_id": 1528104575,
    "sfomuseum:airline_id": 1159285413,
    "sfomuseum:arrival_id": 102527513,
    "sfomuseum:base_flight_id": "20260816-A-ACA-3200",
    "sfomuseum:departure_id": 102554351,
    "sfomuseum:flight_id": "20260816-A-UAL-2384",
    "sfomuseum:flight_number": [
      "UAL2384",
      "UA2384"
    ],
    "sfomuseum:placetype": "flight",
    "src:geom": "flysfo",
    "src:geom_alt": [
      "swim-approach"
    ],
    "swim:tail_number": "N37295",
    "wof:belongsto": [
      1947304067,
      102527513,
      1947304511,
      102191575,
      85633793,
      102087579,
      85922583,
      554784711,
      85688637,
      1947304525,
      1947304447,
      102085387
    ],
    "wof:country": "US",
    "wof:created": 1786983364,
    "wof:geomhash": "458dc334325c82143c2bf41f8564f675",
    "wof:hierarchy": [
      {
        "building_id": 1947304067,
        "campus_id": 102527513,
        "concourse_id": 1947304511,
        "continent_id": 102191575,
        "country_id": 85633793,
        "county_id": 102087579,
        "custom_id": 2047993187,
        "flight_id": 2047993187,
        "locality_id": 85922583,
        "postalcode_id": 554784711,
        "region_id": 85688637,
        "venue_id": 1947304525,
        "wing_id": 1947304447
      },
      {
        "building_id": 1947304067,
        "campus_id": 102527513,
        "concourse_id": 1947304511,
        "continent_id": 102191575,
        "country_id": 85633793,
        "county_id": 102085387,
        "custom_id": 2047993187,
        "flight_id": 2047993187,
        "region_id": 85688637,
        "venue_id": 1947304525,
        "wing_id": 1947304447
      }
    ],
    "wof:id": 2047993187,
    "wof:involves": [
      1947304525,
      1159283597,
      1528104575,
      102527513,
      102554351,
      1159285413
    ],
    "wof:lastmodified": 1786984051,
    "wof:name": "UA2384 (YUL-SFO)",
    "wof:parent_id": 1947304525,
    "wof:placetype": "custom",
    "wof:placetype_alt": [
      "flight"
    ],
    "wof:repo": "sfomuseum-data-flights-2026-08",
    "wof:superseded_by": [],
    "wof:supersedes": []
  },
  "bbox": [
    -73.744749,
    0,
    0,
    45.462004
  ],
  "geometry": {"type":"MultiPoint","coordinates":[[-73.744749,45.462004],[0,0]]}
}
