{
  "id": 2047960309,
  "type": "Feature",
  "properties": {
    "geom:area": 0,
    "geom:bbox": "-122.398056,37.646389,-90.400278,39.323889",
    "geom:latitude": 38.57385884730816,
    "geom:longitude": -106.30514821014683,
    "src:alt_label": "swim-path",
    "src:geom": "swim",
    "swim:altitudes": [
      "019",
      "032",
      "035",
      "042",
      "047",
      "065",
      "077",
      "094",
      "103",
      "116",
      "120",
      "144",
      "169",
      "191",
      "211",
      "230",
      "246",
      "261",
      "274",
      "287",
      "290",
      "300",
      "303",
      "311",
      "315",
      "322",
      "327",
      "333",
      "336",
      "338",
      "341",
      "344",
      "349C",
      "350C",
      "350C",
      "350C",
      "350C",
      "350C",
      "350C",
      "350C",
      "350C",
      "350C",
      "350C",
      "350C",
      "349C",
      "350C",
      "350C",
      "351C",
      "350C",
      "350C",
      "350C",
      "351C",
      "350C",
      "350C",
      "350C",
      "350C",
      "350C",
      "350C",
      "350C",
      "350C",
      "350C",
      "350C",
      "350C",
      "350C",
      "350C",
      "350C",
      "350C",
      "350C",
      "350C",
      "350C",
      "350C",
      "350C",
      "351C",
      "350C",
      "351C",
      "351C",
      "350C",
      "350C",
      "350C",
      "350C",
      "350C",
      "350C",
      "350C",
      "350C",
      "351C",
      "350C",
      "350C",
      "350C",
      "350C",
      "350C",
      "351C",
      "350C",
      "350C",
      "350",
      "356",
      "367",
      "370C",
      "370C",
      "370C",
      "370C",
      "370C",
      "370C",
      "370C",
      "370C",
      "370C",
      "370C",
      "370C",
      "370C",
      "370C",
      "370C",
      "370C",
      "370C",
      "370C",
      "370C",
      "370C",
      "370C",
      "370C",
      "370C",
      "370C",
      "370C",
      "370C",
      "370C",
      "370C",
      "370C",
      "370C",
      "370C",
      "370C",
      "370C",
      "370C",
      "370C",
      "370C",
      "370C",
      "370C",
      "370C",
      "370C",
      "370C",
      "370C",
      "370C",
      "370C",
      "370C",
      "370C",
      "370C",
      "370C",
      "370C",
      "370C",
      "370C",
      "370C",
      "370C",
      "370C",
      "370C",
      "370C",
      "370C",
      "370C",
      "370C",
      "370C",
      "370C",
      "370C",
      "370C",
      "370C",
      "370C",
      "370C",
      "370C",
      "370C",
      "370C",
      "370C",
      "370C",
      "370C",
      "370C",
      "370C",
      "370C",
      "370C",
      "370C",
      "371C",
      "370C",
      "370C",
      "370C",
      "370C",
      "370C",
      "370C",
      "370C",
      "370C",
      "370C",
      "370C",
      "370C",
      "370C",
      "371C",
      "371C",
      "370C",
      "370C",
      "370C",
      "370C",
      "370C",
      "370C",
      "370C",
      "370C",
      "370C",
      "371C",
      "370C",
      "370C",
      "370C",
      "370C",
      "370C",
      "370C",
      "370C",
      "370C",
      "370C",
      "370C",
      "370C",
      "370C",
      "371C",
      "370C",
      "370C",
      "370C",
      "370C",
      "370C",
      "370C",
      "370C",
      "370C",
      "370C",
      "370C",
      "370C",
      "370C",
      "370C",
      "370C",
      "370C",
      "370C",
      "370C",
      "370C",
      "370C",
      "370C",
      "370C",
      "370C",
      "370C",
      "370C",
      "370C",
      "370C",
      "370C",
      "370C",
      "370C",
      "370C",
      "370C",
      "370C",
      "370C",
      "370C",
      "370C",
      "370C",
      "370C",
      "370C",
      "370C",
      "370C",
      "370C",
      "370C",
      "370C",
      "370C",
      "370C",
      "370C",
      "370C",
      "370C",
      "370C",
      "370C",
      "370C",
      "370C",
      "368",
      "362",
      "355",
      "350C",
      "350C",
      "350C",
      "350C",
      "350C",
      "350",
      "314",
      "289",
      "260",
      "224",
      "194",
      "155",
      "124",
      "095",
      "095",
      "093",
      "070",
      "060",
      "056",
      "043",
      "037",
      "031",
      "019",
      "011",
      "005"
    ],
    "swim:geom": "path",
    "swim:speeds": [
      167,
      164,
      169,
      231,
      259,
      284,
      282,
      293,
      295,
      327,
      336,
      348,
      354,
      364,
      380,
      385,
      396,
      402,
      412,
      418,
      418,
      425,
      419,
      429,
      428,
      432,
      431,
      432,
      433,
      443,
      440,
      454,
      456,
      456,
      458,
      458,
      458,
      457,
      458,
      459,
      460,
      468,
      472,
      477,
      478,
      484,
      482,
      487,
      492,
      486,
      484,
      482,
      484,
      484,
      481,
      481,
      483,
      483,
      484,
      483,
      482,
      482,
      480,
      476,
      476,
      475,
      476,
      476,
      477,
      479,
      481,
      486,
      486,
      487,
      487,
      487,
      486,
      485,
      484,
      484,
      484,
      485,
      501,
      506,
      510,
      510,
      509,
      509,
      509,
      510,
      510,
      509,
      500,
      497,
      495,
      491,
      491,
      496,
      498,
      491,
      486,
      486,
      486,
      484,
      481,
      480,
      480,
      481,
      482,
      482,
      482,
      481,
      481,
      481,
      481,
      482,
      483,
      483,
      483,
      484,
      484,
      485,
      485,
      485,
      485,
      485,
      485,
      482,
      480,
      478,
      478,
      477,
      477,
      477,
      478,
      478,
      479,
      480,
      479,
      479,
      477,
      476,
      475,
      476,
      478,
      484,
      484,
      484,
      484,
      480,
      479,
      478,
      478,
      479,
      479,
      479,
      480,
      479,
      479,
      478,
      478,
      476,
      478,
      475,
      477,
      475,
      476,
      476,
      474,
      479,
      474,
      485,
      482,
      486,
      484,
      479,
      484,
      478,
      479,
      473,
      474,
      468,
      470,
      467,
      469,
      469,
      467,
      469,
      467,
      468,
      466,
      467,
      466,
      467,
      467,
      467,
      467,
      467,
      466,
      467,
      466,
      466,
      465,
      466,
      466,
      466,
      467,
      469,
      470,
      471,
      471,
      472,
      471,
      472,
      472,
      473,
      473,
      473,
      474,
      474,
      476,
      476,
      477,
      476,
      477,
      477,
      478,
      478,
      479,
      479,
      480,
      480,
      480,
      480,
      480,
      474,
      473,
      471,
      470,
      469,
      468,
      467,
      465,
      465,
      466,
      466,
      466,
      466,
      466,
      465,
      466,
      466,
      467,
      468,
      469,
      470,
      468,
      444,
      435,
      433,
      433,
      434,
      437,
      438,
      433,
      425,
      424,
      423,
      437,
      455,
      456,
      476,
      481,
      445,
      425,
      402,
      392,
      364,
      358,
      318,
      317,
      302,
      306,
      275,
      244,
      238,
      210,
      173,
      139,
      135
    ],
    "swim:timestamps": [
      1786649197,
      1786649226,
      1786649257,
      1786649286,
      1786649318,
      1786649347,
      1786649378,
      1786649406,
      1786649438,
      1786649472,
      1786649498,
      1786649558,
      1786649618,
      1786649678,
      1786649738,
      1786649798,
      1786649858,
      1786649918,
      1786649979,
      1786650039,
      1786650064,
      1786650099,
      1786650124,
      1786650159,
      1786650184,
      1786650219,
      1786650244,
      1786650279,
      1786650304,
      1786650339,
      1786650365,
      1786650399,
      1786650425,
      1786650459,
      1786650485,
      1786650519,
      1786650545,
      1786650579,
      1786650605,
      1786650640,
      1786650665,
      1786650700,
      1786650725,
      1786650760,
      1786650785,
      1786650820,
      1786650845,
      1786650880,
      1786650905,
      1786650940,
      1786650965,
      1786651000,
      1786651025,
      1786651060,
      1786651120,
      1786651146,
      1786651180,
      1786651206,
      1786651240,
      1786651266,
      1786651300,
      1786651326,
      1786651361,
      1786651421,
      1786651446,
      1786651481,
      1786651506,
      1786651541,
      1786651566,
      1786651601,
      1786651626,
      1786651661,
      1786651686,
      1786651721,
      1786651746,
      1786651781,
      1786651806,
      1786651867,
      1786651939,
      1786651999,
      1786652059,
      1786652119,
      1786652179,
      1786652239,
      1786652299,
      1786652359,
      1786652419,
      1786652479,
      1786652539,
      1786652599,
      1786652660,
      1786652720,
      1786652780,
      1786652840,
      1786652900,
      1786652960,
      1786653020,
      1786653080,
      1786653140,
      1786653200,
      1786653232,
      1786653260,
      1786653292,
      1786653320,
      1786653352,
      1786653393,
      1786653413,
      1786653453,
      1786653473,
      1786653513,
      1786653533,
      1786653573,
      1786653593,
      1786653645,
      1786653653,
      1786653705,
      1786653713,
      1786653765,
      1786653773,
      1786653825,
      1786653833,
      1786653885,
      1786653893,
      1786653945,
      1786653953,
      1786654005,
      1786654013,
      1786654065,
      1786654125,
      1786654186,
      1786654194,
      1786654246,
      1786654254,
      1786654306,
      1786654314,
      1786654374,
      1786654434,
      1786654494,
      1786654554,
      1786654614,
      1786654674,
      1786654734,
      1786654794,
      1786654855,
      1786654915,
      1786654975,
      1786655035,
      1786655095,
      1786655155,
      1786655215,
      1786655275,
      1786655335,
      1786655395,
      1786655455,
      1786655515,
      1786655576,
      1786655636,
      1786655696,
      1786655756,
      1786655816,
      1786655855,
      1786655876,
      1786655915,
      1786655936,
      1786655975,
      1786655996,
      1786656035,
      1786656056,
      1786656096,
      1786656116,
      1786656156,
      1786656176,
      1786656216,
      1786656236,
      1786656276,
      1786656297,
      1786656336,
      1786656357,
      1786656396,
      1786656417,
      1786656456,
      1786656477,
      1786656516,
      1786656537,
      1786656576,
      1786656636,
      1786656657,
      1786656696,
      1786656717,
      1786656757,
      1786656777,
      1786656817,
      1786656837,
      1786656877,
      1786656897,
      1786656937,
      1786656957,
      1786656997,
      1786657018,
      1786657057,
      1786657078,
      1786657117,
      1786657138,
      1786657177,
      1786657237,
      1786657258,
      1786657297,
      1786657318,
      1786657357,
      1786657378,
      1786657418,
      1786657438,
      1786657478,
      1786657498,
      1786657538,
      1786657558,
      1786657598,
      1786657618,
      1786657658,
      1786657678,
      1786657718,
      1786657739,
      1786657778,
      1786657799,
      1786657838,
      1786657859,
      1786657898,
      1786657919,
      1786657958,
      1786657979,
      1786658018,
      1786658039,
      1786658078,
      1786658099,
      1786658139,
      1786658199,
      1786658259,
      1786658319,
      1786658379,
      1786658439,
      1786658499,
      1786658559,
      1786658619,
      1786658679,
      1786658739,
      1786658800,
      1786658860,
      1786658920,
      1786658980,
      1786659040,
      1786659100,
      1786659160,
      1786659220,
      1786659280,
      1786659340,
      1786659400,
      1786659461,
      1786659533,
      1786659593,
      1786659653,
      1786659713,
      1786659773,
      1786659833,
      1786659893,
      1786659953,
      1786660013,
      1786660134,
      1786660254,
      1786660314,
      1786660374,
      1786660434,
      1786660494,
      1786660554,
      1786660614,
      1786660674,
      1786660734,
      1786660789,
      1786660855,
      1786660915,
      1786660975,
      1786661035,
      1786661102,
      1786661156,
      1786661216,
      1786661276,
      1786661291,
      1786661336,
      1786661396,
      1786661456,
      1786661516
    ],
    "wof:geomhash": "e3067acb57bbe8ef0f4959030dd11bab",
    "wof:id": 2047960309,
    "wof:repo": "sfomuseum-data-flights-2026-08"
  },
  "bbox": [
    -122.39805555555556,
    37.646388888888886,
    -90.40027777777779,
    39.323888888888895
  ],
  "geometry": {"type":"LineString","coordinates":[[-122.39805555555556,37.646388888888886],[-122.36666666666666,37.666666666666664],[-122.34694444444445,37.66833333333333],[-122.3,37.68333333333333],[-122.27444444444444,37.695277777777775],[-122.21666666666667,37.71666666666667],[-122.18722222222223,37.731944444444444],[-122.13333333333334,37.766666666666666],[-122.0975,37.770833333333336],[-122.01666666666667,37.78333333333333],[-121.99027777777778,37.79555555555555],[-121.87249999999999,37.82166666666667],[-121.75111111111111,37.848888888888894],[-121.6286111111111,37.87583333333333],[-121.48916666666666,37.906666666666666],[-121.35777777777777,37.93555555555555],[-121.22277777777778,37.96472222222223],[-121.08833333333332,37.99333333333333],[-120.94555555555556,38.015277777777776],[-120.80111111111111,38.01583333333333],[-120.75583333333333,38.01083333333333],[-120.65166666666667,37.99722222222222],[-120.60944444444443,37.99166666666667],[-120.5038888888889,37.97888888888889],[-120.45916666666668,37.972500000000004],[-120.35388888888889,37.96],[-120.30916666666667,37.953611111111115],[-120.20416666666667,37.94277777777778],[-120.1575,37.93722222222222],[-120.04777777777778,37.92861111111111],[-119.97222222222223,37.92111111111111],[-119.89111111111112,37.91555555555556],[-119.81083333333333,37.908055555555556],[-119.72916666666667,37.90333333333333],[-119.64944444444446,37.89611111111111],[-119.56944444444444,37.89138888888889],[-119.49138888888889,37.885],[-119.41000000000001,37.88027777777778],[-119.33,37.87388888888889],[-119.24805555555555,37.87],[-119.16861111111112,37.86833333333333],[-119.09138888888889,37.87833333333333],[-119.00861111111111,37.89611111111111],[-118.93333333333334,37.92333333333333],[-118.87166666666666,37.94444444444444],[-118.7761111111111,37.97833333333333],[-118.71555555555555,37.99944444444444],[-118.6236111111111,38.041666666666664],[-118.54055555555556,38.0775],[-118.47166666666666,38.10416666666667],[-118.41166666666668,38.11888888888889],[-118.28916666666666,38.13333333333333],[-118.24055555555556,38.13861111111111],[-118.12194444444444,38.151666666666664],[-117.9675,38.16833333333333],[-117.90138888888889,38.175555555555555],[-117.79888888888888,38.186388888888885],[-117.73444444444445,38.19333333333333],[-117.62888888888888,38.20444444444445],[-117.56416666666667,38.21138888888889],[-117.45916666666668,38.22222222222222],[-117.39527777777778,38.22888888888889],[-117.28472222222221,38.24],[-117.11722222222221,38.24583333333334],[-117.04972222222221,38.24805555555556],[-116.94416666666667,38.25138888888889],[-116.87833333333333,38.25222222222222],[-116.77694444444444,38.25055555555556],[-116.71083333333334,38.25],[-116.60722222222222,38.24944444444444],[-116.53861111111111,38.24944444444444],[-116.43222222222222,38.25],[-116.36611111111111,38.25055555555556],[-116.26055555555556,38.25111111111111],[-116.19194444444445,38.24861111111111],[-116.08749999999999,38.24305555555556],[-116.02277777777778,38.23972222222222],[-115.85111111111111,38.23166666666667],[-115.68027777777779,38.224444444444444],[-115.4775,38.21416666666667],[-115.30333333333333,38.20472222222222],[-115.13694444444445,38.193888888888885],[-114.96222222222222,38.197222222222216],[-114.78444444444445,38.213055555555556],[-114.60416666666666,38.22916666666667],[-114.42444444444445,38.245],[-114.24805555555555,38.260555555555555],[-114.0675,38.27583333333333],[-113.88805555555557,38.29083333333333],[-113.71027777777778,38.30555555555555],[-113.52916666666667,38.32],[-113.35111111111111,38.33416666666667],[-113.17472222222223,38.34805555555556],[-112.99944444444445,38.36083333333333],[-112.82416666666666,38.36638888888889],[-112.65111111111112,38.37222222222222],[-112.47666666666667,38.37722222222222],[-112.29972222222221,38.3825],[-112.1236111111111,38.38722222222222],[-111.94916666666667,38.391666666666666],[-111.88055555555555,38.39333333333333],[-111.77833333333334,38.39611111111111],[-111.70833333333334,38.3975],[-111.60638888888889,38.4],[-111.53999999999999,38.40138888888889],[-111.405,38.40416666666667],[-111.37083333333332,38.405],[-111.2325,38.407777777777774],[-111.19944444444445,38.40833333333333],[-111.0625,38.41083333333333],[-111.0286111111111,38.41138888888889],[-110.90472222222223,38.41361111111111],[-110.83666666666666,38.41444444444444],[-110.70055555555555,38.416666666666664],[-110.66916666666667,38.41694444444444],[-110.53055555555555,38.420833333333334],[-110.49527777777777,38.42166666666667],[-110.35972222222222,38.42472222222222],[-110.3261111111111,38.42527777777777],[-110.22305555555556,38.42777777777778],[-110.15361111111112,38.42916666666667],[-110.01777777777778,38.43194444444444],[-109.9825,38.4325],[-109.84583333333333,38.434999999999995],[-109.81027777777777,38.43555555555555],[-109.67527777777778,38.43805555555555],[-109.64222222222223,38.43861111111111],[-109.50444444444445,38.440555555555555],[-109.33722222222222,38.44305555555555],[-109.16805555555555,38.445277777777775],[-109.13722222222223,38.44555555555555],[-109.00138888888888,38.447222222222216],[-108.97027777777778,38.4475],[-108.83722222222222,38.448611111111106],[-108.8,38.44916666666666],[-108.62972222222221,38.45055555555556],[-108.46305555555556,38.45166666666667],[-108.29222222222222,38.45277777777778],[-108.125,38.45333333333333],[-107.95583333333333,38.45388888888889],[-107.78694444444444,38.45388888888889],[-107.62027777777777,38.45388888888889],[-107.45222222222222,38.453611111111115],[-107.28527777777778,38.45305555555556],[-107.12333333333332,38.45722222222223],[-106.95694444444445,38.489444444444445],[-106.79083333333332,38.52194444444444],[-106.6236111111111,38.55444444444444],[-106.42583333333334,38.59055555555556],[-106.29055555555556,38.60333333333333],[-106.10499999999999,38.62],[-105.93694444444445,38.63527777777778],[-105.76805555555555,38.65],[-105.59916666666666,38.664722222222224],[-105.43194444444445,38.678888888888885],[-105.26194444444444,38.69305555555555],[-105.09388888888888,38.706944444444446],[-104.92555555555556,38.71472222222223],[-104.75805555555556,38.70472222222222],[-104.59027777777777,38.69472222222222],[-104.46861111111112,38.68694444444444],[-104.42166666666667,38.684999999999995],[-104.30111111111111,38.677499999999995],[-104.2538888888889,38.67527777777777],[-104.13333333333334,38.66777777777777],[-104.06944444444444,38.66583333333333],[-103.96611111111112,38.66361111111111],[-103.89833333333334,38.67388888888889],[-103.79666666666667,38.67638888888889],[-103.7286111111111,38.684999999999995],[-103.62527777777777,38.68944444444444],[-103.55499999999999,38.69611111111111],[-103.45111111111112,38.70166666666667],[-103.37694444444443,38.7075],[-103.27972222222222,38.71361111111111],[-103.23916666666666,38.715833333333336],[-103.11083333333333,38.72416666666667],[-103.06833333333333,38.726111111111116],[-102.94444444444444,38.733333333333334],[-102.90361111111112,38.736111111111114],[-102.7786111111111,38.74333333333333],[-102.71138888888889,38.746944444444445],[-102.61444444444444,38.753055555555555],[-102.54666666666667,38.756388888888885],[-102.44888888888889,38.76027777777778],[-102.28111111111112,38.77055555555555],[-102.21416666666667,38.774166666666666],[-102.11638888888888,38.77916666666667],[-102.04944444444445,38.782777777777774],[-101.95583333333333,38.7875],[-101.88361111111112,38.79111111111111],[-101.78555555555555,38.795833333333334],[-101.71638888888889,38.799166666666665],[-101.61833333333333,38.803888888888885],[-101.55083333333333,38.80694444444444],[-101.45694444444445,38.811388888888885],[-101.38388888888889,38.81472222222222],[-101.29055555555556,38.81916666666667],[-101.2175,38.82222222222222],[-101.12194444444444,38.82638888888889],[-101.05416666666666,38.82944444444445],[-100.95611111111111,38.833333333333336],[-100.88694444444445,38.83638888888889],[-100.78944444444444,38.84027777777778],[-100.62527777777777,38.846944444444446],[-100.55583333333333,38.849444444444444],[-100.4588888888889,38.85305555555556],[-100.38611111111112,38.85583333333334],[-100.28972222222222,38.85944444444445],[-100.25166666666667,38.86083333333333],[-100.12083333333332,38.86527777777778],[-100.08277777777778,38.86666666666667],[-99.95583333333333,38.886944444444445],[-99.9213888888889,38.89805555555556],[-99.79638888888888,38.93833333333333],[-99.76638888888888,38.94777777777777],[-99.64250000000001,38.98888888888889],[-99.6111111111111,38.99944444444444],[-99.47972222222222,39.043055555555554],[-99.45277777777778,39.051944444444445],[-99.32083333333333,39.09583333333334],[-99.29555555555555,39.10388888888889],[-99.15944444444445,39.13583333333333],[-99.13277777777778,39.141666666666666],[-98.99416666666667,39.17333333333333],[-98.95722222222223,39.18194444444444],[-98.84333333333333,39.20861111111111],[-98.80333333333333,39.218333333333334],[-98.67916666666667,39.243611111111115],[-98.63972222222223,39.250277777777775],[-98.50694444444444,39.27333333333333],[-98.45805555555556,39.28194444444444],[-98.33,39.30333333333333],[-98.28972222222222,39.30777777777777],[-98.17333333333333,39.32138888888889],[-98.0038888888889,39.323888888888895],[-97.82944444444443,39.31666666666667],[-97.65333333333334,39.30888888888889],[-97.50111111111111,39.301944444444445],[-97.335,39.29388888888889],[-97.16638888888889,39.285555555555554],[-97.00111111111111,39.277499999999996],[-96.83749999999999,39.26888888888889],[-96.66972222222223,39.26],[-96.50277777777778,39.25111111111111],[-96.3386111111111,39.24166666666667],[-96.17,39.231944444444444],[-96.005,39.22222222222222],[-95.83777777777777,39.21222222222222],[-95.67333333333333,39.202222222222225],[-95.5075,39.19166666666666],[-95.32416666666666,39.17972222222222],[-95.16694444444445,39.16916666666666],[-94.99055555555556,39.157222222222224],[-94.82111111111111,39.14555555555555],[-94.65472222222223,39.134166666666665],[-94.49055555555556,39.12222222222222],[-94.33166666666666,39.11055555555556],[-94.1463888888889,39.09638888888889],[-93.99472222222222,39.073888888888895],[-93.84416666666667,39.04972222222222],[-93.69250000000001,39.025277777777774],[-93.53777777777778,39.000277777777775],[-93.40111111111112,38.97777777777778],[-93.25972222222222,38.92944444444444],[-93.1563888888889,38.84444444444445],[-92.96861111111112,38.690555555555555],[-92.73805555555556,38.503055555555555],[-92.60388888888889,38.44833333333333],[-92.44416666666667,38.465833333333336],[-92.31611111111111,38.49],[-92.12055555555555,38.52638888888889],[-91.95222222222222,38.55777777777777],[-91.7975,38.586666666666666],[-91.64777777777779,38.61416666666667],[-91.50888888888889,38.63972222222222],[-91.38333333333334,38.666666666666664],[-91.23555555555555,38.68888888888888],[-91.11,38.697222222222216],[-91.02361111111111,38.75194444444445],[-90.97833333333334,38.791666666666664],[-90.86666666666666,38.88333333333333],[-90.78472222222221,38.88972222222222],[-90.68166666666667,38.89055555555556],[-90.6061111111111,38.85611111111111],[-90.56666666666666,38.833333333333336],[-90.53666666666666,38.82222222222222],[-90.48388888888888,38.796388888888885],[-90.44055555555556,38.775],[-90.40027777777779,38.75527777777778]]}
}
