{
  "id": 2047927593,
  "type": "Feature",
  "properties": {
    "geom:area": 0,
    "geom:bbox": "-122.352778,37.466111,-77.483333,41.389444",
    "geom:latitude": 40.13919868571429,
    "geom:longitude": -99.65503530953316,
    "src:alt_label": "swim-path",
    "src:geom": "swim",
    "swim:altitudes": [
      "006",
      "023",
      "024",
      "051",
      "071",
      "073",
      "091",
      "107",
      "124",
      "141",
      "157",
      "175",
      "187",
      "205",
      "214",
      "220",
      "226",
      "236",
      "250",
      "257",
      "262",
      "267",
      "271",
      "276",
      "283",
      "293",
      "301",
      "307",
      "313",
      "320C",
      "320",
      "325",
      "329",
      "337",
      "340C",
      "340C",
      "340C",
      "340C",
      "340C",
      "340C",
      "340C",
      "340C",
      "340C",
      "340C",
      "340C",
      "340C",
      "340C",
      "340C",
      "340C",
      "340C",
      "340C",
      "340C",
      "340C",
      "340C",
      "340C",
      "340C",
      "340C",
      "340C",
      "340C",
      "340C",
      "340C",
      "340C",
      "340C",
      "340C",
      "340C",
      "340C",
      "340C",
      "340C",
      "340C",
      "340C",
      "340C",
      "340C",
      "340C",
      "340C",
      "340C",
      "340C",
      "340C",
      "340C",
      "340C",
      "340C",
      "340C",
      "340C",
      "340C",
      "340C",
      "340C",
      "340C",
      "340C",
      "340C",
      "340C",
      "340C",
      "340C",
      "340C",
      "340C",
      "340C",
      "340C",
      "340C",
      "340C",
      "340C",
      "340C",
      "340C",
      "340C",
      "340C",
      "340C",
      "340C",
      "340C",
      "340C",
      "340C",
      "340C",
      "340C",
      "340C",
      "340C",
      "340C",
      "340C",
      "340C",
      "340C",
      "340C",
      "340C",
      "340C",
      "340C",
      "340C",
      "340C",
      "340C",
      "340C",
      "340C",
      "340C",
      "340C",
      "340C",
      "340C",
      "340C",
      "340C",
      "340C",
      "340C",
      "340C",
      "340C",
      "340C",
      "340C",
      "340C",
      "340C",
      "340C",
      "340C",
      "340C",
      "340C",
      "340C",
      "340C",
      "340C",
      "340C",
      "340C",
      "340C",
      "340C",
      "340C",
      "340C",
      "340C",
      "340C",
      "340C",
      "340C",
      "340C",
      "340C",
      "340C",
      "340C",
      "340C",
      "340C",
      "340C",
      "340C",
      "340C",
      "340C",
      "340C",
      "340C",
      "340C",
      "340C",
      "340C",
      "340C",
      "340C",
      "340C",
      "340C",
      "340C",
      "340C",
      "340C",
      "340C",
      "340C",
      "340C",
      "340C",
      "340C",
      "340C",
      "340C",
      "340C",
      "340C",
      "340C",
      "340C",
      "340C",
      "340C",
      "340C",
      "340C",
      "340C",
      "340C",
      "340C",
      "340C",
      "340C",
      "340C",
      "340C",
      "340C",
      "340C",
      "340C",
      "340C",
      "340C",
      "340C",
      "340C",
      "340C",
      "340C",
      "340C",
      "340C",
      "340C",
      "340C",
      "340C",
      "340C",
      "340C",
      "340C",
      "340C",
      "340C",
      "340C",
      "340C",
      "340C",
      "340C",
      "340C",
      "340C",
      "340C",
      "340C",
      "340C",
      "340C",
      "340C",
      "340C",
      "340C",
      "340C",
      "340C",
      "340C",
      "340C",
      "340C",
      "340C",
      "340C",
      "340C",
      "340C",
      "340C",
      "340C",
      "340C",
      "340C",
      "340C",
      "340C",
      "340C",
      "340C",
      "340C",
      "340C",
      "340C",
      "340C",
      "340C",
      "340C",
      "340C",
      "340C",
      "340C",
      "340C",
      "340C",
      "340C",
      "340C",
      "340C",
      "340C",
      "340C",
      "340C",
      "340C",
      "340C",
      "340C",
      "340C",
      "340C",
      "340C",
      "340C",
      "340C",
      "340C",
      "340C",
      "340C",
      "340C",
      "340C",
      "340C",
      "340C",
      "340C",
      "340C",
      "340C",
      "340C",
      "340C",
      "340C",
      "340C",
      "340C",
      "340C",
      "340C",
      "340C",
      "340C",
      "340C",
      "340C",
      "340C",
      "340C",
      "340C",
      "340C",
      "340C",
      "340C",
      "340C",
      "340C",
      "340C",
      "340C",
      "340C",
      "340C",
      "340C",
      "340C",
      "340C",
      "340C",
      "340C",
      "340C",
      "340C",
      "340C",
      "340C",
      "340C",
      "340C",
      "340C",
      "340C",
      "340C",
      "340C",
      "340C",
      "340C",
      "340C",
      "340C",
      "340C",
      "340C",
      "340C",
      "340C",
      "340C",
      "340C",
      "340C",
      "340C",
      "340C",
      "340C",
      "340C",
      "340C",
      "340C",
      "340C",
      "340C",
      "340C",
      "340C",
      "340C",
      "340C",
      "340C",
      "340C",
      "340C",
      "340C",
      "340C",
      "340C",
      "340C",
      "340C",
      "340C",
      "340C",
      "340C",
      "340C",
      "340C",
      "340C",
      "340C",
      "340C",
      "340C",
      "340C",
      "340C",
      "340C",
      "340C",
      "340C",
      "340C",
      "340C",
      "340C",
      "340C",
      "340C",
      "340C",
      "340C",
      "340C",
      "340C",
      "340C",
      "340C",
      "340C",
      "340C",
      "340C",
      "340C",
      "340C",
      "340C",
      "340C",
      "340C",
      "340C",
      "340C",
      "340C",
      "340C",
      "340C",
      "340C",
      "340C",
      "340C",
      "340C",
      "340C",
      "340C",
      "340C",
      "340C",
      "340C",
      "340C",
      "340C",
      "340C",
      "340C",
      "340C",
      "340C",
      "340C",
      "340C",
      "340C",
      "340C",
      "340C",
      "340C",
      "340C",
      "340C",
      "340C",
      "340",
      "340",
      "340",
      "339",
      "308",
      "295",
      "278",
      "270",
      "259",
      "248",
      "234",
      "225",
      "215",
      "206",
      "195",
      "186",
      "176",
      "167",
      "157",
      "149",
      "140",
      "132",
      "122",
      "117",
      "115",
      "113",
      "105",
      "099",
      "090",
      "084",
      "080",
      "080C",
      "080",
      "077",
      "072",
      "064",
      "060",
      "059",
      "053",
      "042",
      "037",
      "030",
      "018",
      "015",
      "009",
      "006",
      "001"
    ],
    "swim:geom": "path",
    "swim:speeds": [
      182,
      229,
      216,
      243,
      248,
      250,
      265,
      282,
      318,
      329,
      347,
      356,
      366,
      360,
      371,
      388,
      406,
      413,
      408,
      411,
      427,
      434,
      443,
      447,
      448,
      445,
      440,
      437,
      437,
      432,
      429,
      428,
      429,
      426,
      423,
      422,
      420,
      419,
      418,
      416,
      415,
      404,
      401,
      398,
      387,
      385,
      382,
      381,
      382,
      383,
      382,
      382,
      382,
      382,
      382,
      382,
      383,
      383,
      382,
      383,
      383,
      385,
      386,
      388,
      389,
      388,
      389,
      388,
      387,
      387,
      387,
      391,
      395,
      401,
      409,
      411,
      411,
      412,
      412,
      412,
      410,
      409,
      409,
      408,
      408,
      408,
      408,
      408,
      409,
      409,
      409,
      409,
      410,
      411,
      418,
      421,
      423,
      422,
      425,
      425,
      426,
      425,
      424,
      423,
      422,
      420,
      418,
      415,
      415,
      412,
      411,
      410,
      410,
      408,
      409,
      409,
      412,
      413,
      415,
      417,
      421,
      423,
      425,
      426,
      426,
      426,
      425,
      423,
      422,
      423,
      425,
      428,
      430,
      431,
      432,
      432,
      431,
      431,
      430,
      430,
      430,
      430,
      430,
      429,
      429,
      428,
      429,
      428,
      429,
      428,
      429,
      428,
      429,
      428,
      429,
      428,
      429,
      427,
      429,
      426,
      427,
      425,
      425,
      424,
      423,
      423,
      422,
      422,
      421,
      420,
      420,
      419,
      419,
      419,
      418,
      418,
      418,
      418,
      418,
      418,
      418,
      418,
      418,
      418,
      419,
      421,
      422,
      425,
      426,
      426,
      426,
      427,
      427,
      427,
      427,
      427,
      426,
      426,
      426,
      426,
      427,
      426,
      426,
      426,
      426,
      427,
      427,
      427,
      427,
      427,
      429,
      430,
      431,
      432,
      432,
      433,
      435,
      435,
      435,
      435,
      435,
      434,
      433,
      433,
      430,
      429,
      429,
      430,
      431,
      431,
      431,
      433,
      430,
      433,
      430,
      431,
      433,
      431,
      433,
      432,
      432,
      432,
      432,
      432,
      433,
      433,
      433,
      433,
      433,
      433,
      433,
      432,
      433,
      430,
      433,
      426,
      433,
      433,
      430,
      436,
      431,
      437,
      434,
      437,
      434,
      435,
      434,
      435,
      434,
      435,
      434,
      435,
      434,
      434,
      434,
      434,
      435,
      435,
      435,
      435,
      435,
      434,
      434,
      432,
      433,
      431,
      433,
      431,
      433,
      432,
      433,
      433,
      433,
      433,
      433,
      434,
      433,
      435,
      433,
      434,
      433,
      432,
      432,
      430,
      431,
      429,
      428,
      430,
      428,
      432,
      437,
      433,
      436,
      435,
      436,
      435,
      436,
      436,
      437,
      437,
      437,
      437,
      437,
      437,
      438,
      438,
      438,
      437,
      437,
      437,
      437,
      436,
      436,
      436,
      436,
      436,
      437,
      437,
      438,
      438,
      438,
      438,
      438,
      438,
      438,
      438,
      438,
      437,
      438,
      438,
      438,
      440,
      441,
      443,
      445,
      446,
      447,
      447,
      446,
      445,
      444,
      446,
      447,
      448,
      448,
      449,
      449,
      449,
      448,
      448,
      448,
      450,
      452,
      454,
      456,
      458,
      460,
      460,
      460,
      459,
      459,
      459,
      459,
      458,
      458,
      457,
      457,
      457,
      457,
      456,
      456,
      461,
      462,
      462,
      462,
      462,
      463,
      464,
      464,
      463,
      463,
      447,
      445,
      445,
      444,
      443,
      445,
      445,
      446,
      449,
      453,
      447,
      445,
      444,
      443,
      441,
      440,
      439,
      438,
      443,
      443,
      446,
      425,
      419,
      407,
      394,
      395,
      389,
      389,
      380,
      379,
      369,
      367,
      357,
      356,
      346,
      345,
      323,
      295,
      256,
      249,
      245,
      243,
      239,
      229,
      234,
      231,
      233,
      237,
      234,
      227,
      230,
      237,
      246,
      244,
      242,
      206,
      175,
      160,
      159,
      161
    ],
    "swim:timestamps": [
      1786468696,
      1786468762,
      1786468769,
      1786468826,
      1786468877,
      1786468889,
      1786468946,
      1786469006,
      1786469067,
      1786469129,
      1786469187,
      1786469247,
      1786469307,
      1786469370,
      1786469427,
      1786469487,
      1786469550,
      1786469608,
      1786469668,
      1786469728,
      1786469791,
      1786469848,
      1786469908,
      1786469968,
      1786470028,
      1786470088,
      1786470151,
      1786470209,
      1786470269,
      1786470329,
      1786470389,
      1786470449,
      1786470509,
      1786470569,
      1786470629,
      1786470689,
      1786470749,
      1786470810,
      1786470870,
      1786470930,
      1786470990,
      1786471050,
      1786471110,
      1786471170,
      1786471230,
      1786471290,
      1786471350,
      1786471411,
      1786471471,
      1786471531,
      1786471591,
      1786471651,
      1786471711,
      1786471731,
      1786471771,
      1786471792,
      1786471831,
      1786471852,
      1786471891,
      1786471912,
      1786471951,
      1786471972,
      1786471996,
      1786472020,
      1786472053,
      1786472080,
      1786472113,
      1786472144,
      1786472174,
      1786472200,
      1786472234,
      1786472260,
      1786472294,
      1786472300,
      1786472320,
      1786472354,
      1786472360,
      1786472381,
      1786472414,
      1786472420,
      1786472441,
      1786472474,
      1786472480,
      1786472501,
      1786472534,
      1786472540,
      1786472561,
      1786472594,
      1786472601,
      1786472621,
      1786472654,
      1786472661,
      1786472681,
      1786472721,
      1786472741,
      1786472781,
      1786472801,
      1786472834,
      1786472861,
      1786472895,
      1786472921,
      1786472961,
      1786472982,
      1786473015,
      1786473021,
      1786473042,
      1786473075,
      1786473102,
      1786473135,
      1786473162,
      1786473195,
      1786473222,
      1786473255,
      1786473282,
      1786473315,
      1786473342,
      1786473402,
      1786473462,
      1786473522,
      1786473583,
      1786473643,
      1786473703,
      1786473763,
      1786473823,
      1786473883,
      1786473943,
      1786474003,
      1786474063,
      1786474123,
      1786474183,
      1786474244,
      1786474304,
      1786474364,
      1786474424,
      1786474484,
      1786474544,
      1786474590,
      1786474604,
      1786474650,
      1786474664,
      1786474711,
      1786474724,
      1786474771,
      1786474784,
      1786474831,
      1786474845,
      1786474891,
      1786474905,
      1786474951,
      1786474965,
      1786475011,
      1786475025,
      1786475071,
      1786475085,
      1786475131,
      1786475145,
      1786475191,
      1786475205,
      1786475251,
      1786475265,
      1786475311,
      1786475325,
      1786475371,
      1786475385,
      1786475432,
      1786475446,
      1786475492,
      1786475506,
      1786475552,
      1786475566,
      1786475612,
      1786475626,
      1786475672,
      1786475686,
      1786475732,
      1786475746,
      1786475792,
      1786475806,
      1786475852,
      1786475866,
      1786475912,
      1786475926,
      1786475984,
      1786476044,
      1786476104,
      1786476165,
      1786476225,
      1786476285,
      1786476345,
      1786476405,
      1786476465,
      1786476525,
      1786476585,
      1786476645,
      1786476705,
      1786476765,
      1786476825,
      1786476886,
      1786476946,
      1786477006,
      1786477066,
      1786477126,
      1786477186,
      1786477246,
      1786477306,
      1786477366,
      1786477426,
      1786477486,
      1786477546,
      1786477607,
      1786477667,
      1786477727,
      1786477787,
      1786477847,
      1786477907,
      1786477967,
      1786478023,
      1786478087,
      1786478147,
      1786478207,
      1786478263,
      1786478324,
      1786478384,
      1786478448,
      1786478504,
      1786478564,
      1786478624,
      1786478684,
      1786478744,
      1786478804,
      1786478864,
      1786478895,
      1786478924,
      1786478955,
      1786478984,
      1786479045,
      1786479075,
      1786479105,
      1786479135,
      1786479165,
      1786479195,
      1786479225,
      1786479255,
      1786479285,
      1786479315,
      1786479345,
      1786479376,
      1786479405,
      1786479436,
      1786479465,
      1786479496,
      1786479525,
      1786479556,
      1786479585,
      1786479616,
      1786479645,
      1786479676,
      1786479705,
      1786479736,
      1786479766,
      1786479796,
      1786479826,
      1786479856,
      1786479886,
      1786479916,
      1786479946,
      1786479976,
      1786480006,
      1786480036,
      1786480066,
      1786480097,
      1786480126,
      1786480157,
      1786480186,
      1786480217,
      1786480246,
      1786480277,
      1786480306,
      1786480337,
      1786480366,
      1786480397,
      1786480426,
      1786480457,
      1786480487,
      1786480517,
      1786480547,
      1786480577,
      1786480607,
      1786480637,
      1786480667,
      1786480697,
      1786480727,
      1786480757,
      1786480787,
      1786480817,
      1786480847,
      1786480878,
      1786480907,
      1786480938,
      1786480967,
      1786480998,
      1786481027,
      1786481058,
      1786481087,
      1786481118,
      1786481147,
      1786481178,
      1786481208,
      1786481238,
      1786481268,
      1786481298,
      1786481328,
      1786481358,
      1786481388,
      1786481418,
      1786481448,
      1786481490,
      1786481508,
      1786481550,
      1786481568,
      1786481611,
      1786481628,
      1786481671,
      1786481688,
      1786481731,
      1786481748,
      1786481791,
      1786481808,
      1786481851,
      1786481868,
      1786481911,
      1786481929,
      1786481971,
      1786481989,
      1786482031,
      1786482049,
      1786482091,
      1786482109,
      1786482151,
      1786482169,
      1786482211,
      1786482229,
      1786482271,
      1786482289,
      1786482332,
      1786482349,
      1786482392,
      1786482409,
      1786482452,
      1786482469,
      1786482512,
      1786482572,
      1786482632,
      1786482692,
      1786482752,
      1786482812,
      1786482872,
      1786482932,
      1786483004,
      1786483065,
      1786483125,
      1786483185,
      1786483245,
      1786483305,
      1786483365,
      1786483425,
      1786483485,
      1786483545,
      1786483605,
      1786483665,
      1786483725,
      1786483785,
      1786483846,
      1786483906,
      1786483966,
      1786484026,
      1786484086,
      1786484146,
      1786484206,
      1786484266,
      1786484326,
      1786484386,
      1786484446,
      1786484509,
      1786484567,
      1786484627,
      1786484641,
      1786484687,
      1786484701,
      1786484747,
      1786484761,
      1786484821,
      1786484867,
      1786484881,
      1786484927,
      1786484941,
      1786484987,
      1786485001,
      1786485047,
      1786485062,
      1786485122,
      1786485167,
      1786485182,
      1786485227,
      1786485242,
      1786485302,
      1786485362,
      1786485408,
      1786485422,
      1786485482,
      1786485542,
      1786485662,
      1786485722,
      1786485782,
      1786485843,
      1786485903,
      1786485963,
      1786486023,
      1786486095,
      1786486118,
      1786486155,
      1786486178,
      1786486215,
      1786486238,
      1786486275,
      1786486298,
      1786486335,
      1786486359,
      1786486395,
      1786486418,
      1786486455,
      1786486478,
      1786486515,
      1786486538,
      1786486575,
      1786486598,
      1786486636,
      1786486658,
      1786486696,
      1786486718,
      1786486756,
      1786486779,
      1786486838,
      1786486876,
      1786486898,
      1786486936,
      1786486959,
      1786486996,
      1786487019,
      1786487056,
      1786487078,
      1786487116,
      1786487139,
      1786487176,
      1786487199,
      1786487236,
      1786487296,
      1786487319,
      1786487357,
      1786487379,
      1786487417
    ],
    "wof:geomhash": "81ee6abe358a79cc95695d039bb7a4f5",
    "wof:id": 2047927593,
    "wof:repo": "sfomuseum-data-flights-2026-08"
  },
  "bbox": [
    -122.35277777777777,
    37.46611111111111,
    -77.48333333333333,
    41.38944444444444
  ],
  "geometry": {"type":"LineString","coordinates":[[-77.48333333333333,38.95],[-77.56666666666666,38.96666666666667],[-77.56416666666667,38.977222222222224],[-77.55666666666666,39.03666666666666],[-77.53333333333333,39.1],[-77.53555555555555,39.10444444444445],[-77.58749999999999,39.165],[-77.64111111111112,39.22916666666667],[-77.70361111111112,39.302499999999995],[-77.77083333333333,39.38166666666667],[-77.82055555555556,39.467222222222226],[-77.89555555555556,39.54944444444444],[-78.00861111111111,39.59055555555556],[-78.12833333333333,39.644999999999996],[-78.23555555555555,39.69305555555555],[-78.35416666666666,39.746944444444445],[-78.49361111111111,39.808611111111105],[-78.60833333333333,39.86],[-78.73527777777778,39.916666666666664],[-78.86388888888888,39.973888888888894],[-79.01472222222222,40.040277777777774],[-79.13583333333334,40.093611111111116],[-79.275,40.154444444444444],[-79.41222222222223,40.214444444444446],[-79.55555555555556,40.276666666666664],[-79.69611111111111,40.337500000000006],[-79.83333333333333,40.39666666666667],[-79.97083333333333,40.45527777777778],[-80.11611111111111,40.51722222222222],[-80.25416666666666,40.575833333333335],[-80.39277777777778,40.63444444444444],[-80.53027777777778,40.69222222222222],[-80.66861111111112,40.75],[-80.78972222222222,40.80027777777777],[-80.92750000000001,40.85777777777778],[-81.07444444444444,40.91861111111111],[-81.20944444444444,40.973888888888894],[-81.34555555555555,41.029444444444444],[-81.47888888888889,41.08361111111111],[-81.60472222222222,41.13444444444444],[-81.73805555555556,41.18861111111111],[-81.8711111111111,41.24194444444444],[-82.00083333333333,41.29388888888889],[-82.13166666666666,41.345555555555556],[-82.26027777777777,41.36388888888889],[-82.39944444444446,41.371944444444445],[-82.56805555555555,41.38166666666667],[-82.70666666666666,41.38944444444444],[-82.84833333333333,41.385555555555555],[-82.98722222222223,41.36638888888889],[-83.1236111111111,41.344166666666666],[-83.25694444444444,41.31527777777777],[-83.39166666666668,41.28111111111111],[-83.4325,41.27055555555555],[-83.5261111111111,41.24666666666667],[-83.565,41.236666666666665],[-83.66083333333334,41.21222222222222],[-83.69777777777779,41.19944444444444],[-83.78611111111111,41.16555555555556],[-83.81888888888888,41.14722222222222],[-83.88611111111112,41.11],[-83.92861111111111,41.08083333333334],[-83.97194444444445,41.05138888888889],[-84.01555555555555,41.0225],[-84.0736111111111,40.99527777777778],[-84.1438888888889,40.97138888888889],[-84.20277777777778,40.94972222222222],[-84.26722222222222,40.9225],[-84.32444444444444,40.8975],[-84.39083333333333,40.87],[-84.44777777777779,40.843333333333334],[-84.51305555555555,40.80916666666666],[-84.57222222222222,40.7925],[-84.60305555555556,40.79388888888889],[-84.65222222222222,40.80416666666667],[-84.71805555555555,40.81944444444445],[-84.74027777777778,40.824444444444445],[-84.8,40.83777777777778],[-84.865,40.85194444444445],[-84.88666666666667,40.85666666666667],[-84.94444444444444,40.87],[-85.0286111111111,40.890277777777776],[-85.0286111111111,40.890277777777776],[-85.08777777777777,40.904444444444444],[-85.17194444444445,40.92444444444444],[-85.17194444444445,40.92444444444444],[-85.22888888888889,40.937777777777775],[-85.31583333333333,40.9575],[-85.31583333333333,40.9575],[-85.3761111111111,40.97],[-85.46111111111111,40.98722222222222],[-85.46111111111111,40.98694444444445],[-85.52194444444444,40.99916666666667],[-85.60805555555555,41.01777777777777],[-85.67027777777778,41.0325],[-85.75777777777778,41.05361111111111],[-85.82027777777778,41.06805555555556],[-85.8786111111111,41.08111111111111],[-85.97055555555556,41.102222222222224],[-86.02833333333334,41.11527777777778],[-86.12166666666666,41.13305555555556],[-86.21416666666667,41.13666666666666],[-86.27694444444444,41.13916666666667],[-86.33888888888889,41.141666666666666],[-86.36611111111111,41.14277777777778],[-86.43111111111112,41.14555555555555],[-86.48916666666666,41.14805555555556],[-86.58166666666666,41.151666666666664],[-86.64055555555557,41.153888888888886],[-86.73416666666667,41.157222222222224],[-86.81,41.16],[-86.86944444444444,41.16222222222222],[-86.96055555555556,41.165277777777774],[-87.01861111111111,41.16722222222222],[-87.10777777777777,41.17027777777778],[-87.17083333333333,41.17222222222222],[-87.32305555555556,41.17722222222222],[-87.47500000000001,41.181666666666665],[-87.62916666666666,41.18611111111111],[-87.78416666666666,41.190555555555555],[-87.94027777777778,41.19444444444444],[-88.10055555555554,41.19833333333333],[-88.25972222222222,41.202222222222225],[-88.4175,41.20611111111111],[-88.57416666666666,41.20916666666667],[-88.73083333333334,41.21222222222222],[-88.88777777777779,41.215],[-89.04166666666667,41.2175],[-89.1975,41.22],[-89.35638888888889,41.22222222222222],[-89.51055555555556,41.22416666666667],[-89.66888888888889,41.225833333333334],[-89.82805555555555,41.2275],[-89.985,41.22888888888889],[-90.1438888888889,41.230000000000004],[-90.30333333333333,41.23083333333334],[-90.41555555555556,41.231388888888894],[-90.46000000000001,41.23166666666667],[-90.57138888888889,41.23111111111111],[-90.61805555555554,41.231944444444444],[-90.72972222222222,41.231388888888894],[-90.775,41.23222222222223],[-90.8875,41.23166666666667],[-90.93333333333334,41.23222222222223],[-91.0436111111111,41.231388888888894],[-91.09055555555555,41.23222222222223],[-91.20111111111112,41.23166666666667],[-91.24555555555555,41.23166666666667],[-91.35916666666667,41.230555555555554],[-91.40472222222223,41.23111111111111],[-91.51638888888888,41.230000000000004],[-91.56305555555555,41.230555555555554],[-91.705,41.22916666666667],[-91.73694444444445,41.22944444444445],[-91.86194444444443,41.22805555555556],[-91.89277777777778,41.22805555555556],[-92.01916666666666,41.22666666666667],[-92.05055555555555,41.22666666666667],[-92.17555555555556,41.22527777777778],[-92.2075,41.225],[-92.3325,41.223333333333336],[-92.36166666666666,41.223055555555554],[-92.48777777777778,41.221111111111114],[-92.51583333333333,41.22083333333334],[-92.6413888888889,41.219166666666666],[-92.67166666666667,41.218611111111116],[-92.7936111111111,41.21666666666667],[-92.82444444444444,41.21611111111111],[-92.94722222222222,41.21388888888889],[-92.97805555555556,41.21333333333334],[-93.10194444444444,41.211111111111116],[-93.13138888888888,41.21055555555556],[-93.25444444444445,41.20805555555556],[-93.28555555555555,41.2075],[-93.40861111111111,41.20472222222222],[-93.43722222222223,41.20416666666667],[-93.56194444444444,41.20138888888889],[-93.59138888888889,41.200833333333335],[-93.71416666666667,41.19777777777777],[-93.74361111111111,41.19694444444444],[-93.86916666666666,41.193888888888885],[-93.89805555555556,41.19305555555555],[-94.05361111111111,41.18888888888888],[-94.20694444444445,41.18444444444444],[-94.35388888888889,41.180277777777775],[-94.50972222222222,41.175555555555555],[-94.66722222222222,41.17027777777778],[-94.82222222222222,41.165277777777774],[-94.98083333333334,41.15972222222222],[-95.13805555555557,41.15416666666667],[-95.29416666666667,41.14805555555556],[-95.45111111111112,41.14194444444444],[-95.60916666666667,41.135555555555555],[-95.76888888888888,41.12888888888889],[-95.92666666666668,41.12222222222222],[-96.08194444444445,41.11527777777778],[-96.245,41.10777777777778],[-96.40222222222222,41.10027777777778],[-96.55694444444444,41.09277777777778],[-96.715,41.085],[-96.87305555555555,41.07666666666667],[-97.02805555555555,41.06861111111112],[-97.18444444444445,41.059999999999995],[-97.33999999999999,41.05138888888889],[-97.49666666666667,41.0425],[-97.65277777777779,41.03361111111111],[-97.8086111111111,41.024166666666666],[-97.96527777777779,41.01444444444444],[-98.12166666666666,41.00472222222222],[-98.27944444444444,40.99472222222222],[-98.43666666666667,40.98444444444444],[-98.59555555555555,40.97416666666667],[-98.75111111111111,40.96333333333334],[-98.91000000000001,40.9525],[-99.06805555555555,40.94138888888889],[-99.2238888888889,40.93],[-99.37805555555555,40.91861111111111],[-99.5436111111111,40.906388888888884],[-99.70305555555557,40.89416666666666],[-99.86222222222221,40.88166666666667],[-100.01583333333333,40.86944444444445],[-100.17027777777778,40.85722222222223],[-100.3286111111111,40.844166666666666],[-100.49194444444444,40.830555555555556],[-100.64333333333335,40.81777777777778],[-100.81,40.80361111111111],[-100.93527777777778,40.7925],[-101.06305555555555,40.78111111111111],[-101.25222222222222,40.76416666666667],[-101.4063888888889,40.750277777777775],[-101.56277777777777,40.73555555555556],[-101.655,40.725],[-101.71916666666667,40.72083333333334],[-101.81194444444444,40.70944444444445],[-101.87555555555555,40.70583333333334],[-102.03166666666667,40.69083333333333],[-102.12333333333332,40.68],[-102.21972222222223,40.67222222222222],[-102.27944444444444,40.665277777777774],[-102.37666666666667,40.656388888888884],[-102.43694444444445,40.64944444444444],[-102.53222222222222,40.64083333333333],[-102.59388888888888,40.63305555555556],[-102.6575,40.62777777777778],[-102.75,40.61694444444444],[-102.81611111111111,40.61194444444445],[-102.90777777777778,40.60611111111111],[-102.97416666666666,40.60805555555556],[-103.06638888888888,40.60416666666667],[-103.13305555555554,40.60444444444445],[-103.22416666666666,40.60333333333333],[-103.28944444444444,40.60916666666667],[-103.38138888888888,40.61083333333333],[-103.44583333333334,40.61611111111111],[-103.53694444444444,40.61972222222222],[-103.62972222222221,40.63166666666667],[-103.69055555555556,40.628055555555555],[-103.7863888888889,40.61611111111111],[-103.8436111111111,40.60861111111111],[-103.94250000000001,40.59777777777778],[-104.00472222222223,40.58972222222222],[-104.09916666666666,40.578611111111115],[-104.16222222222223,40.57055555555556],[-104.25611111111111,40.55888888888889],[-104.32,40.55],[-104.41250000000001,40.53916666666667],[-104.47638888888889,40.53055555555555],[-104.5675,40.519444444444446],[-104.63222222222221,40.51083333333333],[-104.72305555555556,40.49944444444444],[-104.7911111111111,40.49055555555556],[-104.8786111111111,40.47916666666667],[-104.94194444444445,40.47027777777778],[-105.03527777777778,40.45861111111111],[-105.0961111111111,40.44916666666666],[-105.18972222222223,40.43805555555555],[-105.25527777777778,40.42833333333333],[-105.34388888888888,40.4175],[-105.41055555555556,40.406666666666666],[-105.49972222222222,40.39611111111111],[-105.56777777777778,40.38638888888889],[-105.65416666666667,40.375],[-105.72111111111111,40.36527777777778],[-105.80638888888889,40.35388888888889],[-105.87583333333333,40.343611111111116],[-105.96000000000001,40.33222222222223],[-106.0286111111111,40.32138888888889],[-106.11611111111111,40.31027777777778],[-106.18305555555555,40.29833333333333],[-106.27722222222222,40.28722222222222],[-106.33805555555556,40.27722222222222],[-106.43166666666667,40.265],[-106.49055555555556,40.25555555555555],[-106.57388888888889,40.244166666666665],[-106.64944444444446,40.23222222222223],[-106.72777777777777,40.22138888888889],[-106.80388888888889,40.209722222222226],[-106.88472222222222,40.198055555555555],[-106.95833333333334,40.186388888888885],[-107.03916666666666,40.175],[-107.11194444444443,40.16361111111111],[-107.19277777777778,40.151666666666664],[-107.26388888888889,40.140277777777776],[-107.3536111111111,40.12694444444445],[-107.415,40.11666666666667],[-107.50666666666666,40.10333333333333],[-107.56777777777778,40.09305555555556],[-107.6613888888889,40.07916666666667],[-107.72027777777778,40.06944444444445],[-107.81361111111111,40.055277777777775],[-107.87583333333333,40.04555555555555],[-107.96888888888888,40.03055555555555],[-108.02916666666667,40.020833333333336],[-108.12138888888889,40.00611111111111],[-108.185,39.99611111111111],[-108.27638888888889,39.98111111111111],[-108.33888888888889,39.971111111111114],[-108.43,39.95611111111111],[-108.51444444444445,39.94222222222222],[-108.57666666666667,39.93194444444444],[-108.67500000000001,39.91555555555556],[-108.73583333333333,39.90555555555555],[-108.82833333333333,39.89],[-108.88777777777779,39.88],[-109.01055555555556,39.85944444444445],[-109.03972222222222,39.85444444444445],[-109.16250000000001,39.833333333333336],[-109.19361111111111,39.82805555555556],[-109.315,39.80722222222222],[-109.34638888888888,39.801944444444445],[-109.46833333333333,39.780833333333334],[-109.49944444444445,39.775277777777774],[-109.62083333333332,39.75416666666667],[-109.65027777777779,39.74916666666667],[-109.77277777777778,39.7275],[-109.80472222222222,39.721944444444446],[-109.9263888888889,39.70027777777778],[-109.95833333333334,39.69444444444444],[-110.08166666666666,39.6725],[-110.11055555555555,39.66722222222222],[-110.23472222222222,39.644999999999996],[-110.26444444444445,39.63972222222222],[-110.3875,39.617222222222225],[-110.4175,39.61194444444445],[-110.54083333333332,39.58916666666667],[-110.57055555555556,39.58361111111111],[-110.69250000000001,39.56111111111111],[-110.7225,39.55555555555555],[-110.84666666666666,39.5325],[-110.87694444444443,39.526666666666664],[-110.99916666666667,39.50361111111111],[-111.15361111111112,39.474722222222226],[-111.30694444444444,39.445277777777775],[-111.45416666666667,39.41722222222222],[-111.6111111111111,39.38666666666666],[-111.76666666666667,39.35638888888889],[-111.92194444444445,39.325833333333335],[-112.07666666666667,39.29527777777778],[-112.2611111111111,39.25833333333333],[-112.4175,39.22694444444445],[-112.56972222222223,39.19611111111111],[-112.72611111111111,39.16416666666667],[-112.88027777777778,39.1325],[-113.035,39.10027777777778],[-113.18972222222223,39.06805555555556],[-113.34555555555555,39.03527777777778],[-113.50083333333333,39.00222222222222],[-113.6538888888889,38.969722222222224],[-113.80888888888889,38.936388888888885],[-113.96138888888889,38.90333333333333],[-114.11638888888888,38.86972222222222],[-114.27027777777778,38.83583333333333],[-114.42861111111111,38.80083333333333],[-114.58611111111111,38.76555555555556],[-114.74194444444444,38.73083333333334],[-114.90083333333334,38.69499999999999],[-115.05749999999999,38.659444444444446],[-115.21388888888889,38.62361111111111],[-115.37583333333333,38.586111111111116],[-115.52694444444444,38.551111111111105],[-115.68388888888889,38.51444444444444],[-115.83944444444444,38.47777777777778],[-115.99472222222222,38.441111111111105],[-116.15194444444445,38.40361111111111],[-116.30527777777777,38.36666666666667],[-116.45861111111111,38.32972222222222],[-116.49083333333333,38.32194444444445],[-116.61416666666666,38.29194444444444],[-116.64500000000001,38.28444444444444],[-116.76888888888888,38.25416666666667],[-116.79944444444445,38.24666666666667],[-116.96055555555556,38.223055555555554],[-117.08527777777778,38.21],[-117.11777777777777,38.206944444444446],[-117.24027777777778,38.19472222222222],[-117.26861111111111,38.19194444444444],[-117.39972222222222,38.18083333333333],[-117.43361111111112,38.17833333333333],[-117.5625,38.171388888888885],[-117.62944444444443,38.16694444444444],[-117.75777777777778,38.15555555555555],[-117.8775,38.128055555555555],[-117.93861111111111,38.11222222222222],[-118.0261111111111,38.089444444444446],[-118.08527777777778,38.07194444444445],[-118.22972222222222,38.02444444444444],[-118.37416666666665,37.97555555555556],[-118.45916666666668,37.94694444444444],[-118.51777777777778,37.92722222222222],[-118.66666666666667,37.886944444444445],[-118.82583333333334,37.870555555555555],[-119.12166666666666,37.84027777777778],[-119.27722222222222,37.823888888888895],[-119.43222222222222,37.80722222222222],[-119.58333333333333,37.79111111111111],[-119.73694444444445,37.77444444444444],[-119.88972222222223,37.757222222222225],[-120.0411111111111,37.74055555555556],[-120.22527777777778,37.719722222222224],[-120.3,37.71666666666667],[-120.37944444444443,37.702222222222225],[-120.45,37.7],[-120.52972222222222,37.68444444444444],[-120.6,37.68333333333333],[-120.6725,37.6675],[-120.73333333333333,37.666666666666664],[-120.80916666666667,37.651666666666664],[-120.86666666666666,37.65],[-120.94333333333334,37.635555555555555],[-121,37.63333333333333],[-121.07416666666666,37.61805555555556],[-121.13333333333334,37.61666666666667],[-121.20444444444445,37.60055555555556],[-121.25,37.6],[-121.32527777777777,37.58527777777778],[-121.38333333333334,37.583333333333336],[-121.44583333333334,37.57166666666667],[-121.5,37.56666666666667],[-121.55416666666666,37.55916666666666],[-121.6,37.55],[-121.64166666666668,37.54694444444444],[-121.68333333333334,37.53333333333333],[-121.75,37.56666666666667],[-121.80027777777778,37.56527777777777],[-121.81666666666666,37.55],[-121.81444444444445,37.50472222222222],[-121.83333333333333,37.483333333333334],[-121.87527777777777,37.473055555555554],[-121.91666666666667,37.46666666666667],[-121.9575,37.46611111111111],[-121.98333333333333,37.46666666666667],[-122.03333333333333,37.477222222222224],[-122.06666666666666,37.483333333333334],[-122.10888888888888,37.50888888888889],[-122.13333333333334,37.516666666666666],[-122.18277777777779,37.54055555555556],[-122.25083333333333,37.56888888888889],[-122.26666666666667,37.583333333333336],[-122.3025,37.59055555555556],[-122.31666666666666,37.6],[-122.35277777777777,37.611666666666665]]}
}
