{
  "id": 2047979829,
  "type": "Feature",
  "properties": {
    "geom:area": 0,
    "geom:bbox": "-122.559310,36.718970,-121.318420,37.662530",
    "geom:latitude": 37.1781760714995,
    "geom:longitude": -122.03413391764315,
    "src:alt_label": "swim-takeoff",
    "src:geom": "swim",
    "swim:elevations": [
      727,
      937,
      1358,
      1560,
      2113,
      2623,
      2735,
      3113,
      3288,
      3447,
      3910,
      4063,
      4376,
      4750,
      4984,
      5181,
      5660,
      5851,
      5953,
      6280,
      6488,
      6711,
      7212,
      7902,
      8013,
      8276,
      8402,
      8666,
      8846,
      8874,
      8900,
      8931
    ],
    "swim:geom": "takeoff",
    "swim:timestamps": [
      1786813122,
      1786813155,
      1786813194,
      1786813208,
      1786813245,
      1786813284,
      1786813295,
      1786813327,
      1786813355,
      1786813385,
      1786813436,
      1786813450,
      1786813480,
      1786813515,
      1786813539,
      1786813560,
      1786813615,
      1786813639,
      1786813655,
      1786813698,
      1786813727,
      1786813752,
      1786813780,
      1786813822,
      1786813840,
      1786813881,
      1786813903,
      1786813943,
      1786813975,
      1786813991,
      1786814007,
      1786814023
    ],
    "wof:geomhash": "7dd74f0b6582b1ebd4216fea706d2871",
    "wof:id": 2047979829,
    "wof:repo": "sfomuseum-data-flights-2026-08"
  },
  "bbox": [
    -122.55931,
    36.71897,
    -121.31842,
    37.66253
  ],
  "geometry": {"type":"LineString","coordinates":[[-122.43813,37.64626],[-122.47568,37.66253],[-122.52962,37.65916],[-122.5403,37.6456],[-122.54916,37.60001],[-122.55439,37.55049],[-122.55567,37.53697],[-122.55931,37.49403],[-122.53881,37.45801],[-122.49232,37.43054],[-122.40387,37.37821],[-122.37969,37.36377],[-122.32695,37.33215],[-122.26322,37.29384],[-122.21997,37.26782],[-122.18126,37.24443],[-122.07846,37.18236],[-122.0338,37.15535],[-122.00272,37.13657],[-121.91856,37.08535],[-121.86189,37.05089],[-121.8121,37.02062],[-121.75854,36.98806],[-121.68166,36.94109],[-121.65114,36.9224],[-121.57871,36.87769],[-121.53938,36.85347],[-121.46763,36.80912],[-121.40971,36.77353],[-121.37991,36.75533],[-121.35103,36.73775],[-121.31842,36.71897]]}
}
