{
  "id": 2032073143,
  "type": "Feature",
  "properties": {
    "geom:area": 0,
    "geom:bbox": "-122.359910,37.441820,-121.244880,37.655760",
    "geom:latitude": 37.541467485660526,
    "geom:longitude": -121.79893762537617,
    "src:alt_label": "swim-approach",
    "src:geom": "swim",
    "swim:elevations": [
      4695,
      4425,
      4263,
      4184,
      4046,
      3970,
      3868,
      3754,
      3661,
      3411,
      3410,
      3303,
      3049,
      3048,
      3048,
      3048,
      3048,
      3048,
      3048,
      2964,
      2780,
      2743,
      2743,
      2743,
      2743,
      2743,
      2604,
      2469,
      2254,
      2102,
      2043,
      1933,
      1809,
      1706,
      1513,
      1311,
      1156,
      1024,
      954,
      882,
      733,
      728,
      696,
      545,
      405,
      278,
      253,
      81,
      0
    ],
    "swim:geom": "approach",
    "swim:timestamps": [
      1785702814,
      1785702865,
      1785702895,
      1785702913,
      1785702949,
      1785702963,
      1785702987,
      1785703006,
      1785703025,
      1785703077,
      1785703080,
      1785703103,
      1785703168,
      1785703186,
      1785703208,
      1785703249,
      1785703267,
      1785703282,
      1785703301,
      1785703328,
      1785703364,
      1785703407,
      1785703413,
      1785703420,
      1785703437,
      1785703452,
      1785703488,
      1785703517,
      1785703556,
      1785703582,
      1785703592,
      1785703607,
      1785703629,
      1785703644,
      1785703671,
      1785703708,
      1785703735,
      1785703766,
      1785703781,
      1785703796,
      1785703826,
      1785703830,
      1785703836,
      1785703870,
      1785703904,
      1785703945,
      1785703953,
      1785704000,
      1785704020
    ],
    "wof:geomhash": "b6f645ad93bbfe71a88bd2b4624a7a53",
    "wof:id": 2032073143,
    "wof:repo": "sfomuseum-data-flights-2026-08"
  },
  "bbox": [
    -122.35991,
    37.44182,
    -121.24488,
    37.65576
  ],
  "geometry": {"coordinates":[[-121.24488,37.58675],[-121.29763,37.52409],[-121.33164,37.49032],[-121.3616,37.4821],[-121.41717,37.49496],[-121.43675,37.50391],[-121.46718,37.51995],[-121.49018,37.5322],[-121.51287,37.54418],[-121.58675,37.56093],[-121.59097,37.56168],[-121.62381,37.56764],[-121.70708,37.60093],[-121.72876,37.61247],[-121.75475,37.62617],[-121.80464,37.65216],[-121.8302,37.65576],[-121.85137,37.65137],[-121.87599,37.64323],[-121.89475,37.61579],[-121.86932,37.58008],[-121.82303,37.54581],[-121.81656,37.54095],[-121.80901,37.53514],[-121.79674,37.5179],[-121.79701,37.5005],[-121.81768,37.46252],[-121.85258,37.44822],[-121.90818,37.44304],[-121.94359,37.44182],[-121.95621,37.44512],[-121.97478,37.45238],[-122.00114,37.46365],[-122.01859,37.47113],[-122.05121,37.48481],[-122.09561,37.50343],[-122.12462,37.51569],[-122.15478,37.52831],[-122.16928,37.53444],[-122.18275,37.54019],[-122.21037,37.55178],[-122.21409,37.55331],[-122.2195,37.55556],[-122.25007,37.56862],[-122.2784,37.58048],[-122.3081,37.59293],[-122.31354,37.59512],[-122.34662,37.60911],[-122.35991,37.61466]],"type":"LineString"}
}
