{
  "id": 2047998061,
  "type": "Feature",
  "properties": {
    "geom:area": 0,
    "geom:bbox": "-122.527640,37.625560,-121.355990,38.286240",
    "geom:latitude": 38.000223558760666,
    "geom:longitude": -122.03573646075347,
    "src:alt_label": "swim-takeoff",
    "src:geom": "swim",
    "swim:elevations": [
      122,
      285,
      460,
      629,
      762,
      1009,
      1114,
      1643,
      1780,
      2380,
      2638,
      2996,
      3049,
      3337,
      3551,
      3767,
      3907,
      4317,
      4544,
      5003,
      5278,
      5367,
      5791,
      5862,
      6161,
      6425,
      6534,
      6700
    ],
    "swim:geom": "takeoff",
    "swim:timestamps": [
      1786888489,
      1786888506,
      1786888524,
      1786888537,
      1786888567,
      1786888611,
      1786888624,
      1786888672,
      1786888681,
      1786888735,
      1786888759,
      1786888793,
      1786888804,
      1786888856,
      1786888876,
      1786888897,
      1786888925,
      1786888968,
      1786889004,
      1786889045,
      1786889091,
      1786889100,
      1786889156,
      1786889162,
      1786889201,
      1786889242,
      1786889258,
      1786889281
    ],
    "wof:geomhash": "23ffcd16832df2215b737e0e551645d5",
    "wof:id": 2047998061,
    "wof:repo": "sfomuseum-data-flights-2026-08"
  },
  "bbox": [
    -122.52764,
    37.62556,
    -121.35599,
    38.28624
  ],
  "geometry": {"type":"LineString","coordinates":[[-122.39167,37.62556],[-122.40701,37.63181],[-122.424,37.63876],[-122.43648,37.64387],[-122.46672,37.65759],[-122.51812,37.68418],[-122.52597,37.69915],[-122.52764,37.76111],[-122.52695,37.77345],[-122.47327,37.82757],[-122.4365,37.84339],[-122.38514,37.86649],[-122.36787,37.87464],[-122.28685,37.91396],[-122.25207,37.93077],[-122.21682,37.94736],[-122.16688,37.97068],[-122.08339,38.01047],[-122.01022,38.04385],[-121.92542,38.08474],[-121.826,38.13053],[-121.8052,38.13839],[-121.67121,38.18474],[-121.65745,38.18925],[-121.5606,38.22062],[-121.45688,38.25383],[-121.41724,38.26656],[-121.35599,38.28624]]}
}
