{
  "id": 2032087855,
  "type": "Feature",
  "properties": {
    "geom:area": 0,
    "geom:bbox": "-122.316667,33.350000,-111.850000,37.600000",
    "geom:latitude": 34.86972110264826,
    "geom:longitude": -117.42412807160203,
    "src:alt_label": "swim-path",
    "src:geom": "swim",
    "swim:altitudes": [
      "029",
      "041",
      "068",
      "080",
      "098",
      "108",
      "114",
      "130",
      "151",
      "160",
      "187",
      "210",
      "228",
      "247",
      "265",
      "280",
      "280",
      "280",
      "280",
      "305",
      "338",
      "355",
      "360C",
      "360C",
      "360C",
      "360C",
      "360C",
      "360C",
      "360C",
      "360C",
      "360C",
      "360C",
      "360C",
      "360C",
      "360C",
      "360C",
      "360C",
      "360C",
      "360C",
      "360C",
      "360C",
      "360C",
      "360C",
      "360C",
      "360C",
      "360C",
      "360C",
      "360C",
      "360C",
      "360C",
      "360C",
      "360C",
      "360C",
      "360C",
      "360C",
      "360C",
      "360C",
      "360C",
      "360C",
      "360C",
      "360C",
      "360C",
      "360C",
      "360",
      "360",
      "360",
      "360",
      "360",
      "360",
      "360",
      "360",
      "324",
      "293",
      "268",
      "241",
      "227",
      "218",
      "197",
      "174",
      "155",
      "136",
      "119",
      "102",
      "100",
      "089",
      "088",
      "077",
      "061",
      "060",
      "034",
      "030",
      "022",
      "015",
      "008"
    ],
    "swim:geom": "path",
    "swim:speeds": [
      211,
      226,
      253,
      254,
      253,
      268,
      302,
      368,
      378,
      383,
      390,
      398,
      428,
      440,
      445,
      458,
      461,
      461,
      460,
      469,
      467,
      463,
      457,
      454,
      452,
      449,
      449,
      449,
      449,
      449,
      449,
      449,
      448,
      447,
      447,
      447,
      447,
      447,
      448,
      449,
      448,
      449,
      449,
      446,
      449,
      449,
      449,
      448,
      447,
      445,
      445,
      444,
      444,
      443,
      443,
      443,
      443,
      443,
      443,
      443,
      443,
      442,
      442,
      443,
      443,
      443,
      443,
      443,
      443,
      442,
      441,
      430,
      446,
      421,
      410,
      399,
      401,
      385,
      373,
      360,
      348,
      332,
      325,
      252,
      241,
      244,
      234,
      243,
      240,
      200,
      187,
      164,
      163,
      143
    ],
    "swim:timestamps": [
      1785775106,
      1785775137,
      1785775197,
      1785775220,
      1785775257,
      1785775286,
      1785775317,
      1785775377,
      1785775442,
      1785775502,
      1785775562,
      1785775622,
      1785775682,
      1785775742,
      1785775802,
      1785775862,
      1785775922,
      1785775982,
      1785776038,
      1785776158,
      1785776279,
      1785776339,
      1785776399,
      1785776463,
      1785776523,
      1785776703,
      1785776763,
      1785776824,
      1785776884,
      1785777004,
      1785777064,
      1785777124,
      1785777184,
      1785777244,
      1785777304,
      1785777364,
      1785777424,
      1785777485,
      1785777665,
      1785777725,
      1785777845,
      1785777965,
      1785778025,
      1785778075,
      1785778085,
      1785778135,
      1785778206,
      1785778266,
      1785778315,
      1785778375,
      1785778386,
      1785778435,
      1785778446,
      1785778506,
      1785778555,
      1785778615,
      1785778626,
      1785778686,
      1785778735,
      1785778796,
      1785778806,
      1785778867,
      1785778927,
      1785778976,
      1785778987,
      1785779036,
      1785779096,
      1785779107,
      1785779167,
      1785779216,
      1785779276,
      1785779396,
      1785779456,
      1785779517,
      1785779577,
      1785779605,
      1785779637,
      1785779697,
      1785779757,
      1785779817,
      1785779877,
      1785779924,
      1785779985,
      1785780044,
      1785780104,
      1785780117,
      1785780165,
      1785780224,
      1785780238,
      1785780418,
      1785780478,
      1785780538,
      1785780598,
      1785780645
    ],
    "wof:geomhash": "20aa6de80969ae252331defa66474990",
    "wof:id": 2032087855,
    "wof:repo": "sfomuseum-data-flights-2026-08"
  },
  "bbox": [
    -122.31666666666666,
    33.35,
    -111.85,
    37.6
  ],
  "geometry": {"type":"LineString","coordinates":[[-111.95,33.43333333333333],[-111.91083333333334,33.433611111111105],[-111.85027777777778,33.4],[-111.85,33.36666666666667],[-111.89722222222223,33.35527777777778],[-111.93333333333334,33.35],[-111.9888888888889,33.361666666666665],[-112.10499999999999,33.3775],[-112.22222222222223,33.39527777777778],[-112.34916666666666,33.413888888888884],[-112.47722222222222,33.4325],[-112.61027777777777,33.45027777777778],[-112.75222222222222,33.45194444444445],[-112.8963888888889,33.47083333333334],[-113.03861111111111,33.49722222222222],[-113.1863888888889,33.528888888888886],[-113.32527777777777,33.58277777777778],[-113.47666666666667,33.641666666666666],[-113.58972222222222,33.68555555555555],[-113.87388888888889,33.790277777777774],[-114.1763888888889,33.85638888888889],[-114.33111111111111,33.88972222222222],[-114.47638888888889,33.92111111111111],[-114.64027777777778,33.95611111111111],[-114.78555555555555,33.98694444444445],[-115.22166666666666,34.07833333333333],[-115.36555555555555,34.10805555555556],[-115.51305555555555,34.138333333333335],[-115.65777777777778,34.168055555555554],[-115.94972222222222,34.22694444444445],[-116.09555555555555,34.25611111111111],[-116.24111111111111,34.285],[-116.38666666666667,34.31388888888888],[-116.53444444444445,34.34277777777778],[-116.68027777777779,34.37138888888889],[-116.8261111111111,34.39944444444444],[-116.97333333333333,34.42777777777778],[-117.11999999999999,34.45583333333334],[-117.56305555555555,34.53916666666667],[-117.71055555555556,34.56666666666667],[-118.00833333333334,34.62138888888889],[-118.27083333333333,34.743611111111115],[-118.39777777777779,34.81222222222222],[-118.51083333333334,34.871944444444445],[-118.5286111111111,34.88305555555556],[-118.64111111111112,34.94333333333333],[-118.79194444444444,35.02361111111111],[-118.9263888888889,35.081944444444446],[-119.0363888888889,35.12972222222222],[-119.16888888888889,35.186388888888885],[-119.19305555555556,35.19694444444444],[-119.30138888888888,35.24333333333333],[-119.32388888888889,35.253055555555555],[-119.45861111111111,35.31055555555555],[-119.56805555555555,35.356944444444444],[-119.70166666666667,35.41361111111111],[-119.72361111111111,35.42305555555555],[-119.85722222222222,35.47944444444445],[-119.96666666666667,35.525277777777774],[-120.09888888888888,35.580555555555556],[-120.1236111111111,35.590833333333336],[-120.26027777777777,35.64805555555556],[-120.38305555555554,35.70666666666667],[-120.48277777777778,35.76722222222222],[-120.505,35.780833333333334],[-120.6036111111111,35.840833333333336],[-120.72555555555556,35.914722222222224],[-120.7461111111111,35.92722222222222],[-120.86749999999999,36.000277777777775],[-120.9675,36.06055555555555],[-121.08833333333332,36.13305555555556],[-121.32583333333334,36.275],[-121.44972222222222,36.34805555555556],[-121.56916666666666,36.419444444444444],[-121.68111111111112,36.486111111111114],[-121.73333333333333,36.53333333333333],[-121.76333333333334,36.57666666666667],[-121.83583333333333,36.66777777777777],[-121.89833333333334,36.75888888888889],[-121.9263888888889,36.856944444444444],[-121.95305555555557,36.95111111111111],[-121.98333333333333,37.03333333333333],[-122.01666666666667,37.11666666666667],[-122.05,37.2],[-122.1,37.25],[-122.10638888888889,37.24722222222222],[-122.16666666666667,37.28333333333333],[-122.15,37.35],[-122.14416666666668,37.35388888888889],[-122.11694444444444,37.50194444444445],[-122.17166666666667,37.533055555555556],[-122.2225,37.55444444444444],[-122.27194444444444,37.57527777777778],[-122.31666666666666,37.6]]}
}
