{
  "id": 2048055153,
  "type": "Feature",
  "properties": {
    "geom:area": 0,
    "geom:bbox": "-122.403020,37.631690,-121.251220,38.422060",
    "geom:latitude": 38.06086984623133,
    "geom:longitude": -121.87097027501184,
    "src:alt_label": "swim-takeoff",
    "src:geom": "swim",
    "swim:elevations": [
      285,
      735,
      1044,
      1171,
      1233,
      1801,
      2079,
      2301,
      2672,
      2979,
      3313,
      3477,
      3700,
      4120,
      4399,
      4533,
      4788,
      4866,
      5027,
      5383,
      5674,
      5838,
      6125,
      6348,
      6517,
      6793,
      7003,
      7188,
      7314
    ],
    "swim:geom": "takeoff",
    "swim:timestamps": [
      1787078444,
      1787078485,
      1787078516,
      1787078540,
      1787078551,
      1787078608,
      1787078628,
      1787078647,
      1787078679,
      1787078706,
      1787078737,
      1787078769,
      1787078793,
      1787078846,
      1787078877,
      1787078891,
      1787078921,
      1787078930,
      1787078945,
      1787078991,
      1787079028,
      1787079047,
      1787079083,
      1787079111,
      1787079135,
      1787079173,
      1787079203,
      1787079232,
      1787079255
    ],
    "wof:geomhash": "f5440b2208490225ba94134bb9b827c3",
    "wof:id": 2048055153,
    "wof:repo": "sfomuseum-data-flights-2026-08"
  },
  "bbox": [
    -122.40302,
    37.63169,
    -121.25122,
    38.42206
  ],
  "geometry": {"type":"LineString","coordinates":[[-122.40302,37.63169],[-122.4013,37.66558],[-122.36557,37.67122],[-122.33642,37.67722],[-122.32179,37.68235],[-122.27545,37.74141],[-122.26254,37.76493],[-122.25017,37.78716],[-122.22831,37.82745],[-122.20976,37.86098],[-122.18795,37.90054],[-122.16336,37.94299],[-122.12736,37.96643],[-122.03733,38.01132],[-121.98123,38.03982],[-121.95566,38.05267],[-121.90108,38.0802],[-121.88465,38.08849],[-121.85731,38.10227],[-121.77089,38.14582],[-121.70002,38.18129],[-121.66239,38.20014],[-121.59127,38.23574],[-121.53594,38.26341],[-121.48817,38.28717],[-121.41053,38.3258],[-121.35158,38.35997],[-121.29591,38.39443],[-121.25122,38.42206]]}
}
