{
  "id": 2047898749,
  "type": "Feature",
  "properties": {
    "geom:area": 0,
    "geom:bbox": "-122.350000,37.492500,-71.060833,42.416667",
    "geom:latitude": 38.837334816008884,
    "geom:longitude": -96.59628915090332,
    "src:alt_label": "swim-path",
    "src:geom": "swim",
    "swim:altitudes": [
      "018",
      "023",
      "035",
      "044",
      "057",
      "083",
      "083",
      "104",
      "115",
      "114",
      "132",
      "132",
      "147",
      "147",
      "163",
      "164",
      "178",
      "191",
      "192",
      "205",
      "205",
      "218",
      "230",
      "230",
      "238",
      "240",
      "251",
      "260",
      "270",
      "278",
      "285",
      "293",
      "300C",
      "300C",
      "300C",
      "300C",
      "300C",
      "300C",
      "300C",
      "300C",
      "300C",
      "300C",
      "300C",
      "300C",
      "300C",
      "300C",
      "300C",
      "300C",
      "300C",
      "300C",
      "300C",
      "300C",
      "300C",
      "300C",
      "300C",
      "300C",
      "300C",
      "300C",
      "300C",
      "300C",
      "300C",
      "300C",
      "300C",
      "300C",
      "300C",
      "300C",
      "300C",
      "300C",
      "300C",
      "300C",
      "300C",
      "300C",
      "300C",
      "300C",
      "300C",
      "300C",
      "300C",
      "300C",
      "300C",
      "300C",
      "300C",
      "300C",
      "300C",
      "300C",
      "300C",
      "300C",
      "300C",
      "300C",
      "300C",
      "300C",
      "300C",
      "300C",
      "300",
      "303",
      "314",
      "324",
      "332",
      "338C",
      "340C",
      "340C",
      "340C",
      "340C",
      "340C",
      "340C",
      "340C",
      "340C",
      "340C",
      "340C",
      "340C",
      "340C",
      "340C",
      "340C",
      "340C",
      "340C",
      "340C",
      "340C",
      "340C",
      "340C",
      "340C",
      "340C",
      "340C",
      "340C",
      "340C",
      "340C",
      "340C",
      "340C",
      "340C",
      "340C",
      "340C",
      "340C",
      "340C",
      "340C",
      "340C",
      "340C",
      "340C",
      "340C",
      "340C",
      "340C",
      "340C",
      "340C",
      "340C",
      "340C",
      "340C",
      "340C",
      "340C",
      "340C",
      "340C",
      "340C",
      "340C",
      "340C",
      "340C",
      "340C",
      "340C",
      "340C",
      "340C",
      "340C",
      "340C",
      "340C",
      "340C",
      "340C",
      "340C",
      "340C",
      "340C",
      "340C",
      "340C",
      "340C",
      "340C",
      "340C",
      "340C",
      "340C",
      "340C",
      "340C",
      "340C",
      "340C",
      "340C",
      "340C",
      "340C",
      "340C",
      "340C",
      "340C",
      "340C",
      "340C",
      "340C",
      "340C",
      "340C",
      "340C",
      "340C",
      "340C",
      "340C",
      "340C",
      "340C",
      "340C",
      "340C",
      "340C",
      "340C",
      "340C",
      "340C",
      "340C",
      "340C",
      "340C",
      "340C",
      "340C",
      "340C",
      "340C",
      "340C",
      "340C",
      "340C",
      "340C",
      "340C",
      "340C",
      "340C",
      "340C",
      "340C",
      "340C",
      "340C",
      "340C",
      "340C",
      "340C",
      "340C",
      "340C",
      "340C",
      "340C",
      "340C",
      "340C",
      "340C",
      "340C",
      "340C",
      "340C",
      "340C",
      "340C",
      "340C",
      "340C",
      "340C",
      "340C",
      "340C",
      "340C",
      "340C",
      "340C",
      "340C",
      "340C",
      "340C",
      "340C",
      "340C",
      "340C",
      "340C",
      "340C",
      "340C",
      "340C",
      "340C",
      "340C",
      "340C",
      "340C",
      "340C",
      "340C",
      "340C",
      "340C",
      "340C",
      "340C",
      "340C",
      "340C",
      "340C",
      "340C",
      "340C",
      "340C",
      "340C",
      "340C",
      "340C",
      "340C",
      "340C",
      "340C",
      "340C",
      "340C",
      "340C",
      "340C",
      "340C",
      "340C",
      "340C",
      "340C",
      "340C",
      "340C",
      "340C",
      "340C",
      "340C",
      "340C",
      "340C",
      "340C",
      "340C",
      "340C",
      "340C",
      "340C",
      "340C",
      "340C",
      "340C",
      "340C",
      "340C",
      "340C",
      "340C",
      "340C",
      "340C",
      "340C",
      "340C",
      "340C",
      "340C",
      "340C",
      "340C",
      "340C",
      "340C",
      "340C",
      "340C",
      "340C",
      "340C",
      "340C",
      "340C",
      "340C",
      "340C",
      "340C",
      "340C",
      "340C",
      "340C",
      "340C",
      "340C",
      "340C",
      "340C",
      "340C",
      "340C",
      "340C",
      "340C",
      "340C",
      "340C",
      "340C",
      "340C",
      "340C",
      "340C",
      "340C",
      "340C",
      "340C",
      "340C",
      "340C",
      "340C",
      "340C",
      "340C",
      "340C",
      "340C",
      "340C",
      "340C",
      "340C",
      "340C",
      "340C",
      "340C",
      "340C",
      "340C",
      "340C",
      "340C",
      "340C",
      "340C",
      "340C",
      "340C",
      "340C",
      "340C",
      "340C",
      "340C",
      "340C",
      "340C",
      "340C",
      "340C",
      "340C",
      "340C",
      "340C",
      "340C",
      "340C",
      "340C",
      "340C",
      "340C",
      "340C",
      "340C",
      "340C",
      "340C",
      "340C",
      "340C",
      "340C",
      "340C",
      "340C",
      "340C",
      "340C",
      "340C",
      "340C",
      "340C",
      "340C",
      "340C",
      "340C",
      "340C",
      "340C",
      "340C",
      "340C",
      "340C",
      "340C",
      "340C",
      "340C",
      "340C",
      "340C",
      "340C",
      "340C",
      "340C",
      "340C",
      "340C",
      "340C",
      "340C",
      "340C",
      "340C",
      "340C",
      "340C",
      "340C",
      "340C",
      "340C",
      "340C",
      "340C",
      "340C",
      "340C",
      "340C",
      "340C",
      "340C",
      "340C",
      "340C",
      "340C",
      "340C",
      "340C",
      "340C",
      "340C",
      "340C",
      "340C",
      "340C",
      "340",
      "340",
      "323",
      "297",
      "288",
      "268",
      "264",
      "246",
      "240",
      "227",
      "223",
      "207",
      "202",
      "186",
      "182",
      "166",
      "162",
      "148",
      "143",
      "129",
      "124",
      "117",
      "115",
      "113",
      "109",
      "100",
      "096",
      "086",
      "071",
      "068",
      "061",
      "060",
      "057",
      "054",
      "045",
      "041",
      "034",
      "031",
      "024",
      "020",
      "014",
      "012",
      "006",
      "003"
    ],
    "swim:geom": "path",
    "swim:speeds": [
      192,
      227,
      230,
      258,
      260,
      261,
      261,
      264,
      314,
      293,
      329,
      327,
      340,
      337,
      349,
      345,
      353,
      368,
      363,
      374,
      375,
      381,
      389,
      386,
      398,
      398,
      403,
      410,
      416,
      422,
      427,
      432,
      433,
      432,
      433,
      432,
      429,
      425,
      421,
      420,
      422,
      423,
      423,
      423,
      424,
      425,
      425,
      426,
      427,
      426,
      427,
      427,
      427,
      427,
      427,
      427,
      427,
      428,
      428,
      428,
      429,
      429,
      430,
      431,
      431,
      432,
      432,
      432,
      431,
      431,
      429,
      429,
      427,
      426,
      423,
      423,
      420,
      418,
      417,
      417,
      417,
      417,
      417,
      418,
      416,
      417,
      417,
      418,
      417,
      419,
      423,
      423,
      425,
      430,
      431,
      429,
      426,
      425,
      425,
      427,
      427,
      429,
      430,
      432,
      434,
      435,
      438,
      442,
      445,
      447,
      448,
      449,
      450,
      450,
      450,
      450,
      450,
      450,
      451,
      451,
      451,
      451,
      452,
      452,
      452,
      452,
      452,
      453,
      451,
      451,
      453,
      453,
      451,
      453,
      453,
      453,
      452,
      452,
      452,
      451,
      450,
      447,
      447,
      447,
      447,
      447,
      447,
      448,
      448,
      448,
      447,
      446,
      445,
      445,
      444,
      443,
      443,
      443,
      445,
      446,
      447,
      448,
      450,
      451,
      451,
      451,
      451,
      451,
      450,
      449,
      448,
      447,
      447,
      448,
      450,
      451,
      452,
      455,
      457,
      458,
      458,
      458,
      457,
      456,
      455,
      456,
      456,
      456,
      455,
      454,
      453,
      452,
      451,
      450,
      450,
      450,
      450,
      450,
      450,
      450,
      450,
      451,
      452,
      453,
      452,
      452,
      452,
      453,
      454,
      455,
      455,
      454,
      452,
      448,
      445,
      445,
      445,
      445,
      444,
      445,
      443,
      445,
      443,
      444,
      443,
      444,
      444,
      444,
      444,
      445,
      445,
      446,
      446,
      447,
      447,
      448,
      448,
      448,
      449,
      449,
      448,
      448,
      447,
      446,
      445,
      444,
      443,
      443,
      441,
      441,
      440,
      439,
      439,
      438,
      438,
      438,
      437,
      439,
      440,
      441,
      441,
      441,
      440,
      438,
      436,
      435,
      434,
      433,
      433,
      432,
      433,
      433,
      433,
      434,
      435,
      435,
      435,
      436,
      434,
      436,
      433,
      435,
      432,
      435,
      432,
      435,
      432,
      433,
      435,
      434,
      435,
      436,
      435,
      437,
      435,
      438,
      438,
      436,
      438,
      436,
      437,
      436,
      435,
      435,
      434,
      435,
      434,
      435,
      435,
      435,
      435,
      435,
      434,
      435,
      433,
      432,
      432,
      432,
      431,
      431,
      430,
      429,
      429,
      429,
      430,
      430,
      430,
      430,
      430,
      430,
      430,
      430,
      430,
      430,
      431,
      431,
      432,
      432,
      434,
      434,
      434,
      434,
      435,
      434,
      434,
      434,
      434,
      434,
      435,
      436,
      437,
      437,
      437,
      436,
      434,
      432,
      432,
      433,
      433,
      433,
      433,
      433,
      432,
      433,
      440,
      441,
      442,
      443,
      400,
      443,
      442,
      437,
      443,
      435,
      437,
      434,
      437,
      433,
      436,
      432,
      436,
      432,
      435,
      433,
      435,
      434,
      436,
      436,
      437,
      438,
      439,
      439,
      439,
      439,
      439,
      431,
      418,
      417,
      415,
      414,
      414,
      413,
      413,
      412,
      412,
      412,
      412,
      411,
      412,
      412,
      413,
      413,
      414,
      414,
      414,
      414,
      415,
      415,
      416,
      415,
      417,
      417,
      418,
      419,
      421,
      423,
      424,
      424,
      424,
      425,
      425,
      424,
      423,
      423,
      429,
      434,
      437,
      436,
      430,
      423,
      410,
      400,
      398,
      391,
      384,
      371,
      369,
      363,
      364,
      358,
      358,
      350,
      324,
      301,
      260,
      251,
      250,
      244,
      247,
      245,
      241,
      233,
      226,
      220,
      211,
      209,
      204,
      201,
      197,
      199,
      195,
      172,
      157,
      159,
      156
    ],
    "swim:timestamps": [
      1786270462,
      1786270486,
      1786270523,
      1786270552,
      1786270583,
      1786270643,
      1786270652,
      1786270712,
      1786270763,
      1786270772,
      1786270823,
      1786270832,
      1786270883,
      1786270892,
      1786270943,
      1786270952,
      1786271012,
      1786271063,
      1786271072,
      1786271123,
      1786271132,
      1786271192,
      1786271243,
      1786271252,
      1786271303,
      1786271312,
      1786271372,
      1786271432,
      1786271495,
      1786271552,
      1786271615,
      1786271673,
      1786271733,
      1786271793,
      1786271853,
      1786271913,
      1786271973,
      1786272033,
      1786272093,
      1786272153,
      1786272213,
      1786272273,
      1786272333,
      1786272393,
      1786272454,
      1786272514,
      1786272574,
      1786272634,
      1786272645,
      1786272694,
      1786272705,
      1786272754,
      1786272765,
      1786272814,
      1786272825,
      1786272874,
      1786272885,
      1786272934,
      1786272945,
      1786272994,
      1786273006,
      1786273054,
      1786273066,
      1786273114,
      1786273126,
      1786273186,
      1786273235,
      1786273246,
      1786273295,
      1786273306,
      1786273355,
      1786273366,
      1786273415,
      1786273426,
      1786273475,
      1786273486,
      1786273546,
      1786273606,
      1786273655,
      1786273666,
      1786273715,
      1786273727,
      1786273775,
      1786273787,
      1786273840,
      1786273847,
      1786273900,
      1786273907,
      1786273960,
      1786273967,
      1786274020,
      1786274027,
      1786274087,
      1786274147,
      1786274207,
      1786274267,
      1786274327,
      1786274381,
      1786274441,
      1786274501,
      1786274568,
      1786274628,
      1786274688,
      1786274748,
      1786274808,
      1786274868,
      1786274928,
      1786274988,
      1786275049,
      1786275109,
      1786275169,
      1786275229,
      1786275289,
      1786275349,
      1786275409,
      1786275469,
      1786275522,
      1786275529,
      1786275582,
      1786275642,
      1786275703,
      1786275763,
      1786275823,
      1786275883,
      1786275943,
      1786276003,
      1786276063,
      1786276123,
      1786276183,
      1786276243,
      1786276303,
      1786276363,
      1786276424,
      1786276484,
      1786276544,
      1786276604,
      1786276664,
      1786276724,
      1786276784,
      1786276844,
      1786276904,
      1786276964,
      1786277022,
      1786277082,
      1786277142,
      1786277202,
      1786277262,
      1786277322,
      1786277382,
      1786277442,
      1786277502,
      1786277565,
      1786277623,
      1786277685,
      1786277743,
      1786277806,
      1786277863,
      1786277926,
      1786277983,
      1786278043,
      1786278103,
      1786278164,
      1786278224,
      1786278284,
      1786278344,
      1786278404,
      1786278464,
      1786278525,
      1786278585,
      1786278645,
      1786278705,
      1786278765,
      1786278825,
      1786278885,
      1786278945,
      1786279005,
      1786279065,
      1786279125,
      1786279185,
      1786279245,
      1786279306,
      1786279366,
      1786279426,
      1786279486,
      1786279546,
      1786279606,
      1786279678,
      1786279738,
      1786279798,
      1786279858,
      1786279918,
      1786279979,
      1786280039,
      1786280099,
      1786280159,
      1786280219,
      1786280279,
      1786280339,
      1786280399,
      1786280459,
      1786280519,
      1786280579,
      1786280639,
      1786280699,
      1786280760,
      1786280820,
      1786280880,
      1786280940,
      1786281000,
      1786281060,
      1786281120,
      1786281180,
      1786281240,
      1786281300,
      1786281312,
      1786281372,
      1786281421,
      1786281432,
      1786281481,
      1786281492,
      1786281541,
      1786281552,
      1786281601,
      1786281612,
      1786281661,
      1786281672,
      1786281733,
      1786281793,
      1786281841,
      1786281853,
      1786281901,
      1786281913,
      1786281973,
      1786282021,
      1786282033,
      1786282082,
      1786282093,
      1786282142,
      1786282153,
      1786282213,
      1786282262,
      1786282273,
      1786282333,
      1786282393,
      1786282442,
      1786282453,
      1786282502,
      1786282514,
      1786282562,
      1786282574,
      1786282622,
      1786282682,
      1786282694,
      1786282742,
      1786282754,
      1786282803,
      1786282814,
      1786282934,
      1786282994,
      1786283054,
      1786283114,
      1786283174,
      1786283235,
      1786283295,
      1786283355,
      1786283475,
      1786283535,
      1786283595,
      1786283655,
      1786283715,
      1786283775,
      1786283835,
      1786283896,
      1786283956,
      1786284016,
      1786284076,
      1786284136,
      1786284182,
      1786284196,
      1786284242,
      1786284256,
      1786284302,
      1786284316,
      1786284362,
      1786284376,
      1786284422,
      1786284436,
      1786284496,
      1786284542,
      1786284556,
      1786284602,
      1786284617,
      1786284662,
      1786284677,
      1786284723,
      1786284737,
      1786284797,
      1786284843,
      1786284857,
      1786284903,
      1786284917,
      1786284977,
      1786285035,
      1786285095,
      1786285157,
      1786285167,
      1786285217,
      1786285227,
      1786285277,
      1786285287,
      1786285338,
      1786285347,
      1786285398,
      1786285407,
      1786285458,
      1786285468,
      1786285518,
      1786285528,
      1786285578,
      1786285588,
      1786285638,
      1786285648,
      1786285698,
      1786285708,
      1786285758,
      1786285768,
      1786285818,
      1786285828,
      1786285878,
      1786285888,
      1786285938,
      1786285948,
      1786285998,
      1786286008,
      1786286059,
      1786286068,
      1786286119,
      1786286128,
      1786286179,
      1786286189,
      1786286239,
      1786286249,
      1786286309,
      1786286369,
      1786286429,
      1786286489,
      1786286549,
      1786286609,
      1786286669,
      1786286729,
      1786286789,
      1786286849,
      1786286910,
      1786286970,
      1786287030,
      1786287090,
      1786287150,
      1786287210,
      1786287270,
      1786287330,
      1786287390,
      1786287450,
      1786287510,
      1786287570,
      1786287631,
      1786287691,
      1786287751,
      1786287811,
      1786287862,
      1786287871,
      1786287922,
      1786287931,
      1786287982,
      1786287991,
      1786288042,
      1786288051,
      1786288102,
      1786288123,
      1786288162,
      1786288183,
      1786288223,
      1786288243,
      1786288283,
      1786288303,
      1786288343,
      1786288364,
      1786288403,
      1786288424,
      1786288463,
      1786288484,
      1786288523,
      1786288544,
      1786288583,
      1786288604,
      1786288643,
      1786288664,
      1786288703,
      1786288724,
      1786288763,
      1786288784,
      1786288823,
      1786288844,
      1786288883,
      1786288904,
      1786288943,
      1786288964,
      1786289003,
      1786289024,
      1786289064,
      1786289085,
      1786289124,
      1786289145,
      1786289184,
      1786289205,
      1786289244,
      1786289265,
      1786289304,
      1786289325,
      1786289364,
      1786289385,
      1786289424,
      1786289445,
      1786289484,
      1786289544,
      1786289604,
      1786289664,
      1786289724,
      1786289784,
      1786289845,
      1786289905,
      1786289965,
      1786290025,
      1786290085,
      1786290145,
      1786290200,
      1786290218,
      1786290265,
      1786290278,
      1786290325,
      1786290338,
      1786290385,
      1786290398,
      1786290445,
      1786290458,
      1786290505,
      1786290519,
      1786290566,
      1786290579,
      1786290626,
      1786290638,
      1786290686,
      1786290698,
      1786290746,
      1786290758,
      1786290806,
      1786290818,
      1786290866,
      1786290878,
      1786290926,
      1786290986,
      1786290998,
      1786291046,
      1786291059,
      1786291106,
      1786291119,
      1786291166,
      1786291179,
      1786291226,
      1786291239,
      1786291287,
      1786291299,
      1786291347,
      1786291359,
      1786291407,
      1786291419
    ],
    "wof:geomhash": "4585e3c237706ca6652a6ee09ba82464",
    "wof:id": 2047898749,
    "wof:repo": "sfomuseum-data-flights-2026-08"
  },
  "bbox": [
    -122.35,
    37.4925,
    -71.06083333333333,
    42.416666666666664
  ],
  "geometry": {"type":"LineString","coordinates":[[-71.06083333333333,42.3975],[-71.1,42.416666666666664],[-71.14027777777778,42.401944444444446],[-71.18333333333334,42.38333333333333],[-71.23194444444445,42.37638888888889],[-71.3236111111111,42.350833333333334],[-71.32944444444443,42.35027777777778],[-71.42166666666667,42.32972222222222],[-71.53333333333333,42.31666666666667],[-71.53138888888888,42.3175],[-71.6538888888889,42.301944444444445],[-71.655,42.30222222222222],[-71.7786111111111,42.28611111111111],[-71.78055555555555,42.28583333333333],[-71.90833333333335,42.269999999999996],[-71.90944444444445,42.269444444444446],[-72.0425,42.2525],[-72.16972222222223,42.23555555555556],[-72.17888888888889,42.23444444444444],[-72.30499999999999,42.20888888888889],[-72.31444444444445,42.20583333333334],[-72.44500000000001,42.16027777777778],[-72.5775,42.113055555555555],[-72.57777777777777,42.113055555555555],[-72.68722222222223,42.07416666666667],[-72.71333333333334,42.065],[-72.85249999999999,42.01583333333333],[-72.99083333333333,41.96666666666667],[-73.13166666666666,41.91611111111111],[-73.27555555555556,41.864444444444445],[-73.42027777777778,41.81194444444444],[-73.56638888888888,41.75888888888889],[-73.71055555555556,41.70638888888889],[-73.84805555555555,41.64805555555556],[-73.96444444444445,41.573055555555555],[-74.08527777777778,41.494166666666665],[-74.20333333333333,41.416666666666664],[-74.31972222222223,41.34027777777778],[-74.44944444444445,41.25472222222222],[-74.57305555555556,41.18527777777778],[-74.69888888888889,41.115833333333335],[-74.82416666666666,41.046388888888885],[-74.94111111111111,40.981388888888894],[-75.07249999999999,40.916666666666664],[-75.2038888888889,40.8525],[-75.33611111111111,40.788333333333334],[-75.47305555555556,40.731944444444444],[-75.61555555555555,40.67833333333333],[-75.64194444444445,40.668055555555554],[-75.75472222222223,40.626111111111115],[-75.78083333333333,40.61611111111111],[-75.89416666666668,40.57333333333334],[-75.9213888888889,40.56361111111111],[-76.03333333333333,40.52027777777778],[-76.0611111111111,40.50972222222222],[-76.1738888888889,40.46666666666667],[-76.19888888888889,40.45666666666667],[-76.31055555555555,40.41444444444444],[-76.3386111111111,40.404444444444444],[-76.455,40.374722222222225],[-76.48083333333334,40.367777777777775],[-76.61833333333333,40.330000000000005],[-76.63222222222221,40.32611111111112],[-76.76583333333333,40.28916666666667],[-76.78166666666667,40.28472222222222],[-76.92916666666667,40.24388888888889],[-77.05194444444444,40.209722222222226],[-77.075,40.20333333333333],[-77.19972222222222,40.16833333333333],[-77.2225,40.161944444444444],[-77.35416666666666,40.124722222222225],[-77.36555555555555,40.12138888888889],[-77.48111111111112,40.08861111111111],[-77.50888888888889,40.08083333333334],[-77.62249999999999,40.04861111111111],[-77.65027777777779,40.04055555555556],[-77.79138888888889,40],[-77.93333333333334,39.95916666666667],[-78.04333333333334,39.92722222222222],[-78.07277777777777,39.91861111111111],[-78.2125,39.87777777777778],[-78.21111111111111,39.87833333333333],[-78.34694444444445,39.83833333333334],[-78.34833333333333,39.838055555555556],[-78.47583333333334,39.80027777777777],[-78.49055555555556,39.79611111111111],[-78.61722222222221,39.75861111111111],[-78.63222222222221,39.75416666666667],[-78.765,39.71472222222223],[-78.77555555555556,39.71138888888889],[-78.91777777777779,39.68611111111111],[-78.92333333333333,39.68583333333333],[-79.07583333333334,39.67361111111111],[-79.22972222222222,39.66138888888889],[-79.3863888888889,39.64861111111111],[-79.54027777777777,39.63611111111111],[-79.69388888888889,39.62305555555555],[-79.83916666666666,39.61083333333333],[-79.99138888888889,39.59777777777778],[-80.14222222222223,39.58444444444444],[-80.31027777777777,39.56944444444445],[-80.46444444444445,39.55555555555555],[-80.61944444444444,39.54111111111111],[-80.77722222222222,39.52638888888889],[-80.93305555555555,39.51138888888889],[-81.0911111111111,39.49638888888889],[-81.24805555555555,39.48111111111111],[-81.41111111111111,39.465],[-81.57055555555556,39.44888888888889],[-81.7325,39.43222222222222],[-81.89055555555557,39.41583333333333],[-82.05194444444444,39.39888888888889],[-82.21222222222222,39.38194444444444],[-82.37277777777777,39.36472222222223],[-82.53166666666667,39.34722222222222],[-82.69250000000001,39.32944444444445],[-82.84305555555555,39.3125],[-82.85305555555556,39.311388888888885],[-83.00361111111111,39.294444444444444],[-83.16333333333334,39.27611111111111],[-83.32111111111111,39.257777777777775],[-83.4825,39.23861111111111],[-83.6261111111111,39.22166666666667],[-83.78555555555555,39.2025],[-83.94444444444444,39.183055555555555],[-84.1061111111111,39.16305555555555],[-84.26527777777778,39.14333333333333],[-84.405,39.126666666666665],[-84.58416666666666,39.10277777777778],[-84.74305555555556,39.08222222222223],[-84.88138888888888,39.066111111111105],[-85.04027777777777,39.04555555555555],[-85.21944444444445,39.019444444444446],[-85.35972222222222,39.003055555555555],[-85.51805555555555,38.981388888888894],[-85.67666666666668,38.95861111111111],[-85.83361111111111,38.93583333333333],[-85.99083333333333,38.913888888888884],[-86.14805555555556,38.89138888888889],[-86.30638888888889,38.86944444444445],[-86.46166666666667,38.84777777777778],[-86.61722222222221,38.823888888888895],[-86.77194444444444,38.80083333333333],[-86.92611111111111,38.77722222222222],[-87.08138888888888,38.75388888888889],[-87.26805555555555,38.72555555555556],[-87.42416666666666,38.70166666666667],[-87.57722222222222,38.67777777777778],[-87.73305555555555,38.65361111111111],[-87.89055555555557,38.62861111111111],[-88.04472222222222,38.60416666666667],[-88.2,38.57916666666667],[-88.35499999999999,38.553888888888885],[-88.50833333333334,38.528888888888886],[-88.66166666666668,38.50361111111111],[-88.81444444444445,38.47805555555556],[-88.96055555555556,38.453611111111115],[-89.11388888888888,38.427499999999995],[-89.27805555555555,38.40861111111111],[-89.42861111111111,38.39388888888889],[-89.58638888888889,38.37861111111111],[-89.74444444444444,38.36277777777778],[-89.905,38.34666666666667],[-90.06194444444444,38.330555555555556],[-90.2225,38.31388888888888],[-90.38166666666666,38.29722222222222],[-90.5411111111111,38.280277777777776],[-90.69972222222222,38.263333333333335],[-90.85666666666665,38.24611111111111],[-91.01555555555555,38.22833333333333],[-91.16944444444445,38.21138888888889],[-91.3275,38.19333333333333],[-91.46638888888889,38.177499999999995],[-91.62277777777777,38.159166666666664],[-91.78055555555555,38.14083333333333],[-91.93805555555556,38.121944444444445],[-92.11388888888888,38.114444444444445],[-92.27444444444444,38.10861111111111],[-92.43777777777778,38.102222222222224],[-92.6,38.09583333333334],[-92.75972222222222,38.08916666666667],[-92.89361111111111,38.08361111111111],[-93.08305555555555,38.07527777777778],[-93.21166666666667,38.06944444444445],[-93.37249999999999,38.06194444444444],[-93.53194444444445,38.05444444444444],[-93.69388888888889,38.046388888888885],[-93.88444444444445,38.03666666666666],[-94.0436111111111,38.02833333333333],[-94.22805555555556,38.01861111111111],[-94.38833333333334,38.00972222222222],[-94.54583333333333,38.00055555555556],[-94.705,37.99138888888889],[-94.8625,37.99],[-95.02166666666666,37.992222222222225],[-95.18055555555556,37.994166666666665],[-95.33777777777777,37.99611111111111],[-95.4975,37.99805555555556],[-95.65555555555557,37.99944444444444],[-95.815,38.00083333333333],[-95.97305555555556,38.001666666666665],[-96.10055555555554,38.0025],[-96.2911111111111,38.003055555555555],[-96.45111111111112,38.00361111111111],[-96.61055555555555,38.00361111111111],[-96.76972222222223,38.00361111111111],[-96.92833333333334,38.00361111111111],[-97.08749999999999,38.003055555555555],[-97.24583333333334,38.00222222222222],[-97.40833333333335,38.00138888888889],[-97.55583333333333,38.000277777777775],[-97.6825,37.99944444444444],[-97.88277777777778,37.9975],[-98.03861111111111,38.00333333333333],[-98.05472222222222,38.00138888888889],[-98.21000000000001,38.01083333333333],[-98.335,38.02111111111111],[-98.36472222222221,38.02027777777778],[-98.48916666666666,38.030277777777776],[-98.52,38.03111111111111],[-98.64416666666668,38.03916666666667],[-98.67555555555556,38.040277777777774],[-98.79916666666666,38.047777777777775],[-98.83055555555555,38.049166666666665],[-98.95583333333333,38.05611111111111],[-98.9863888888889,38.05722222222222],[-99.15416666666667,38.06666666666667],[-99.29722222222222,38.07416666666667],[-99.4225,38.08027777777778],[-99.45333333333333,38.081944444444446],[-99.57583333333334,38.088055555555556],[-99.61055555555555,38.089444444444446],[-99.76861111111111,38.096944444444446],[-99.89333333333335,38.10277777777778],[-99.92444444444445,38.10416666666667],[-100.05,38.11],[-100.08111111111111,38.11138888888889],[-100.20583333333333,38.11666666666667],[-100.23944444444444,38.11805555555556],[-100.39666666666668,38.124722222222225],[-100.55055555555555,38.13111111111111],[-100.58333333333333,38.132222222222225],[-100.74,38.138333333333335],[-100.89555555555556,38.144444444444446],[-101.015,38.14861111111111],[-101.04861111111111,38.14972222222222],[-101.17027777777778,38.15416666666667],[-101.20305555555557,38.155277777777776],[-101.32249999999999,38.159166666666664],[-101.35722222222222,38.16027777777778],[-101.47638888888889,38.16444444444444],[-101.62888888888888,38.16916666666666],[-101.665,38.17027777777778],[-101.78416666666666,38.17388888888889],[-101.81805555555555,38.175],[-101.93861111111111,38.17833333333333],[-101.97111111111111,38.17944444444444],[-102.28055555555555,38.1875],[-102.40361111111112,38.190555555555555],[-102.59027777777777,38.19472222222222],[-102.745,38.20166666666667],[-102.90111111111112,38.21333333333334],[-103.05388888888889,38.224722222222226],[-103.2075,38.236111111111114],[-103.35833333333333,38.24722222222222],[-103.66416666666667,38.26861111111111],[-103.81611111111111,38.278888888888886],[-103.96527777777779,38.288888888888884],[-104.11638888888888,38.29888888888889],[-104.26916666666666,38.308611111111105],[-104.42111111111112,38.31805555555556],[-104.57222222222222,38.3275],[-104.72361111111111,38.336666666666666],[-104.88333333333334,38.346111111111114],[-105.03722222222223,38.355000000000004],[-105.19194444444445,38.36361111111111],[-105.34527777777777,38.37222222222222],[-105.44388888888889,38.375277777777775],[-105.49638888888889,38.38027777777778],[-105.59638888888888,38.38305555555556],[-105.64916666666667,38.388333333333335],[-105.7475,38.391666666666666],[-105.80305555555556,38.39611111111111],[-105.90027777777779,38.39888888888889],[-105.94361111111111,38.40333333333333],[-106.0525,38.406666666666666],[-106.09805555555555,38.41083333333333],[-106.26583333333333,38.41861111111111],[-106.36027777777777,38.42166666666667],[-106.42,38.425555555555555],[-106.51527777777778,38.42833333333333],[-106.57527777777777,38.4325],[-106.67,38.43416666666666],[-106.72888888888889,38.439166666666665],[-106.82527777777777,38.440555555555555],[-106.88777777777779,38.44583333333333],[-107.04138888888889,38.45194444444445],[-107.13611111111112,38.45111111111111],[-107.20027777777779,38.45277777777778],[-107.28916666666666,38.45277777777778],[-107.34916666666666,38.453611111111115],[-107.50333333333333,38.45388888888889],[-107.62805555555555,38.4525],[-107.78138888888888,38.45277777777778],[-107.96305555555556,38.45388888888889],[-107.935,38.45277777777778],[-108.11916666666666,38.453611111111115],[-108.11972222222222,38.4525],[-108.27333333333333,38.45277777777778],[-108.27472222222222,38.45194444444445],[-108.4263888888889,38.45194444444445],[-108.42944444444444,38.45111111111111],[-108.58055555555555,38.45138888888889],[-108.58333333333333,38.45055555555556],[-108.73388888888888,38.45],[-108.76388888888889,38.44972222222222],[-108.88555555555556,38.448611111111106],[-108.9175,38.44833333333333],[-109.03999999999999,38.44694444444444],[-109.07055555555556,38.446666666666665],[-109.19055555555556,38.445277777777775],[-109.22305555555556,38.44472222222222],[-109.34194444444444,38.44333333333333],[-109.375,38.44277777777778],[-109.4961111111111,38.44083333333333],[-109.52722222222222,38.440555555555555],[-109.64861111111112,38.43861111111111],[-109.64861111111112,38.43861111111111],[-109.80138888888888,38.43611111111111],[-109.80138888888888,38.43611111111111],[-109.95277777777778,38.43333333333333],[-109.95277777777778,38.43333333333333],[-110.10388888888889,38.430277777777775],[-110.10666666666665,38.430277777777775],[-110.25777777777778,38.42833333333333],[-110.25777777777778,38.42833333333333],[-110.41222222222223,38.42638888888889],[-110.41222222222223,38.42638888888889],[-110.56583333333333,38.424166666666665],[-110.56583333333333,38.424166666666665],[-110.72111111111111,38.42166666666667],[-110.72111111111111,38.42166666666667],[-110.87444444444444,38.41888888888889],[-111.04083333333332,38.41555555555556],[-111.19222222222223,38.4125],[-111.345,38.409444444444446],[-111.49972222222222,38.405833333333334],[-111.6525,38.401944444444446],[-111.80611111111111,38.39805555555556],[-111.9588888888889,38.39416666666666],[-112.11444444444444,38.38972222222222],[-112.26916666666666,38.385],[-112.42083333333333,38.38055555555555],[-112.54472222222222,38.37638888888889],[-112.72722222222222,38.370555555555555],[-112.87638888888888,38.36527777777778],[-113.03055555555555,38.36],[-113.18138888888889,38.355000000000004],[-113.33361111111111,38.346111111111114],[-113.485,38.33722222222222],[-113.66777777777779,38.32638888888889],[-113.81944444444444,38.316944444444445],[-113.96972222222223,38.3075],[-114.12249999999999,38.309444444444445],[-114.25111111111111,38.37694444444445],[-114.3786111111111,38.44694444444444],[-114.50694444444444,38.51777777777777],[-114.63805555555557,38.58916666666667],[-114.74277777777777,38.644444444444446],[-114.76611111111112,38.65861111111111],[-114.87916666666666,38.70277777777778],[-114.9075,38.703611111111115],[-115.02805555555555,38.68277777777777],[-115.05749999999999,38.67805555555555],[-115.17916666666667,38.656388888888884],[-115.20666666666666,38.651944444444446],[-115.32916666666667,38.630833333333335],[-115.3875,38.62111111111111],[-115.47916666666667,38.60777777777778],[-115.5375,38.59527777777778],[-115.62972222222221,38.5825],[-115.68583333333333,38.569722222222225],[-115.77916666666667,38.55444444444444],[-115.83805555555556,38.54333333333333],[-115.93,38.527499999999996],[-115.98916666666666,38.51722222222222],[-116.08,38.50194444444445],[-116.14,38.492222222222225],[-116.23305555555555,38.47694444444445],[-116.29333333333334,38.466944444444444],[-116.3863888888889,38.45194444444445],[-116.44500000000001,38.442499999999995],[-116.53888888888889,38.42777777777778],[-116.59805555555555,38.41861111111111],[-116.69027777777778,38.40416666666667],[-116.74805555555555,38.39527777777778],[-116.83527777777778,38.375277777777775],[-116.88694444444445,38.362500000000004],[-116.97277777777778,38.341944444444444],[-117.02555555555556,38.32916666666667],[-117.1111111111111,38.308611111111105],[-117.16277777777778,38.29611111111111],[-117.24222222222222,38.276666666666664],[-117.28944444444444,38.25],[-117.33638888888889,38.19194444444444],[-117.36416666666666,38.156666666666666],[-117.41222222222223,38.095],[-117.44111111111111,38.06194444444444],[-117.52361111111111,38.038888888888884],[-117.5786111111111,38.03472222222222],[-117.67055555555557,38.025277777777774],[-117.72638888888889,38.01888888888889],[-117.81388888888888,38.009166666666665],[-117.86999999999999,38.00277777777778],[-117.95861111111111,37.99305555555556],[-118.01694444444445,37.986666666666665],[-118.10499999999999,37.97694444444445],[-118.15972222222223,37.971111111111114],[-118.25055555555555,37.96083333333333],[-118.30527777777777,37.95472222222222],[-118.39444444444445,37.94472222222222],[-118.45111111111112,37.93833333333333],[-118.54027777777777,37.92805555555555],[-118.68916666666667,37.91083333333333],[-118.83638888888889,37.89388888888889],[-118.98333333333333,37.87638888888889],[-119.1438888888889,37.8575],[-119.2925,37.839444444444446],[-119.44,37.82138888888889],[-119.58527777777778,37.80333333333333],[-119.73472222222222,37.785],[-119.88055555555555,37.766666666666666],[-120.0261111111111,37.74805555555556],[-120.1738888888889,37.72916666666667],[-120.3,37.71666666666667],[-120.35,37.7],[-120.47666666666667,37.69027777777777],[-120.5,37.68333333333333],[-120.62527777777777,37.67361111111111],[-120.66666666666667,37.666666666666664],[-120.7713888888889,37.656388888888884],[-120.8,37.65],[-120.90722222222223,37.63972222222222],[-120.93333333333334,37.63333333333333],[-121.0411111111111,37.62277777777778],[-121.06666666666666,37.61666666666667],[-121.16916666666667,37.60527777777778],[-121.2,37.6],[-121.28833333333333,37.58916666666667],[-121.31666666666666,37.583333333333336],[-121.4113888888889,37.575833333333335],[-121.45,37.56666666666667],[-121.52722222222222,37.5625],[-121.55,37.56666666666667],[-121.62416666666665,37.550555555555555],[-121.65,37.55],[-121.70777777777778,37.530833333333334],[-121.73333333333333,37.53333333333333],[-121.78916666666666,37.51138888888889],[-121.87055555555555,37.4925],[-121.9,37.5],[-121.95277777777778,37.49527777777778],[-121.96666666666667,37.5],[-122.02944444444444,37.499722222222225],[-122.05,37.5],[-122.10222222222221,37.506388888888885],[-122.11666666666666,37.516666666666666],[-122.16416666666667,37.532222222222224],[-122.18333333333334,37.53333333333333],[-122.22472222222223,37.55777777777777],[-122.23333333333333,37.56666666666667],[-122.28138888888888,37.58166666666667],[-122.3,37.583333333333336],[-122.33,37.60194444444445],[-122.35,37.6]]}
}
