{
  "id": 2047954713,
  "type": "Feature",
  "properties": {
    "geom:area": 0,
    "geom:bbox": "-122.356389,37.491111,-73.866667,40.616667",
    "geom:latitude": 39.277403426638294,
    "geom:longitude": -98.19695712007609,
    "src:alt_label": "swim-path",
    "src:geom": "swim",
    "swim:altitudes": [
      "020",
      "028",
      "038",
      "044",
      "056",
      "068",
      "082",
      "090",
      "102",
      "109",
      "122",
      "132",
      "141",
      "149",
      "163",
      "179",
      "197",
      "210",
      "221",
      "231",
      "239",
      "249",
      "257",
      "258",
      "266",
      "272",
      "278",
      "290",
      "299",
      "305",
      "315",
      "319C",
      "320C",
      "320C",
      "320C",
      "320C",
      "320C",
      "320C",
      "319C",
      "320C",
      "320C",
      "320C",
      "320C",
      "320C",
      "320",
      "314",
      "311",
      "308",
      "305",
      "304",
      "300C",
      "300C",
      "300C",
      "300C",
      "300C",
      "300C",
      "300C",
      "300C",
      "300C",
      "300C",
      "300C",
      "300C",
      "300C",
      "300C",
      "300C",
      "301C",
      "300C",
      "300C",
      "300C",
      "300C",
      "300C",
      "300C",
      "300C",
      "300C",
      "300C",
      "300C",
      "300C",
      "300C",
      "300C",
      "300C",
      "300C",
      "300C",
      "300C",
      "300C",
      "300C",
      "300C",
      "300C",
      "300C",
      "300C",
      "300C",
      "300C",
      "300C",
      "300C",
      "300C",
      "300C",
      "300C",
      "300C",
      "300C",
      "300C",
      "300C",
      "300C",
      "300C",
      "300C",
      "300C",
      "300C",
      "300C",
      "300C",
      "300C",
      "300C",
      "300C",
      "300C",
      "300C",
      "300C",
      "300C",
      "300C",
      "300C",
      "300C",
      "300C",
      "300C",
      "300C",
      "300C",
      "300C",
      "300C",
      "300C",
      "300C",
      "300C",
      "300C",
      "300C",
      "300C",
      "300C",
      "300C",
      "300C",
      "300C",
      "300C",
      "301C",
      "300C",
      "300C",
      "300C",
      "300C",
      "300C",
      "300C",
      "300C",
      "300",
      "300",
      "303",
      "310",
      "319",
      "326",
      "332",
      "339C",
      "340C",
      "340C",
      "340C",
      "340C",
      "340C",
      "340C",
      "340C",
      "340C",
      "340C",
      "340C",
      "340C",
      "340C",
      "340C",
      "340C",
      "340C",
      "340C",
      "340C",
      "340C",
      "340C",
      "340C",
      "341C",
      "341C",
      "340C",
      "340C",
      "340C",
      "340C",
      "340C",
      "340C",
      "340C",
      "340C",
      "340C",
      "340C",
      "340C",
      "340C",
      "340C",
      "340C",
      "340C",
      "340C",
      "340C",
      "340C",
      "340C",
      "340C",
      "340C",
      "340C",
      "340C",
      "340C",
      "340C",
      "340C",
      "340C",
      "340C",
      "340C",
      "340C",
      "340C",
      "340C",
      "340C",
      "340C",
      "340C",
      "340C",
      "340C",
      "340C",
      "340C",
      "340C",
      "340C",
      "340C",
      "340C",
      "340C",
      "340C",
      "340C",
      "340C",
      "340C",
      "340C",
      "340C",
      "340C",
      "340C",
      "340C",
      "340C",
      "340C",
      "340C",
      "340C",
      "340C",
      "340C",
      "340C",
      "340C",
      "340C",
      "340C",
      "340C",
      "340C",
      "340C",
      "340C",
      "340C",
      "340C",
      "340C",
      "340C",
      "340C",
      "340C",
      "340C",
      "340C",
      "340C",
      "341",
      "346",
      "347",
      "357",
      "360C",
      "360C",
      "360C",
      "360C",
      "361C",
      "360C",
      "360C",
      "360C",
      "360C",
      "360C",
      "360C",
      "360C",
      "360C",
      "360C",
      "360C",
      "360C",
      "360C",
      "360C",
      "360C",
      "360C",
      "360C",
      "360C",
      "360C",
      "360C",
      "360C",
      "360C",
      "360C",
      "360C",
      "360C",
      "360C",
      "360C",
      "360C",
      "360C",
      "360C",
      "360C",
      "360C",
      "360C",
      "360C",
      "360C",
      "360C",
      "360C",
      "360C",
      "360C",
      "361C",
      "360C",
      "360C",
      "360C",
      "360C",
      "360C",
      "360C",
      "360C",
      "360C",
      "360C",
      "360C",
      "360C",
      "360C",
      "360C",
      "360C",
      "360C",
      "360C",
      "360C",
      "360C",
      "360C",
      "360C",
      "360C",
      "360C",
      "360C",
      "360C",
      "360C",
      "360C",
      "360C",
      "360C",
      "360C",
      "360C",
      "360C",
      "360C",
      "360C",
      "360C",
      "360C",
      "360C",
      "360C",
      "360C",
      "360C",
      "360C",
      "360C",
      "360C",
      "360C",
      "360C",
      "360C",
      "360C",
      "360C",
      "360C",
      "360C",
      "360C",
      "361C",
      "361C",
      "360C",
      "360C",
      "360C",
      "360C",
      "360C",
      "360C",
      "360C",
      "360C",
      "360C",
      "360C",
      "360C",
      "360C",
      "360C",
      "360C",
      "360C",
      "360C",
      "360C",
      "360C",
      "360C",
      "360C",
      "361C",
      "361C",
      "360C",
      "360C",
      "360C",
      "360C",
      "360C",
      "360C",
      "360C",
      "361C",
      "360C",
      "360C",
      "360C",
      "360C",
      "360C",
      "360C",
      "360C",
      "360C",
      "360C",
      "361C",
      "361C",
      "360C",
      "360C",
      "361C",
      "361C",
      "360C",
      "360C",
      "360C",
      "360C",
      "361C",
      "360C",
      "360C",
      "359C",
      "360C",
      "359C",
      "360C",
      "360C",
      "360C",
      "360C",
      "360C",
      "360C",
      "361C",
      "360C",
      "360C",
      "360C",
      "360C",
      "360C",
      "360C",
      "360C",
      "360C",
      "360C",
      "360C",
      "360C",
      "360C",
      "360C",
      "360C",
      "361C",
      "361C",
      "361C",
      "360C",
      "360C",
      "360C",
      "360C",
      "360C",
      "360C",
      "360C",
      "360C",
      "360C",
      "360C",
      "360C",
      "360C",
      "360C",
      "360C",
      "353",
      "323",
      "298",
      "274",
      "262",
      "249",
      "233",
      "224",
      "206",
      "198",
      "185",
      "178",
      "167",
      "161",
      "149",
      "144",
      "127",
      "118",
      "113",
      "104",
      "103",
      "099",
      "091",
      "080",
      "080",
      "077",
      "071",
      "068",
      "063",
      "060",
      "052",
      "048",
      "038",
      "035",
      "030",
      "028",
      "022",
      "017",
      "012",
      "008",
      "004",
      "001"
    ],
    "swim:geom": "path",
    "swim:speeds": [
      221,
      223,
      243,
      265,
      276,
      272,
      273,
      277,
      277,
      281,
      292,
      289,
      321,
      350,
      368,
      371,
      376,
      376,
      378,
      390,
      395,
      398,
      400,
      403,
      407,
      411,
      415,
      420,
      416,
      417,
      414,
      414,
      414,
      415,
      413,
      406,
      405,
      405,
      405,
      405,
      405,
      406,
      409,
      408,
      409,
      411,
      411,
      412,
      412,
      412,
      411,
      411,
      410,
      411,
      411,
      411,
      411,
      412,
      412,
      412,
      413,
      413,
      414,
      415,
      416,
      416,
      417,
      417,
      418,
      418,
      418,
      418,
      418,
      418,
      418,
      418,
      419,
      420,
      420,
      421,
      422,
      423,
      424,
      425,
      425,
      425,
      425,
      424,
      424,
      424,
      425,
      426,
      427,
      427,
      428,
      429,
      429,
      429,
      429,
      429,
      428,
      427,
      427,
      426,
      426,
      426,
      426,
      426,
      426,
      426,
      426,
      426,
      427,
      426,
      426,
      426,
      425,
      425,
      426,
      424,
      425,
      424,
      425,
      424,
      424,
      424,
      424,
      425,
      425,
      426,
      426,
      427,
      427,
      428,
      429,
      429,
      428,
      427,
      427,
      427,
      427,
      430,
      432,
      431,
      431,
      432,
      433,
      433,
      433,
      432,
      431,
      431,
      430,
      431,
      430,
      431,
      430,
      431,
      431,
      430,
      430,
      430,
      429,
      429,
      428,
      428,
      427,
      427,
      427,
      431,
      435,
      437,
      423,
      422,
      424,
      426,
      427,
      428,
      428,
      427,
      427,
      426,
      425,
      425,
      426,
      428,
      430,
      431,
      433,
      434,
      435,
      435,
      435,
      435,
      437,
      437,
      439,
      439,
      440,
      440,
      441,
      442,
      443,
      443,
      443,
      443,
      443,
      443,
      443,
      443,
      444,
      443,
      444,
      443,
      443,
      442,
      442,
      441,
      441,
      442,
      442,
      443,
      443,
      443,
      443,
      443,
      442,
      442,
      441,
      441,
      442,
      442,
      443,
      443,
      443,
      443,
      442,
      442,
      442,
      441,
      441,
      441,
      441,
      440,
      440,
      440,
      442,
      441,
      443,
      444,
      446,
      442,
      440,
      438,
      438,
      441,
      445,
      445,
      447,
      447,
      446,
      445,
      444,
      443,
      442,
      441,
      440,
      440,
      439,
      438,
      437,
      436,
      436,
      436,
      437,
      439,
      440,
      441,
      441,
      441,
      442,
      443,
      443,
      441,
      440,
      440,
      440,
      440,
      439,
      438,
      437,
      436,
      435,
      435,
      435,
      435,
      435,
      434,
      433,
      433,
      431,
      433,
      429,
      428,
      431,
      428,
      431,
      429,
      431,
      429,
      431,
      430,
      431,
      431,
      432,
      424,
      423,
      423,
      423,
      422,
      418,
      421,
      420,
      421,
      420,
      420,
      420,
      419,
      420,
      417,
      419,
      416,
      418,
      416,
      418,
      416,
      418,
      417,
      417,
      417,
      418,
      418,
      418,
      420,
      422,
      424,
      426,
      427,
      428,
      429,
      430,
      431,
      432,
      433,
      433,
      433,
      433,
      432,
      431,
      430,
      429,
      428,
      428,
      428,
      429,
      431,
      432,
      433,
      433,
      434,
      434,
      432,
      428,
      422,
      419,
      419,
      420,
      423,
      425,
      418,
      414,
      411,
      408,
      406,
      400,
      400,
      401,
      402,
      404,
      404,
      402,
      447,
      468,
      462,
      457,
      455,
      443,
      422,
      408,
      405,
      404,
      405,
      405,
      405,
      405,
      403,
      402,
      402,
      402,
      403,
      407,
      407,
      408,
      408,
      409,
      408,
      409,
      409,
      410,
      410,
      411,
      411,
      412,
      413,
      420,
      424,
      426,
      428,
      429,
      431,
      430,
      424,
      412,
      405,
      403,
      412,
      417,
      417,
      418,
      426,
      427,
      427,
      453,
      433,
      412,
      404,
      396,
      381,
      381,
      376,
      375,
      370,
      370,
      346,
      339,
      322,
      325,
      316,
      302,
      298,
      279,
      270,
      238,
      243,
      232,
      227,
      230,
      227,
      228,
      227,
      228,
      225,
      222,
      221,
      220,
      218,
      209,
      200,
      199,
      164,
      149,
      139,
      142
    ],
    "swim:timestamps": [
      1786632562,
      1786632589,
      1786632622,
      1786632649,
      1786632682,
      1786632709,
      1786632742,
      1786632769,
      1786632802,
      1786632829,
      1786632862,
      1786632889,
      1786632949,
      1786633009,
      1786633070,
      1786633130,
      1786633190,
      1786633250,
      1786633310,
      1786633370,
      1786633430,
      1786633490,
      1786633541,
      1786633550,
      1786633610,
      1786633662,
      1786633722,
      1786633782,
      1786633851,
      1786633902,
      1786633971,
      1786634031,
      1786634091,
      1786634151,
      1786634211,
      1786634263,
      1786634331,
      1786634383,
      1786634391,
      1786634443,
      1786634452,
      1786634512,
      1786634563,
      1786634572,
      1786634632,
      1786634683,
      1786634717,
      1786634743,
      1786634777,
      1786634804,
      1786634837,
      1786634864,
      1786634897,
      1786634924,
      1786634957,
      1786634984,
      1786635017,
      1786635044,
      1786635077,
      1786635104,
      1786635137,
      1786635164,
      1786635197,
      1786635224,
      1786635257,
      1786635284,
      1786635318,
      1786635344,
      1786635378,
      1786635405,
      1786635438,
      1786635465,
      1786635498,
      1786635525,
      1786635558,
      1786635585,
      1786635618,
      1786635645,
      1786635678,
      1786635705,
      1786635738,
      1786635765,
      1786635798,
      1786635825,
      1786635858,
      1786635885,
      1786635918,
      1786635945,
      1786635979,
      1786636006,
      1786636066,
      1786636099,
      1786636126,
      1786636159,
      1786636186,
      1786636219,
      1786636246,
      1786636279,
      1786636306,
      1786636339,
      1786636366,
      1786636399,
      1786636426,
      1786636459,
      1786636486,
      1786636519,
      1786636546,
      1786636579,
      1786636607,
      1786636640,
      1786636667,
      1786636700,
      1786636726,
      1786636760,
      1786636787,
      1786636820,
      1786636847,
      1786636880,
      1786636906,
      1786636940,
      1786636966,
      1786637000,
      1786637026,
      1786637060,
      1786637086,
      1786637120,
      1786637146,
      1786637180,
      1786637206,
      1786637241,
      1786637267,
      1786637277,
      1786637324,
      1786637337,
      1786637397,
      1786637457,
      1786637504,
      1786637581,
      1786637624,
      1786637701,
      1786637761,
      1786637804,
      1786637882,
      1786637925,
      1786637985,
      1786638062,
      1786638122,
      1786638182,
      1786638242,
      1786638302,
      1786638333,
      1786638362,
      1786638393,
      1786638422,
      1786638453,
      1786638483,
      1786638514,
      1786638543,
      1786638574,
      1786638603,
      1786638634,
      1786638663,
      1786638694,
      1786638723,
      1786638754,
      1786638783,
      1786638814,
      1786638843,
      1786638903,
      1786638963,
      1786639023,
      1786639083,
      1786639144,
      1786639204,
      1786639264,
      1786639324,
      1786639384,
      1786639444,
      1786639504,
      1786639561,
      1786639621,
      1786639681,
      1786639741,
      1786639802,
      1786639862,
      1786639922,
      1786639982,
      1786640042,
      1786640102,
      1786640162,
      1786640222,
      1786640282,
      1786640330,
      1786640342,
      1786640390,
      1786640402,
      1786640450,
      1786640463,
      1786640510,
      1786640523,
      1786640583,
      1786640643,
      1786640691,
      1786640703,
      1786640751,
      1786640763,
      1786640811,
      1786640823,
      1786640871,
      1786640883,
      1786640931,
      1786640943,
      1786640991,
      1786641051,
      1786641063,
      1786641111,
      1786641124,
      1786641171,
      1786641184,
      1786641231,
      1786641244,
      1786641304,
      1786641351,
      1786641364,
      1786641412,
      1786641424,
      1786641472,
      1786641484,
      1786641532,
      1786641544,
      1786641592,
      1786641604,
      1786641652,
      1786641664,
      1786641712,
      1786641724,
      1786641772,
      1786641784,
      1786641832,
      1786641845,
      1786641905,
      1786641952,
      1786641965,
      1786642012,
      1786642025,
      1786642081,
      1786642133,
      1786642141,
      1786642193,
      1786642253,
      1786642273,
      1786642333,
      1786642393,
      1786642445,
      1786642513,
      1786642566,
      1786642634,
      1786642686,
      1786642754,
      1786642814,
      1786642874,
      1786642934,
      1786642986,
      1786643006,
      1786643066,
      1786643126,
      1786643186,
      1786643246,
      1786643307,
      1786643367,
      1786643427,
      1786643487,
      1786643547,
      1786643607,
      1786643667,
      1786643727,
      1786643787,
      1786643847,
      1786643907,
      1786643967,
      1786644028,
      1786644088,
      1786644148,
      1786644208,
      1786644268,
      1786644328,
      1786644388,
      1786644448,
      1786644508,
      1786644568,
      1786644628,
      1786644688,
      1786644749,
      1786644809,
      1786644869,
      1786644929,
      1786644989,
      1786645017,
      1786645049,
      1786645077,
      1786645109,
      1786645137,
      1786645169,
      1786645229,
      1786645258,
      1786645289,
      1786645318,
      1786645349,
      1786645378,
      1786645409,
      1786645438,
      1786645470,
      1786645498,
      1786645530,
      1786645558,
      1786645590,
      1786645618,
      1786645650,
      1786645678,
      1786645710,
      1786645738,
      1786645770,
      1786645798,
      1786645830,
      1786645858,
      1786645890,
      1786645918,
      1786645950,
      1786645979,
      1786646010,
      1786646039,
      1786646070,
      1786646099,
      1786646130,
      1786646159,
      1786646191,
      1786646219,
      1786646251,
      1786646279,
      1786646311,
      1786646339,
      1786646371,
      1786646399,
      1786646431,
      1786646459,
      1786646491,
      1786646519,
      1786646551,
      1786646579,
      1786646611,
      1786646639,
      1786646671,
      1786646700,
      1786646731,
      1786646760,
      1786646791,
      1786646820,
      1786646851,
      1786646880,
      1786646911,
      1786646940,
      1786646972,
      1786647032,
      1786647060,
      1786647092,
      1786647152,
      1786647180,
      1786647212,
      1786647240,
      1786647300,
      1786647360,
      1786647421,
      1786647481,
      1786647541,
      1786647601,
      1786647661,
      1786647781,
      1786647841,
      1786647901,
      1786648021,
      1786648081,
      1786648142,
      1786648202,
      1786648262,
      1786648382,
      1786648442,
      1786648502,
      1786648562,
      1786648622,
      1786648682,
      1786648742,
      1786648802,
      1786648862,
      1786648923,
      1786648983,
      1786649043,
      1786649103,
      1786649185,
      1786649235,
      1786649245,
      1786649306,
      1786649355,
      1786649366,
      1786649426,
      1786649486,
      1786649535,
      1786649546,
      1786649595,
      1786649606,
      1786649656,
      1786649716,
      1786649726,
      1786649776,
      1786649786,
      1786649836,
      1786649846,
      1786649896,
      1786649906,
      1786649956,
      1786649967,
      1786650027,
      1786650076,
      1786650087,
      1786650148,
      1786650207,
      1786650268,
      1786650328,
      1786650387,
      1786650449,
      1786650509,
      1786650569,
      1786650627,
      1786650688,
      1786650748,
      1786650808,
      1786650868,
      1786650928,
      1786650988,
      1786651048,
      1786651108,
      1786651168,
      1786651228,
      1786651288,
      1786651349,
      1786651409,
      1786651435,
      1786651469,
      1786651502,
      1786651529,
      1786651562,
      1786651589,
      1786651628,
      1786651649,
      1786651683,
      1786651709,
      1786651748,
      1786651769,
      1786651829,
      1786651862,
      1786651889,
      1786651922,
      1786651949,
      1786651983,
      1786652009,
      1786652070,
      1786652108,
      1786652130,
      1786652163,
      1786652190,
      1786652223,
      1786652250,
      1786652283,
      1786652310,
      1786652348,
      1786652370,
      1786652408,
      1786652430,
      1786652463,
      1786652490,
      1786652523,
      1786652550,
      1786652583,
      1786652610
    ],
    "wof:geomhash": "14ef4846819911aca277f439326c8501",
    "wof:id": 2047954713,
    "wof:repo": "sfomuseum-data-flights-2026-08"
  },
  "bbox": [
    -122.35638888888889,
    37.49111111111111,
    -73.86666666666666,
    40.61666666666667
  ],
  "geometry": {"type":"LineString","coordinates":[[-73.86666666666666,40.61666666666667],[-73.88527777777779,40.60194444444445],[-73.91666666666667,40.56666666666667],[-73.94638888888889,40.55083333333333],[-73.98333333333333,40.516666666666666],[-73.99888888888889,40.48527777777778],[-74.03333333333333,40.45],[-74.05166666666666,40.41972222222222],[-74.1,40.38333333333333],[-74.13055555555555,40.37222222222222],[-74.18333333333334,40.35],[-74.22,40.330555555555556],[-74.31694444444445,40.285555555555554],[-74.4388888888889,40.26777777777777],[-74.56972222222223,40.255],[-74.70166666666667,40.24166666666667],[-74.8386111111111,40.22777777777778],[-74.97083333333333,40.214444444444446],[-75.10666666666665,40.20027777777778],[-75.2575,40.18444444444444],[-75.38555555555556,40.170833333333334],[-75.52916666666667,40.15555555555555],[-75.65305555555557,40.141666666666666],[-75.67500000000001,40.13972222222222],[-75.82055555555556,40.12361111111111],[-75.94777777777779,40.11055555555556],[-76.09777777777778,40.09166666666667],[-76.24888888888889,40.07638888888889],[-76.42444444444445,40.055277777777775],[-76.5436111111111,40.04138888888889],[-76.72,40.020833333333336],[-76.86777777777777,40.00333333333333],[-77.015,39.98527777777778],[-77.16333333333334,39.967222222222226],[-77.31027777777777,39.9525],[-77.42861111111111,39.95527777777778],[-77.60249999999999,39.96055555555556],[-77.71638888888889,39.96555555555556],[-77.74583333333334,39.96666666666667],[-77.86444444444444,39.97166666666667],[-77.8913888888889,39.97277777777778],[-78.03777777777778,39.978611111111114],[-78.15916666666668,39.98277777777778],[-78.18777777777778,39.98388888888889],[-78.32916666666667,39.98916666666667],[-78.48222222222222,39.99472222222222],[-78.55,39.99777777777778],[-78.63083333333333,39.999722222222225],[-78.70277777777778,40.00194444444445],[-78.75194444444445,40.00361111111111],[-78.85388888888889,40.00666666666667],[-78.89861111111112,40.00805555555556],[-78.99805555555555,40.01111111111111],[-79.0736111111111,40.01361111111111],[-79.15333333333334,40.01611111111111],[-79.22361111111111,40.018055555555556],[-79.30083333333333,40.02027777777778],[-79.37472222222222,40.02194444444444],[-79.45194444444445,40.024166666666666],[-79.52388888888889,40.02583333333333],[-79.6,40.02777777777778],[-79.64555555555556,40.028888888888886],[-79.75277777777778,40.03111111111111],[-79.79888888888888,40.032222222222224],[-79.90305555555557,40.035],[-79.95138888888889,40.03611111111111],[-80.05611111111111,40.038333333333334],[-80.10666666666665,40.03944444444444],[-80.20694444444445,40.04138888888889],[-80.25972222222222,40.0425],[-80.35722222222222,40.04416666666666],[-80.41277777777778,40.04527777777778],[-80.5025,40.04666666666667],[-80.565,40.047777777777775],[-80.65277777777779,40.049166666666665],[-80.7213888888889,40.05027777777777],[-80.80749999999999,40.05166666666666],[-80.87277777777777,40.052499999999995],[-80.95972222222223,40.05361111111111],[-81.03,40.05444444444444],[-81.11388888888888,40.05555555555555],[-81.18333333333334,40.05638888888888],[-81.26833333333333,40.05722222222222],[-81.33972222222222,40.058055555555555],[-81.4225,40.058611111111105],[-81.49472222222222,40.05916666666666],[-81.57694444444444,40.059999999999995],[-81.65027777777779,40.06055555555555],[-81.72944444444444,40.06111111111111],[-81.80111111111111,40.06166666666666],[-81.95722222222223,40.0625],[-82.04944444444445,40.062777777777775],[-82.11083333333333,40.06305555555555],[-82.2038888888889,40.06333333333333],[-82.26583333333333,40.06361111111111],[-82.3586111111111,40.06388888888888],[-82.4213888888889,40.06361111111111],[-82.51527777777778,40.06361111111111],[-82.57833333333333,40.06361111111111],[-82.66944444444445,40.06333333333333],[-82.73138888888889,40.06333333333333],[-82.82305555555556,40.06305555555555],[-82.88444444444445,40.06305555555555],[-82.97333333333333,40.062777777777775],[-83.03694444444444,40.06222222222222],[-83.1363888888889,40.06194444444444],[-83.19027777777778,40.061388888888885],[-83.29194444444444,40.06083333333333],[-83.34333333333333,40.06055555555555],[-83.44361111111111,40.05972222222222],[-83.49444444444444,40.059444444444445],[-83.5975,40.05833333333333],[-83.63944444444445,40.05777777777777],[-83.75166666666667,40.05638888888888],[-83.79861111111111,40.05583333333333],[-83.89111111111112,40.055],[-83.95083333333334,40.05416666666667],[-84.04555555555555,40.05305555555555],[-84.0936111111111,40.05222222222222],[-84.19777777777779,40.05083333333333],[-84.24527777777777,40.05027777777777],[-84.35027777777778,40.04833333333333],[-84.40111111111112,40.0475],[-84.50333333333333,40.04611111111111],[-84.55611111111111,40.04527777777778],[-84.65555555555557,40.04333333333333],[-84.70666666666666,40.0425],[-84.8111111111111,40.040277777777774],[-84.86138888888888,40.03916666666667],[-84.95527777777778,40.03722222222222],[-85.01833333333333,40.03583333333333],[-85.04833333333333,40.03527777777778],[-85.1713888888889,40.0325],[-85.23333333333333,40.03111111111111],[-85.38111111111111,40.027499999999996],[-85.53444444444445,40.02333333333333],[-85.66361111111112,40.019999999999996],[-85.82888888888888,40.015277777777776],[-85.97027777777778,40.01083333333333],[-86.13861111111112,40.00694444444444],[-86.2925,40.00083333333333],[-86.43166666666667,39.99611111111111],[-86.60805555555555,39.99027777777778],[-86.7425,39.98527777777778],[-86.8963888888889,39.97944444444445],[-87.07444444444444,39.972500000000004],[-87.2325,39.96611111111111],[-87.38805555555557,39.959722222222226],[-87.54333333333334,39.95333333333333],[-87.69777777777779,39.94611111111111],[-87.79888888888888,39.94166666666666],[-87.85305555555556,39.939166666666665],[-87.95444444444445,39.93416666666666],[-88.01861111111111,39.93111111111111],[-88.10666666666665,39.926944444444445],[-88.1738888888889,39.92361111111111],[-88.26666666666667,39.91888888888889],[-88.3286111111111,39.91583333333333],[-88.42166666666667,39.91111111111111],[-88.48277777777778,39.908055555555556],[-88.5761111111111,39.903055555555554],[-88.6388888888889,39.89972222222222],[-88.73055555555555,39.89472222222222],[-88.79416666666667,39.89138888888889],[-88.88416666666667,39.88638888888889],[-88.94833333333334,39.882777777777775],[-89.03861111111111,39.87777777777778],[-89.10055555555554,39.87416666666667],[-89.25416666666666,39.86555555555556],[-89.41277777777778,39.85611111111111],[-89.57,39.84666666666667],[-89.72888888888889,39.839444444444446],[-89.88277777777778,39.83888888888889],[-90.03694444444444,39.837500000000006],[-90.18972222222223,39.83638888888889],[-90.345,39.834722222222226],[-90.50166666666667,39.83277777777778],[-90.6563888888889,39.83083333333334],[-90.81027777777777,39.82888888888889],[-90.96388888888889,39.82638888888889],[-91.11861111111111,39.82361111111111],[-91.27027777777778,39.821111111111115],[-91.42472222222223,39.818333333333335],[-91.57777777777777,39.815],[-91.73333333333333,39.81166666666666],[-91.88722222222223,39.80833333333333],[-92.04527777777777,39.80416666666667],[-92.20111111111112,39.80027777777777],[-92.35777777777777,39.795833333333334],[-92.51805555555555,39.79138888888889],[-92.67472222222223,39.78666666666666],[-92.8325,39.78138888888889],[-92.95722222222223,39.777499999999996],[-92.99111111111111,39.77638888888889],[-93.11638888888888,39.77222222222222],[-93.14833333333334,39.77111111111111],[-93.2775,39.76638888888889],[-93.30916666666667,39.765277777777776],[-93.43583333333333,39.760555555555555],[-93.47,39.75944444444445],[-93.62833333333333,39.75333333333333],[-93.79444444444444,39.746944444444445],[-93.91583333333334,39.74194444444444],[-93.95305555555557,39.74055555555556],[-94.075,39.73527777777778],[-94.11194444444443,39.73361111111111],[-94.23388888888888,39.72833333333333],[-94.27055555555556,39.72666666666667],[-94.39416666666668,39.721111111111114],[-94.43166666666667,39.719166666666666],[-94.55361111111111,39.71361111111111],[-94.59027777777777,39.71194444444445],[-94.71305555555556,39.70611111111111],[-94.87333333333332,39.698055555555555],[-94.90722222222223,39.69638888888888],[-95.03055555555555,39.69027777777777],[-95.06305555555555,39.68888888888888],[-95.1875,39.68222222222222],[-95.22027777777778,39.68055555555555],[-95.35138888888888,39.67333333333333],[-95.37777777777777,39.67194444444444],[-95.5363888888889,39.66305555555555],[-95.67083333333333,39.65555555555555],[-95.69444444444444,39.65416666666667],[-95.83055555555555,39.646388888888886],[-95.85194444444444,39.64527777777778],[-95.98833333333333,39.63722222222222],[-96.00944444444444,39.63583333333333],[-96.14527777777778,39.62777777777778],[-96.16888888888889,39.62638888888889],[-96.30611111111111,39.617777777777775],[-96.3275,39.61638888888889],[-96.465,39.60805555555556],[-96.485,39.606944444444444],[-96.62277777777777,39.59777777777778],[-96.64333333333335,39.59666666666667],[-96.78222222222222,39.587500000000006],[-96.80138888888888,39.586111111111116],[-96.94,39.57694444444445],[-96.97555555555556,39.574444444444445],[-97.13305555555554,39.56361111111111],[-97.25666666666666,39.555],[-97.27416666666666,39.55361111111111],[-97.41194444444444,39.54361111111111],[-97.43166666666667,39.54222222222222],[-97.57083333333333,39.532222222222224],[-97.73,39.52055555555555],[-97.73,39.52055555555555],[-97.88944444444445,39.50861111111111],[-98.04888888888888,39.498333333333335],[-98.0825,39.4975],[-98.24,39.49305555555556],[-98.39777777777779,39.488055555555555],[-98.55,39.483333333333334],[-98.71055555555556,39.47805555555556],[-98.86527777777778,39.472500000000004],[-99.03166666666667,39.46666666666667],[-99.18833333333333,39.46083333333333],[-99.3536111111111,39.45444444444445],[-99.51361111111112,39.448055555555555],[-99.67277777777778,39.44138888888889],[-99.83166666666666,39.43444444444444],[-99.9738888888889,39.42805555555555],[-99.98916666666666,39.427499999999995],[-100.18,39.41888888888889],[-100.33694444444444,39.41138888888889],[-100.49444444444444,39.40361111111111],[-100.65222222222222,39.395833333333336],[-100.81083333333333,39.38777777777778],[-100.96555555555555,39.379444444444445],[-101.12305555555555,39.37083333333334],[-101.27722222222222,39.362500000000004],[-101.435,39.35333333333333],[-101.59027777777777,39.34444444444445],[-101.74833333333333,39.335],[-101.905,39.325833333333335],[-102.06944444444444,39.31527777777777],[-102.22888888888889,39.305277777777775],[-102.38527777777779,39.29472222222222],[-102.5425,39.28444444444444],[-102.69944444444445,39.27388888888889],[-102.8561111111111,39.26305555555555],[-103.01333333333334,39.25194444444445],[-103.17,39.24055555555556],[-103.32777777777777,39.22916666666667],[-103.485,39.217222222222226],[-103.64083333333333,39.205555555555556],[-103.79666666666667,39.19333333333333],[-103.95361111111112,39.18111111111111],[-104.10888888888888,39.16861111111111],[-104.26472222222222,39.15611111111111],[-104.42111111111112,39.143055555555556],[-104.57666666666667,39.13],[-104.73027777777779,39.11666666666667],[-104.8863888888889,39.10305555555556],[-105.04277777777777,39.08916666666667],[-105.19611111111111,39.07555555555556],[-105.2525,39.07083333333334],[-105.35083333333333,39.061388888888885],[-105.40444444444445,39.05722222222222],[-105.50277777777778,39.0475],[-105.55583333333333,39.043055555555554],[-105.65361111111112,39.03333333333333],[-105.80472222222222,39.01888888888889],[-105.85777777777777,39.014722222222225],[-105.9575,39.00416666666667],[-106.01027777777777,38.998333333333335],[-106.10888888888888,38.994166666666665],[-106.16305555555556,38.98888888888889],[-106.25555555555556,38.98638888888889],[-106.31611111111111,38.98305555555556],[-106.4075,38.987500000000004],[-106.46805555555555,38.99666666666667],[-106.5586111111111,39.01277777777778],[-106.61861111111111,39.021388888888886],[-106.70777777777778,39.01694444444444],[-106.76805555555555,39.01277777777778],[-106.85666666666665,39.007222222222225],[-106.91777777777779,39.00222222222222],[-107.00416666666666,38.985],[-107.06083333333333,38.97138888888889],[-107.14805555555556,38.95],[-107.20611111111111,38.93527777777778],[-107.29083333333332,38.91611111111111],[-107.35,38.901666666666664],[-107.43388888888889,38.88027777777778],[-107.49194444444444,38.86416666666667],[-107.57388888888889,38.843333333333334],[-107.63194444444444,38.82666666666667],[-107.71444444444445,38.80611111111111],[-107.77222222222223,38.79055555555556],[-107.85416666666666,38.76972222222222],[-107.91194444444444,38.75388888888889],[-107.99583333333334,38.733333333333334],[-108.05388888888889,38.718333333333334],[-108.13777777777779,38.6975],[-108.19472222222223,38.6825],[-108.2775,38.661944444444444],[-108.33611111111111,38.64722222222222],[-108.41861111111112,38.62583333333333],[-108.47722222222222,38.61083333333333],[-108.56166666666667,38.59],[-108.61944444444444,38.57694444444445],[-108.70611111111111,38.561388888888885],[-108.76833333333333,38.55277777777778],[-108.85722222222222,38.540277777777774],[-108.91833333333334,38.534166666666664],[-109.00972222222222,38.525555555555556],[-109.07111111111111,38.519444444444446],[-109.16111111111111,38.5125],[-109.2225,38.51166666666666],[-109.31388888888888,38.50972222222222],[-109.37805555555555,38.50805555555556],[-109.46972222222223,38.505833333333335],[-109.53333333333333,38.50416666666667],[-109.62333333333332,38.50194444444445],[-109.68388888888889,38.500277777777775],[-109.77472222222222,38.49777777777778],[-109.83777777777777,38.49611111111111],[-109.92805555555556,38.493611111111115],[-109.98972222222223,38.49166666666667],[-110.07833333333333,38.48916666666667],[-110.22972222222222,38.48416666666667],[-110.29138888888889,38.48222222222223],[-110.38305555555554,38.47944444444445],[-110.53527777777778,38.474444444444444],[-110.59833333333333,38.472500000000004],[-110.69083333333333,38.469166666666666],[-110.75166666666667,38.466944444444444],[-110.90722222222223,38.46138888888889],[-111.07027777777778,38.455000000000005],[-111.22222222222223,38.45],[-111.37277777777777,38.45111111111111],[-111.51861111111111,38.450833333333335],[-111.66694444444445,38.45],[-111.81388888888888,38.44916666666666],[-112.1125,38.446666666666665],[-112.26027777777777,38.445277777777775],[-112.41222222222223,38.443888888888885],[-112.70694444444445,38.43722222222222],[-112.85055555555554,38.427499999999995],[-112.99361111111111,38.41777777777777],[-113.13555555555556,38.407777777777774],[-113.27694444444444,38.39805555555556],[-113.55555555555556,38.37444444444444],[-113.69500000000001,38.36083333333333],[-113.83472222222221,38.345555555555556],[-113.97500000000001,38.328611111111115],[-114.11833333333333,38.31194444444444],[-114.26027777777777,38.29555555555555],[-114.39972222222222,38.28527777777778],[-114.53055555555555,38.339444444444446],[-114.62277777777777,38.448611111111106],[-114.71777777777778,38.55277777777778],[-114.8325,38.64277777777778],[-114.97916666666667,38.74027777777778],[-115.11444444444444,38.802499999999995],[-115.28805555555556,38.77638888888889],[-115.40027777777779,38.73083333333334],[-115.42694444444444,38.719722222222224],[-115.55472222222222,38.66722222222222],[-115.65472222222223,38.62388888888889],[-115.68166666666667,38.61277777777778],[-115.80777777777777,38.55888888888889],[-115.93277777777779,38.50555555555555],[-116.03222222222222,38.463055555555556],[-116.05888888888889,38.45166666666667],[-116.1563888888889,38.409444444444446],[-116.18277777777779,38.39833333333333],[-116.28305555555555,38.35527777777778],[-116.42,38.31861111111112],[-116.44472222222223,38.31472222222222],[-116.5611111111111,38.294999999999995],[-116.59055555555555,38.28972222222222],[-116.70111111111112,38.27055555555555],[-116.73194444444445,38.265277777777776],[-116.84138888888889,38.24638888888889],[-116.87222222222222,38.24111111111111],[-116.98472222222222,38.22166666666667],[-117.01555555555555,38.21611111111111],[-117.15944444444445,38.19083333333333],[-117.25944444444444,38.17305555555555],[-117.30222222222221,38.16555555555556],[-117.40027777777779,38.14805555555556],[-117.57694444444444,38.12444444444444],[-117.72527777777778,38.11222222222222],[-117.87333333333332,38.09861111111111],[-118.02694444444444,38.08361111111111],[-118.1763888888889,38.06666666666667],[-118.32583333333334,38.050555555555555],[-118.4775,38.03388888888889],[-118.62666666666667,38.01638888888889],[-118.76833333333333,37.989444444444445],[-118.89750000000001,37.94499999999999],[-119.03305555555555,37.909444444444446],[-119.18222222222222,37.88972222222222],[-119.32666666666667,37.87305555555555],[-119.47222222222223,37.85055555555556],[-119.61777777777777,37.82694444444445],[-119.76416666666667,37.803888888888885],[-119.91250000000001,37.77972222222222],[-120.05916666666667,37.755833333333335],[-120.215,37.730000000000004],[-120.36277777777777,37.70611111111111],[-120.50861111111111,37.6875],[-120.56666666666666,37.68333333333333],[-120.64555555555556,37.67111111111111],[-120.73333333333333,37.666666666666664],[-120.77833333333334,37.655277777777776],[-120.86666666666666,37.65],[-120.90944444444445,37.63944444444444],[-121,37.63333333333333],[-121.03777777777778,37.623333333333335],[-121.11666666666666,37.61666666666667],[-121.15805555555556,37.60638888888889],[-121.23333333333333,37.6],[-121.2725,37.59138888888889],[-121.38305555555554,37.578611111111115],[-121.45,37.56666666666667],[-121.4863888888889,37.566944444444445],[-121.55,37.56666666666667],[-121.5825,37.55555555555555],[-121.63333333333334,37.55],[-121.66611111111112,37.54055555555556],[-121.74666666666667,37.52166666666667],[-121.8,37.516666666666666],[-121.82333333333332,37.503055555555555],[-121.86666666666666,37.5],[-121.9,37.49111111111111],[-121.95,37.5],[-121.97972222222222,37.493611111111115],[-122.01666666666667,37.5],[-122.05194444444444,37.515277777777776],[-122.1,37.53333333333333],[-122.12277777777777,37.538333333333334],[-122.16666666666667,37.55],[-122.19388888888889,37.561388888888885],[-122.23333333333333,37.56666666666667],[-122.25805555555556,37.58222222222223],[-122.28333333333333,37.6],[-122.31194444444444,37.59777777777778],[-122.33333333333333,37.6],[-122.35638888888889,37.613055555555555]]}
}
