{
  "id": 2032130607,
  "type": "Feature",
  "properties": {
    "geom:area": 0,
    "geom:bbox": "-122.346111,37.483333,-104.733333,39.860000",
    "geom:latitude": 38.75502908566483,
    "geom:longitude": -113.544995969178,
    "src:alt_label": "swim-path",
    "src:geom": "swim",
    "swim:altitudes": [
      "060",
      "074",
      "081",
      "101",
      "119",
      "130",
      "144",
      "152",
      "167",
      "209",
      "220",
      "240",
      "260",
      "290",
      "302",
      "312",
      "322",
      "333",
      "345",
      "353",
      "360",
      "367",
      "377",
      "380C",
      "380C",
      "380C",
      "380C",
      "380C",
      "380C",
      "380C",
      "380C",
      "380C",
      "380C",
      "380C",
      "380C",
      "380C",
      "380C",
      "380C",
      "380C",
      "380C",
      "380C",
      "380C",
      "380C",
      "380C",
      "380C",
      "380C",
      "380C",
      "380C",
      "380C",
      "380C",
      "380C",
      "380C",
      "380C",
      "380C",
      "380C",
      "380C",
      "380C",
      "380C",
      "380C",
      "380C",
      "380C",
      "380C",
      "380C",
      "380C",
      "380C",
      "380C",
      "380C",
      "380C",
      "380C",
      "380C",
      "380C",
      "380C",
      "380C",
      "380C",
      "380C",
      "380C",
      "380C",
      "380C",
      "380C",
      "380C",
      "380C",
      "380C",
      "380C",
      "380C",
      "380C",
      "380C",
      "380C",
      "380C",
      "380C",
      "380C",
      "380C",
      "380C",
      "380C",
      "380C",
      "380C",
      "380C",
      "380C",
      "380C",
      "380C",
      "380C",
      "380C",
      "380C",
      "380C",
      "380C",
      "380C",
      "380C",
      "380C",
      "380C",
      "380C",
      "380C",
      "380C",
      "378",
      "357",
      "325",
      "301",
      "277",
      "269",
      "254",
      "247",
      "232",
      "224",
      "204",
      "193",
      "185",
      "174",
      "165",
      "155",
      "149",
      "130",
      "102",
      "098",
      "086",
      "082",
      "079",
      "075",
      "070",
      "069",
      "061",
      "060",
      "048",
      "039",
      "036",
      "027",
      "024",
      "018",
      "015",
      "009",
      "002"
    ],
    "swim:geom": "path",
    "swim:speeds": [
      190,
      234,
      251,
      293,
      289,
      283,
      290,
      296,
      295,
      326,
      365,
      386,
      389,
      410,
      420,
      434,
      441,
      446,
      446,
      447,
      447,
      449,
      448,
      441,
      438,
      438,
      438,
      439,
      450,
      454,
      456,
      457,
      457,
      455,
      442,
      440,
      440,
      439,
      442,
      444,
      445,
      445,
      445,
      445,
      446,
      447,
      447,
      448,
      447,
      448,
      448,
      447,
      446,
      446,
      446,
      447,
      446,
      444,
      440,
      436,
      432,
      432,
      430,
      431,
      431,
      431,
      434,
      431,
      433,
      431,
      432,
      433,
      434,
      435,
      436,
      437,
      436,
      437,
      436,
      436,
      436,
      436,
      436,
      435,
      435,
      434,
      434,
      434,
      433,
      433,
      433,
      432,
      432,
      432,
      433,
      434,
      434,
      435,
      436,
      437,
      438,
      439,
      438,
      439,
      438,
      438,
      438,
      438,
      439,
      438,
      437,
      436,
      435,
      442,
      442,
      430,
      421,
      419,
      414,
      409,
      399,
      386,
      380,
      369,
      364,
      356,
      354,
      346,
      336,
      315,
      297,
      287,
      279,
      273,
      262,
      263,
      254,
      252,
      247,
      241,
      242,
      245,
      231,
      210,
      197,
      174,
      154,
      148
    ],
    "swim:timestamps": [
      1786045262,
      1786045325,
      1786045342,
      1786045405,
      1786045445,
      1786045465,
      1786045505,
      1786045522,
      1786045565,
      1786045685,
      1786045745,
      1786045805,
      1786045865,
      1786045985,
      1786046046,
      1786046106,
      1786046166,
      1786046226,
      1786046286,
      1786046346,
      1786046406,
      1786046466,
      1786046526,
      1786046586,
      1786046646,
      1786046706,
      1786046766,
      1786046826,
      1786046886,
      1786046946,
      1786047007,
      1786047067,
      1786047127,
      1786047187,
      1786047247,
      1786047367,
      1786047427,
      1786047487,
      1786047547,
      1786047608,
      1786047668,
      1786047728,
      1786047788,
      1786047848,
      1786047908,
      1786047968,
      1786048028,
      1786048088,
      1786048148,
      1786048268,
      1786048328,
      1786048388,
      1786048449,
      1786048509,
      1786048569,
      1786048629,
      1786048689,
      1786048749,
      1786048869,
      1786048929,
      1786048989,
      1786049049,
      1786049169,
      1786049290,
      1786049350,
      1786049410,
      1786049443,
      1786049470,
      1786049503,
      1786049530,
      1786049590,
      1786049636,
      1786049696,
      1786049710,
      1786049756,
      1786049770,
      1786049816,
      1786049830,
      1786049876,
      1786049890,
      1786049936,
      1786049951,
      1786049996,
      1786050071,
      1786050116,
      1786050131,
      1786050191,
      1786050236,
      1786050251,
      1786050296,
      1786050311,
      1786050371,
      1786050431,
      1786050477,
      1786050491,
      1786050551,
      1786050597,
      1786050657,
      1786050671,
      1786050732,
      1786050777,
      1786050837,
      1786050852,
      1786050897,
      1786050957,
      1786051018,
      1786051078,
      1786051138,
      1786051198,
      1786051258,
      1786051318,
      1786051378,
      1786051438,
      1786051498,
      1786051558,
      1786051618,
      1786051638,
      1786051678,
      1786051692,
      1786051739,
      1786051758,
      1786051818,
      1786051859,
      1786051878,
      1786051919,
      1786051938,
      1786051979,
      1786051992,
      1786052052,
      1786052159,
      1786052173,
      1786052219,
      1786052232,
      1786052279,
      1786052292,
      1786052339,
      1786052353,
      1786052400,
      1786052408,
      1786052473,
      1786052520,
      1786052533,
      1786052580,
      1786052594,
      1786052640,
      1786052653,
      1786052700,
      1786052760
    ],
    "wof:geomhash": "b494becbafdbd1822d4276daf5c3bcc6",
    "wof:id": 2032130607,
    "wof:repo": "sfomuseum-data-flights-2026-08"
  },
  "bbox": [
    -122.3461111111111,
    37.483333333333334,
    -104.73333333333333,
    39.86
  ],
  "geometry": {"type":"LineString","coordinates":[[-104.73333333333333,39.833333333333336],[-104.81166666666667,39.841944444444444],[-104.83333333333333,39.85],[-104.95,39.85],[-105.01138888888889,39.844722222222224],[-105.05,39.85],[-105.11444444444444,39.84777777777778],[-105.15,39.85],[-105.22222222222223,39.849444444444444],[-105.45194444444445,39.855000000000004],[-105.5786111111111,39.85777777777778],[-105.71944444444445,39.86],[-105.85833333333333,39.84861111111111],[-106.14888888888889,39.82277777777778],[-106.30138888888888,39.80916666666666],[-106.45555555555556,39.79555555555555],[-106.60222222222221,39.78111111111111],[-106.775,39.76083333333333],[-106.93361111111112,39.7425],[-107.09305555555555,39.726111111111116],[-107.25333333333333,39.70777777777778],[-107.41250000000001,39.69],[-107.57277777777777,39.67027777777778],[-107.72805555555556,39.654444444444444],[-107.88777777777779,39.63472222222222],[-108.03611111111111,39.61638888888889],[-108.19444444444444,39.59722222222222],[-108.35222222222221,39.57777777777778],[-108.50111111111111,39.53194444444444],[-108.64805555555556,39.467222222222226],[-108.7925,39.40361111111111],[-108.93777777777778,39.33972222222222],[-109.08,39.27611111111111],[-109.2213888888889,39.21416666666667],[-109.37305555555555,39.21638888888889],[-109.6413888888889,39.28444444444444],[-109.79222222222222,39.322500000000005],[-109.94388888888889,39.35777777777778],[-110.10138888888888,39.34777777777778],[-110.28888888888889,39.32277777777778],[-110.44611111111111,39.301111111111105],[-110.60305555555556,39.279444444444444],[-110.75944444444444,39.257777777777775],[-110.91805555555555,39.23527777777778],[-111.07444444444444,39.213055555555556],[-111.23222222222222,39.190555555555555],[-111.36722222222221,39.170833333333334],[-111.52388888888889,39.147777777777776],[-111.67972222222222,39.125277777777775],[-111.9925,39.07805555555556],[-112.15055555555556,39.053888888888885],[-112.30638888888889,39.030277777777776],[-112.46055555555556,39.00611111111111],[-112.61722222222221,38.981944444444444],[-112.77111111111111,38.95777777777778],[-112.92694444444444,38.93277777777777],[-113.08305555555555,38.9075],[-113.2675,38.8775],[-113.57083333333333,38.82777777777778],[-113.72027777777778,38.80277777777778],[-113.86833333333333,38.778055555555554],[-114.02,38.75222222222222],[-114.31638888888888,38.70138888888889],[-114.61416666666666,38.64944444444444],[-114.76277777777777,38.623333333333335],[-114.91277777777778,38.59666666666667],[-114.97416666666666,38.586666666666666],[-115.06055555555555,38.57],[-115.12222222222222,38.559444444444445],[-115.20833333333334,38.54333333333333],[-115.35944444444443,38.51583333333333],[-115.46666666666667,38.49666666666667],[-115.61833333333333,38.46888888888889],[-115.64722222222223,38.463055555555556],[-115.76888888888888,38.44194444444444],[-115.79722222222222,38.434999999999995],[-115.92,38.41166666666666],[-115.94805555555556,38.406666666666666],[-116.07027777777778,38.38361111111111],[-116.09888888888888,38.378055555555555],[-116.21944444444445,38.355000000000004],[-116.24888888888889,38.349444444444444],[-116.37027777777777,38.32638888888889],[-116.5475,38.29722222222222],[-116.66972222222223,38.27611111111111],[-116.69666666666667,38.271388888888886],[-116.84777777777778,38.24527777777778],[-116.96611111111112,38.225],[-116.99638888888889,38.219722222222224],[-117.11472222222221,38.198611111111106],[-117.14277777777778,38.19361111111111],[-117.31083333333333,38.163888888888884],[-117.45972222222223,38.1375],[-117.55,38.12111111111111],[-117.60722222222222,38.11083333333333],[-117.7575,38.08361111111111],[-117.84888888888888,38.06722222222223],[-117.99666666666667,38.04],[-118.05611111111111,38.028888888888886],[-118.20583333333333,38.00111111111111],[-118.3,37.98361111111111],[-118.44972222222222,37.955555555555556],[-118.50611111111111,37.94472222222222],[-118.59944444444444,37.92722222222222],[-118.74777777777778,37.89888888888889],[-118.90138888888889,37.88027777777778],[-119.06166666666667,37.86194444444445],[-119.21555555555555,37.84388888888889],[-119.36749999999999,37.82611111111112],[-119.5225,37.80777777777777],[-119.67333333333333,37.78972222222222],[-119.825,37.771388888888886],[-119.97527777777778,37.75277777777778],[-120.12888888888888,37.73388888888889],[-120.2825,37.715],[-120.42972222222222,37.69611111111111],[-120.48333333333333,37.68333333333333],[-120.57694444444444,37.67916666666667],[-120.61666666666666,37.666666666666664],[-120.71972222222223,37.6625],[-120.78333333333333,37.65],[-120.91666666666667,37.63333333333333],[-120.98944444444444,37.62972222222222],[-121.03333333333333,37.61666666666667],[-121.11444444444444,37.612500000000004],[-121.16666666666667,37.6],[-121.23611111111111,37.59638888888889],[-121.26666666666667,37.583333333333336],[-121.38333333333334,37.583333333333336],[-121.58166666666666,37.55611111111111],[-121.61666666666666,37.55],[-121.68083333333334,37.53722222222222],[-121.7,37.53333333333333],[-121.75277777777778,37.519999999999996],[-121.8,37.516666666666666],[-121.85833333333333,37.495],[-121.88333333333334,37.483333333333334],[-121.94472222222223,37.49611111111111],[-121.96666666666667,37.5],[-122.05,37.5],[-122.11194444444443,37.51027777777778],[-122.13333333333334,37.516666666666666],[-122.185,37.538888888888884],[-122.2,37.55],[-122.24944444444445,37.56583333333333],[-122.26666666666667,37.56666666666667],[-122.29972222222221,37.58722222222222],[-122.3461111111111,37.60638888888889]]}
}
