{
  "id": 2047916255,
  "type": "Feature",
  "properties": {
    "geom:area": 0,
    "geom:bbox": "-122.407120,37.645980,-121.251970,37.958240",
    "geom:latitude": 37.819743167502395,
    "geom:longitude": -121.83641736619344,
    "src:alt_label": "swim-takeoff",
    "src:geom": "swim",
    "swim:elevations": [
      549,
      790,
      1281,
      1462,
      1535,
      1722,
      2458,
      2665,
      3135,
      3449,
      3827,
      3961,
      4203,
      4636,
      4897,
      5145,
      5235,
      5440
    ],
    "swim:geom": "takeoff",
    "swim:timestamps": [
      1786362410,
      1786362436,
      1786362502,
      1786362537,
      1786362557,
      1786362577,
      1786362648,
      1786362670,
      1786362722,
      1786362771,
      1786362832,
      1786362852,
      1786362891,
      1786362951,
      1786362981,
      1786363011,
      1786363023,
      1786363055
    ],
    "wof:geomhash": "547224ac9f2247d412502f57fe0fb783",
    "wof:id": 2047916255,
    "wof:repo": "sfomuseum-data-flights-2026-08"
  },
  "bbox": [
    -122.40712,
    37.64598,
    -121.25197,
    37.95824
  ],
  "geometry": {"type":"LineString","coordinates":[[-122.40712,37.64598],[-122.38978,37.66416],[-122.31449,37.68462],[-122.27019,37.69948],[-122.24046,37.70947],[-122.20985,37.72073],[-122.10227,37.76571],[-122.0657,37.77383],[-121.97489,37.79532],[-121.88576,37.81595],[-121.76146,37.84357],[-121.71871,37.85331],[-121.6331,37.87292],[-121.49742,37.90334],[-121.42723,37.91934],[-121.35844,37.93485],[-121.32896,37.94135],[-121.25197,37.95824]]}
}
