{
  "id": 2048081361,
  "type": "Feature",
  "properties": {
    "geom:area": 0,
    "geom:bbox": "-123.326530,37.734590,-122.604940,38.504280",
    "geom:latitude": 38.10108034928726,
    "geom:longitude": -122.98151700622718,
    "src:alt_label": "swim-takeoff",
    "src:geom": "swim",
    "swim:elevations": [
      1969,
      2064,
      2394,
      2676,
      2970,
      3262,
      3326,
      3559,
      3768,
      3835,
      3877,
      4048,
      4243,
      4700,
      4950,
      5317,
      5402,
      5823,
      5897,
      6126,
      6523
    ],
    "swim:geom": "takeoff",
    "swim:timestamps": [
      1787253715,
      1787253724,
      1787253755,
      1787253782,
      1787253811,
      1787253857,
      1787253870,
      1787253920,
      1787253949,
      1787253956,
      1787253960,
      1787253975,
      1787253994,
      1787254041,
      1787254067,
      1787254104,
      1787254115,
      1787254165,
      1787254172,
      1787254201,
      1787254240
    ],
    "wof:geomhash": "362ef5c9e016cfa5fa8a0d075dc3e62a",
    "wof:id": 2048081361,
    "wof:repo": "sfomuseum-data-flights-2026-08"
  },
  "bbox": [
    -123.32653,
    37.73459,
    -122.60494,
    38.50428
  ],
  "geometry": {"type":"LineString","coordinates":[[-122.60494,37.73459],[-122.61714,37.74184],[-122.65862,37.76643],[-122.6968,37.78849],[-122.73745,37.81236],[-122.79266,37.86648],[-122.80761,37.88426],[-122.86893,37.95842],[-122.90744,38.00478],[-122.91658,38.01574],[-122.92197,38.02218],[-122.94277,38.0474],[-122.96875,38.07882],[-123.03288,38.15574],[-123.06982,38.19993],[-123.12308,38.26334],[-123.13874,38.28196],[-123.21315,38.37007],[-123.22299,38.38167],[-123.26616,38.43206],[-123.32653,38.50428]]}
}
