{
  "id": 2047885343,
  "type": "Feature",
  "properties": {
    "geom:area": 0,
    "geom:bbox": "-122.389660,37.625860,-121.263260,37.962490",
    "geom:latitude": 37.83225981184447,
    "geom:longitude": -121.85003735275734,
    "src:alt_label": "swim-takeoff",
    "src:geom": "swim",
    "swim:elevations": [
      152,
      677,
      673,
      678,
      867,
      1270,
      1381,
      1574,
      1676,
      1989,
      2639,
      2829,
      3019,
      3146,
      3195,
      3292,
      3780,
      4059,
      4532,
      5060,
      5090,
      5154
    ],
    "swim:geom": "takeoff",
    "swim:timestamps": [
      1786190043,
      1786190097,
      1786190100,
      1786190104,
      1786190161,
      1786190204,
      1786190216,
      1786190238,
      1786190252,
      1786190281,
      1786190353,
      1786190376,
      1786190401,
      1786190457,
      1786190470,
      1786190509,
      1786190548,
      1786190569,
      1786190628,
      1786190691,
      1786190702,
      1786190735
    ],
    "wof:geomhash": "57c2d68afdaba33c1b5e0914eedf787d",
    "wof:id": 2047885343,
    "wof:repo": "sfomuseum-data-flights-2026-08"
  },
  "bbox": [
    -122.38966,
    37.62586,
    -121.26326,
    37.96249
  ],
  "geometry": {"type":"LineString","coordinates":[[-122.38644,37.62586],[-122.38966,37.65931],[-122.38674,37.66082],[-122.38272,37.66266],[-122.30928,37.68546],[-122.2464,37.70698],[-122.22954,37.71277],[-122.19768,37.72665],[-122.17778,37.73706],[-122.13715,37.75806],[-122.03394,37.81135],[-121.9984,37.82687],[-121.9552,37.83534],[-121.84533,37.856],[-121.81859,37.86112],[-121.73456,37.8765],[-121.65294,37.89158],[-121.61168,37.89912],[-121.49051,37.92126],[-121.35908,37.9452],[-121.33593,37.94935],[-121.26326,37.96249]]}
}
