{
  "id": 2032073213,
  "type": "Feature",
  "properties": {
    "geom:area": 0,
    "geom:bbox": "-122.345000,37.494444,-87.883333,42.156111",
    "geom:latitude": 39.9199305723261,
    "geom:longitude": -105.21174148991084,
    "src:alt_label": "swim-path",
    "src:geom": "swim",
    "swim:altitudes": [
      "050",
      "050",
      "057",
      "081",
      "106",
      "132",
      "151",
      "168",
      "183",
      "198",
      "213",
      "240",
      "273",
      "287",
      "299",
      "307",
      "315",
      "320C",
      "320C",
      "320C",
      "320C",
      "320C",
      "320C",
      "320C",
      "320C",
      "320C",
      "320C",
      "320C",
      "320C",
      "320C",
      "320C",
      "320C",
      "320C",
      "320C",
      "320C",
      "320C",
      "320C",
      "320C",
      "320C",
      "320C",
      "320C",
      "320C",
      "320C",
      "320C",
      "320C",
      "320C",
      "320C",
      "320C",
      "320C",
      "320C",
      "320C",
      "320C",
      "320C",
      "320C",
      "320C",
      "320C",
      "320C",
      "320C",
      "320C",
      "320C",
      "320C",
      "320C",
      "320C",
      "320C",
      "320C",
      "320C",
      "320C",
      "320C",
      "320C",
      "320C",
      "320C",
      "320C",
      "320C",
      "320C",
      "320C",
      "320C",
      "320C",
      "320C",
      "320C",
      "320C",
      "320C",
      "320C",
      "320C",
      "320C",
      "320C",
      "320C",
      "320C",
      "320C",
      "320C",
      "320C",
      "320C",
      "320C",
      "320C",
      "320C",
      "320C",
      "320C",
      "320C",
      "320C",
      "320C",
      "320C",
      "320C",
      "320C",
      "320C",
      "320C",
      "320C",
      "320C",
      "320C",
      "320C",
      "320C",
      "320C",
      "320C",
      "320C",
      "320C",
      "320C",
      "320C",
      "320C",
      "320C",
      "320C",
      "320C",
      "320C",
      "320C",
      "320C",
      "320C",
      "320C",
      "320C",
      "320C",
      "320C",
      "320C",
      "320C",
      "320C",
      "320C",
      "320C",
      "323",
      "332",
      "340C",
      "340C",
      "340C",
      "340C",
      "340C",
      "340C",
      "340C",
      "340C",
      "340C",
      "340C",
      "340C",
      "340C",
      "340C",
      "340C",
      "340C",
      "340C",
      "340C",
      "340C",
      "340C",
      "340C",
      "340C",
      "340C",
      "340C",
      "340C",
      "340C",
      "340C",
      "340C",
      "340C",
      "340C",
      "340C",
      "340C",
      "340C",
      "340C",
      "340C",
      "340C",
      "340C",
      "340C",
      "340C",
      "340C",
      "340C",
      "340C",
      "340C",
      "340C",
      "340C",
      "340C",
      "340C",
      "340C",
      "340C",
      "340C",
      "340C",
      "340C",
      "340C",
      "340C",
      "340C",
      "340C",
      "340C",
      "340C",
      "340C",
      "340C",
      "340C",
      "340C",
      "340C",
      "340C",
      "340C",
      "340C",
      "340C",
      "340C",
      "340C",
      "340C",
      "340C",
      "340C",
      "340C",
      "340",
      "340",
      "324",
      "298",
      "289",
      "277",
      "277",
      "256",
      "236",
      "236",
      "216",
      "196",
      "176",
      "159",
      "144",
      "130",
      "118",
      "103",
      "095",
      "085",
      "085",
      "075",
      "073",
      "062",
      "061",
      "060",
      "058",
      "046",
      "031",
      "021",
      "021",
      "011",
      "003"
    ],
    "swim:geom": "path",
    "swim:speeds": [
      274,
      274,
      271,
      287,
      310,
      389,
      406,
      418,
      429,
      431,
      439,
      462,
      466,
      461,
      461,
      463,
      461,
      462,
      458,
      461,
      457,
      456,
      453,
      456,
      461,
      461,
      461,
      462,
      461,
      463,
      461,
      464,
      462,
      464,
      463,
      462,
      461,
      461,
      460,
      459,
      460,
      460,
      461,
      462,
      463,
      463,
      464,
      464,
      464,
      464,
      465,
      465,
      465,
      465,
      464,
      464,
      463,
      462,
      460,
      460,
      457,
      456,
      454,
      454,
      453,
      454,
      454,
      455,
      456,
      457,
      458,
      459,
      460,
      460,
      461,
      460,
      459,
      459,
      459,
      458,
      458,
      457,
      457,
      456,
      453,
      451,
      451,
      451,
      451,
      451,
      451,
      451,
      451,
      451,
      451,
      451,
      451,
      451,
      451,
      451,
      450,
      451,
      451,
      451,
      450,
      445,
      443,
      442,
      441,
      441,
      441,
      442,
      442,
      442,
      442,
      442,
      444,
      442,
      442,
      442,
      443,
      443,
      443,
      442,
      440,
      439,
      436,
      432,
      429,
      428,
      428,
      427,
      426,
      428,
      432,
      436,
      437,
      437,
      436,
      436,
      435,
      435,
      436,
      437,
      437,
      437,
      437,
      436,
      436,
      435,
      434,
      433,
      433,
      432,
      431,
      430,
      428,
      426,
      419,
      414,
      408,
      409,
      412,
      415,
      418,
      418,
      418,
      418,
      424,
      425,
      424,
      423,
      423,
      420,
      416,
      406,
      410,
      410,
      417,
      426,
      431,
      435,
      443,
      442,
      440,
      437,
      435,
      433,
      431,
      429,
      429,
      428,
      428,
      420,
      414,
      412,
      412,
      413,
      413,
      413,
      413,
      413,
      412,
      412,
      413,
      413,
      413,
      412,
      412,
      419,
      424,
      421,
      421,
      415,
      404,
      408,
      400,
      390,
      377,
      364,
      319,
      302,
      295,
      286,
      266,
      258,
      262,
      239,
      242,
      235,
      238,
      237,
      237,
      238,
      231,
      207,
      212,
      156,
      155
    ],
    "swim:timestamps": [
      1785670438,
      1785670454,
      1785670514,
      1785670574,
      1785670634,
      1785670755,
      1785670815,
      1785670875,
      1785670935,
      1785670995,
      1785671055,
      1785671175,
      1785671295,
      1785671355,
      1785671416,
      1785671443,
      1785671476,
      1785671503,
      1785671536,
      1785671563,
      1785671596,
      1785671656,
      1785671683,
      1785671716,
      1785671743,
      1785671776,
      1785671803,
      1785671836,
      1785671864,
      1785671905,
      1785671924,
      1785671965,
      1785671984,
      1785672025,
      1785672086,
      1785672104,
      1785672146,
      1785672164,
      1785672224,
      1785672266,
      1785672284,
      1785672326,
      1785672386,
      1785672404,
      1785672446,
      1785672464,
      1785672506,
      1785672524,
      1785672566,
      1785672584,
      1785672626,
      1785672644,
      1785672686,
      1785672704,
      1785672746,
      1785672764,
      1785672807,
      1785672824,
      1785672867,
      1785672884,
      1785672927,
      1785672944,
      1785672987,
      1785673005,
      1785673065,
      1785673125,
      1785673185,
      1785673245,
      1785673305,
      1785673365,
      1785673425,
      1785673545,
      1785673605,
      1785673665,
      1785673785,
      1785673845,
      1785673906,
      1785673966,
      1785674026,
      1785674086,
      1785674146,
      1785674206,
      1785674266,
      1785674326,
      1785674446,
      1785674506,
      1785674566,
      1785674626,
      1785674686,
      1785674692,
      1785674752,
      1785674807,
      1785674867,
      1785674927,
      1785674987,
      1785675047,
      1785675107,
      1785675232,
      1785675292,
      1785675352,
      1785675412,
      1785675532,
      1785675652,
      1785675772,
      1785675833,
      1785676013,
      1785676073,
      1785676133,
      1785676313,
      1785676373,
      1785676433,
      1785676493,
      1785676553,
      1785676613,
      1785676673,
      1785676733,
      1785676739,
      1785676794,
      1785676854,
      1785676914,
      1785676974,
      1785677034,
      1785677154,
      1785677214,
      1785677334,
      1785677394,
      1785677454,
      1785677514,
      1785677575,
      1785677635,
      1785677695,
      1785677755,
      1785677815,
      1785677875,
      1785677935,
      1785677995,
      1785678055,
      1785678115,
      1785678175,
      1785678241,
      1785678296,
      1785678356,
      1785678416,
      1785678476,
      1785678536,
      1785678656,
      1785678716,
      1785678776,
      1785678836,
      1785678962,
      1785679017,
      1785679082,
      1785679142,
      1785679202,
      1785679262,
      1785679322,
      1785679442,
      1785679502,
      1785679562,
      1785679622,
      1785679743,
      1785679803,
      1785679863,
      1785679923,
      1785680043,
      1785680103,
      1785680163,
      1785680223,
      1785680283,
      1785680343,
      1785680404,
      1785680464,
      1785680524,
      1785680584,
      1785680644,
      1785680764,
      1785680823,
      1785680883,
      1785680943,
      1785681063,
      1785681123,
      1785681183,
      1785681304,
      1785681364,
      1785681424,
      1785681484,
      1785681544,
      1785681604,
      1785681664,
      1785681725,
      1785681844,
      1785681906,
      1785681964,
      1785682024,
      1785682086,
      1785682144,
      1785682204,
      1785682266,
      1785682325,
      1785682385,
      1785682445,
      1785682565,
      1785682685,
      1785682745,
      1785682865,
      1785682925,
      1785682985,
      1785683045,
      1785683105,
      1785683165,
      1785683180,
      1785683216,
      1785683226,
      1785683286,
      1785683336,
      1785683346,
      1785683406,
      1785683466,
      1785683526,
      1785683576,
      1785683646,
      1785683706,
      1785683766,
      1785683822,
      1785683876,
      1785683936,
      1785683946,
      1785683991,
      1785684006,
      1785684051,
      1785684066,
      1785684111,
      1785684127,
      1785684187,
      1785684247,
      1785684297,
      1785684307,
      1785684367,
      1785684427
    ],
    "wof:geomhash": "b6f9aa436552bb634793174b3c2cbe03",
    "wof:id": 2032073213,
    "wof:repo": "sfomuseum-data-flights-2026-08"
  },
  "bbox": [
    -122.345,
    37.49444444444445,
    -87.88333333333334,
    42.15611111111111
  ],
  "geometry": {"coordinates":[[-87.88333333333334,42.06666666666667],[-87.89472222222223,42.06805555555556],[-87.97166666666666,42.11833333333333],[-88.06222222222222,42.15611111111111],[-88.17055555555557,42.143055555555556],[-88.40722222222223,42.058055555555555],[-88.54194444444444,42.00972222222222],[-88.6825,41.95888888888889],[-88.82638888888889,41.915],[-88.98388888888888,41.9075],[-89.14833333333334,41.90222222222222],[-89.48416666666667,41.87361111111111],[-89.8261111111111,41.83916666666667],[-89.98944444444444,41.82222222222222],[-90.15972222222223,41.80444444444444],[-90.26305555555555,41.79194444444444],[-90.33833333333332,41.78527777777778],[-90.43194444444445,41.77388888888889],[-90.50666666666666,41.76722222222222],[-90.60055555555554,41.755833333333335],[-90.66527777777779,41.749722222222225],[-90.83083333333333,41.731388888888894],[-90.93166666666667,41.719166666666666],[-90.99805555555555,41.712500000000006],[-91.10055555555554,41.69361111111111],[-91.16583333333334,41.678888888888885],[-91.26333333333334,41.655833333333334],[-91.33277777777778,41.641666666666666],[-91.42944444444444,41.61888888888889],[-91.49583333333334,41.60583333333334],[-91.59527777777777,41.58361111111111],[-91.69638888888889,41.5625],[-91.74777777777778,41.551111111111105],[-91.86027777777777,41.527499999999996],[-92.0275,41.50055555555556],[-92.08,41.49472222222222],[-92.19777777777779,41.4825],[-92.24722222222222,41.477222222222224],[-92.415,41.46027777777778],[-92.54777777777778,41.446666666666665],[-92.58555555555554,41.44277777777778],[-92.71555555555555,41.42916666666667],[-92.88583333333334,41.41111111111111],[-92.91944444444445,41.4075],[-93.05499999999999,41.39277777777778],[-93.08805555555556,41.38916666666667],[-93.22222222222223,41.37444444444444],[-93.25944444444444,41.37027777777778],[-93.39277777777778,41.355555555555554],[-93.4263888888889,41.35194444444445],[-93.56222222222222,41.33638888888889],[-93.59638888888888,41.3325],[-93.73055555555555,41.31666666666667],[-93.76527777777778,41.312777777777775],[-93.89861111111112,41.29722222222222],[-93.93222222222222,41.293055555555554],[-94.06777777777778,41.276944444444446],[-94.09833333333333,41.27333333333333],[-94.23138888888889,41.257222222222225],[-94.29277777777777,41.249722222222225],[-94.39861111111112,41.23694444444445],[-94.45611111111111,41.22972222222222],[-94.56194444444444,41.21666666666667],[-94.62166666666666,41.20916666666667],[-94.78416666666666,41.18888888888888],[-94.95055555555555,41.16777777777777],[-95.11638888888888,41.146388888888886],[-95.28277777777778,41.124722222222225],[-95.44944444444445,41.10277777777778],[-95.61527777777778,41.080555555555556],[-95.78388888888888,41.05777777777777],[-96.08444444444444,41.016666666666666],[-96.25222222222222,40.99333333333333],[-96.42111111111112,40.969722222222224],[-96.75277777777778,40.92222222222222],[-96.92027777777778,40.906666666666666],[-97.08888888888889,40.89138888888889],[-97.255,40.875],[-97.42222222222223,40.85805555555556],[-97.58722222222222,40.84166666666667],[-97.75527777777778,40.824444444444445],[-97.92027777777778,40.80722222222222],[-98.085,40.79],[-98.24916666666667,40.772777777777776],[-98.57777777777777,40.73694444444445],[-98.74027777777778,40.71888888888889],[-98.90333333333334,40.700833333333335],[-99.06555555555555,40.68222222222222],[-99.22944444444444,40.663333333333334],[-99.255,40.660555555555554],[-99.41694444444445,40.641666666666666],[-99.55361111111111,40.625277777777775],[-99.71611111111112,40.60583333333334],[-99.8775,40.58638888888889],[-100.04027777777777,40.56638888888889],[-100.2125,40.544999999999995],[-100.36583333333333,40.52583333333333],[-100.7238888888889,40.480000000000004],[-100.88777777777779,40.45888888888889],[-101.04916666666666,40.44166666666666],[-101.21444444444445,40.426944444444445],[-101.53972222222222,40.39472222222222],[-101.86722222222221,40.36194444444445],[-102.19111111111111,40.32833333333333],[-102.35138888888888,40.31166666666666],[-102.8261111111111,40.26],[-102.98388888888888,40.2425],[-103.14333333333335,40.224722222222226],[-103.615,40.17027777777778],[-103.7725,40.151666666666664],[-103.93222222222222,40.1325],[-104.0886111111111,40.11361111111111],[-104.2461111111111,40.094166666666666],[-104.40361111111112,40.07472222222223],[-104.56166666666667,40.05472222222222],[-104.71777777777778,40.035],[-104.73333333333333,40.033055555555556],[-104.87388888888889,40.015],[-105.02888888888889,39.995],[-105.18722222222223,39.97416666666667],[-105.34416666666667,39.95333333333333],[-105.50111111111111,39.93222222222222],[-105.81444444444445,39.88972222222222],[-105.97055555555556,39.86805555555556],[-106.28222222222222,39.82416666666667],[-106.43666666666667,39.80222222222222],[-106.58916666666666,39.78111111111111],[-106.77166666666666,39.76277777777778],[-106.9225,39.74611111111111],[-107.07333333333332,39.72888888888889],[-107.22416666666666,39.71194444444445],[-107.37444444444444,39.69472222222222],[-107.52555555555556,39.67722222222222],[-107.67805555555556,39.659444444444446],[-107.83333333333333,39.64083333333333],[-107.99111111111111,39.621944444444445],[-108.14888888888889,39.60277777777778],[-108.30583333333333,39.58361111111111],[-108.45972222222223,39.56444444444444],[-108.61388888888888,39.544999999999995],[-108.73805555555556,39.529444444444444],[-108.89777777777779,39.50888888888889],[-109.05277777777778,39.48888888888889],[-109.20916666666668,39.468333333333334],[-109.36444444444444,39.44777777777777],[-109.67277777777778,39.40611111111111],[-109.8286111111111,39.385],[-109.98138888888889,39.36388888888889],[-110.13361111111112,39.343611111111116],[-110.47305555555556,39.2975],[-110.59527777777777,39.28055555555555],[-110.77777777777777,39.255],[-110.93055555555556,39.23361111111111],[-111.08277777777778,39.21194444444445],[-111.2325,39.190555555555555],[-111.39222222222223,39.16722222222222],[-111.69055555555556,39.123333333333335],[-111.83888888888889,39.10111111111111],[-111.98305555555555,39.07944444444445],[-112.12833333333333,39.0575],[-112.41111111111111,39.013888888888886],[-112.55527777777777,38.99138888888889],[-112.69805555555556,38.96888888888889],[-112.8461111111111,38.94555555555555],[-113.13833333333334,38.89861111111111],[-113.28194444444445,38.875277777777775],[-113.42833333333334,38.85138888888889],[-113.57444444444444,38.845555555555556],[-113.69638888888889,38.90972222222222],[-113.80333333333333,38.994166666666665],[-113.91055555555556,39.0775],[-114.01638888888888,39.16027777777778],[-114.12444444444444,39.244166666666665],[-114.24194444444444,39.31638888888889],[-114.37444444444444,39.36527777777778],[-114.6463888888889,39.32027777777778],[-114.78222222222222,39.274166666666666],[-114.91555555555556,39.22944444444445],[-115.05499999999999,39.1825],[-115.335,39.086666666666666],[-115.47833333333334,39.03916666666667],[-115.62277777777777,38.99166666666667],[-115.92361111111111,38.89138888888889],[-116.05777777777777,38.84666666666667],[-116.18444444444445,38.80416666666667],[-116.32666666666667,38.75611111111111],[-116.46777777777778,38.708333333333336],[-116.60749999999999,38.660555555555554],[-116.74583333333334,38.61333333333334],[-116.91055555555556,38.55638888888888],[-117.18805555555556,38.46027777777778],[-117.325,38.41222222222222],[-117.46305555555556,38.36388888888889],[-117.5961111111111,38.316944444444445],[-117.72555555555556,38.27111111111111],[-117.8586111111111,38.223888888888894],[-117.99194444444444,38.17611111111111],[-118.1236111111111,38.12888888888889],[-118.25694444444444,38.08083333333334],[-118.38861111111112,38.033055555555556],[-118.52194444444444,37.98444444444444],[-118.78666666666666,37.89416666666666],[-119.05972222222222,37.86222222222222],[-119.20277777777778,37.845555555555556],[-119.49,37.81166666666666],[-119.63388888888889,37.794444444444444],[-119.7775,37.776944444444446],[-119.92111111111112,37.75944444444445],[-120.06277777777777,37.74194444444444],[-120.20916666666668,37.723888888888894],[-120.26666666666667,37.71666666666667],[-120.35,37.7],[-120.35499999999999,37.705555555555556],[-120.50027777777778,37.687777777777775],[-120.63333333333334,37.666666666666664],[-120.64166666666668,37.67166666666667],[-120.78083333333333,37.655],[-120.91583333333334,37.63861111111111],[-121.04666666666667,37.621944444444445],[-121.16666666666667,37.6],[-121.28972222222222,37.58916666666667],[-121.39472222222223,37.5775],[-121.49472222222222,37.566111111111105],[-121.6,37.55],[-121.68333333333334,37.53333333333333],[-121.76666666666667,37.516666666666666],[-121.77666666666667,37.51444444444444],[-121.85,37.5],[-121.85888888888888,37.49472222222222],[-121.93333333333334,37.5],[-121.94027777777778,37.49444444444445],[-122.01666666666667,37.5],[-122.02166666666666,37.49916666666667],[-122.10583333333332,37.507777777777775],[-122.17750000000001,37.53777777777778],[-122.23333333333333,37.56666666666667],[-122.24444444444444,37.56722222222223],[-122.29722222222222,37.588055555555556],[-122.345,37.608333333333334]],"type":"LineString"}
}
