{
  "id": 2032061503,
  "type": "Feature",
  "properties": {
    "geom:area": 0,
    "geom:bbox": "-122.548333,33.950000,-118.166667,37.668333",
    "geom:latitude": 35.69724678950544,
    "geom:longitude": -120.35293976580236,
    "src:alt_label": "swim-path",
    "src:geom": "swim",
    "swim:altitudes": [
      "004",
      "038",
      "048",
      "066",
      "088",
      "105",
      "134",
      "154",
      "173",
      "190",
      "208",
      "228",
      "266",
      "276",
      "287",
      "300",
      "310C",
      "310C",
      "310C",
      "310C",
      "310C",
      "310",
      "310",
      "310",
      "310",
      "306",
      "296",
      "256",
      "231",
      "210",
      "189",
      "173",
      "169",
      "154",
      "149",
      "135",
      "123",
      "111",
      "107",
      "098",
      "084",
      "076",
      "062",
      "058",
      "048",
      "047",
      "039",
      "037",
      "030",
      "030",
      "025",
      "016",
      "015",
      "009",
      "008",
      "002"
    ],
    "swim:geom": "path",
    "swim:speeds": [
      167,
      201,
      267,
      288,
      291,
      307,
      378,
      391,
      396,
      406,
      424,
      430,
      452,
      462,
      480,
      479,
      476,
      476,
      477,
      477,
      478,
      478,
      470,
      467,
      465,
      463,
      464,
      429,
      405,
      394,
      385,
      381,
      375,
      373,
      367,
      366,
      320,
      320,
      314,
      296,
      294,
      269,
      255,
      247,
      242,
      227,
      207,
      199,
      195,
      185,
      187,
      158,
      154,
      154,
      147,
      148
    ],
    "swim:timestamps": [
      1785637004,
      1785637124,
      1785637185,
      1785637245,
      1785637305,
      1785637365,
      1785637485,
      1785637545,
      1785637603,
      1785637663,
      1785637723,
      1785637783,
      1785637963,
      1785638023,
      1785638084,
      1785638144,
      1785638204,
      1785638264,
      1785638324,
      1785638384,
      1785638564,
      1785638684,
      1785638744,
      1785638805,
      1785638865,
      1785638925,
      1785638985,
      1785639105,
      1785639173,
      1785639233,
      1785639293,
      1785639345,
      1785639353,
      1785639405,
      1785639413,
      1785639466,
      1785639533,
      1785639586,
      1785639593,
      1785639646,
      1785639706,
      1785639766,
      1785639826,
      1785639834,
      1785639886,
      1785639893,
      1785639946,
      1785639953,
      1785640013,
      1785640073,
      1785640126,
      1785640187,
      1785640193,
      1785640247,
      1785640255,
      1785640307
    ],
    "wof:geomhash": "3111e9ec149a51021a86a039155e18e1",
    "wof:id": 2032061503,
    "wof:repo": "sfomuseum-data-flights-2026-08"
  },
  "bbox": [
    -122.54833333333333,
    33.95,
    -118.16666666666667,
    37.66833333333333
  ],
  "geometry": {"coordinates":[[-122.38805555555557,37.62638888888889],[-122.50666666666666,37.66833333333333],[-122.54833333333333,37.619166666666665],[-122.50666666666666,37.54611111111111],[-122.4588888888889,37.475],[-122.38222222222221,37.41777777777777],[-122.1975,37.2825],[-122.09722222222221,37.20861111111111],[-122.00722222222223,37.13305555555556],[-121.90444444444445,37.05361111111111],[-121.8,36.967222222222226],[-121.69666666666667,36.88],[-121.37249999999999,36.61194444444445],[-121.26,36.51861111111111],[-121.14083333333333,36.4225],[-121.0275,36.32694444444445],[-120.91583333333334,36.2325],[-120.8025,36.135555555555555],[-120.68972222222223,36.03916666666667],[-120.5775,35.94333333333333],[-120.23916666666666,35.651111111111106],[-120.0125,35.45388888888889],[-119.90194444444445,35.356944444444444],[-119.79638888888888,35.259166666666665],[-119.70138888888889,35.1575],[-119.60527777777777,35.05416666666667],[-119.50888888888889,34.95055555555556],[-119.3261111111111,34.74666666666667],[-119.23333333333333,34.63333333333333],[-119.15,34.55],[-119.06666666666666,34.45],[-119.01694444444445,34.39333333333333],[-119,34.36666666666667],[-118.94388888888889,34.30972222222222],[-118.91666666666667,34.28333333333333],[-118.86999999999999,34.22916666666667],[-118.78333333333333,34.13333333333333],[-118.7286111111111,34.089444444444446],[-118.71666666666667,34.06666666666667],[-118.65666666666667,34.03055555555555],[-118.55916666666667,34.01972222222222],[-118.46722222222222,34.01111111111111],[-118.38305555555554,34.022777777777776],[-118.36666666666666,34.03333333333333],[-118.30194444444444,34.032777777777774],[-118.28333333333333,34.03333333333333],[-118.23027777777779,34.040277777777774],[-118.21666666666667,34.05],[-118.16666666666667,34.016666666666666],[-118.2,33.983333333333334],[-118.24583333333334,33.96805555555556],[-118.30222222222221,33.96222222222222],[-118.31666666666666,33.96666666666667],[-118.35194444444444,33.95722222222223],[-118.36666666666666,33.95],[-118.39972222222222,33.952222222222225]],"type":"LineString"}
}
