{
  "id": 2032130863,
  "type": "Feature",
  "properties": {
    "geom:area": 0,
    "geom:bbox": "-123.462310,37.019670,-122.136690,37.610480",
    "geom:latitude": 37.22931884600364,
    "geom:longitude": -122.6467480153321,
    "src:alt_label": "swim-approach",
    "src:geom": "swim",
    "swim:elevations": [
      6248,
      6169,
      5743,
      5445,
      5220,
      4995,
      4867,
      4362,
      4232,
      3939,
      3811,
      3791,
      3777,
      3655,
      3656,
      3596,
      3533,
      3231,
      3116,
      3069,
      3053,
      3048,
      3048,
      3048,
      3048,
      3078,
      3050,
      3049,
      3048,
      2985,
      2801,
      2515,
      2469,
      2184,
      2015,
      2003,
      1985,
      1942,
      1828,
      1829,
      1829,
      1819,
      1736,
      1612,
      1553,
      1438,
      1333,
      1220,
      1121,
      956,
      912,
      730,
      686,
      525,
      358,
      308,
      114,
      47
    ],
    "swim:geom": "approach",
    "swim:timestamps": [
      1786054467,
      1786054473,
      1786054515,
      1786054544,
      1786054567,
      1786054586,
      1786054598,
      1786054646,
      1786054657,
      1786054688,
      1786054731,
      1786054740,
      1786054744,
      1786054797,
      1786054800,
      1786054822,
      1786054836,
      1786054884,
      1786054903,
      1786054915,
      1786054920,
      1786054964,
      1786054985,
      1786055036,
      1786055048,
      1786055064,
      1786055085,
      1786055118,
      1786055129,
      1786055141,
      1786055173,
      1786055218,
      1786055225,
      1786055274,
      1786055306,
      1786055311,
      1786055314,
      1786055320,
      1786055361,
      1786055370,
      1786055421,
      1786055440,
      1786055453,
      1786055474,
      1786055486,
      1786055512,
      1786055538,
      1786055568,
      1786055596,
      1786055639,
      1786055648,
      1786055694,
      1786055703,
      1786055744,
      1786055782,
      1786055794,
      1786055846,
      1786055864
    ],
    "wof:geomhash": "902cba23c8c5baeba00ce96f45e6ca7d",
    "wof:id": 2032130863,
    "wof:repo": "sfomuseum-data-flights-2026-08"
  },
  "bbox": [
    -123.46231,
    37.01967,
    -122.13669,
    37.61048
  ],
  "geometry": {"type":"LineString","coordinates":[[-123.46231,37.01967],[-123.44912,37.0247],[-123.36424,37.05985],[-123.3052,37.08345],[-123.26012,37.10152],[-123.22059,37.11712],[-123.19633,37.12669],[-123.10244,37.16337],[-123.07957,37.17244],[-123.01649,37.19028],[-122.93648,37.17165],[-122.92116,37.16707],[-122.91429,37.165],[-122.83072,37.13986],[-122.82628,37.13856],[-122.79461,37.12915],[-122.77567,37.12361],[-122.70919,37.10402],[-122.68111,37.10043],[-122.66379,37.10017],[-122.65632,37.10006],[-122.59185,37.09919],[-122.5608,37.09875],[-122.4855,37.10203],[-122.46732,37.10419],[-122.44334,37.10705],[-122.41326,37.11064],[-122.36393,37.11648],[-122.34739,37.11838],[-122.32934,37.12045],[-122.28728,37.13633],[-122.29173,37.18496],[-122.29753,37.19162],[-122.33855,37.23831],[-122.36213,37.27039],[-122.36398,37.27578],[-122.36514,37.27907],[-122.36732,37.28572],[-122.36892,37.33137],[-122.36346,37.34145],[-122.30189,37.36956],[-122.28016,37.38282],[-122.26465,37.39217],[-122.24029,37.40686],[-122.22653,37.41516],[-122.19761,37.43242],[-122.16959,37.44903],[-122.14895,37.47365],[-122.13669,37.49756],[-122.16143,37.52814],[-122.16958,37.53227],[-122.2118,37.55014],[-122.22074,37.55381],[-122.25732,37.56926],[-122.2906,37.5833],[-122.30116,37.58774],[-122.34208,37.60489],[-122.35533,37.61048]]}
}
