{
  "id": 2032121337,
  "type": "Feature",
  "properties": {
    "geom:area": 0,
    "geom:bbox": "-122.605833,34.423611,-119.863889,37.663333",
    "geom:latitude": 35.98534733260482,
    "geom:longitude": -121.44114912083708,
    "src:alt_label": "swim-path",
    "src:geom": "swim",
    "swim:altitudes": [
      "013",
      "032",
      "040",
      "063",
      "089",
      "108",
      "123",
      "123",
      "142",
      "159",
      "159",
      "180",
      "180",
      "196",
      "196",
      "211",
      "226",
      "228",
      "242",
      "258",
      "262",
      "270C",
      "270C",
      "270C",
      "270C",
      "270C",
      "270C",
      "269C",
      "270",
      "260",
      "251",
      "243",
      "241C",
      "240C",
      "240C",
      "240C",
      "234",
      "228",
      "211",
      "189",
      "189",
      "167",
      "144",
      "123",
      "113",
      "105",
      "100",
      "090",
      "090",
      "078",
      "072",
      "069",
      "065",
      "060",
      "056",
      "053",
      "051",
      "036",
      "026",
      "023",
      "016",
      "014",
      "009",
      "006",
      "002"
    ],
    "swim:geom": "path",
    "swim:speeds": [
      148,
      160,
      236,
      277,
      278,
      297,
      316,
      350,
      367,
      382,
      385,
      391,
      391,
      400,
      401,
      413,
      418,
      421,
      423,
      422,
      423,
      424,
      424,
      436,
      452,
      453,
      452,
      452,
      453,
      428,
      417,
      413,
      412,
      411,
      414,
      410,
      409,
      408,
      395,
      381,
      379,
      353,
      342,
      335,
      336,
      310,
      303,
      293,
      293,
      291,
      293,
      285,
      259,
      253,
      240,
      230,
      208,
      201,
      188,
      190,
      176,
      169,
      137,
      140,
      138
    ],
    "swim:timestamps": [
      1785952289,
      1785952349,
      1785952409,
      1785952469,
      1785952529,
      1785952583,
      1785952643,
      1785952649,
      1785952709,
      1785952763,
      1785952770,
      1785952823,
      1785952830,
      1785952883,
      1785952890,
      1785952943,
      1785953003,
      1785953010,
      1785953064,
      1785953124,
      1785953130,
      1785953190,
      1785953244,
      1785953250,
      1785953304,
      1785953310,
      1785953424,
      1785953431,
      1785953544,
      1785953611,
      1785953671,
      1785953724,
      1785953731,
      1785953785,
      1785953851,
      1785953911,
      1785953965,
      1785953971,
      1785954025,
      1785954085,
      1785954091,
      1785954152,
      1785954205,
      1785954244,
      1785954272,
      1785954304,
      1785954332,
      1785954370,
      1785954385,
      1785954446,
      1785954479,
      1785954506,
      1785954539,
      1785954572,
      1785954599,
      1785954626,
      1785954692,
      1785954746,
      1785954785,
      1785954806,
      1785954845,
      1785954866,
      1785954905,
      1785954926,
      1785954959
    ],
    "wof:geomhash": "03626e9bdae8391b2be6a461134465b9",
    "wof:id": 2032121337,
    "wof:repo": "sfomuseum-data-flights-2026-08"
  },
  "bbox": [
    -122.60583333333332,
    34.42361111111111,
    -119.86388888888888,
    37.663333333333334
  ],
  "geometry": {"type":"LineString","coordinates":[[-122.39861111111112,37.62861111111111],[-122.44861111111112,37.65],[-122.5175,37.663333333333334],[-122.59944444444444,37.62722222222222],[-122.60583333333332,37.55138888888889],[-122.60222222222221,37.473055555555554],[-122.5925,37.38],[-122.59194444444444,37.37361111111111],[-122.58416666666666,37.27194444444444],[-122.57638888888889,37.17222222222222],[-122.5761111111111,37.16638888888889],[-122.56222222222222,37.06166666666666],[-122.56,37.056666666666665],[-122.48,36.973333333333336],[-122.47527777777778,36.968611111111116],[-122.3888888888889,36.88361111111111],[-122.29722222222222,36.793055555555554],[-122.27361111111111,36.769999999999996],[-122.20361111111112,36.70055555555556],[-122.1125,36.61],[-122.08972222222222,36.587500000000006],[-121.99777777777778,36.49583333333334],[-121.92972222222222,36.42805555555555],[-121.905,36.403055555555554],[-121.83111111111111,36.32916666666667],[-121.80666666666666,36.30472222222222],[-121.63611111111112,36.13305555555556],[-121.61305555555555,36.109722222222224],[-121.44194444444445,35.936388888888885],[-121.32722222222222,35.819722222222225],[-121.23833333333333,35.728611111111114],[-121.17083333333333,35.65972222222222],[-121.15194444444445,35.64],[-121.08444444444444,35.571111111111115],[-120.97694444444444,35.46],[-120.89305555555556,35.373333333333335],[-120.82638888888889,35.30416666666667],[-120.80722222222222,35.284166666666664],[-120.72805555555556,35.20166666666667],[-120.64750000000001,35.11805555555556],[-120.64611111111111,35.11666666666667],[-120.57277777777777,35.04],[-120.50333333333333,34.9675],[-120.45694444444445,34.91694444444444],[-120.43138888888889,34.89194444444444],[-120.38972222222223,34.848333333333336],[-120.36722222222221,34.82472222222223],[-120.32138888888889,34.775277777777774],[-120.30888888888889,34.7625],[-120.24805555555555,34.69833333333333],[-120.21388888888889,34.66138888888889],[-120.18972222222223,34.63638888888889],[-120.15722222222223,34.60138888888889],[-120.12944444444443,34.572500000000005],[-120.10694444444444,34.54722222222222],[-120.0911111111111,34.525],[-120.08944444444444,34.45861111111111],[-120.06222222222222,34.424166666666665],[-120.01611111111112,34.42361111111111],[-119.99861111111112,34.42444444444444],[-119.95555555555556,34.425555555555555],[-119.94,34.425555555555555],[-119.90611111111112,34.42527777777777],[-119.89305555555556,34.42666666666666],[-119.86388888888888,34.42666666666666]]}
}
