{
  "id": 2032088801,
  "type": "Feature",
  "properties": {
    "geom:area": 0,
    "geom:bbox": "-121.897222,37.995833,-75.247500,42.616111",
    "geom:latitude": 41.303824725317064,
    "geom:longitude": -98.7508312677985,
    "src:alt_label": "swim-path",
    "src:geom": "swim",
    "swim:altitudes": [
      "149",
      "170",
      "187",
      "204",
      "220",
      "262",
      "278",
      "313",
      "329",
      "331",
      "342",
      "343",
      "352",
      "353",
      "364",
      "372",
      "374",
      "381",
      "385",
      "389C",
      "390C",
      "390C",
      "390C",
      "390C",
      "390C",
      "390C",
      "390C",
      "390C",
      "390C",
      "390C",
      "390C",
      "390C",
      "390C",
      "390C",
      "390C",
      "390C",
      "390C",
      "390C",
      "390C",
      "390C",
      "390C",
      "390C",
      "390C",
      "390C",
      "390C",
      "390C",
      "390C",
      "390C",
      "390C",
      "390C",
      "390C",
      "390C",
      "390C",
      "390C",
      "390C",
      "390C",
      "390C",
      "390C",
      "390C",
      "390C",
      "390C",
      "390C",
      "390C",
      "390C",
      "390C",
      "390C",
      "390C",
      "390C",
      "390C",
      "390C",
      "390C",
      "390C",
      "390C",
      "390C",
      "390C",
      "390C",
      "391C",
      "390C",
      "390C",
      "390C",
      "390C",
      "390C",
      "390C",
      "390C",
      "390C",
      "390C",
      "391C",
      "391C",
      "391C",
      "390C",
      "390C",
      "390C",
      "390C",
      "390C",
      "390C",
      "390C",
      "390C",
      "390C",
      "390C",
      "390C",
      "390C",
      "390C",
      "390C",
      "390C",
      "390C",
      "390C",
      "390C",
      "390C",
      "390C",
      "390C",
      "390C",
      "390C",
      "390C",
      "390C",
      "390C",
      "390C",
      "390C",
      "390C",
      "391C",
      "390C",
      "390C",
      "390C",
      "390C",
      "390C",
      "390C",
      "390C",
      "390C",
      "390C",
      "390C",
      "390C",
      "390C",
      "390C",
      "390C",
      "390C",
      "390C",
      "390C",
      "390C",
      "390C",
      "390C",
      "390C",
      "390C",
      "390C",
      "390C",
      "390C",
      "390C",
      "390C",
      "390C",
      "390C",
      "390C",
      "390C",
      "390C",
      "390C",
      "390C",
      "390C",
      "390C",
      "390C",
      "390C",
      "391C",
      "390C",
      "390C",
      "390C",
      "391C",
      "390C",
      "390C",
      "390C",
      "390C",
      "390C",
      "390C",
      "390C",
      "390C",
      "390C",
      "390C",
      "390C",
      "390C",
      "390C",
      "390C",
      "390C",
      "390C",
      "390C",
      "390C",
      "390C",
      "390C",
      "390C",
      "390C",
      "390C",
      "390C",
      "390C",
      "390C",
      "390C",
      "390C",
      "390C",
      "390C",
      "390C",
      "390C",
      "390C",
      "390C",
      "390C",
      "390C",
      "390C",
      "390C",
      "390C",
      "390C",
      "390C",
      "390C",
      "390C",
      "390C",
      "390C",
      "390C",
      "390C",
      "390C",
      "390C",
      "390C",
      "390C",
      "390C",
      "390C",
      "390C",
      "390C",
      "390C",
      "390C",
      "390C",
      "390C",
      "390C",
      "390C",
      "390C",
      "390C",
      "390C",
      "390C",
      "390C",
      "390C",
      "390C",
      "390C",
      "390C",
      "390C",
      "390C",
      "390C",
      "390C",
      "390C",
      "390C",
      "390C",
      "390C",
      "390C",
      "390C",
      "390C",
      "390C",
      "390C",
      "390C",
      "390C",
      "390C",
      "390C",
      "390C",
      "390C",
      "390C",
      "390C",
      "390C",
      "390C",
      "390C",
      "390C",
      "390C",
      "390C",
      "390C",
      "390C",
      "390C",
      "389",
      "388",
      "379",
      "370C",
      "370C",
      "370C",
      "371C",
      "371C",
      "370C",
      "370C",
      "370C",
      "370C",
      "370C",
      "370C",
      "370C",
      "370C",
      "370",
      "360",
      "345",
      "330",
      "323",
      "315",
      "307",
      "299",
      "290C",
      "290C",
      "290C",
      "290C",
      "290C",
      "290C",
      "290C",
      "290C",
      "288",
      "278",
      "268",
      "258",
      "247",
      "237",
      "227",
      "217",
      "207",
      "197",
      "187",
      "166",
      "144",
      "140",
      "123",
      "105",
      "103",
      "093",
      "090",
      "082C",
      "080",
      "068",
      "051",
      "047",
      "040",
      "040",
      "033",
      "018",
      "012",
      "007",
      "006",
      "80"
    ],
    "swim:geom": "path",
    "swim:speeds": [
      424,
      435,
      444,
      456,
      468,
      501,
      503,
      503,
      498,
      502,
      497,
      497,
      497,
      497,
      498,
      499,
      498,
      499,
      499,
      497,
      496,
      495,
      497,
      495,
      502,
      497,
      499,
      496,
      496,
      496,
      497,
      501,
      501,
      502,
      502,
      503,
      503,
      503,
      503,
      503,
      503,
      503,
      503,
      503,
      504,
      504,
      504,
      505,
      505,
      505,
      506,
      506,
      505,
      506,
      507,
      507,
      508,
      509,
      509,
      508,
      506,
      504,
      505,
      507,
      510,
      511,
      512,
      511,
      509,
      509,
      509,
      509,
      509,
      511,
      513,
      514,
      515,
      514,
      514,
      516,
      516,
      517,
      518,
      519,
      524,
      524,
      526,
      525,
      525,
      522,
      520,
      520,
      519,
      518,
      516,
      516,
      515,
      515,
      514,
      516,
      516,
      520,
      520,
      521,
      522,
      521,
      520,
      520,
      520,
      519,
      519,
      518,
      518,
      515,
      513,
      513,
      513,
      514,
      515,
      516,
      515,
      515,
      516,
      518,
      520,
      519,
      518,
      507,
      510,
      510,
      510,
      515,
      509,
      507,
      508,
      507,
      508,
      507,
      509,
      510,
      513,
      514,
      508,
      508,
      507,
      507,
      507,
      506,
      506,
      508,
      512,
      513,
      513,
      513,
      514,
      514,
      514,
      514,
      511,
      509,
      509,
      508,
      506,
      502,
      500,
      499,
      499,
      500,
      500,
      499,
      499,
      500,
      497,
      499,
      498,
      497,
      497,
      496,
      496,
      495,
      494,
      494,
      494,
      493,
      493,
      493,
      494,
      494,
      494,
      494,
      494,
      494,
      494,
      494,
      494,
      493,
      493,
      493,
      491,
      491,
      490,
      489,
      488,
      488,
      488,
      488,
      488,
      489,
      489,
      490,
      490,
      491,
      490,
      489,
      488,
      487,
      487,
      487,
      487,
      485,
      484,
      483,
      482,
      482,
      480,
      479,
      477,
      476,
      476,
      476,
      475,
      475,
      474,
      473,
      474,
      474,
      475,
      477,
      476,
      476,
      477,
      477,
      477,
      476,
      476,
      474,
      473,
      473,
      473,
      473,
      473,
      473,
      473,
      472,
      471,
      471,
      468,
      468,
      468,
      468,
      467,
      467,
      465,
      461,
      432,
      430,
      434,
      433,
      435,
      436,
      435,
      435,
      435,
      437,
      442,
      442,
      442,
      445,
      446,
      447,
      446,
      450,
      461,
      465,
      471,
      473,
      477,
      478,
      481,
      484,
      484,
      484,
      484,
      484,
      484,
      461,
      452,
      448,
      438,
      429,
      425,
      420,
      415,
      402,
      400,
      390,
      374,
      367,
      360,
      335,
      319,
      312,
      306,
      292,
      287,
      288,
      276,
      274,
      246,
      223,
      203,
      145,
      112,
      112,
      114,
      115
    ],
    "swim:timestamps": [
      1785803885,
      1785803945,
      1785804005,
      1785804065,
      1785804125,
      1785804306,
      1785804366,
      1785804498,
      1785804546,
      1785804558,
      1785804606,
      1785804619,
      1785804666,
      1785804679,
      1785804739,
      1785804786,
      1785804799,
      1785804846,
      1785804859,
      1785804906,
      1785804966,
      1785804979,
      1785805027,
      1785805039,
      1785805099,
      1785805147,
      1785805159,
      1785805219,
      1785805279,
      1785805327,
      1785805340,
      1785805387,
      1785805400,
      1785805447,
      1785805460,
      1785805567,
      1785805580,
      1785805640,
      1785805687,
      1785805700,
      1785805747,
      1785805760,
      1785805807,
      1785805820,
      1785805868,
      1785805928,
      1785805940,
      1785805988,
      1785806000,
      1785806048,
      1785806061,
      1785806108,
      1785806181,
      1785806241,
      1785806301,
      1785806361,
      1785806421,
      1785806481,
      1785806541,
      1785806661,
      1785806721,
      1785806842,
      1785806902,
      1785806962,
      1785807022,
      1785807082,
      1785807142,
      1785807262,
      1785807322,
      1785807382,
      1785807442,
      1785807502,
      1785807563,
      1785807743,
      1785807803,
      1785807863,
      1785807923,
      1785807983,
      1785808043,
      1785808109,
      1785808170,
      1785808223,
      1785808230,
      1785808290,
      1785808344,
      1785808350,
      1785808404,
      1785808410,
      1785808470,
      1785808584,
      1785808644,
      1785808710,
      1785808770,
      1785808830,
      1785808884,
      1785808891,
      1785808944,
      1785808951,
      1785809011,
      1785809065,
      1785809071,
      1785809125,
      1785809131,
      1785809191,
      1785809245,
      1785809311,
      1785809365,
      1785809371,
      1785809431,
      1785809491,
      1785809612,
      1785809672,
      1785809732,
      1785809792,
      1785809852,
      1785809912,
      1785809972,
      1785810032,
      1785810092,
      1785810212,
      1785810333,
      1785810393,
      1785810453,
      1785810513,
      1785810573,
      1785810633,
      1785810693,
      1785810851,
      1785810933,
      1785810971,
      1785810994,
      1785811031,
      1785811054,
      1785811091,
      1785811114,
      1785811151,
      1785811174,
      1785811211,
      1785811234,
      1785811271,
      1785811332,
      1785811354,
      1785811392,
      1785811414,
      1785811452,
      1785811474,
      1785811512,
      1785811534,
      1785811572,
      1785811594,
      1785811632,
      1785811654,
      1785811692,
      1785811715,
      1785811752,
      1785811812,
      1785811932,
      1785811992,
      1785812052,
      1785812112,
      1785812172,
      1785812293,
      1785812353,
      1785812473,
      1785812593,
      1785812653,
      1785812713,
      1785812773,
      1785812833,
      1785812893,
      1785812953,
      1785813013,
      1785813028,
      1785813073,
      1785813134,
      1785813149,
      1785813194,
      1785813209,
      1785813254,
      1785813269,
      1785813314,
      1785813329,
      1785813374,
      1785813389,
      1785813449,
      1785813509,
      1785813554,
      1785813569,
      1785813629,
      1785813674,
      1785813689,
      1785813734,
      1785813749,
      1785813794,
      1785813810,
      1785813854,
      1785813870,
      1785813914,
      1785813974,
      1785813990,
      1785814034,
      1785814050,
      1785814095,
      1785814155,
      1785814170,
      1785814215,
      1785814230,
      1785814275,
      1785814335,
      1785814395,
      1785814411,
      1785814471,
      1785814531,
      1785814591,
      1785814651,
      1785814711,
      1785814771,
      1785814831,
      1785814891,
      1785814951,
      1785815008,
      1785815129,
      1785815189,
      1785815249,
      1785815309,
      1785815369,
      1785815429,
      1785815489,
      1785815549,
      1785815568,
      1785815610,
      1785815628,
      1785815670,
      1785815688,
      1785815730,
      1785815748,
      1785815790,
      1785815808,
      1785815850,
      1785815910,
      1785815928,
      1785815970,
      1785815988,
      1785816030,
      1785816048,
      1785816108,
      1785816151,
      1785816168,
      1785816211,
      1785816229,
      1785816271,
      1785816289,
      1785816331,
      1785816349,
      1785816391,
      1785816409,
      1785816512,
      1785816526,
      1785816570,
      1785816586,
      1785816630,
      1785816647,
      1785816690,
      1785816707,
      1785816750,
      1785816827,
      1785816887,
      1785817007,
      1785817067,
      1785817127,
      1785817187,
      1785817248,
      1785817308,
      1785817368,
      1785817426,
      1785817486,
      1785817546,
      1785817606,
      1785817666,
      1785817726,
      1785817786,
      1785817847,
      1785817908,
      1785817966,
      1785818027,
      1785818087,
      1785818206,
      1785818266,
      1785818327,
      1785818387,
      1785818447,
      1785818507,
      1785818627,
      1785818747,
      1785818807,
      1785818867,
      1785818927,
      1785818987,
      1785819047,
      1785819107,
      1785819167,
      1785819227,
      1785819287,
      1785819347,
      1785819407,
      1785819467,
      1785819527,
      1785819536,
      1785819587,
      1785819647,
      1785819664,
      1785819707,
      1785819718,
      1785819767,
      1785819778,
      1785819838,
      1785819888,
      1785819896,
      1785819948,
      1785820008,
      1785820068,
      1785820188,
      1785820241,
      1785820293,
      1785820308,
      1785820368
    ],
    "wof:geomhash": "2cf9680058914aaad63d58ef641bf4da",
    "wof:id": 2032088801,
    "wof:repo": "sfomuseum-data-flights-2026-08"
  },
  "bbox": [
    -121.89722222222223,
    37.99583333333334,
    -75.2475,
    42.61611111111111
  ],
  "geometry": {"type":"LineString","coordinates":[[-121.89722222222223,37.99583333333334],[-121.77888888888889,38.07555555555556],[-121.68,38.14222222222222],[-121.55555555555556,38.22555555555556],[-121.43055555555556,38.30916666666666],[-121.0025,38.57555555555556],[-120.8611111111111,38.66222222222222],[-120.56194444444444,38.842222222222226],[-120.44222222222223,38.91694444444444],[-120.42194444444445,38.92777777777778],[-120.30194444444444,39.00138888888889],[-120.28222222222222,39.01027777777778],[-120.16166666666668,39.08555555555556],[-120.14083333333333,39.09638888888889],[-119.99861111111112,39.18111111111111],[-119.885,39.25055555555556],[-119.85777777777777,39.26583333333333],[-119.74277777777777,39.334722222222226],[-119.715,39.35027777777778],[-119.6,39.41916666666666],[-119.45861111111111,39.50222222222222],[-119.43138888888889,39.51722222222222],[-119.31305555555555,39.58694444444445],[-119.28777777777778,39.60111111111111],[-119.14194444444445,39.686388888888885],[-119.025,39.75416666666667],[-118.99833333333333,39.769444444444446],[-118.85527777777777,39.85194444444445],[-118.70083333333334,39.92388888888889],[-118.56861111111111,39.975],[-118.53777777777778,39.98388888888889],[-118.3938888888889,40.01444444444444],[-118.36138888888888,40.02111111111111],[-118.21555555555555,40.050555555555555],[-118.18333333333334,40.05694444444444],[-117.86333333333333,40.12],[-117.83388888888888,40.12555555555556],[-117.65916666666668,40.15972222222222],[-117.50722222222223,40.18888888888888],[-117.48083333333334,40.19416666666666],[-117.32944444444443,40.223055555555554],[-117.30638888888889,40.2275],[-117.16194444444444,40.25472222222222],[-117.12972222222221,40.26083333333333],[-116.98694444444445,40.28777777777778],[-116.79805555555555,40.32277777777778],[-116.78277777777778,40.32555555555556],[-116.61944444444444,40.35583333333334],[-116.57055555555556,40.36472222222223],[-116.46333333333334,40.384166666666665],[-116.39333333333335,40.39694444444444],[-116.2825,40.41694444444444],[-116.03555555555555,40.461111111111116],[-115.8561111111111,40.49305555555556],[-115.6763888888889,40.52444444444444],[-115.49555555555555,40.55583333333333],[-115.31444444444445,40.58694444444445],[-115.13416666666667,40.6175],[-114.98833333333333,40.64222222222222],[-114.62138888888889,40.70333333333333],[-114.44277777777778,40.7325],[-114.04444444444444,40.79666666666667],[-113.86472222222221,40.825],[-113.68027777777779,40.85388888888889],[-113.49861111111112,40.882222222222225],[-113.31305555555555,40.910555555555554],[-113.12805555555555,40.93861111111111],[-112.76194444444444,40.99305555555556],[-112.57638888888889,41.02027777777778],[-112.39555555555556,41.04611111111111],[-112.20805555555556,41.073055555555555],[-112.06277777777777,41.093611111111116],[-111.87138888888889,41.12027777777778],[-111.30611111111111,41.1975],[-111.1211111111111,41.221944444444446],[-110.93194444444445,41.24666666666667],[-110.73611111111111,41.27194444444444],[-110.54777777777778,41.295833333333334],[-110.36388888888888,41.31916666666667],[-110.17555555555556,41.3425],[-109.9875,41.36555555555556],[-109.79861111111111,41.388333333333335],[-109.79861111111111,41.388333333333335],[-109.60722222222222,41.41111111111111],[-109.41333333333334,41.43388888888889],[-109.41611111111112,41.43333333333333],[-109.22166666666666,41.45583333333334],[-109.22166666666666,41.45583333333334],[-109.01666666666667,41.47916666666667],[-108.67166666666667,41.51777777777777],[-108.48027777777779,41.538333333333334],[-108.24972222222222,41.56305555555555],[-108.06305555555555,41.58277777777778],[-107.8736111111111,41.602222222222224],[-107.72222222222223,41.617777777777775],[-107.68472222222222,41.62166666666667],[-107.53305555555555,41.63666666666666],[-107.49805555555555,41.64],[-107.30916666666667,41.65888888888889],[-107.11805555555554,41.67722222222222],[-107.11833333333333,41.67722222222222],[-106.9263888888889,41.695277777777775],[-106.9263888888889,41.695277777777775],[-106.73361111111112,41.71333333333334],[-106.56722222222221,41.72833333333333],[-106.33833333333332,41.74888888888889],[-106.18388888888889,41.7625],[-106.14722222222223,41.76555555555556],[-105.95527777777778,41.782222222222224],[-105.76361111111112,41.79833333333333],[-105.38361111111112,41.82972222222222],[-105.19,41.845],[-105.00194444444445,41.85944444444445],[-104.81361111111111,41.87388888888889],[-104.62388888888889,41.88805555555555],[-104.43555555555555,41.901666666666664],[-104.24722222222222,41.915],[-104.05749999999999,41.92805555555555],[-103.86527777777778,41.941111111111105],[-103.48361111111112,41.96611111111111],[-103.10527777777777,41.989444444444445],[-102.91333333333334,42.00083333333333],[-102.72194444444445,42.01166666666666],[-102.52722222222222,42.0225],[-102.33472222222221,42.033055555555556],[-102.12583333333333,42.04555555555555],[-101.93944444444445,42.0775],[-101.45111111111112,42.16638888888889],[-101.19916666666667,42.2175],[-101.08333333333333,42.24055555555556],[-101.01722222222222,42.26222222222222],[-100.90083333333334,42.291666666666664],[-100.8386111111111,42.31527777777777],[-100.73027777777779,42.346944444444446],[-100.66194444444444,42.36694444444444],[-100.55416666666666,42.39888888888889],[-100.48555555555555,42.41916666666666],[-100.37777777777777,42.450833333333335],[-100.30749999999999,42.471111111111114],[-100.19555555555556,42.49722222222222],[-100.00972222222222,42.53944444444444],[-99.93611111111112,42.55722222222222],[-99.8286111111111,42.57888888888889],[-99.75166666666667,42.59],[-99.63972222222223,42.60305555555556],[-99.56361111111111,42.61027777777778],[-99.45138888888889,42.61611111111111],[-99.3736111111111,42.614444444444445],[-99.26222222222222,42.61361111111111],[-99.18361111111112,42.61333333333334],[-99.06777777777778,42.612500000000004],[-98.9888888888889,42.611666666666665],[-98.85333333333332,42.61027777777778],[-98.7975,42.60944444444445],[-98.66222222222223,42.60777777777778],[-98.46666666666667,42.605000000000004],[-98.07694444444444,42.598333333333336],[-97.88444444444445,42.59444444444445],[-97.69388888888889,42.59055555555556],[-97.50277777777778,42.586111111111116],[-97.35027777777778,42.58222222222223],[-96.96888888888888,42.57194444444445],[-96.77833333333334,42.56638888888889],[-96.4,42.55444444444444],[-96.02555555555556,42.54138888888889],[-95.83777777777777,42.534166666666664],[-95.65083333333334,42.526944444444446],[-95.46027777777778,42.51916666666666],[-95.27333333333333,42.51111111111111],[-95.08694444444444,42.503055555555555],[-94.89916666666667,42.49444444444445],[-94.70972222222223,42.48555555555556],[-94.66388888888889,42.48305555555556],[-94.51888888888888,42.476111111111116],[-94.33722222222222,42.466944444444444],[-94.29166666666667,42.464444444444446],[-94.14194444444445,42.45666666666667],[-94.10555555555555,42.45472222222222],[-93.95777777777778,42.446666666666665],[-93.92166666666667,42.44472222222222],[-93.77305555555556,42.436388888888885],[-93.7388888888889,42.43444444444444],[-93.58999999999999,42.42611111111111],[-93.5525,42.42388888888889],[-93.36833333333333,42.41277777777778],[-93.18555555555555,42.401666666666664],[-93.03611111111111,42.3925],[-92.99944444444445,42.39],[-92.81611111111111,42.37833333333333],[-92.66805555555555,42.368611111111115],[-92.63416666666667,42.36638888888889],[-92.48444444444445,42.35638888888889],[-92.44805555555556,42.35388888888889],[-92.30416666666666,42.344166666666666],[-92.26638888888888,42.34138888888889],[-92.11722222222221,42.33111111111111],[-92.08333333333333,42.328611111111115],[-91.93722222222223,42.31805555555556],[-91.75472222222223,42.30444444444444],[-91.68555555555555,42.29944444444444],[-91.57694444444444,42.29138888888889],[-91.5038888888889,42.285555555555554],[-91.39777777777779,42.277499999999996],[-91.18166666666667,42.260555555555555],[-91.14555555555556,42.257777777777775],[-90.99916666666667,42.24583333333334],[-90.96388888888889,42.24305555555556],[-90.81833333333333,42.23111111111111],[-90.63611111111112,42.21611111111111],[-90.49111111111111,42.203611111111115],[-90.41833333333334,42.1975],[-90.23805555555556,42.181666666666665],[-90.05722222222222,42.16583333333333],[-89.87944444444443,42.14972222222222],[-89.7,42.13305555555556],[-89.51916666666666,42.11638888888889],[-89.34027777777777,42.099444444444444],[-89.15833333333335,42.081944444444446],[-88.96527777777779,42.062777777777775],[-88.78861111111111,42.044999999999995],[-88.60972222222222,42.0225],[-88.25611111111111,41.97638888888889],[-88.07944444444443,41.95305555555556],[-87.90055555555556,41.92916666666667],[-87.72527777777778,41.905277777777776],[-87.58611111111111,41.88611111111111],[-87.41027777777778,41.86194444444445],[-87.23583333333333,41.837500000000006],[-87.06333333333333,41.81305555555555],[-87.00222222222222,41.80333333333333],[-86.89,41.78805555555555],[-86.83027777777778,41.778888888888886],[-86.71611111111112,41.76305555555555],[-86.67166666666667,41.755833333333335],[-86.53333333333333,41.736111111111114],[-86.49972222222222,41.730555555555554],[-86.35805555555555,41.71],[-86.28999999999999,41.7],[-86.18416666666667,41.68388888888889],[-86.01166666666667,41.657777777777774],[-85.94416666666667,41.647777777777776],[-85.83805555555556,41.63111111111111],[-85.77333333333333,41.62111111111111],[-85.66722222222222,41.60472222222222],[-85.63138888888888,41.59916666666667],[-85.45416666666667,41.57138888888889],[-85.30499999999999,41.54805555555556],[-85.27,41.5425],[-85.13444444444445,41.52055555555555],[-85.09861111111111,41.515],[-84.96305555555556,41.49305555555556],[-84.92805555555556,41.48722222222222],[-84.79305555555555,41.46527777777778],[-84.75805555555556,41.45944444444445],[-84.62333333333332,41.43722222222222],[-84.58944444444444,41.43138888888889],[-84.28722222222223,41.38111111111111],[-84.24972222222222,41.374722222222225],[-84.12027777777777,41.35277777777778],[-84.10166666666666,41.349722222222226],[-83.9525,41.32416666666667],[-83.91944444444445,41.318333333333335],[-83.7875,41.29555555555555],[-83.77027777777778,41.2925],[-83.62888888888888,41.26777777777777],[-83.42805555555556,41.2325],[-83.27472222222222,41.20527777777778],[-82.96305555555556,41.149166666666666],[-82.80777777777777,41.12083333333334],[-82.65027777777779,41.091944444444444],[-82.49666666666667,41.06361111111111],[-82.34444444444443,41.03527777777778],[-82.18916666666667,41.005833333333335],[-82.03333333333333,40.97638888888889],[-81.88583333333334,40.94472222222222],[-81.7275,40.914722222222224],[-81.56888888888888,40.88472222222222],[-81.40972222222223,40.85472222222222],[-81.24972222222222,40.82361111111111],[-81.09194444444444,40.791666666666664],[-80.935,40.760555555555555],[-80.76916666666666,40.72777777777778],[-80.6111111111111,40.69555555555555],[-80.44722222222222,40.66972222222222],[-80.27638888888889,40.651944444444446],[-80.10305555555556,40.63333333333333],[-79.76222222222222,40.596111111111114],[-79.59027777777777,40.5775],[-79.42277777777778,40.558611111111105],[-79.24333333333334,40.53805555555555],[-79.07138888888889,40.51833333333333],[-78.89805555555556,40.49805555555556],[-78.55305555555556,40.456944444444446],[-78.2063888888889,40.41444444444444],[-78.035,40.39333333333333],[-77.86833333333333,40.371944444444445],[-77.70861111111111,40.35166666666667],[-77.55,40.33111111111111],[-77.36222222222221,40.30694444444444],[-77.21805555555555,40.28777777777778],[-77.06611111111111,40.2675],[-76.91083333333334,40.24638888888889],[-76.77055555555556,40.227222222222224],[-76.62027777777777,40.20666666666667],[-76.48333333333333,40.1875],[-76.33666666666666,40.16694444444444],[-76.2075,40.14861111111111],[-76.18333333333334,40.15],[-76.08277777777778,40.130833333333335],[-75.95555555555556,40.112500000000004],[-75.93333333333334,40.1],[-75.84388888888888,40.096111111111114],[-75.83333333333333,40.1],[-75.75555555555556,40.058611111111105],[-75.75,40.05],[-75.7,39.96666666666667],[-75.66805555555555,39.91555555555556],[-75.65,39.9],[-75.61055555555555,39.85888888888889],[-75.55611111111111,39.81444444444444],[-75.48222222222222,39.82333333333334],[-75.36555555555555,39.84666666666667],[-75.33333333333333,39.85],[-75.3,39.86666666666667],[-75.28722222222223,39.862500000000004],[-75.2475,39.87027777777778]]}
}
