{
  "id": 2047970315,
  "type": "Feature",
  "properties": {
    "date:cessation_lower": "2026-08-14",
    "date:cessation_upper": "2026-08-14",
    "date:inception_lower": "1970-01-01",
    "date:inception_upper": "1970-01-01",
    "edtf:cessation": "2026-08-14T08:43:18-07:00",
    "edtf:inception": "1970-01-01T00:00:00Z",
    "flysfo:actual_timestamp": -1,
    "flysfo:airline": "UA",
    "flysfo:base_airline": "",
    "flysfo:base_flight_number": "4210",
    "flysfo:date": "2026-08-14",
    "flysfo:estimated_timestamp": 1786748580,
    "flysfo:event": "A",
    "flysfo:flight_number": "UA2409",
    "flysfo:gate": "D12",
    "flysfo:journey": "YYC-SFO",
    "flysfo:scheduled_timestamp": 1786746900,
    "flysfo:timestamp": 1786748580,
    "geom:area": 0,
    "geom:bbox": "-122.370943,37.617990,-114.020920,51.119526",
    "geom:latitude": 44.368758,
    "geom:longitude": -118.1959315,
    "iata:airline": "UA",
    "iata:base_airline": "",
    "icao:aircraft": "B739",
    "icao:airline": "UAL",
    "icao:base_airline": "ACA",
    "lbl:latitude": 37.618249,
    "lbl:longitude": -122.381477,
    "sfomuseum:aircraft_id": 1377564285,
    "sfomuseum:airline_id": 1159285413,
    "sfomuseum:arrival_id": 102527513,
    "sfomuseum:base_flight_id": "20260814-A-ACA-4210",
    "sfomuseum:departure_id": 102554947,
    "sfomuseum:flight_id": "20260814-A-UAL-2409",
    "sfomuseum:flight_number": [
      "UAL2409",
      "UA2409"
    ],
    "sfomuseum:placetype": "flight",
    "src:geom": "flysfo",
    "src:geom_alt": [
      "swim-approach"
    ],
    "swim:tail_number": "N57439",
    "wof:belongsto": [
      1947304067,
      102527513,
      1947304595,
      102191575,
      85633793,
      102087579,
      85922583,
      554784711,
      85688637,
      1947304631,
      1947304591,
      102085387
    ],
    "wof:country": "US",
    "wof:created": 1786810158,
    "wof:geomhash": "4b8d850891e12dfac0a460ee51cd363b",
    "wof:hierarchy": [
      {
        "building_id": 1947304067,
        "campus_id": 102527513,
        "concourse_id": 1947304595,
        "continent_id": 102191575,
        "country_id": 85633793,
        "county_id": 102087579,
        "custom_id": 2047970315,
        "flight_id": 2047970315,
        "locality_id": 85922583,
        "postalcode_id": 554784711,
        "region_id": 85688637,
        "venue_id": 1947304631,
        "wing_id": 1947304591
      },
      {
        "building_id": 1947304067,
        "campus_id": 102527513,
        "concourse_id": 1947304595,
        "continent_id": 102191575,
        "country_id": 85633793,
        "county_id": 102085387,
        "custom_id": 2047970315,
        "flight_id": 2047970315,
        "region_id": 85688637,
        "venue_id": 1947304631,
        "wing_id": 1947304591
      }
    ],
    "wof:id": 2047970315,
    "wof:involves": [
      1377564285,
      102527513,
      102554947,
      1159285413,
      1947304631,
      1159283597
    ],
    "wof:lastmodified": 1786810805,
    "wof:name": "UA2409 (YYC-SFO)",
    "wof:parent_id": 1947304631,
    "wof:placetype": "custom",
    "wof:placetype_alt": [
      "flight"
    ],
    "wof:repo": "sfomuseum-data-flights-2026-08",
    "wof:superseded_by": [],
    "wof:supersedes": []
  },
  "bbox": [
    -122.370943,
    37.61799,
    -114.02092,
    51.119526
  ],
  "geometry": {"type":"MultiPoint","coordinates":[[-114.02092,51.119526],[-122.370943,37.61799]]}
}
