{
  "id": 2047945423,
  "type": "Feature",
  "properties": {
    "geom:area": 0,
    "geom:bbox": "-122.738333,29.480833,-98.317778,47.451389",
    "geom:latitude": 38.44272475154675,
    "geom:longitude": -111.88630658077422,
    "src:alt_label": "swim-path",
    "src:geom": "swim",
    "swim:altitudes": [
      "019",
      "024",
      "037",
      "045",
      "059",
      "070",
      "089",
      "117",
      "132",
      "152",
      "174",
      "193",
      "214",
      "232",
      "247",
      "260",
      "274",
      "286",
      "299",
      "312",
      "323",
      "334",
      "345",
      "354",
      "360C",
      "360C",
      "360C",
      "360C",
      "360C",
      "360C",
      "360C",
      "360C",
      "360C",
      "360C",
      "360C",
      "360C",
      "360C",
      "360C",
      "360C",
      "360C",
      "360C",
      "360C",
      "360C",
      "360C",
      "360C",
      "360C",
      "360C",
      "360C",
      "360C",
      "360C",
      "360C",
      "360C",
      "360C",
      "360C",
      "360C",
      "360C",
      "360C",
      "360C",
      "360C",
      "360C",
      "360C",
      "360C",
      "360C",
      "360C",
      "360C",
      "360C",
      "360C",
      "360C",
      "360C",
      "360C",
      "360C",
      "360C",
      "360C",
      "360C",
      "360C",
      "360C",
      "360C",
      "360C",
      "360C",
      "360C",
      "360C",
      "360C",
      "360C",
      "360C",
      "360C",
      "360C",
      "360C",
      "360C",
      "360C",
      "360C",
      "360C",
      "360C",
      "360C",
      "360C",
      "360C",
      "360C",
      "360C",
      "360C",
      "360C",
      "360C",
      "360C",
      "360C",
      "360C",
      "360C",
      "360C",
      "360C",
      "360C",
      "360C",
      "360C",
      "360",
      "346",
      "336",
      "327",
      "317",
      "296",
      "267",
      "243",
      "223",
      "219",
      "204",
      "199",
      "189",
      "181",
      "170",
      "163",
      "152C",
      "150",
      "149C",
      "150",
      "150C",
      "150",
      "150C",
      "150",
      "143",
      "138",
      "131",
      "127",
      "116",
      "108",
      "099",
      "092",
      "083",
      "079",
      "080",
      "080",
      "080",
      "080",
      "079",
      "076",
      "070",
      "068",
      "061",
      "059",
      "053",
      "053",
      "004",
      "016",
      "041",
      "060",
      "090",
      "112",
      "137",
      "164",
      "187",
      "199",
      "218",
      "236",
      "255",
      "269",
      "279",
      "290",
      "302",
      "317",
      "331",
      "343",
      "354",
      "360C",
      "360C",
      "360C",
      "360C",
      "360C",
      "360C",
      "360C",
      "360C",
      "360C",
      "360C",
      "360C",
      "360C",
      "360C",
      "360C",
      "360C",
      "360C",
      "360C",
      "360C",
      "360C",
      "360C",
      "360C",
      "360C",
      "360C",
      "360C",
      "360C",
      "360C",
      "360C",
      "360C",
      "360C",
      "360C",
      "360C",
      "360C",
      "360C",
      "360C",
      "360C",
      "360C",
      "360C",
      "360C",
      "360",
      "360",
      "360",
      "360",
      "359",
      "346",
      "323",
      "303",
      "282",
      "262",
      "245",
      "221",
      "199",
      "180",
      "158",
      "159",
      "143",
      "136",
      "126",
      "120",
      "120",
      "118",
      "114",
      "107",
      "102",
      "090",
      "071",
      "066",
      "060",
      "055",
      "052",
      "048",
      "040",
      "035",
      "030",
      "024",
      "020",
      "016",
      "013",
      "009",
      "004"
    ],
    "swim:geom": "path",
    "swim:speeds": [
      178,
      192,
      229,
      254,
      288,
      306,
      300,
      302,
      345,
      378,
      380,
      397,
      403,
      411,
      424,
      432,
      447,
      454,
      460,
      464,
      466,
      468,
      470,
      471,
      477,
      481,
      481,
      480,
      478,
      476,
      474,
      472,
      471,
      471,
      472,
      471,
      472,
      471,
      471,
      470,
      469,
      470,
      473,
      477,
      475,
      479,
      479,
      481,
      481,
      483,
      483,
      484,
      485,
      485,
      485,
      486,
      486,
      487,
      487,
      489,
      489,
      490,
      491,
      492,
      492,
      493,
      494,
      494,
      495,
      495,
      494,
      493,
      493,
      492,
      492,
      491,
      491,
      490,
      490,
      489,
      489,
      488,
      488,
      488,
      487,
      492,
      487,
      489,
      486,
      488,
      486,
      487,
      486,
      487,
      486,
      486,
      486,
      486,
      485,
      485,
      485,
      485,
      485,
      486,
      486,
      486,
      486,
      486,
      486,
      486,
      475,
      477,
      487,
      489,
      486,
      485,
      466,
      445,
      447,
      414,
      378,
      374,
      369,
      363,
      355,
      351,
      331,
      306,
      292,
      285,
      291,
      277,
      282,
      278,
      279,
      273,
      270,
      261,
      258,
      257,
      248,
      249,
      240,
      244,
      238,
      240,
      222,
      205,
      198,
      195,
      190,
      179,
      171,
      176,
      76,
      177,
      182,
      205,
      273,
      291,
      322,
      352,
      358,
      367,
      412,
      424,
      425,
      443,
      455,
      459,
      474,
      483,
      486,
      487,
      485,
      486,
      486,
      488,
      491,
      491,
      492,
      493,
      494,
      495,
      495,
      495,
      491,
      489,
      487,
      485,
      484,
      484,
      484,
      475,
      471,
      469,
      470,
      471,
      471,
      470,
      468,
      466,
      464,
      463,
      462,
      462,
      463,
      465,
      466,
      466,
      465,
      463,
      462,
      460,
      458,
      454,
      451,
      448,
      445,
      444,
      436,
      423,
      411,
      400,
      395,
      387,
      380,
      372,
      358,
      363,
      352,
      354,
      333,
      334,
      318,
      318,
      302,
      293,
      268,
      261,
      268,
      262,
      242,
      241,
      220,
      219,
      224,
      210,
      196,
      178,
      155,
      152,
      146,
      149,
      141
    ],
    "swim:timestamps": [
      1786560686,
      1786560706,
      1786560746,
      1786560767,
      1786560807,
      1786560827,
      1786560867,
      1786560927,
      1786560987,
      1786561047,
      1786561107,
      1786561167,
      1786561230,
      1786561287,
      1786561347,
      1786561407,
      1786561470,
      1786561528,
      1786561588,
      1786561648,
      1786561708,
      1786561768,
      1786561828,
      1786561888,
      1786561948,
      1786562008,
      1786562071,
      1786562131,
      1786562189,
      1786562249,
      1786562309,
      1786562369,
      1786562429,
      1786562491,
      1786562551,
      1786562612,
      1786562672,
      1786562732,
      1786562792,
      1786562852,
      1786562912,
      1786562972,
      1786563032,
      1786563074,
      1786563092,
      1786563134,
      1786563152,
      1786563195,
      1786563212,
      1786563255,
      1786563272,
      1786563315,
      1786563333,
      1786563375,
      1786563393,
      1786563435,
      1786563453,
      1786563495,
      1786563513,
      1786563555,
      1786563573,
      1786563615,
      1786563633,
      1786563675,
      1786563693,
      1786563735,
      1786563753,
      1786563796,
      1786563813,
      1786563856,
      1786563873,
      1786563916,
      1786563933,
      1786563976,
      1786563993,
      1786564036,
      1786564054,
      1786564096,
      1786564156,
      1786564216,
      1786564276,
      1786564336,
      1786564396,
      1786564457,
      1786564517,
      1786564539,
      1786564577,
      1786564599,
      1786564637,
      1786564659,
      1786564697,
      1786564719,
      1786564757,
      1786564779,
      1786564817,
      1786564839,
      1786564877,
      1786564899,
      1786564937,
      1786564959,
      1786564997,
      1786565019,
      1786565058,
      1786565080,
      1786565118,
      1786565140,
      1786565178,
      1786565200,
      1786565260,
      1786565320,
      1786565380,
      1786565440,
      1786565500,
      1786565560,
      1786565620,
      1786565680,
      1786565741,
      1786565791,
      1786565801,
      1786565861,
      1786565887,
      1786565921,
      1786565941,
      1786565981,
      1786566001,
      1786566041,
      1786566061,
      1786566101,
      1786566121,
      1786566161,
      1786566181,
      1786566221,
      1786566241,
      1786566281,
      1786566301,
      1786566341,
      1786566361,
      1786566401,
      1786566427,
      1786566462,
      1786566487,
      1786566522,
      1786566547,
      1786566582,
      1786566601,
      1786566642,
      1786566667,
      1786566702,
      1786566721,
      1786566762,
      1786566775,
      1786566822,
      1786566836,
      1786566882,
      1786566942,
      1786598833,
      1786598864,
      1786598925,
      1786598985,
      1786599045,
      1786599105,
      1786599165,
      1786599225,
      1786599281,
      1786599345,
      1786599405,
      1786599462,
      1786599525,
      1786599585,
      1786599642,
      1786599705,
      1786599765,
      1786599822,
      1786599882,
      1786599945,
      1786600002,
      1786600062,
      1786600125,
      1786600242,
      1786600305,
      1786600365,
      1786600422,
      1786600486,
      1786600546,
      1786600602,
      1786600666,
      1786600726,
      1786600782,
      1786600842,
      1786600906,
      1786600962,
      1786601022,
      1786601086,
      1786601142,
      1786601203,
      1786601323,
      1786601383,
      1786601443,
      1786601503,
      1786601563,
      1786601623,
      1786601683,
      1786601743,
      1786601803,
      1786601863,
      1786601923,
      1786601983,
      1786602043,
      1786602103,
      1786602163,
      1786602223,
      1786602283,
      1786602343,
      1786602403,
      1786602463,
      1786602523,
      1786602583,
      1786602643,
      1786602703,
      1786602763,
      1786602823,
      1786602883,
      1786602943,
      1786603004,
      1786603064,
      1786603124,
      1786603184,
      1786603244,
      1786603295,
      1786603304,
      1786603337,
      1786603364,
      1786603397,
      1786603424,
      1786603451,
      1786603484,
      1786603505,
      1786603544,
      1786603577,
      1786603604,
      1786603643,
      1786603664,
      1786603691,
      1786603724,
      1786603751,
      1786603784,
      1786603811,
      1786603844,
      1786603872,
      1786603904,
      1786603932,
      1786603964,
      1786603992,
      1786604024,
      1786604084
    ],
    "wof:geomhash": "1df0c8fc1256cbe19a8e838196ca662e",
    "wof:id": 2047945423,
    "wof:repo": "sfomuseum-data-flights-2026-08"
  },
  "bbox": [
    -122.73833333333333,
    29.480833333333333,
    -98.31777777777778,
    47.45138888888889
  ],
  "geometry": {"type":"LineString","coordinates":[[-98.45222222222222,29.516944444444444],[-98.43722222222223,29.505555555555556],[-98.40027777777779,29.481388888888887],[-98.37305555555555,29.480833333333333],[-98.33,29.51527777777778],[-98.31777777777778,29.540555555555557],[-98.33166666666666,29.591666666666665],[-98.36305555555555,29.67027777777778],[-98.36916666666666,29.760833333333334],[-98.38194444444444,29.864722222222223],[-98.46222222222222,29.942777777777778],[-98.55194444444444,30.020555555555553],[-98.64444444444445,30.100555555555555],[-98.73777777777778,30.180833333333336],[-98.83416666666666,30.26361111111111],[-98.9213888888889,30.338055555555556],[-99.03472222222221,30.435],[-99.13805555555557,30.522777777777776],[-99.24444444444444,30.613055555555558],[-99.35111111111111,30.703333333333333],[-99.45916666666668,30.794444444444448],[-99.56666666666666,30.884999999999998],[-99.67444444444445,30.97583333333333],[-99.78472222222221,31.067777777777778],[-99.89527777777778,31.16],[-100.00777777777778,31.253888888888888],[-100.10027777777778,31.360833333333336],[-100.15083333333334,31.4875],[-100.2,31.611666666666668],[-100.24888888888889,31.73638888888889],[-100.29777777777778,31.860000000000003],[-100.34777777777778,31.984166666666667],[-100.40166666666667,32.117777777777775],[-100.45055555555555,32.24055555555556],[-100.50111111111111,32.365833333333335],[-100.55194444444444,32.49138888888889],[-100.60194444444444,32.61527777777778],[-100.65277777777779,32.74055555555556],[-100.70361111111112,32.86527777777778],[-100.75472222222223,32.99],[-100.80555555555556,33.11361111111111],[-100.85638888888889,33.238055555555555],[-100.90833333333335,33.36388888888889],[-100.94194444444445,33.44611111111111],[-100.95944444444444,33.488055555555555],[-100.99444444444444,33.572500000000005],[-101.01277777777777,33.615833333333335],[-101.0475,33.69944444444444],[-101.06583333333333,33.743611111111115],[-101.10138888888888,33.828611111111115],[-101.11638888888888,33.86472222222223],[-101.15944444444445,33.967777777777776],[-101.16972222222223,33.9925],[-101.21333333333334,34.09583333333334],[-101.22305555555556,34.11944444444445],[-101.26666666666667,34.22277777777778],[-101.2775,34.248333333333335],[-101.32083333333333,34.35111111111111],[-101.33166666666666,34.376666666666665],[-101.37527777777777,34.480000000000004],[-101.3863888888889,34.505833333333335],[-101.43027777777779,34.60916666666667],[-101.44111111111111,34.63444444444444],[-101.48555555555555,34.73888888888889],[-101.49638888888889,34.76416666666667],[-101.54166666666667,34.86972222222222],[-101.5525,34.894999999999996],[-101.59194444444444,34.986666666666665],[-101.60833333333333,35.02472222222222],[-101.64750000000001,35.115833333333335],[-101.66472222222222,35.15611111111111],[-101.71000000000001,35.26],[-101.72444444444444,35.29194444444444],[-101.76861111111111,35.38666666666666],[-101.78472222222221,35.42111111111111],[-101.82722222222222,35.513333333333335],[-101.84388888888888,35.54888888888889],[-101.87944444444443,35.62583333333333],[-101.93555555555555,35.755833333333335],[-101.955,35.890277777777776],[-101.97333333333333,36.02611111111111],[-101.99083333333333,36.15972222222222],[-102.00888888888889,36.296388888888885],[-102.0261111111111,36.42972222222222],[-102.05277777777778,36.56444444444444],[-102.08111111111111,36.61222222222222],[-102.13444444444445,36.68111111111111],[-102.16916666666667,36.72694444444445],[-102.22305555555556,36.7975],[-102.25694444444444,36.842222222222226],[-102.30944444444444,36.91111111111111],[-102.34444444444443,36.956944444444446],[-102.39805555555556,37.026666666666664],[-102.43388888888889,37.073055555555555],[-102.48777777777778,37.143055555555556],[-102.52222222222223,37.1875],[-102.58138888888888,37.26416666666667],[-102.61638888888888,37.30916666666666],[-102.66972222222223,37.37777777777778],[-102.70555555555556,37.424166666666665],[-102.7525,37.495555555555555],[-102.7713888888889,37.545833333333334],[-102.79305555555555,37.62694444444445],[-102.80694444444444,37.677499999999995],[-102.82888888888888,37.757777777777775],[-102.84277777777777,37.808611111111105],[-102.86472222222221,37.888888888888886],[-102.87944444444443,37.94222222222222],[-102.91833333333334,38.071111111111115],[-102.99138888888889,38.192499999999995],[-103.0675,38.3125],[-103.14194444444445,38.428888888888885],[-103.22055555555556,38.55166666666666],[-103.30666666666666,38.684999999999995],[-103.38361111111112,38.803888888888885],[-103.46194444444444,38.92388888888889],[-103.53777777777778,39.04083333333333],[-103.6,39.13333333333333],[-103.61,39.151111111111106],[-103.67944444444444,39.257222222222225],[-103.71666666666667,39.3],[-103.77694444444444,39.3275],[-103.81666666666666,39.35],[-103.88555555555556,39.38361111111111],[-103.91666666666667,39.4],[-103.99861111111112,39.44],[-104.03333333333333,39.45],[-104.06277777777777,39.507222222222225],[-104.06666666666666,39.53333333333333],[-104.08444444444444,39.58527777777778],[-104.08333333333333,39.61666666666667],[-104.13916666666667,39.64555555555555],[-104.16666666666667,39.65],[-104.23805555555556,39.65833333333333],[-104.26666666666667,39.666666666666664],[-104.32944444444443,39.66972222222222],[-104.36666666666666,39.666666666666664],[-104.4225,39.68138888888889],[-104.46666666666667,39.68333333333333],[-104.50472222222223,39.664722222222224],[-104.51666666666667,39.63333333333333],[-104.53166666666667,39.599444444444444],[-104.56666666666666,39.583333333333336],[-104.60833333333333,39.572500000000005],[-104.63333333333334,39.583333333333336],[-104.64444444444445,39.62777777777778],[-104.65,39.65],[-104.64333333333335,39.68666666666666],[-104.65,39.7],[-104.64277777777778,39.740833333333335],[-104.65,39.75],[-104.64222222222223,39.79111111111111],[-104.65,39.8],[-104.64166666666668,39.84],[-104.64305555555556,39.85805555555556],[-122.38333333333334,37.61666666666667],[-122.40805555555556,37.64083333333333],[-122.36944444444444,37.68388888888889],[-122.33999999999999,37.74861111111111],[-122.37694444444443,37.82416666666667],[-122.385,37.91],[-122.34333333333333,37.99944444444444],[-122.28333333333333,38.08694444444445],[-122.2213888888889,38.16888888888889],[-122.15361111111112,38.27638888888889],[-122.11722222222221,38.388888888888886],[-122.12333333333332,38.49805555555556],[-122.13388888888889,38.64111111111111],[-122.14277777777778,38.76833333333333],[-122.14805555555556,38.87583333333333],[-122.15944444444445,39.006388888888885],[-122.16861111111112,39.140277777777776],[-122.17722222222223,39.27833333333333],[-122.1863888888889,39.41305555555555],[-122.19722222222222,39.54666666666667],[-122.20555555555556,39.68194444444444],[-122.21555555555555,39.81666666666667],[-122.22611111111111,39.95333333333333],[-122.20222222222222,40.24111111111111],[-122.17027777777778,40.37388888888889],[-122.1375,40.50888888888889],[-122.10472222222222,40.64361111111111],[-122.07111111111111,40.78055555555555],[-122.03805555555556,40.91583333333333],[-122.00472222222223,41.050555555555555],[-121.97222222222223,41.18444444444444],[-121.97638888888889,41.319722222222225],[-121.99111111111111,41.43444444444444],[-122.00805555555556,41.566944444444445],[-122.02944444444444,41.72805555555556],[-122.04333333333334,41.83527777777778],[-122.06138888888889,41.97083333333334],[-122.07972222222222,42.11083333333333],[-122.09722222222221,42.24527777777778],[-122.11472222222221,42.375],[-122.14944444444446,42.63444444444444],[-122.16722222222222,42.764722222222225],[-122.18472222222222,42.89527777777778],[-122.20222222222222,43.025277777777774],[-122.21972222222223,43.151666666666664],[-122.23777777777778,43.280833333333334],[-122.25527777777778,43.40861111111111],[-122.27277777777778,43.53444444444444],[-122.29055555555556,43.663333333333334],[-122.30833333333334,43.79083333333333],[-122.3261111111111,43.91833333333333],[-122.34416666666667,44.04611111111111],[-122.36222222222221,44.174166666666665],[-122.38055555555555,44.301944444444445],[-122.39888888888889,44.430277777777775],[-122.41722222222222,44.55916666666666],[-122.43527777777778,44.68583333333333],[-122.4538888888889,44.81222222222222],[-122.47166666666666,44.93472222222222],[-122.48972222222223,45.06055555555555],[-122.51138888888889,45.208333333333336],[-122.52944444444444,45.331388888888895],[-122.54777777777778,45.45444444444445],[-122.56583333333333,45.575833333333335],[-122.58416666666666,45.698611111111106],[-122.60888888888888,45.81722222222223],[-122.63722222222223,45.933611111111105],[-122.66527777777779,46.045833333333334],[-122.68944444444445,46.155],[-122.70722222222223,46.24611111111111],[-122.72361111111111,46.36361111111111],[-122.7275,46.468611111111116],[-122.73083333333334,46.558611111111105],[-122.73555555555555,46.66361111111111],[-122.73444444444445,46.66],[-122.73833333333333,46.73083333333334],[-122.73777777777778,46.76888888888889],[-122.69694444444445,46.82],[-122.66555555555556,46.84638888888889],[-122.62388888888889,46.88388888888889],[-122.5736111111111,46.916666666666664],[-122.54055555555556,46.93583333333333],[-122.48416666666667,46.972500000000004],[-122.45055555555555,47.006388888888885],[-122.42527777777778,47.034166666666664],[-122.39027777777778,47.07527777777778],[-122.3711111111111,47.09777777777778],[-122.35,47.125277777777775],[-122.33222222222221,47.15888888888889],[-122.31972222222223,47.186388888888885],[-122.31388888888888,47.216944444444444],[-122.3125,47.246944444444445],[-122.31277777777777,47.27777777777778],[-122.31444444444445,47.30277777777778],[-122.31222222222222,47.33027777777778],[-122.31194444444444,47.348888888888894],[-122.31194444444444,47.3725],[-122.31166666666667,47.39111111111111],[-122.31138888888889,47.41277777777778],[-122.3111111111111,47.45138888888889]]}
}
