{
  "id": 2048049661,
  "type": "Feature",
  "properties": {
    "geom:area": 0,
    "geom:bbox": "-122.359370,37.492810,-121.250180,37.614270",
    "geom:latitude": 37.54305452763598,
    "geom:longitude": -121.8118245933175,
    "src:alt_label": "swim-approach",
    "src:geom": "swim",
    "swim:elevations": [
      4573,
      4525,
      4191,
      3995,
      3720,
      3547,
      3200,
      3109,
      3035,
      2856,
      2588,
      2470,
      2403,
      2185,
      2028,
      1784,
      1748,
      1468,
      1294,
      1188,
      1057,
      842,
      708,
      594,
      459,
      322,
      213,
      39,
      0
    ],
    "swim:geom": "approach",
    "swim:timestamps": [
      1787096127,
      1787096133,
      1787096167,
      1787096186,
      1787096217,
      1787096235,
      1787096274,
      1787096308,
      1787096332,
      1787096361,
      1787096397,
      1787096422,
      1787096435,
      1787096475,
      1787096505,
      1787096544,
      1787096553,
      1787096601,
      1787096637,
      1787096659,
      1787096687,
      1787096726,
      1787096753,
      1787096775,
      1787096805,
      1787096835,
      1787096862,
      1787096904,
      1787096910
    ],
    "wof:geomhash": "9b95b8aa7e6bd7b8d5bee2e53a5adf5d",
    "wof:id": 2048049661,
    "wof:repo": "sfomuseum-data-flights-2026-08"
  },
  "bbox": [
    -122.35937,
    37.49281,
    -121.25018,
    37.61427
  ],
  "geometry": {"type":"LineString","coordinates":[[-121.25018,37.59459],[-121.26232,37.59289],[-121.33047,37.58464],[-121.36863,37.58068],[-121.43014,37.57354],[-121.46533,37.56955],[-121.54117,37.56071],[-121.60413,37.55337],[-121.64489,37.54604],[-121.6922,37.53459],[-121.74947,37.52084],[-121.78864,37.51181],[-121.80844,37.50711],[-121.86689,37.49358],[-121.91131,37.49281],[-121.97025,37.49635],[-121.98463,37.49724],[-122.05229,37.50097],[-122.10002,37.50571],[-122.12645,37.51617],[-122.15884,37.53006],[-122.20123,37.54802],[-122.22902,37.55964],[-122.2496,37.56835],[-122.27498,37.57899],[-122.30033,37.58956],[-122.32193,37.59869],[-122.35435,37.61238],[-122.35937,37.61427]]}
}
