{
  "id": 2048064647,
  "type": "Feature",
  "properties": {
    "geom:area": 0,
    "geom:bbox": "-122.363090,37.467590,-121.267910,37.615280",
    "geom:latitude": 37.53656246394163,
    "geom:longitude": -121.82379698617386,
    "src:alt_label": "swim-approach",
    "src:geom": "swim",
    "swim:elevations": [
      4817,
      4434,
      4103,
      4073,
      3721,
      3504,
      3353,
      3353,
      3353,
      3235,
      3150,
      2918,
      2794,
      2253,
      1924,
      1829,
      1829,
      1830,
      1643,
      1566,
      1402,
      1080,
      953,
      759,
      526,
      382,
      279,
      177,
      0,
      0
    ],
    "swim:geom": "approach",
    "swim:timestamps": [
      1787131068,
      1787131104,
      1787131136,
      1787131140,
      1787131174,
      1787131203,
      1787131257,
      1787131273,
      1787131282,
      1787131314,
      1787131328,
      1787131370,
      1787131388,
      1787131461,
      1787131493,
      1787131510,
      1787131557,
      1787131578,
      1787131612,
      1787131627,
      1787131650,
      1787131703,
      1787131718,
      1787131741,
      1787131789,
      1787131824,
      1787131845,
      1787131875,
      1787131916,
      1787131922
    ],
    "wof:geomhash": "f55f58d660fc86e38fc1e380b99ab8bc",
    "wof:id": 2048064647,
    "wof:repo": "sfomuseum-data-flights-2026-08"
  },
  "bbox": [
    -122.36309,
    37.46759,
    -121.26791,
    37.61528
  ],
  "geometry": {"type":"LineString","coordinates":[[-121.26791,37.59202],[-121.33981,37.58365],[-121.40314,37.5766],[-121.41124,37.57573],[-121.47549,37.56845],[-121.52954,37.56204],[-121.62332,37.55028],[-121.64774,37.54537],[-121.66115,37.54225],[-121.70662,37.5313],[-121.7262,37.52657],[-121.77856,37.50799],[-121.79793,37.49644],[-121.8922,37.47316],[-121.93698,37.4696],[-121.95968,37.46759],[-122.02168,37.4717],[-122.04671,37.48208],[-122.08636,37.49934],[-122.104,37.50685],[-122.12915,37.5175],[-122.18107,37.53942],[-122.19583,37.54568],[-122.21819,37.55509],[-122.26334,37.5741],[-122.29206,37.58618],[-122.30765,37.59275],[-122.32895,37.60168],[-122.35825,37.61398],[-122.36309,37.61528]]}
}
