{
  "id": 2032077461,
  "type": "Feature",
  "properties": {
    "geom:area": 0,
    "geom:bbox": "-122.409720,37.628610,-121.253440,37.964290",
    "geom:latitude": 37.83059382153207,
    "geom:longitude": -121.85371661859585,
    "src:alt_label": "swim-takeoff",
    "src:geom": "swim",
    "swim:elevations": [
      274,
      513,
      1196,
      1576,
      2403,
      2745,
      2787,
      3209,
      3296,
      3421,
      3490,
      3880,
      4019,
      4227,
      4900,
      5032,
      5463,
      5935,
      6008
    ],
    "swim:geom": "takeoff",
    "swim:timestamps": [
      1785661377,
      1785661395,
      1785661459,
      1785661517,
      1785661583,
      1785661615,
      1785661620,
      1785661663,
      1785661680,
      1785661719,
      1785661728,
      1785661767,
      1785661787,
      1785661803,
      1785661887,
      1785661901,
      1785661962,
      1785662033,
      1785662043
    ],
    "wof:geomhash": "0d2221d5808766c9d83bb989d1417193",
    "wof:id": 2032077461,
    "wof:repo": "sfomuseum-data-flights-2026-08"
  },
  "bbox": [
    -122.40972,
    37.62861,
    -121.25344,
    37.96429
  ],
  "geometry": {"coordinates":[[-122.39275,37.62861],[-122.40972,37.63559],[-122.38334,37.66838],[-122.30156,37.68613],[-122.2042,37.72345],[-122.15803,37.74735],[-122.15016,37.75145],[-122.08586,37.78451],[-122.05942,37.79791],[-121.98879,37.8289],[-121.96975,37.83266],[-121.88623,37.8484],[-121.84337,37.85635],[-121.80863,37.86298],[-121.61961,37.89777],[-121.58798,37.90359],[-121.44763,37.92913],[-121.27776,37.95989],[-121.25344,37.96429]],"type":"LineString"}
}
