{
  "id": 2032133993,
  "type": "Feature",
  "properties": {
    "geom:area": 0,
    "geom:bbox": "-122.542590,36.733470,-121.578240,37.663450",
    "geom:latitude": 37.23234037641799,
    "geom:longitude": -122.12070595230851,
    "src:alt_label": "swim-takeoff",
    "src:geom": "swim",
    "swim:elevations": [
      213,
      477,
      641,
      771,
      1021,
      1267,
      1370,
      1615,
      1875,
      2089,
      2740,
      2800,
      3325,
      3349,
      3456,
      4006,
      4854,
      5304,
      5489,
      5763,
      6294,
      6325,
      6573,
      7482,
      7751,
      7764,
      8077,
      8230,
      8648,
      8719
    ],
    "swim:geom": "takeoff",
    "swim:timestamps": [
      1786029612,
      1786029640,
      1786029657,
      1786029670,
      1786029698,
      1786029742,
      1786029762,
      1786029790,
      1786029814,
      1786029832,
      1786029888,
      1786029893,
      1786029957,
      1786029962,
      1786029977,
      1786030019,
      1786030076,
      1786030109,
      1786030125,
      1786030146,
      1786030196,
      1786030200,
      1786030228,
      1786030317,
      1786030344,
      1786030358,
      1786030388,
      1786030411,
      1786030469,
      1786030480
    ],
    "wof:geomhash": "7ac770b5183f5cd6146bc813db53e5b0",
    "wof:id": 2032133993,
    "wof:repo": "sfomuseum-data-flights-2026-08"
  },
  "bbox": [
    -122.54259,
    36.73347,
    -121.57824,
    37.66345
  ],
  "geometry": {"type":"LineString","coordinates":[[-122.39186,37.62608],[-122.41618,37.63688],[-122.43198,37.64377],[-122.4445,37.64922],[-122.47081,37.66029],[-122.52416,37.66345],[-122.54259,37.64548],[-122.53775,37.61278],[-122.52331,37.58442],[-122.51198,37.56298],[-122.47509,37.49558],[-122.47081,37.49036],[-122.38908,37.42653],[-122.3825,37.42176],[-122.36036,37.4057],[-122.29667,37.3589],[-122.20879,37.29392],[-122.16006,37.25703],[-122.13404,37.23777],[-122.10194,37.21423],[-122.02179,37.15469],[-122.01592,37.14935],[-121.97375,37.10969],[-121.84207,36.98027],[-121.80101,36.9411],[-121.77755,36.92347],[-121.73133,36.87592],[-121.69492,36.83964],[-121.59749,36.75189],[-121.57824,36.73347]]}
}
