{
  "id": 2047878791,
  "type": "Feature",
  "properties": {
    "geom:area": 0,
    "geom:bbox": "-122.589722,32.683333,-116.950000,37.676111",
    "geom:latitude": 35.07716080941337,
    "geom:longitude": -119.91348340161767,
    "src:alt_label": "swim-path",
    "src:geom": "swim",
    "swim:altitudes": [
      "007",
      "011",
      "018",
      "029",
      "046",
      "073",
      "103",
      "114",
      "135",
      "158",
      "177",
      "195",
      "212",
      "228",
      "243",
      "251",
      "264",
      "278",
      "292",
      "305",
      "319",
      "331",
      "345",
      "357",
      "366",
      "370C",
      "370C",
      "370C",
      "370C",
      "370C",
      "370C",
      "370C",
      "370C",
      "370C",
      "370C",
      "370C",
      "370C",
      "370C",
      "370C",
      "370C",
      "370C",
      "370C",
      "370",
      "370",
      "370",
      "370",
      "370",
      "365",
      "348",
      "321",
      "290",
      "262",
      "239",
      "213",
      "185",
      "162",
      "140",
      "118",
      "105",
      "096",
      "091",
      "081",
      "076",
      "066",
      "061",
      "053",
      "045",
      "042",
      "037",
      "034",
      "027",
      "023",
      "016",
      "008",
      "005",
      "001"
    ],
    "swim:geom": "path",
    "swim:speeds": [
      146,
      144,
      139,
      184,
      261,
      281,
      288,
      353,
      377,
      389,
      401,
      414,
      425,
      436,
      448,
      463,
      470,
      471,
      468,
      466,
      462,
      458,
      447,
      444,
      440,
      439,
      439,
      439,
      439,
      439,
      440,
      440,
      441,
      441,
      441,
      442,
      442,
      441,
      436,
      431,
      427,
      423,
      433,
      434,
      434,
      433,
      434,
      439,
      443,
      447,
      457,
      457,
      442,
      422,
      410,
      398,
      377,
      367,
      334,
      298,
      292,
      290,
      283,
      283,
      261,
      234,
      208,
      203,
      196,
      192,
      193,
      181,
      155,
      141,
      135,
      132
    ],
    "swim:timestamps": [
      1786175545,
      1786175562,
      1786175569,
      1786175622,
      1786175682,
      1786175742,
      1786175802,
      1786175862,
      1786175922,
      1786175982,
      1786176042,
      1786176102,
      1786176162,
      1786176222,
      1786176282,
      1786176342,
      1786176402,
      1786176462,
      1786176522,
      1786176582,
      1786176642,
      1786176702,
      1786176762,
      1786176822,
      1786176882,
      1786176942,
      1786177002,
      1786177062,
      1786177122,
      1786177182,
      1786177242,
      1786177302,
      1786177362,
      1786177422,
      1786177482,
      1786177542,
      1786177602,
      1786177662,
      1786177722,
      1786177782,
      1786177846,
      1786177906,
      1786178026,
      1786178086,
      1786178146,
      1786178206,
      1786178266,
      1786178326,
      1786178386,
      1786178446,
      1786178506,
      1786178566,
      1786178626,
      1786178686,
      1786178746,
      1786178806,
      1786178866,
      1786178927,
      1786178987,
      1786179047,
      1786179053,
      1786179107,
      1786179113,
      1786179167,
      1786179227,
      1786179287,
      1786179347,
      1786179353,
      1786179407,
      1786179413,
      1786179467,
      1786179473,
      1786179527,
      1786179587,
      1786179593,
      1786179647
    ],
    "wof:geomhash": "bcd1838ca1ca4916ec8ea135966c5460",
    "wof:id": 2047878791,
    "wof:repo": "sfomuseum-data-flights-2026-08"
  },
  "bbox": [
    -122.58972222222222,
    32.68333333333333,
    -116.95,
    37.67611111111111
  ],
  "geometry": {"type":"LineString","coordinates":[[-122.38333333333334,37.61666666666667],[-122.39416666666668,37.626666666666665],[-122.4,37.63333333333333],[-122.44388888888889,37.64861111111111],[-122.51888888888888,37.67611111111111],[-122.58972222222222,37.632222222222225],[-122.58749999999999,37.55083333333333],[-122.58361111111111,37.458333333333336],[-122.57916666666667,37.35416666666667],[-122.57416666666666,37.24472222222222],[-122.52111111111111,37.144999999999996],[-122.43583333333333,37.051944444444445],[-122.35083333333333,36.95805555555556],[-122.2611111111111,36.85944444444445],[-122.16861111111112,36.7575],[-122.0761111111111,36.65472222222222],[-121.96583333333334,36.55777777777777],[-121.84472222222222,36.47222222222222],[-121.7238888888889,36.38666666666666],[-121.60388888888889,36.301111111111105],[-121.48527777777778,36.21666666666667],[-121.36888888888888,36.13333333333333],[-121.255,36.05166666666666],[-121.14083333333333,35.96944444444445],[-121.02777777777777,35.8875],[-120.91777777777779,35.8075],[-120.80527777777777,35.725833333333334],[-120.69361111111111,35.64416666666666],[-120.58138888888888,35.56194444444444],[-120.4713888888889,35.48111111111111],[-120.35194444444444,35.39277777777778],[-120.24,35.309999999999995],[-120.12694444444443,35.225833333333334],[-120.01611111111112,35.14333333333333],[-119.90472222222223,35.059999999999995],[-119.79555555555555,34.97805555555556],[-119.68472222222222,34.89472222222222],[-119.575,34.81194444444444],[-119.46666666666667,34.730000000000004],[-119.36055555555555,34.64944444444444],[-119.24805555555555,34.56361111111111],[-119.1438888888889,34.48388888888889],[-118.92972222222222,34.31916666666667],[-118.8236111111111,34.23722222222222],[-118.7175,34.155277777777776],[-118.61083333333333,34.072500000000005],[-118.5038888888889,33.98916666666667],[-118.39694444444446,33.90555555555555],[-118.28527777777778,33.819722222222225],[-118.19166666666668,33.74777777777778],[-118.07777777777777,33.66111111111111],[-117.95,33.56666666666667],[-117.86055555555555,33.488055555555555],[-117.7625,33.40222222222222],[-117.6713888888889,33.316944444444445],[-117.5786111111111,33.23694444444445],[-117.49222222222222,33.160555555555554],[-117.40944444444445,33.08694444444445],[-117.33222222222221,33.018055555555556],[-117.26361111111112,32.95722222222223],[-117.25,32.95],[-117.19805555555556,32.89861111111111],[-117.18333333333334,32.88333333333333],[-117.13472222222222,32.841944444444444],[-117.07388888888889,32.78722222222222],[-117.00166666666667,32.76361111111111],[-116.955,32.728611111111114],[-116.95,32.71666666666667],[-116.99083333333333,32.68888888888888],[-117,32.68333333333333],[-117.05166666666666,32.7],[-117.06666666666666,32.7],[-117.10444444444444,32.71277777777778],[-117.14833333333334,32.72361111111111],[-117.16666666666667,32.733333333333334],[-117.19194444444445,32.73416666666667]]}
}
