{
  "id": 2032057271,
  "type": "Feature",
  "properties": {
    "geom:area": 0,
    "geom:bbox": "-122.367222,37.366667,-122.066667,37.617778",
    "geom:latitude": 37.48213353932225,
    "geom:longitude": -122.21823924646172,
    "src:alt_label": "swim-path",
    "src:geom": "swim",
    "swim:altitudes": [
      "103",
      "095",
      "091",
      "081",
      "070",
      "067",
      "058",
      "054",
      "046",
      "040",
      "040",
      "040",
      "040",
      "034",
      "026",
      "018",
      "012",
      "005",
      "003",
      "001"
    ],
    "swim:geom": "path",
    "swim:speeds": [
      265,
      267,
      265,
      259,
      258,
      258,
      257,
      251,
      197,
      197,
      195,
      193,
      186,
      163,
      162,
      157,
      148,
      136,
      125,
      117
    ],
    "swim:timestamps": [
      1785637119,
      1785637173,
      1785637179,
      1785637233,
      1785637293,
      1785637299,
      1785637353,
      1785637359,
      1785637419,
      1785637473,
      1785637479,
      1785637533,
      1785637539,
      1785637599,
      1785637659,
      1785637719,
      1785637773,
      1785637833,
      1785637839,
      1785637893
    ],
    "wof:geomhash": "bf74f3b6fef5ce48d6b96eefecf85301",
    "wof:id": 2032057271,
    "wof:repo": "sfomuseum-data-flights-2026-08"
  },
  "bbox": [
    -122.36722222222221,
    37.36666666666667,
    -122.06666666666666,
    37.617777777777775
  ],
  "geometry": {"coordinates":[[-122.33333333333333,37.55],[-122.30722222222222,37.50555555555555],[-122.3,37.483333333333334],[-122.30138888888888,37.43583333333333],[-122.27722222222222,37.376666666666665],[-122.25,37.36666666666667],[-122.19111111111111,37.3825],[-122.16666666666667,37.38333333333333],[-122.1,37.416666666666664],[-122.08138888888888,37.45166666666667],[-122.06666666666666,37.46666666666667],[-122.0936111111111,37.498333333333335],[-122.1,37.5],[-122.15,37.53333333333333],[-122.2,37.55],[-122.25,37.56666666666667],[-122.29194444444444,37.586111111111116],[-122.33416666666666,37.60388888888889],[-122.35,37.6],[-122.36722222222221,37.617777777777775]],"type":"LineString"}
}
