{
  "id": 2048066909,
  "type": "Feature",
  "properties": {
    "geom:area": 0,
    "geom:bbox": "-123.493610,37.625440,-122.391030,38.345640",
    "geom:latitude": 37.98678208027388,
    "geom:longitude": -122.9397385058625,
    "src:alt_label": "swim-takeoff",
    "src:geom": "swim",
    "swim:elevations": [
      122,
      275,
      494,
      819,
      1046,
      1100,
      1398,
      1445,
      2003,
      2178,
      2405,
      2869,
      3144,
      3169,
      3361,
      3447,
      3523,
      4026,
      4259,
      4511,
      4672,
      4967,
      5070,
      5202,
      5578,
      5700,
      5913
    ],
    "swim:geom": "takeoff",
    "swim:timestamps": [
      1787161107,
      1787161121,
      1787161145,
      1787161181,
      1787161220,
      1787161232,
      1787161285,
      1787161291,
      1787161343,
      1787161362,
      1787161386,
      1787161431,
      1787161463,
      1787161470,
      1787161525,
      1787161544,
      1787161564,
      1787161618,
      1787161638,
      1787161671,
      1787161693,
      1787161733,
      1787161753,
      1787161772,
      1787161816,
      1787161840,
      1787161870
    ],
    "wof:geomhash": "13bec9d12fc58e887995b135d23b07b6",
    "wof:id": 2048066909,
    "wof:repo": "sfomuseum-data-flights-2026-08"
  },
  "bbox": [
    -123.49361,
    37.62544,
    -122.39103,
    38.34564
  ],
  "geometry": {"type":"LineString","coordinates":[[-122.39103,37.62544],[-122.40276,37.63039],[-122.42465,37.64011],[-122.45896,37.65532],[-122.49762,37.67241],[-122.51063,37.67908],[-122.57386,37.71634],[-122.58147,37.72084],[-122.64961,37.76086],[-122.67457,37.77557],[-122.70677,37.79457],[-122.76476,37.83389],[-122.7955,37.871],[-122.80264,37.87946],[-122.86317,37.95184],[-122.88603,37.97936],[-122.91301,38.00508],[-123.01048,38.06523],[-123.04508,38.08584],[-123.1064,38.12146],[-123.14739,38.14518],[-123.22277,38.18883],[-123.25996,38.21044],[-123.29681,38.23188],[-123.38511,38.28331],[-123.43325,38.31106],[-123.49361,38.34564]]}
}
