{
  "id": 2047927709,
  "type": "Feature",
  "properties": {
    "geom:area": 0,
    "geom:bbox": "-122.754167,37.350000,-74.183333,45.867500",
    "geom:latitude": 43.21401072409114,
    "geom:longitude": -99.11722593561458,
    "src:alt_label": "swim-path",
    "src:geom": "swim",
    "swim:altitudes": [
      "006",
      "013",
      "021",
      "027",
      "040",
      "048",
      "071",
      "096",
      "112",
      "121",
      "135",
      "155",
      "171",
      "190",
      "205",
      "221",
      "239",
      "255",
      "262",
      "267",
      "274",
      "280",
      "297",
      "303",
      "312",
      "317",
      "324",
      "327",
      "333",
      "337",
      "340C",
      "340C",
      "340C",
      "340C",
      "340C",
      "340C",
      "340C",
      "340C",
      "340C",
      "340",
      "340",
      "336",
      "329",
      "324",
      "317",
      "311",
      "302C",
      "300C",
      "300C",
      "300C",
      "300C",
      "300C",
      "300C",
      "300C",
      "300C",
      "300C",
      "300C",
      "300C",
      "300C",
      "300C",
      "300C",
      "300C",
      "300C",
      "300C",
      "300C",
      "320C",
      "320C",
      "320C",
      "320C",
      "320C",
      "320C",
      "320C",
      "320C",
      "320C",
      "320C",
      "320C",
      "320C",
      "320C",
      "320C",
      "320C",
      "320",
      "327",
      "340C",
      "340C",
      "340C",
      "340C",
      "340C",
      "340C",
      "340C",
      "340C",
      "340C",
      "340C",
      "340C",
      "340C",
      "340C",
      "340C",
      "340C",
      "340C",
      "340C",
      "340C",
      "340C",
      "340C",
      "340C",
      "340C",
      "340C",
      "340C",
      "340C",
      "340C",
      "340C",
      "340C",
      "340C",
      "340C",
      "340C",
      "340C",
      "340C",
      "340C",
      "340C",
      "340C",
      "340C",
      "340C",
      "340C",
      "340C",
      "340C",
      "340C",
      "340C",
      "340C",
      "340C",
      "340C",
      "340C",
      "340C",
      "340C",
      "340C",
      "340C",
      "340C",
      "340C",
      "340C",
      "340C",
      "340C",
      "340C",
      "340C",
      "340C",
      "340C",
      "340C",
      "340C",
      "340C",
      "340C",
      "340C",
      "340C",
      "340C",
      "340C",
      "340C",
      "340C",
      "340C",
      "340C",
      "340C",
      "340C",
      "340C",
      "340C",
      "340C",
      "340C",
      "340C",
      "340C",
      "340C",
      "340C",
      "344",
      "356",
      "360C",
      "360C",
      "360C",
      "360C",
      "360C",
      "360C",
      "360C",
      "360C",
      "360C",
      "360C",
      "360C",
      "360C",
      "360C",
      "360C",
      "360C",
      "360C",
      "360C",
      "360C",
      "360C",
      "360C",
      "360C",
      "360C",
      "360C",
      "360C",
      "360C",
      "360C",
      "360C",
      "360C",
      "360C",
      "360C",
      "360C",
      "360C",
      "360C",
      "360C",
      "360C",
      "360C",
      "360C",
      "360C",
      "360C",
      "360C",
      "360C",
      "360C",
      "360C",
      "360C",
      "360C",
      "360C",
      "360C",
      "360C",
      "360C",
      "360C",
      "360C",
      "360C",
      "360C",
      "360C",
      "360C",
      "360C",
      "360C",
      "360C",
      "360C",
      "360C",
      "360C",
      "360C",
      "360C",
      "360C",
      "360C",
      "360C",
      "360C",
      "360C",
      "360C",
      "360C",
      "360C",
      "360C",
      "360C",
      "360C",
      "360C",
      "360C",
      "360C",
      "360C",
      "360C",
      "360C",
      "360C",
      "360C",
      "360C",
      "360C",
      "360C",
      "360C",
      "360C",
      "360C",
      "360C",
      "360C",
      "360C",
      "360C",
      "360C",
      "360C",
      "360C",
      "360C",
      "360C",
      "360C",
      "360C",
      "360C",
      "360C",
      "360C",
      "360C",
      "360C",
      "360C",
      "360C",
      "360C",
      "360C",
      "360C",
      "360C",
      "360C",
      "360C",
      "360C",
      "360C",
      "360C",
      "360C",
      "360C",
      "360C",
      "360C",
      "360C",
      "360C",
      "360C",
      "360C",
      "360C",
      "360C",
      "360C",
      "360C",
      "360C",
      "360C",
      "360C",
      "360C",
      "360C",
      "360C",
      "360C",
      "360C",
      "360C",
      "360C",
      "360C",
      "360C",
      "360C",
      "360C",
      "360C",
      "360C",
      "360C",
      "360C",
      "360C",
      "360C",
      "360C",
      "360C",
      "360C",
      "360C",
      "360C",
      "360C",
      "360C",
      "360C",
      "360C",
      "360C",
      "360C",
      "360C",
      "360C",
      "360C",
      "360C",
      "360C",
      "360C",
      "360C",
      "360C",
      "360C",
      "360C",
      "360C",
      "360C",
      "360C",
      "360C",
      "360C",
      "360C",
      "360C",
      "360C",
      "360C",
      "360C",
      "360C",
      "360C",
      "360C",
      "360C",
      "360C",
      "360C",
      "360C",
      "360C",
      "360",
      "360",
      "357",
      "340",
      "328",
      "310",
      "282",
      "262",
      "242",
      "221",
      "202",
      "191",
      "185",
      "166",
      "148",
      "146",
      "132",
      "125",
      "118",
      "113",
      "110",
      "110C",
      "110",
      "111C",
      "110",
      "101",
      "097",
      "090",
      "090",
      "084",
      "078",
      "070",
      "066",
      "060",
      "060",
      "058",
      "055",
      "051",
      "049",
      "041",
      "035",
      "027",
      "023",
      "017",
      "007",
      "005",
      "110"
    ],
    "swim:geom": "path",
    "swim:speeds": [
      182,
      183,
      218,
      224,
      250,
      248,
      264,
      273,
      298,
      343,
      345,
      354,
      373,
      386,
      379,
      376,
      367,
      367,
      378,
      405,
      427,
      427,
      411,
      407,
      401,
      398,
      396,
      395,
      395,
      394,
      393,
      393,
      393,
      394,
      395,
      395,
      396,
      397,
      396,
      396,
      392,
      390,
      389,
      389,
      389,
      389,
      395,
      396,
      398,
      398,
      400,
      400,
      401,
      401,
      401,
      401,
      401,
      401,
      402,
      402,
      402,
      403,
      403,
      402,
      401,
      403,
      400,
      402,
      404,
      405,
      406,
      408,
      410,
      411,
      411,
      410,
      409,
      408,
      407,
      406,
      405,
      402,
      397,
      393,
      392,
      391,
      385,
      383,
      379,
      378,
      378,
      377,
      378,
      379,
      379,
      379,
      379,
      379,
      379,
      380,
      380,
      380,
      381,
      382,
      382,
      383,
      384,
      385,
      387,
      387,
      388,
      388,
      390,
      390,
      393,
      394,
      396,
      397,
      398,
      400,
      402,
      403,
      403,
      404,
      406,
      406,
      408,
      408,
      408,
      409,
      408,
      409,
      409,
      410,
      411,
      411,
      412,
      412,
      412,
      413,
      414,
      414,
      413,
      413,
      413,
      413,
      413,
      413,
      413,
      414,
      415,
      415,
      416,
      417,
      417,
      418,
      419,
      419,
      420,
      420,
      421,
      421,
      422,
      422,
      423,
      421,
      419,
      421,
      420,
      416,
      416,
      413,
      415,
      414,
      413,
      414,
      412,
      410,
      409,
      410,
      407,
      406,
      406,
      405,
      406,
      407,
      408,
      409,
      410,
      410,
      411,
      412,
      412,
      411,
      412,
      412,
      411,
      411,
      410,
      410,
      410,
      410,
      410,
      409,
      409,
      409,
      409,
      409,
      409,
      409,
      409,
      409,
      409,
      410,
      410,
      410,
      411,
      411,
      412,
      411,
      411,
      411,
      410,
      410,
      409,
      409,
      407,
      407,
      407,
      407,
      404,
      404,
      405,
      406,
      408,
      409,
      409,
      409,
      409,
      408,
      408,
      407,
      406,
      406,
      406,
      405,
      403,
      402,
      403,
      403,
      405,
      407,
      408,
      408,
      407,
      406,
      404,
      403,
      403,
      404,
      404,
      405,
      405,
      405,
      404,
      405,
      406,
      409,
      410,
      411,
      412,
      414,
      414,
      416,
      417,
      417,
      418,
      418,
      417,
      417,
      417,
      416,
      416,
      416,
      416,
      416,
      416,
      417,
      418,
      420,
      421,
      419,
      421,
      420,
      420,
      421,
      421,
      421,
      421,
      421,
      420,
      421,
      421,
      421,
      421,
      421,
      421,
      422,
      422,
      422,
      423,
      422,
      423,
      422,
      422,
      421,
      421,
      421,
      420,
      420,
      420,
      420,
      420,
      421,
      421,
      421,
      422,
      422,
      422,
      422,
      422,
      422,
      423,
      424,
      425,
      427,
      428,
      430,
      431,
      432,
      433,
      434,
      435,
      435,
      436,
      435,
      454,
      452,
      442,
      436,
      415,
      397,
      397,
      396,
      395,
      401,
      412,
      414,
      423,
      417,
      405,
      396,
      386,
      376,
      377,
      368,
      349,
      351,
      343,
      345,
      311,
      303,
      281,
      270,
      244,
      248,
      248,
      242,
      243,
      237,
      240,
      226,
      229,
      236,
      232,
      239,
      239,
      240,
      239,
      216,
      212,
      205,
      207,
      198,
      201,
      192,
      162,
      158,
      128
    ],
    "swim:timestamps": [
      1786444162,
      1786444182,
      1786444222,
      1786444242,
      1786444282,
      1786444302,
      1786444362,
      1786444422,
      1786444482,
      1786444542,
      1786444602,
      1786444663,
      1786444723,
      1786444783,
      1786444843,
      1786444903,
      1786444963,
      1786445023,
      1786445083,
      1786445143,
      1786445203,
      1786445227,
      1786445263,
      1786445287,
      1786445323,
      1786445347,
      1786445384,
      1786445407,
      1786445444,
      1786445467,
      1786445504,
      1786445527,
      1786445564,
      1786445587,
      1786445624,
      1786445647,
      1786445684,
      1786445707,
      1786445744,
      1786445768,
      1786445804,
      1786445828,
      1786445864,
      1786445888,
      1786445924,
      1786445948,
      1786445984,
      1786446008,
      1786446044,
      1786446068,
      1786446104,
      1786446128,
      1786446165,
      1786446188,
      1786446225,
      1786446248,
      1786446285,
      1786446308,
      1786446345,
      1786446368,
      1786446405,
      1786446429,
      1786446489,
      1786446549,
      1786446609,
      1786447903,
      1786447963,
      1786448023,
      1786448083,
      1786448143,
      1786448203,
      1786448263,
      1786448323,
      1786448383,
      1786448443,
      1786448503,
      1786448563,
      1786448624,
      1786448684,
      1786448744,
      1786448804,
      1786448864,
      1786448924,
      1786448984,
      1786449044,
      1786449104,
      1786449837,
      1786449897,
      1786450017,
      1786450077,
      1786450137,
      1786450197,
      1786450257,
      1786450317,
      1786450377,
      1786450437,
      1786450497,
      1786450558,
      1786450618,
      1786450678,
      1786450738,
      1786450798,
      1786450858,
      1786450918,
      1786450978,
      1786451038,
      1786451098,
      1786451158,
      1786451218,
      1786451278,
      1786451339,
      1786451399,
      1786451519,
      1786451579,
      1786451699,
      1786451759,
      1786451819,
      1786451879,
      1786451939,
      1786452060,
      1786452180,
      1786452240,
      1786452300,
      1786452360,
      1786452420,
      1786452480,
      1786452600,
      1786452660,
      1786452720,
      1786452781,
      1786452841,
      1786452901,
      1786452961,
      1786453021,
      1786453081,
      1786453141,
      1786453261,
      1786453321,
      1786453381,
      1786453441,
      1786453501,
      1786453562,
      1786453622,
      1786453682,
      1786453742,
      1786453862,
      1786453922,
      1786453982,
      1786454042,
      1786454102,
      1786454162,
      1786454222,
      1786454283,
      1786454343,
      1786454403,
      1786454463,
      1786454523,
      1786454583,
      1786454643,
      1786454703,
      1786454763,
      1786454823,
      1786454883,
      1786454943,
      1786455004,
      1786455064,
      1786455119,
      1786455127,
      1786455187,
      1786455244,
      1786455307,
      1786455367,
      1786455420,
      1786455427,
      1786455480,
      1786455487,
      1786455547,
      1786455604,
      1786455668,
      1786455728,
      1786455785,
      1786455840,
      1786455848,
      1786455965,
      1786456028,
      1786456088,
      1786456145,
      1786456208,
      1786456261,
      1786456268,
      1786456329,
      1786456381,
      1786456389,
      1786456446,
      1786456501,
      1786456569,
      1786456621,
      1786456629,
      1786456686,
      1786456742,
      1786456749,
      1786456809,
      1786456862,
      1786456922,
      1786456929,
      1786456982,
      1786456989,
      1786457049,
      1786457102,
      1786457162,
      1786457170,
      1786457222,
      1786457230,
      1786457282,
      1786457290,
      1786457350,
      1786457410,
      1786457470,
      1786457530,
      1786457590,
      1786457643,
      1786457650,
      1786457703,
      1786457710,
      1786457763,
      1786457770,
      1786457823,
      1786457831,
      1786457883,
      1786457891,
      1786457951,
      1786458003,
      1786458063,
      1786458071,
      1786458124,
      1786458131,
      1786458184,
      1786458191,
      1786458251,
      1786458371,
      1786458431,
      1786458491,
      1786458552,
      1786458612,
      1786458672,
      1786458732,
      1786458792,
      1786458852,
      1786458912,
      1786458972,
      1786459032,
      1786459092,
      1786459152,
      1786459273,
      1786459333,
      1786459393,
      1786459453,
      1786459513,
      1786459573,
      1786459633,
      1786459693,
      1786459753,
      1786459813,
      1786459873,
      1786459933,
      1786459993,
      1786460054,
      1786460174,
      1786460234,
      1786460294,
      1786460354,
      1786460474,
      1786460534,
      1786460654,
      1786460714,
      1786460775,
      1786460835,
      1786460895,
      1786460955,
      1786461075,
      1786461135,
      1786461195,
      1786461255,
      1786461375,
      1786461435,
      1786461496,
      1786461556,
      1786461616,
      1786461676,
      1786461736,
      1786461796,
      1786461809,
      1786461856,
      1786461869,
      1786461930,
      1786461976,
      1786461990,
      1786462036,
      1786462050,
      1786462096,
      1786462110,
      1786462156,
      1786462170,
      1786462216,
      1786462230,
      1786462277,
      1786462290,
      1786462337,
      1786462350,
      1786462410,
      1786462470,
      1786462517,
      1786462530,
      1786462577,
      1786462590,
      1786462637,
      1786462697,
      1786462711,
      1786462757,
      1786462771,
      1786462817,
      1786462877,
      1786462891,
      1786462937,
      1786462951,
      1786462998,
      1786463011,
      1786463058,
      1786463071,
      1786463118,
      1786463131,
      1786463178,
      1786463191,
      1786463238,
      1786463251,
      1786463311,
      1786463371,
      1786463432,
      1786463492,
      1786463552,
      1786463612,
      1786463672,
      1786463732,
      1786463792,
      1786463852,
      1786463912,
      1786463972,
      1786464032,
      1786464092,
      1786464152,
      1786464213,
      1786464273,
      1786464333,
      1786464393,
      1786464453,
      1786464513,
      1786464573,
      1786464633,
      1786464693,
      1786464753,
      1786464813,
      1786464873,
      1786464933,
      1786464969,
      1786464994,
      1786465054,
      1786465114,
      1786465138,
      1786465169,
      1786465198,
      1786465234,
      1786465258,
      1786465294,
      1786465318,
      1786465353,
      1786465378,
      1786465414,
      1786465474,
      1786465498,
      1786465534,
      1786465558,
      1786465594,
      1786465618,
      1786465654,
      1786465678,
      1786465714,
      1786465739,
      1786465774,
      1786465799,
      1786465834,
      1786465859,
      1786465894,
      1786465919,
      1786465955,
      1786465979,
      1786466014,
      1786466074,
      1786466099,
      1786466159
    ],
    "wof:geomhash": "07b9dab98885c9ee273a4d072b8d3b33",
    "wof:id": 2047927709,
    "wof:repo": "sfomuseum-data-flights-2026-08"
  },
  "bbox": [
    -122.75416666666666,
    37.35,
    -74.18333333333334,
    45.8675
  ],
  "geometry": {"type":"LineString","coordinates":[[-74.18333333333334,40.666666666666664],[-74.1875,40.656666666666666],[-74.21666666666667,40.61666666666667],[-74.24055555555556,40.61638888888889],[-74.3,40.6],[-74.32555555555555,40.611666666666665],[-74.35305555555556,40.678888888888885],[-74.36833333333333,40.75361111111111],[-74.37916666666666,40.83277777777778],[-74.39555555555556,40.92444444444444],[-74.40555555555557,41.019444444444446],[-74.39666666666668,41.115],[-74.38277777777778,41.217222222222226],[-74.36833333333333,41.323888888888895],[-74.40277777777779,41.424166666666665],[-74.5213888888889,41.47833333333333],[-74.6261111111111,41.522777777777776],[-74.74277777777777,41.573055555555555],[-74.86194444444443,41.62444444444444],[-74.99,41.678888888888885],[-75.1275,41.73722222222222],[-75.17194444444445,41.75611111111111],[-75.2611111111111,41.79388888888889],[-75.30805555555555,41.81361111111111],[-75.39027777777778,41.84805555555556],[-75.43833333333333,41.86833333333333],[-75.51861111111111,41.901944444444446],[-75.56555555555555,41.92166666666667],[-75.64500000000001,41.95472222222222],[-75.69416666666667,41.975],[-75.77222222222223,42.0075],[-75.82166666666666,42.02777777777778],[-75.91333333333334,42.06583333333333],[-75.95111111111112,42.081388888888895],[-76.04305555555555,42.119166666666665],[-76.08111111111111,42.13472222222222],[-76.17416666666666,42.16972222222222],[-76.21555555555555,42.18333333333333],[-76.31027777777777,42.21361111111111],[-76.35166666666666,42.22666666666667],[-76.44388888888889,42.255833333333335],[-76.49944444444445,42.27361111111111],[-76.5775,42.29833333333333],[-76.63305555555554,42.316111111111105],[-76.71138888888889,42.340833333333336],[-76.7675,42.35861111111111],[-76.84638888888888,42.38333333333333],[-76.90333333333334,42.401111111111106],[-76.98472222222222,42.42666666666666],[-77.04194444444444,42.44444444444444],[-77.12555555555555,42.47027777777778],[-77.1825,42.488055555555555],[-77.26388888888889,42.513333333333335],[-77.32194444444444,42.53111111111111],[-77.4038888888889,42.55638888888888],[-77.46083333333334,42.573888888888895],[-77.5425,42.598888888888894],[-77.5886111111111,42.613055555555555],[-77.69333333333334,42.64472222222222],[-77.72833333333334,42.655277777777776],[-77.8325,42.68527777777778],[-77.86805555555554,42.69499999999999],[-78.01194444444444,42.734722222222224],[-78.15305555555557,42.77388888888889],[-78.29416666666667,42.812777777777775],[-81.36305555555555,43.74305555555556],[-81.51138888888889,43.78638888888889],[-81.65472222222223,43.82777777777778],[-81.80027777777778,43.86972222222222],[-81.94555555555556,43.91166666666666],[-82.09138888888889,43.95305555555556],[-82.23555555555555,43.99638888888889],[-82.37972222222221,44.04472222222222],[-82.52972222222222,44.08527777777778],[-82.68055555555556,44.11972222222222],[-82.83111111111111,44.153888888888886],[-82.97944444444444,44.187777777777775],[-83.13083333333333,44.222500000000004],[-83.27805555555555,44.255833333333335],[-83.42944444444444,44.29],[-83.57777777777777,44.323055555555555],[-83.72694444444444,44.35611111111111],[-83.87444444444444,44.38861111111111],[-84.01666666666667,44.41972222222222],[-84.16111111111111,44.45111111111111],[-84.30805555555555,44.48277777777778],[-86.08222222222221,44.848333333333336],[-86.22583333333334,44.87638888888889],[-86.50972222222222,44.93138888888889],[-86.65027777777779,44.958333333333336],[-86.79722222222222,44.986666666666665],[-86.9413888888889,45.013888888888886],[-87.08388888888888,45.04083333333333],[-87.2275,45.06777777777778],[-87.37055555555555,45.094166666666666],[-87.51472222222222,45.12083333333334],[-87.65972222222223,45.14722222222222],[-87.80416666666666,45.17333333333333],[-87.94777777777779,45.19916666666666],[-88.09222222222222,45.225],[-88.2388888888889,45.25111111111111],[-88.3825,45.27611111111111],[-88.52916666666667,45.30166666666666],[-88.68027777777779,45.32777777777778],[-88.8286111111111,45.35305555555556],[-88.97361111111111,45.37777777777778],[-89.12138888888889,45.40277777777778],[-89.26944444444445,45.427499999999995],[-89.41805555555555,45.45194444444445],[-89.56694444444445,45.47638888888889],[-89.71861111111112,45.50111111111111],[-89.86638888888888,45.52472222222222],[-90.16722222222222,45.572500000000005],[-90.31805555555555,45.596111111111114],[-90.62027777777777,45.643055555555556],[-90.7713888888889,45.66611111111111],[-90.92750000000001,45.68944444444444],[-91.08111111111111,45.712500000000006],[-91.23388888888888,45.735],[-91.54777777777778,45.780833333333334],[-91.8586111111111,45.82527777777778],[-92.01666666666667,45.847500000000004],[-92.1738888888889,45.8675],[-92.33472222222221,45.86416666666667],[-92.495,45.85583333333334],[-92.6563888888889,45.84777777777778],[-92.9786111111111,45.831388888888895],[-93.13972222222223,45.82277777777778],[-93.30166666666666,45.81388888888888],[-93.4625,45.80472222222222],[-93.6563888888889,45.79361111111111],[-93.8175,45.78388888888889],[-93.97805555555556,45.774166666666666],[-94.14083333333333,45.76416666666667],[-94.30222222222221,45.75361111111111],[-94.46472222222222,45.74305555555556],[-94.78972222222222,45.721111111111114],[-94.9525,45.71],[-95.11638888888888,45.69833333333333],[-95.27888888888889,45.686388888888885],[-95.44194444444445,45.67444444444444],[-95.60555555555555,45.66222222222222],[-95.76972222222223,45.64944444444444],[-95.93111111111112,45.636944444444445],[-96.09388888888888,45.62388888888889],[-96.41638888888889,45.597500000000004],[-96.57694444444444,45.58388888888889],[-96.73805555555556,45.57],[-96.90166666666667,45.55583333333333],[-97.06333333333333,45.541666666666664],[-97.22527777777778,45.526944444444446],[-97.38722222222223,45.51222222222222],[-97.55166666666666,45.496944444444445],[-97.71416666666667,45.481388888888894],[-97.87833333333333,45.465833333333336],[-98.04027777777777,45.45],[-98.20305555555557,45.43388888888889],[-98.36833333333333,45.41722222222222],[-98.53361111111111,45.403055555555554],[-98.69833333333334,45.38861111111111],[-98.86138888888888,45.37388888888889],[-99.0275,45.35861111111111],[-99.19194444444445,45.343333333333334],[-99.35527777777777,45.32777777777778],[-99.52111111111111,45.31194444444444],[-99.68444444444445,45.29611111111111],[-99.84083333333332,45.28111111111111],[-99.865,45.278055555555554],[-100.02694444444444,45.26111111111111],[-100.16194444444444,45.244166666666665],[-100.3436111111111,45.21],[-100.50111111111111,45.17944444444444],[-100.62805555555555,45.15611111111111],[-100.65944444444445,45.14833333333333],[-100.78472222222221,45.12638888888889],[-100.81388888888888,45.11972222222222],[-100.96583333333334,45.09055555555556],[-101.12472222222222,45.06111111111111],[-101.27222222222223,45.03194444444444],[-101.43388888888889,44.999722222222225],[-101.58333333333333,44.971111111111114],[-101.70527777777778,44.94694444444444],[-101.735,44.941111111111105],[-102.04222222222222,44.879444444444445],[-102.19611111111111,44.848333333333336],[-102.34944444444444,44.816944444444445],[-102.49944444444445,44.78611111111111],[-102.65555555555557,44.75388888888889],[-102.77638888888889,44.728611111111114],[-102.8111111111111,44.72138888888889],[-102.96277777777777,44.68944444444444],[-103.08361111111111,44.663888888888884],[-103.11722222222221,44.656666666666666],[-103.26777777777778,44.62444444444444],[-103.39111111111112,44.59805555555556],[-103.57638888888889,44.55777777777777],[-103.69611111111111,44.531666666666666],[-103.72833333333334,44.52472222222222],[-103.87972222222221,44.49138888888889],[-104.00222222222222,44.46416666666667],[-104.03222222222222,44.4575],[-104.1825,44.42388888888889],[-104.30444444444444,44.39666666666667],[-104.45472222222223,44.36277777777778],[-104.48555555555555,44.355555555555554],[-104.60583333333332,44.32833333333333],[-104.63611111111112,44.32138888888889],[-104.78666666666666,44.286944444444444],[-104.90472222222223,44.25972222222222],[-105.05638888888889,44.224444444444444],[-105.08722222222222,44.217222222222226],[-105.23444444444445,44.18277777777777],[-105.23694444444445,44.18222222222222],[-105.38444444444445,44.14722222222222],[-105.38722222222223,44.14666666666667],[-105.53527777777778,44.111666666666665],[-105.68722222222223,44.07527777777778],[-105.83555555555554,44.03944444444444],[-105.9875,44.00277777777778],[-106.13722222222223,43.96611111111111],[-106.285,43.93],[-106.285,43.93],[-106.43333333333334,43.89333333333333],[-106.43333333333334,43.89333333333333],[-106.58138888888888,43.85638888888889],[-106.58138888888888,43.85638888888889],[-106.72833333333334,43.819722222222225],[-106.72833333333334,43.819722222222225],[-106.87555555555555,43.782777777777774],[-106.87555555555555,43.782777777777774],[-107.04277777777777,43.74027777777778],[-107.15861111111111,43.71083333333333],[-107.30555555555556,43.67305555555555],[-107.33666666666666,43.665],[-107.45472222222223,43.63444444444444],[-107.48555555555555,43.62638888888889],[-107.60222222222221,43.596111111111114],[-107.63138888888888,43.58861111111111],[-107.78055555555555,43.54944444444444],[-108.07416666666666,43.471944444444446],[-108.22,43.433055555555555],[-108.36416666666666,43.394444444444446],[-108.51027777777777,43.355000000000004],[-108.65416666666667,43.31583333333333],[-108.80083333333333,43.27583333333333],[-108.94361111111111,43.236666666666665],[-109.08722222222222,43.19694444444444],[-109.2286111111111,43.157777777777774],[-109.37277777777777,43.117222222222225],[-109.51638888888888,43.07694444444445],[-109.65972222222223,43.03638888888889],[-109.80444444444444,42.99527777777778],[-109.94555555555556,42.955000000000005],[-110.23388888888888,42.871944444444445],[-110.37694444444443,42.830000000000005],[-110.51944444444445,42.788333333333334],[-110.65944444444445,42.74722222222222],[-110.80111111111111,42.70527777777778],[-110.92277777777778,42.66916666666666],[-111.0761111111111,42.623333333333335],[-111.21694444444445,42.58083333333334],[-111.35694444444444,42.53861111111111],[-111.49722222222222,42.49611111111111],[-111.6375,42.45305555555556],[-111.77805555555555,42.41],[-111.91583333333334,42.367222222222225],[-112.05583333333333,42.323888888888895],[-112.33972222222222,42.235],[-112.48194444444445,42.190555555555555],[-112.62527777777777,42.152499999999996],[-112.77111111111111,42.112500000000004],[-113.05833333333334,42.0325],[-113.20444444444445,41.99166666666667],[-113.49194444444444,41.910555555555554],[-113.63805555555557,41.86888888888889],[-113.7825,41.8275],[-113.92888888888889,41.785555555555554],[-114.07277777777777,41.743611111111115],[-114.21638888888889,41.70194444444445],[-114.52333333333333,41.611666666666665],[-114.66638888888889,41.56944444444445],[-114.78972222222222,41.532777777777774],[-114.95333333333333,41.48361111111111],[-115.2375,41.397777777777776],[-115.38055555555555,41.35416666666667],[-115.52222222222223,41.31083333333333],[-115.66472222222222,41.26694444444444],[-115.80583333333333,41.223333333333336],[-115.94944444444445,41.17861111111111],[-116.09166666666667,41.134166666666665],[-116.23388888888888,41.089444444444446],[-116.23666666666666,41.08972222222222],[-116.37833333333333,41.04361111111111],[-116.4063888888889,41.034166666666664],[-116.54944444444445,40.98972222222222],[-116.66166666666668,40.95333333333333],[-116.69166666666668,40.94499999999999],[-116.80194444444444,40.90833333333333],[-116.8325,40.899166666666666],[-116.94333333333334,40.862500000000004],[-116.97361111111111,40.85277777777778],[-117.08361111111111,40.81722222222223],[-117.11305555555555,40.8075],[-117.22500000000001,40.77111111111111],[-117.25305555555556,40.761944444444445],[-117.36444444444444,40.72527777777778],[-117.3963888888889,40.715],[-117.50527777777778,40.678888888888885],[-117.53694444444444,40.66861111111111],[-117.67722222222223,40.621944444444445],[-117.81833333333333,40.575],[-117.92861111111111,40.53805555555555],[-117.9575,40.52833333333333],[-118.06722222222221,40.49138888888889],[-118.09944444444444,40.480555555555554],[-118.2075,40.44416666666666],[-118.34638888888888,40.39666666666667],[-118.37777777777777,40.38527777777778],[-118.48388888888888,40.343333333333334],[-118.5125,40.33166666666667],[-118.61555555555555,40.28972222222222],[-118.75277777777778,40.23388888888889],[-118.78194444444445,40.22222222222222],[-118.8863888888889,40.17944444444444],[-118.91583333333334,40.1675],[-119.02194444444444,40.12388888888889],[-119.05055555555555,40.11222222222222],[-119.1538888888889,40.06944444444445],[-119.18361111111112,40.05722222222222],[-119.29027777777777,40.01305555555555],[-119.31888888888888,40.00111111111111],[-119.42500000000001,39.95805555555556],[-119.45222222222222,39.94777777777777],[-119.56333333333333,39.9075],[-119.5925,39.89694444444444],[-119.73305555555555,39.84583333333334],[-119.90055555555556,39.78444444444444],[-120.03944444444444,39.733333333333334],[-120.18083333333334,39.68111111111111],[-120.32249999999999,39.62833333333333],[-120.46194444444444,39.57638888888889],[-120.60416666666666,39.52305555555555],[-120.74333333333334,39.470555555555556],[-120.885,39.41694444444444],[-121.02333333333333,39.36416666666667],[-121.15805555555556,39.301944444444445],[-121.31194444444444,39.276944444444446],[-121.46444444444445,39.31305555555555],[-121.61333333333333,39.35277777777778],[-121.76194444444444,39.3925],[-121.9088888888889,39.40361111111111],[-122.0125,39.33277777777778],[-122.08027777777778,39.235],[-122.14555555555556,39.13972222222222],[-122.2125,39.0425],[-122.27944444444444,38.945277777777775],[-122.34861111111111,38.844166666666666],[-122.41833333333334,38.742222222222225],[-122.49333333333334,38.63138888888889],[-122.56333333333333,38.52777777777778],[-122.62972222222221,38.42944444444444],[-122.69527777777778,38.331944444444446],[-122.75416666666666,38.23722222222222],[-122.75,38.166666666666664],[-122.74194444444444,38.13527777777778],[-122.71277777777777,38.03666666666666],[-122.68333333333334,37.93333333333333],[-122.68,37.92388888888889],[-122.63333333333334,37.86666666666667],[-122.60416666666666,37.833333333333336],[-122.55,37.78333333333333],[-122.53194444444445,37.766666666666666],[-122.48333333333333,37.71666666666667],[-122.46888888888888,37.70666666666667],[-122.43333333333334,37.666666666666664],[-122.41305555555556,37.654444444444444],[-122.36666666666666,37.61666666666667],[-122.33333333333333,37.55],[-122.32777777777777,37.538888888888884],[-122.3,37.5],[-122.29027777777777,37.47944444444445],[-122.28333333333333,37.43333333333333],[-122.2911111111111,37.41305555555555],[-122.3,37.36666666666667],[-122.2925,37.35444444444445],[-122.23333333333333,37.35],[-122.21777777777778,37.352222222222224],[-122.18333333333334,37.38333333333333],[-122.17305555555556,37.405277777777776],[-122.16666666666667,37.45],[-122.1588888888889,37.464444444444446],[-122.16666666666667,37.5],[-122.17611111111111,37.52027777777778],[-122.2,37.55],[-122.22333333333333,37.558055555555555],[-122.26666666666667,37.583333333333336],[-122.31666666666666,37.6],[-122.335,37.60416666666667],[-122.37333333333332,37.62027777777778]]}
}
