{
  "id": 2047897857,
  "type": "Feature",
  "properties": {
    "geom:area": 0,
    "geom:bbox": "-122.358340,37.492730,-121.264270,37.614450",
    "geom:latitude": 37.542227517076924,
    "geom:longitude": -121.81837161674342,
    "src:alt_label": "swim-approach",
    "src:geom": "swim",
    "swim:elevations": [
      4673,
      4454,
      4079,
      3901,
      3482,
      3209,
      2894,
      2713,
      2528,
      2322,
      2139,
      1974,
      1781,
      1626,
      1480,
      1359,
      1286,
      1094,
      1051,
      1029,
      780,
      650,
      548,
      487,
      473,
      344,
      237,
      80,
      0
    ],
    "swim:geom": "approach",
    "swim:timestamps": [
      1786280946,
      1786280974,
      1786281015,
      1786281039,
      1786281069,
      1786281131,
      1786281176,
      1786281201,
      1786281230,
      1786281260,
      1786281291,
      1786281322,
      1786281358,
      1786281383,
      1786281404,
      1786281426,
      1786281440,
      1786281476,
      1786281486,
      1786281490,
      1786281538,
      1786281566,
      1786281584,
      1786281608,
      1786281618,
      1786281641,
      1786281672,
      1786281716,
      1786281734
    ],
    "wof:geomhash": "e2ab340a714141202e2829a2b7b44276",
    "wof:id": 2047897857,
    "wof:repo": "sfomuseum-data-flights-2026-08"
  },
  "bbox": [
    -122.35834,
    37.49273,
    -121.26427,
    37.61445
  ],
  "geometry": {"type":"LineString","coordinates":[[-121.26427,37.59244],[-121.31968,37.58608],[-121.40425,37.57651],[-121.45092,37.57103],[-121.50876,37.56412],[-121.62354,37.55012],[-121.69852,37.53288],[-121.73706,37.52371],[-121.78198,37.513],[-121.82737,37.5022],[-121.87274,37.49273],[-121.92146,37.49365],[-121.97493,37.49666],[-122.01144,37.49877],[-122.04193,37.50048],[-122.07123,37.50209],[-122.08998,37.50392],[-122.13386,37.51916],[-122.14484,37.52372],[-122.14941,37.52563],[-122.20089,37.54773],[-122.22871,37.55953],[-122.24592,37.56671],[-122.26846,37.57613],[-122.27693,37.57988],[-122.29492,37.58739],[-122.31664,37.59644],[-122.34746,37.60948],[-122.35834,37.61445]]}
}
