{
  "id": 2048039191,
  "type": "Feature",
  "properties": {
    "geom:area": 0,
    "geom:bbox": "-122.405350,37.624940,-122.112990,38.506170",
    "geom:latitude": 38.03290617083505,
    "geom:longitude": -122.21414707791625,
    "src:alt_label": "swim-takeoff",
    "src:geom": "swim",
    "swim:elevations": [
      152,
      366,
      635,
      893,
      1206,
      1933,
      2168,
      2787,
      3191,
      3478,
      3836,
      4324,
      4589,
      5203,
      5625,
      5868,
      6336,
      6473,
      6957,
      7100,
      7629
    ],
    "swim:geom": "takeoff",
    "swim:timestamps": [
      1786951184,
      1786951206,
      1786951251,
      1786951274,
      1786951294,
      1786951341,
      1786951358,
      1786951401,
      1786951429,
      1786951464,
      1786951490,
      1786951525,
      1786951541,
      1786951585,
      1786951617,
      1786951637,
      1786951676,
      1786951687,
      1786951728,
      1786951744,
      1786951793
    ],
    "wof:geomhash": "51d1558032683ebd1fee015a8d79e673",
    "wof:id": 2048039191,
    "wof:repo": "sfomuseum-data-flights-2026-08"
  },
  "bbox": [
    -122.40535,
    37.62494,
    -122.11299,
    38.50617
  ],
  "geometry": {"type":"LineString","coordinates":[[-122.38969,37.62494],[-122.40535,37.63683],[-122.37853,37.66933],[-122.34441,37.67107],[-122.31512,37.68003],[-122.28589,37.73394],[-122.28161,37.75643],[-122.26658,37.81451],[-122.25436,37.85233],[-122.2389,37.90397],[-122.22693,37.94539],[-122.2105,38.00235],[-122.20285,38.0284],[-122.18094,38.10262],[-122.16428,38.15999],[-122.15408,38.19541],[-122.13256,38.26872],[-122.12633,38.29021],[-122.11559,38.37194],[-122.11492,38.40445],[-122.11299,38.50617]]}
}
