{
  "id": 2048053929,
  "type": "Feature",
  "properties": {
    "geom:area": 0,
    "geom:bbox": "-122.560890,36.720750,-121.476570,37.672730",
    "geom:latitude": 37.226898232113825,
    "geom:longitude": -122.08970498394795,
    "src:alt_label": "swim-takeoff",
    "src:geom": "swim",
    "swim:elevations": [
      122,
      408,
      584,
      1085,
      1294,
      1791,
      2172,
      2348,
      2822,
      3079,
      3252,
      3674,
      4047,
      4273,
      4672,
      4953,
      5215,
      5434,
      5521,
      5805,
      6254,
      6525,
      6774,
      6824,
      6940,
      7067,
      7295,
      7623,
      7779,
      8026,
      8071,
      8117,
      8320,
      8415,
      8478
    ],
    "swim:geom": "takeoff",
    "swim:timestamps": [
      1787085263,
      1787085282,
      1787085303,
      1787085357,
      1787085380,
      1787085418,
      1787085445,
      1787085457,
      1787085490,
      1787085511,
      1787085538,
      1787085565,
      1787085593,
      1787085611,
      1787085646,
      1787085672,
      1787085716,
      1787085742,
      1787085751,
      1787085785,
      1787085832,
      1787085865,
      1787085892,
      1787085897,
      1787085910,
      1787085931,
      1787085963,
      1787086011,
      1787086034,
      1787086067,
      1787086076,
      1787086082,
      1787086124,
      1787086160,
      1787086172
    ],
    "wof:geomhash": "ffe2df39d73593fdf7f467fcadeb0172",
    "wof:id": 2048053929,
    "wof:repo": "sfomuseum-data-flights-2026-08"
  },
  "bbox": [
    -122.56089,
    36.72075,
    -121.47657,
    37.67273
  ],
  "geometry": {"type":"LineString","coordinates":[[-122.38289,37.62428],[-122.39837,37.63087],[-122.41655,37.63852],[-122.47806,37.66325],[-122.50894,37.67273],[-122.55785,37.65037],[-122.56089,37.61536],[-122.55102,37.6016],[-122.51819,37.56658],[-122.49662,37.54396],[-122.46764,37.51382],[-122.4369,37.48224],[-122.40482,37.44996],[-122.38421,37.4299],[-122.34131,37.38949],[-122.30561,37.36341],[-122.23953,37.31502],[-122.19798,37.28428],[-122.18369,37.2738],[-122.1292,37.23351],[-122.05319,37.17731],[-121.9979,37.13629],[-121.9535,37.10335],[-121.9452,37.09711],[-121.92296,37.08055],[-121.88623,37.05321],[-121.83218,37.01293],[-121.75043,36.95057],[-121.70982,36.91779],[-121.65609,36.87122],[-121.64099,36.85878],[-121.63095,36.85048],[-121.56048,36.79162],[-121.49684,36.73787],[-121.47657,36.72075]]}
}
