{
  "id": 2032129555,
  "type": "Feature",
  "properties": {
    "geom:area": 0,
    "geom:bbox": "-122.351111,33.650000,-84.250000,38.460556",
    "geom:latitude": 37.09948358307604,
    "geom:longitude": -102.97098570020667,
    "src:alt_label": "swim-path",
    "src:geom": "swim",
    "swim:altitudes": [
      "019",
      "035",
      "044",
      "060",
      "069",
      "091",
      "109",
      "130",
      "150",
      "173",
      "205",
      "217",
      "228",
      "234",
      "256",
      "267",
      "276",
      "285",
      "290",
      "290",
      "297",
      "302",
      "312",
      "319C",
      "320C",
      "320C",
      "320C",
      "320C",
      "320C",
      "320C",
      "320C",
      "320C",
      "320C",
      "320C",
      "320C",
      "320C",
      "320C",
      "325",
      "337",
      "340C",
      "340C",
      "340C",
      "340C",
      "340C",
      "340C",
      "340C",
      "340C",
      "340C",
      "340C",
      "340C",
      "340C",
      "340C",
      "340C",
      "340C",
      "340C",
      "340C",
      "340C",
      "340C",
      "340C",
      "340C",
      "340C",
      "340C",
      "340C",
      "340C",
      "340C",
      "340C",
      "340C",
      "340C",
      "340C",
      "340C",
      "340C",
      "340C",
      "340C",
      "340C",
      "340C",
      "340C",
      "340C",
      "340C",
      "340C",
      "340C",
      "340C",
      "340C",
      "340C",
      "340C",
      "340C",
      "340C",
      "340C",
      "340C",
      "340C",
      "340C",
      "340C",
      "340C",
      "340C",
      "340C",
      "340C",
      "340C",
      "340C",
      "340C",
      "340C",
      "340C",
      "340C",
      "340C",
      "340C",
      "340C",
      "340C",
      "340C",
      "340C",
      "340C",
      "340C",
      "340C",
      "340C",
      "340C",
      "340C",
      "340C",
      "340C",
      "340C",
      "340C",
      "340C",
      "340C",
      "340C",
      "340C",
      "340C",
      "340C",
      "340C",
      "340C",
      "340C",
      "340C",
      "340C",
      "340C",
      "340C",
      "340C",
      "340C",
      "340C",
      "340C",
      "340C",
      "340C",
      "340C",
      "340C",
      "340C",
      "340C",
      "340C",
      "340C",
      "340C",
      "340C",
      "340C",
      "340C",
      "340C",
      "340C",
      "340C",
      "340C",
      "340C",
      "340C",
      "340C",
      "340C",
      "340C",
      "340C",
      "340C",
      "340C",
      "340C",
      "340C",
      "340C",
      "340C",
      "340C",
      "340C",
      "340C",
      "340C",
      "340C",
      "340C",
      "340C",
      "340C",
      "340C",
      "340C",
      "340C",
      "340C",
      "340C",
      "340C",
      "340C",
      "340C",
      "340C",
      "340C",
      "340C",
      "340C",
      "340C",
      "340C",
      "340C",
      "340C",
      "340C",
      "340C",
      "340C",
      "340C",
      "340C",
      "340C",
      "340C",
      "340C",
      "340C",
      "340C",
      "340C",
      "340C",
      "340C",
      "340C",
      "340C",
      "340C",
      "340C",
      "340C",
      "340C",
      "344",
      "351",
      "358C",
      "360C",
      "360C",
      "360C",
      "360C",
      "360C",
      "360C",
      "360C",
      "360C",
      "360C",
      "360C",
      "360C",
      "360C",
      "360C",
      "360C",
      "360C",
      "360C",
      "360C",
      "360C",
      "360C",
      "360C",
      "360C",
      "360C",
      "360C",
      "360C",
      "360C",
      "360C",
      "360C",
      "360C",
      "360C",
      "360C",
      "360C",
      "360C",
      "360C",
      "360C",
      "360C",
      "360C",
      "360C",
      "360C",
      "360C",
      "360C",
      "360C",
      "360C",
      "360C",
      "360C",
      "360C",
      "360C",
      "360C",
      "360C",
      "360C",
      "360C",
      "360C",
      "360C",
      "360C",
      "360C",
      "360C",
      "360C",
      "360C",
      "360C",
      "360C",
      "360C",
      "360C",
      "360C",
      "360C",
      "360C",
      "360C",
      "360C",
      "360C",
      "360C",
      "360C",
      "360C",
      "360C",
      "360C",
      "356",
      "346",
      "340C",
      "340C",
      "340C",
      "340C",
      "340C",
      "340",
      "314",
      "284",
      "280",
      "280",
      "280",
      "260",
      "233",
      "209",
      "188",
      "161",
      "138",
      "118",
      "107",
      "092",
      "074",
      "060",
      "048",
      "038",
      "027",
      "018",
      "009",
      "001"
    ],
    "swim:geom": "path",
    "swim:speeds": [
      188,
      264,
      275,
      276,
      275,
      284,
      302,
      321,
      321,
      321,
      335,
      357,
      372,
      398,
      418,
      424,
      437,
      441,
      446,
      448,
      448,
      452,
      458,
      460,
      466,
      469,
      470,
      472,
      472,
      471,
      470,
      470,
      470,
      472,
      472,
      473,
      476,
      477,
      479,
      479,
      480,
      478,
      477,
      477,
      477,
      477,
      476,
      477,
      476,
      472,
      475,
      470,
      471,
      466,
      467,
      462,
      465,
      460,
      460,
      461,
      461,
      461,
      462,
      462,
      462,
      461,
      460,
      460,
      460,
      460,
      463,
      466,
      464,
      466,
      469,
      470,
      469,
      470,
      469,
      469,
      469,
      467,
      468,
      468,
      468,
      468,
      468,
      468,
      468,
      468,
      469,
      469,
      468,
      465,
      463,
      463,
      461,
      460,
      459,
      458,
      456,
      454,
      454,
      450,
      451,
      449,
      449,
      448,
      448,
      447,
      445,
      443,
      442,
      441,
      441,
      440,
      440,
      440,
      440,
      438,
      436,
      433,
      431,
      431,
      437,
      440,
      444,
      448,
      448,
      448,
      448,
      446,
      443,
      440,
      438,
      437,
      436,
      438,
      437,
      437,
      438,
      438,
      437,
      435,
      434,
      432,
      432,
      432,
      433,
      434,
      436,
      437,
      438,
      439,
      439,
      438,
      438,
      439,
      440,
      441,
      441,
      440,
      437,
      437,
      438,
      439,
      441,
      441,
      443,
      444,
      444,
      445,
      446,
      451,
      451,
      449,
      449,
      449,
      449,
      449,
      452,
      452,
      452,
      452,
      452,
      451,
      451,
      451,
      451,
      451,
      452,
      452,
      453,
      453,
      453,
      452,
      452,
      453,
      454,
      454,
      454,
      454,
      453,
      450,
      448,
      447,
      446,
      446,
      447,
      448,
      449,
      448,
      447,
      446,
      445,
      445,
      444,
      443,
      443,
      443,
      442,
      442,
      441,
      440,
      439,
      440,
      441,
      441,
      441,
      441,
      441,
      436,
      442,
      440,
      442,
      440,
      442,
      441,
      442,
      442,
      443,
      442,
      442,
      442,
      442,
      442,
      441,
      441,
      441,
      441,
      441,
      441,
      441,
      441,
      441,
      442,
      442,
      443,
      443,
      443,
      443,
      443,
      443,
      443,
      443,
      443,
      443,
      442,
      442,
      441,
      441,
      441,
      441,
      440,
      440,
      439,
      439,
      439,
      438,
      438,
      438,
      438,
      439,
      439,
      438,
      437,
      438,
      439,
      440,
      440,
      432,
      428,
      430,
      428,
      408,
      389,
      364,
      362,
      352,
      332,
      297,
      278,
      260,
      255,
      241,
      228,
      203,
      196,
      162,
      146
    ],
    "swim:timestamps": [
      1786044685,
      1786044763,
      1786044787,
      1786044823,
      1786044848,
      1786044908,
      1786044968,
      1786045028,
      1786045088,
      1786045148,
      1786045268,
      1786045331,
      1786045388,
      1786045448,
      1786045569,
      1786045632,
      1786045692,
      1786045749,
      1786045809,
      1786045869,
      1786045929,
      1786045989,
      1786046052,
      1786046109,
      1786046172,
      1786046229,
      1786046293,
      1786046350,
      1786046413,
      1786046473,
      1786046533,
      1786046593,
      1786046653,
      1786046713,
      1786046773,
      1786046833,
      1786046893,
      1786046953,
      1786047074,
      1786047134,
      1786047194,
      1786047254,
      1786047314,
      1786047374,
      1786047434,
      1786047494,
      1786047554,
      1786047562,
      1786047622,
      1786047674,
      1786047682,
      1786047734,
      1786047742,
      1786047795,
      1786047803,
      1786047855,
      1786047863,
      1786047915,
      1786047923,
      1786047975,
      1786047983,
      1786048035,
      1786048043,
      1786048095,
      1786048103,
      1786048155,
      1786048163,
      1786048215,
      1786048223,
      1786048283,
      1786048344,
      1786048395,
      1786048404,
      1786048464,
      1786048516,
      1786048524,
      1786048576,
      1786048584,
      1786048636,
      1786048644,
      1786048704,
      1786048756,
      1786048764,
      1786048816,
      1786048824,
      1786048876,
      1786048936,
      1786048944,
      1786048996,
      1786049005,
      1786049056,
      1786049065,
      1786049125,
      1786049185,
      1786049236,
      1786049305,
      1786049357,
      1786049417,
      1786049425,
      1786049477,
      1786049485,
      1786049537,
      1786049545,
      1786049597,
      1786049605,
      1786049657,
      1786049666,
      1786049717,
      1786049726,
      1786049786,
      1786049846,
      1786049906,
      1786049966,
      1786050026,
      1786050086,
      1786050146,
      1786050206,
      1786050266,
      1786050327,
      1786050387,
      1786050447,
      1786050507,
      1786050567,
      1786050628,
      1786050688,
      1786050748,
      1786050808,
      1786050864,
      1786050924,
      1786050984,
      1786051044,
      1786051104,
      1786051165,
      1786051225,
      1786051285,
      1786051345,
      1786051405,
      1786051465,
      1786051525,
      1786051585,
      1786051645,
      1786051705,
      1786051765,
      1786051825,
      1786051885,
      1786051946,
      1786052006,
      1786052066,
      1786052126,
      1786052186,
      1786052246,
      1786052306,
      1786052366,
      1786052426,
      1786052486,
      1786052546,
      1786052606,
      1786052667,
      1786052727,
      1786052787,
      1786052847,
      1786052907,
      1786052967,
      1786053027,
      1786053087,
      1786053147,
      1786053207,
      1786053267,
      1786053327,
      1786053388,
      1786053448,
      1786053508,
      1786053568,
      1786053627,
      1786053688,
      1786053748,
      1786053868,
      1786053928,
      1786053988,
      1786054048,
      1786054108,
      1786054168,
      1786054228,
      1786054288,
      1786054348,
      1786054409,
      1786054469,
      1786054529,
      1786054589,
      1786054649,
      1786054769,
      1786054829,
      1786054889,
      1786054949,
      1786055009,
      1786055069,
      1786055129,
      1786055190,
      1786055250,
      1786055310,
      1786055370,
      1786055430,
      1786055490,
      1786055551,
      1786055610,
      1786055671,
      1786055730,
      1786055790,
      1786055850,
      1786055911,
      1786055971,
      1786056031,
      1786056091,
      1786056151,
      1786056211,
      1786056271,
      1786056331,
      1786056391,
      1786056451,
      1786056511,
      1786056571,
      1786056631,
      1786056692,
      1786056752,
      1786056812,
      1786056872,
      1786056932,
      1786056992,
      1786057052,
      1786057112,
      1786057172,
      1786057194,
      1786057232,
      1786057254,
      1786057292,
      1786057315,
      1786057353,
      1786057375,
      1786057413,
      1786057435,
      1786057473,
      1786057495,
      1786057533,
      1786057555,
      1786057593,
      1786057615,
      1786057653,
      1786057675,
      1786057713,
      1786057735,
      1786057773,
      1786057795,
      1786057833,
      1786057855,
      1786057893,
      1786057915,
      1786057953,
      1786058013,
      1786058036,
      1786058073,
      1786058096,
      1786058134,
      1786058156,
      1786058194,
      1786058216,
      1786058254,
      1786058276,
      1786058314,
      1786058336,
      1786058374,
      1786058434,
      1786058456,
      1786058494,
      1786058516,
      1786058554,
      1786058576,
      1786058614,
      1786058636,
      1786058696,
      1786058757,
      1786058817,
      1786058877,
      1786058937,
      1786058997,
      1786059057,
      1786059117,
      1786059177,
      1786059237,
      1786059297,
      1786059357,
      1786059372,
      1786059418,
      1786059480,
      1786059538,
      1786059595,
      1786059655,
      1786059715,
      1786059775,
      1786059838,
      1786059898,
      1786059958,
      1786060018,
      1786060078,
      1786060139,
      1786060201,
      1786060261,
      1786060321,
      1786060379,
      1786060439,
      1786060499
    ],
    "wof:geomhash": "3f38c882f4ca0b3dbf782823df561839",
    "wof:id": 2032129555,
    "wof:repo": "sfomuseum-data-flights-2026-08"
  },
  "bbox": [
    -122.35111111111111,
    33.65,
    -84.25,
    38.46055555555556
  ],
  "geometry": {"type":"LineString","coordinates":[[-84.4,33.65],[-84.3,33.666666666666664],[-84.26638888888888,33.67194444444444],[-84.25,33.71666666666667],[-84.25472222222223,33.74472222222222],[-84.29583333333333,33.81472222222222],[-84.35722222222222,33.87888888888889],[-84.42055555555557,33.946666666666665],[-84.47305555555556,34.001666666666665],[-84.53361111111111,34.09388888888889],[-84.63777777777779,34.25833333333333],[-84.72777777777777,34.31777777777778],[-84.84166666666667,34.294999999999995],[-84.9675,34.26722222222222],[-85.2388888888889,34.269999999999996],[-85.39277777777778,34.29222222222222],[-85.54055555555556,34.31361111111111],[-85.67111111111112,34.330555555555556],[-85.8325,34.35166666666667],[-85.97972222222222,34.37111111111111],[-86.12972222222221,34.39111111111111],[-86.24777777777778,34.4075],[-86.4325,34.43694444444444],[-86.58166666666666,34.467777777777776],[-86.73527777777778,34.5],[-86.88694444444445,34.53583333333333],[-87.03999999999999,34.56666666666667],[-87.19361111111111,34.59305555555556],[-87.34805555555555,34.619166666666665],[-87.50305555555556,34.64388888888889],[-87.685,34.672777777777775],[-87.84138888888889,34.69277777777778],[-87.99833333333333,34.70638888888889],[-88.15555555555557,34.72027777777778],[-88.31222222222222,34.74333333333333],[-88.46611111111112,34.772777777777776],[-88.6261111111111,34.79888888888889],[-88.78277777777778,34.82277777777778],[-89.10249999999999,34.87277777777778],[-89.25194444444445,34.89055555555556],[-89.41361111111112,34.91083333333333],[-89.57305555555556,34.931666666666665],[-89.73444444444445,34.9525],[-89.89333333333335,34.971944444444446],[-90.05499999999999,34.99],[-90.21444444444445,35.00805555555556],[-90.37555555555555,35.026944444444446],[-90.37416666666665,35.02611111111111],[-90.53388888888888,35.04416666666666],[-90.69194444444445,35.0625],[-90.69305555555556,35.061388888888885],[-90.85916666666667,35.08083333333334],[-90.85,35.07972222222222],[-91.00888888888889,35.12083333333334],[-91.00666666666666,35.11944444444445],[-91.15222222222222,35.1675],[-91.15138888888889,35.16722222222222],[-91.29694444444445,35.21527777777778],[-91.295,35.21361111111111],[-91.44166666666668,35.26416666666667],[-91.44083333333333,35.26361111111111],[-91.58638888888889,35.31305555555555],[-91.58416666666666,35.31222222222222],[-91.70194444444445,35.35194444444445],[-91.73083333333334,35.36055555555556],[-91.87694444444443,35.41027777777778],[-91.8736111111111,35.41027777777778],[-92.02,35.45722222222223],[-92.0175,35.4575],[-92.16333333333334,35.50527777777778],[-92.31166666666667,35.55277777777778],[-92.46027777777778,35.60111111111111],[-92.45805555555556,35.600833333333334],[-92.6061111111111,35.65],[-92.75444444444445,35.69611111111111],[-92.75416666666666,35.698055555555555],[-92.90333333333334,35.743611111111115],[-92.90194444444445,35.74583333333334],[-93.05,35.79055555555556],[-93.08055555555555,35.8],[-93.22638888888889,35.846111111111114],[-93.34555555555555,35.88388888888889],[-93.3736111111111,35.89277777777778],[-93.49388888888889,35.93055555555555],[-93.52194444444444,35.93944444444444],[-93.64333333333335,35.977222222222224],[-93.79277777777777,36.02361111111111],[-93.82333333333332,36.033055555555556],[-93.94166666666668,36.069722222222225],[-93.97416666666666,36.07972222222222],[-94.09277777777777,36.11638888888889],[-94.12388888888889,36.12583333333333],[-94.27416666666666,36.171388888888885],[-94.41916666666667,36.21555555555556],[-94.53916666666666,36.25194444444445],[-94.71694444444445,36.305277777777775],[-94.83749999999999,36.34138888888889],[-94.98277777777778,36.38472222222222],[-95.01333333333334,36.39388888888889],[-95.12805555555555,36.42777777777778],[-95.16111111111111,36.437777777777775],[-95.27694444444444,36.47166666666667],[-95.30694444444444,36.480555555555554],[-95.42194444444445,36.51416666666667],[-95.4525,36.52305555555555],[-95.565,36.55583333333333],[-95.59861111111111,36.565555555555555],[-95.71111111111111,36.598333333333336],[-95.74166666666667,36.60722222222223],[-95.8875,36.64944444444444],[-96.02972222222222,36.69],[-96.17527777777778,36.73166666666667],[-96.31888888888888,36.77222222222222],[-96.46194444444444,36.8125],[-96.60638888888889,36.85333333333333],[-96.75361111111111,36.894444444444446],[-96.89972222222222,36.934999999999995],[-97.04416666666667,36.975],[-97.18833333333333,37.014722222222225],[-97.33111111111111,37.05361111111111],[-97.47416666666666,37.092222222222226],[-97.61777777777777,37.13111111111111],[-97.75972222222222,37.169444444444444],[-97.90222222222222,37.20722222222223],[-98.0475,37.24583333333334],[-98.16555555555556,37.27722222222222],[-98.31444444444445,37.31638888888889],[-98.47083333333333,37.358333333333334],[-98.61972222222222,37.39555555555555],[-98.76722222222222,37.43388888888889],[-98.91555555555556,37.47138888888889],[-99.06083333333333,37.50972222222222],[-99.20611111111111,37.54666666666667],[-99.35166666666666,37.5825],[-99.49555555555555,37.61888888888889],[-99.63944444444445,37.65472222222222],[-99.78416666666666,37.69],[-99.93222222222222,37.7275],[-100.07888888888888,37.76305555555555],[-100.2238888888889,37.79833333333333],[-100.36805555555554,37.833333333333336],[-100.51694444444445,37.869166666666665],[-100.66111111111111,37.903888888888886],[-100.80611111111111,37.92833333333333],[-100.95472222222223,37.94555555555555],[-101.13166666666666,37.96611111111111],[-101.28111111111112,37.98305555555556],[-101.43138888888889,37.999722222222225],[-101.58166666666666,38.016666666666666],[-101.73361111111112,38.033055555555556],[-101.88527777777779,38.04944444444444],[-102.03944444444444,38.066111111111105],[-102.19083333333333,38.081944444444446],[-102.34472222222222,38.09777777777778],[-102.49694444444445,38.11361111111111],[-102.65083333333334,38.12916666666667],[-102.80388888888889,38.14416666666666],[-102.95694444444445,38.159444444444446],[-103.11361111111111,38.17472222222222],[-103.26861111111111,38.18944444444444],[-103.42194444444445,38.20416666666667],[-103.57472222222222,38.218333333333334],[-103.72527777777778,38.23222222222223],[-103.8775,38.24583333333334],[-104.02916666666667,38.25944444444445],[-104.18472222222222,38.27305555555555],[-104.3386111111111,38.28638888888889],[-104.49361111111111,38.29944444444444],[-104.65,38.30972222222222],[-104.80361111111111,38.32027777777778],[-104.96027777777778,38.33111111111111],[-105.11805555555554,38.34166666666667],[-105.28277777777778,38.352222222222224],[-105.41722222222222,38.35861111111111],[-105.575,38.367777777777775],[-105.73111111111112,38.37694444444445],[-106.04777777777778,38.396388888888886],[-106.20444444444445,38.406666666666666],[-106.36472222222221,38.41555555555556],[-106.52583333333334,38.42361111111111],[-106.68666666666667,38.43194444444444],[-106.84666666666666,38.439722222222215],[-107.00694444444444,38.44777777777777],[-107.1675,38.4525],[-107.32694444444444,38.45194444444445],[-107.48555555555555,38.45305555555556],[-107.6463888888889,38.45305555555556],[-107.80694444444444,38.45277777777778],[-107.96694444444445,38.45305555555556],[-108.12666666666667,38.45194444444445],[-108.45027777777779,38.45111111111111],[-108.6111111111111,38.45],[-108.80499999999999,38.44944444444444],[-108.96444444444445,38.44777777777777],[-109.09388888888888,38.44638888888888],[-109.25361111111111,38.44444444444444],[-109.41361111111112,38.44194444444444],[-109.57527777777777,38.439722222222215],[-109.73583333333333,38.43694444444444],[-109.89916666666667,38.43416666666666],[-110.05805555555555,38.43111111111111],[-110.25166666666667,38.427499999999995],[-110.37722222222222,38.42444444444444],[-110.56833333333333,38.419999999999995],[-110.69583333333334,38.41694444444444],[-110.88444444444445,38.413888888888884],[-111.02083333333333,38.411944444444444],[-111.17916666666667,38.40888888888889],[-111.33722222222222,38.405833333333334],[-111.49638888888889,38.402499999999996],[-111.65555555555557,38.404444444444444],[-111.81388888888888,38.41111111111111],[-111.97,38.41722222222222],[-112.12722222222222,38.42333333333333],[-112.28111111111112,38.42944444444444],[-112.4375,38.43555555555555],[-112.59305555555555,38.44166666666666],[-112.74888888888889,38.44833333333333],[-112.90611111111112,38.45444444444445],[-113.06083333333333,38.46055555555556],[-113.21694444444445,38.45666666666667],[-113.37055555555555,38.443888888888885],[-113.52583333333334,38.43194444444444],[-113.67777777777778,38.419999999999995],[-113.83111111111111,38.4075],[-114.01861111111111,38.39194444444444],[-114.17333333333333,38.37888888888889],[-114.32833333333333,38.36555555555556],[-114.48222222222222,38.352222222222224],[-114.63694444444445,38.33833333333334],[-114.79138888888889,38.324444444444445],[-114.81777777777778,38.32277777777778],[-114.94694444444445,38.31055555555555],[-114.97361111111111,38.308611111111105],[-115.1,38.29611111111111],[-115.12888888888888,38.29472222222222],[-115.255,38.281666666666666],[-115.28388888888888,38.279444444444444],[-115.4063888888889,38.26722222222222],[-115.43972222222223,38.26444444444444],[-115.56388888888888,38.25222222222222],[-115.595,38.25055555555556],[-115.71722222222222,38.23722222222222],[-115.74944444444445,38.23444444444444],[-115.8711111111111,38.22166666666667],[-115.93444444444445,38.21527777777778],[-116.02722222222222,38.20638888888889],[-116.0911111111111,38.19972222222222],[-116.18,38.190555555555555],[-116.24472222222222,38.18388888888889],[-116.33444444444444,38.17472222222222],[-116.39888888888889,38.16777777777777],[-116.48805555555556,38.15861111111111],[-116.55138888888888,38.151666666666664],[-116.64277777777778,38.14194444444444],[-116.7088888888889,38.135],[-116.79805555555555,38.125277777777775],[-116.95472222222223,38.108333333333334],[-116.98777777777778,38.10472222222222],[-117.11138888888888,38.09111111111111],[-117.17055555555557,38.08444444444444],[-117.24194444444444,38.07638888888889],[-117.30749999999999,38.06916666666667],[-117.39916666666667,38.05888888888889],[-117.46444444444445,38.05138888888889],[-117.55638888888889,38.04083333333333],[-117.61861111111111,38.03361111111111],[-117.70805555555556,38.02333333333333],[-117.77305555555556,38.01583333333333],[-117.86444444444444,38.005],[-118.01555555555555,37.98722222222222],[-118.07833333333333,37.97972222222222],[-118.17111111111112,37.968611111111116],[-118.23333333333333,37.961111111111116],[-118.3236111111111,37.95027777777778],[-118.38555555555556,37.94277777777778],[-118.47527777777778,37.931666666666665],[-118.53611111111111,37.924166666666665],[-118.68805555555556,37.905277777777776],[-118.84194444444444,37.88666666666666],[-118.99444444444444,37.86944444444445],[-119.15055555555556,37.85166666666667],[-119.30305555555556,37.83388888888889],[-119.45555555555556,37.815555555555555],[-119.6086111111111,37.79722222222222],[-119.76,37.779444444444444],[-119.91333333333334,37.760555555555555],[-120.06694444444445,37.74138888888889],[-120.21861111111112,37.723055555555554],[-120.37222222222222,37.70388888888889],[-120.41666666666667,37.7],[-120.5213888888889,37.684999999999995],[-120.68333333333334,37.666666666666664],[-120.81916666666666,37.65083333333333],[-120.96666666666667,37.63333333333333],[-121.1,37.61666666666667],[-121.23333333333333,37.6],[-121.35,37.583333333333336],[-121.47361111111111,37.56861111111112],[-121.59388888888888,37.55444444444444],[-121.69444444444444,37.534166666666664],[-121.78694444444444,37.51222222222222],[-121.87472222222222,37.49194444444444],[-121.96222222222222,37.495555555555555],[-122.05,37.5],[-122.13333333333334,37.516666666666666],[-122.2,37.55],[-122.25333333333333,37.569722222222225],[-122.30472222222222,37.59138888888889],[-122.35111111111111,37.611111111111114]]}
}
