{
  "id": 2047970147,
  "type": "Feature",
  "properties": {
    "geom:area": 0,
    "geom:bbox": "-123.459050,36.985860,-122.108740,37.614410",
    "geom:latitude": 37.29825395624292,
    "geom:longitude": -122.69015299664125,
    "src:alt_label": "swim-approach",
    "src:geom": "swim",
    "swim:elevations": [
      6315,
      6008,
      5658,
      5389,
      5235,
      4793,
      4485,
      3978,
      3710,
      3461,
      3047,
      3048,
      3043,
      3048,
      3048,
      3002,
      2900,
      2703,
      2518,
      2479,
      2438,
      2179,
      2095,
      1908,
      1744,
      1531,
      1431,
      1247,
      1147,
      869,
      686,
      588,
      291,
      193,
      92,
      0
    ],
    "swim:geom": "approach",
    "swim:timestamps": [
      1786774468,
      1786774495,
      1786774527,
      1786774554,
      1786774566,
      1786774603,
      1786774630,
      1786774674,
      1786774699,
      1786774719,
      1786774764,
      1786774774,
      1786774822,
      1786774853,
      1786774861,
      1786774916,
      1786774935,
      1786774973,
      1786775005,
      1786775015,
      1786775046,
      1786775095,
      1786775116,
      1786775153,
      1786775185,
      1786775217,
      1786775241,
      1786775265,
      1786775285,
      1786775328,
      1786775357,
      1786775372,
      1786775421,
      1786775447,
      1786775471,
      1786775491
    ],
    "wof:geomhash": "beb02ed453a2af4f7448cda765bd0fe0",
    "wof:id": 2047970147,
    "wof:repo": "sfomuseum-data-flights-2026-08"
  },
  "bbox": [
    -123.45905,
    36.98586,
    -122.10874,
    37.61441
  ],
  "geometry": {"type":"LineString","coordinates":[[-123.45905,36.98586],[-123.39952,37.01305],[-123.32944,37.0458],[-123.2724,37.07193],[-123.24712,37.08339],[-123.16929,37.11875],[-123.11431,37.14377],[-123.02419,37.18469],[-122.97623,37.20648],[-122.93554,37.22489],[-122.84787,37.2606],[-122.82746,37.26575],[-122.7317,37.28847],[-122.6708,37.30257],[-122.65409,37.30648],[-122.55155,37.3304],[-122.51913,37.3378],[-122.45527,37.35238],[-122.40158,37.36493],[-122.3861,37.36847],[-122.33519,37.38024],[-122.25533,37.39868],[-122.22317,37.40617],[-122.16753,37.4197],[-122.12422,37.43449],[-122.10874,37.46959],[-122.12507,37.49456],[-122.14766,37.51433],[-122.16564,37.52969],[-122.21328,37.5528],[-122.24427,37.56606],[-122.2595,37.57247],[-122.30413,37.59132],[-122.32464,37.59993],[-122.3436,37.60779],[-122.35862,37.61441]]}
}
