{
  "id": 2047945585,
  "type": "Feature",
  "properties": {
    "geom:area": 0,
    "geom:bbox": "-122.389690,37.624940,-121.449700,38.507790",
    "geom:latitude": 38.10461569834625,
    "geom:longitude": -121.98233313658442,
    "src:alt_label": "swim-takeoff",
    "src:geom": "swim",
    "swim:elevations": [
      213,
      781,
      949,
      1130,
      1215,
      1535,
      1779,
      2396,
      3152,
      3665,
      3784,
      3842,
      4455,
      4729,
      5223,
      5316,
      5646,
      5858,
      6270,
      6542,
      6696,
      7031
    ],
    "swim:geom": "takeoff",
    "swim:timestamps": [
      1786543577,
      1786543635,
      1786543656,
      1786543705,
      1786543719,
      1786543750,
      1786543766,
      1786543811,
      1786543880,
      1786543974,
      1786544004,
      1786544022,
      1786544081,
      1786544109,
      1786544155,
      1786544166,
      1786544201,
      1786544224,
      1786544269,
      1786544303,
      1786544320,
      1786544376
    ],
    "wof:geomhash": "5ef5418d5ab5cf79874d7e6b05dcd0d0",
    "wof:id": 2047945585,
    "wof:repo": "sfomuseum-data-flights-2026-08"
  },
  "bbox": [
    -122.38969,
    37.62494,
    -121.4497,
    38.50779
  ],
  "geometry": {"type":"LineString","coordinates":[[-122.38969,37.62494],[-122.37759,37.65606],[-122.35794,37.66272],[-122.30471,37.68225],[-122.28603,37.68955],[-122.24789,37.71465],[-122.24096,37.73573],[-122.2355,37.79648],[-122.22498,37.89477],[-122.19567,38.03113],[-122.15751,38.06934],[-122.12565,38.08958],[-122.01908,38.15592],[-121.96747,38.188],[-121.88152,38.24121],[-121.8616,38.25354],[-121.79546,38.29432],[-121.75029,38.32212],[-121.66383,38.37523],[-121.59727,38.41591],[-121.56278,38.43701],[-121.4497,38.50779]]}
}
