{
  "id": 2047996673,
  "type": "Feature",
  "properties": {
    "date:cessation_lower": "1970-01-01",
    "date:cessation_upper": "1970-01-01",
    "date:inception_lower": "2026-08-17",
    "date:inception_upper": "2026-08-17",
    "edtf:cessation": "1970-01-01T00:00:00Z",
    "edtf:inception": "2026-08-16T19:09:19-07:00",
    "flysfo:actual_timestamp": -1,
    "flysfo:airline": "B6",
    "flysfo:base_airline": "",
    "flysfo:base_flight_number": "9563",
    "flysfo:date": "2026-08-16",
    "flysfo:estimated_timestamp": 1786956420,
    "flysfo:event": "D",
    "flysfo:flight_number": "B6816",
    "flysfo:gate": "B18",
    "flysfo:journey": "SFO-JFK",
    "flysfo:scheduled_timestamp": 1786949940,
    "flysfo:timestamp": 1786956420,
    "geom:area": 0,
    "geom:bbox": "-73.787845,0.000000,0.000000,40.643286",
    "geom:latitude": 20.321643,
    "geom:longitude": -36.8939225,
    "iata:airline": "B6",
    "iata:base_airline": "",
    "icao:aircraft": "A321",
    "icao:airline": "JBU",
    "icao:base_airline": "RAM",
    "lbl:latitude": 37.61799,
    "lbl:longitude": -122.370943,
    "sfomuseum:aircraft_id": 1159289411,
    "sfomuseum:airline_id": 1159284583,
    "sfomuseum:arrival_id": 102534365,
    "sfomuseum:base_flight_id": "20260816-D-RAM-9563",
    "sfomuseum:departure_id": 102527513,
    "sfomuseum:flight_id": "20260816-D-JBU-816",
    "sfomuseum:flight_number": [
      "JBU816",
      "B6816"
    ],
    "sfomuseum:placetype": "flight",
    "src:geom": "flysfo",
    "src:geom_alt": [
      "swim-takeoff"
    ],
    "swim:tail_number": "N989JT",
    "wof:belongsto": [],
    "wof:country": "US",
    "wof:created": 1786983776,
    "wof:geomhash": "1d8d223a8599df9f4b510eb7a415f467",
    "wof:hierarchy": [
      {
        "custom_id": 2047996673,
        "flight_id": 2047996673
      }
    ],
    "wof:id": 2047996673,
    "wof:involves": [
      1159289411,
      102534365,
      102527513,
      1159284583,
      1947304297,
      1159285081
    ],
    "wof:lastmodified": 1786984079,
    "wof:name": "B6816 (SFO-JFK)",
    "wof:parent_id": -1,
    "wof:placetype": "custom",
    "wof:placetype_alt": [
      "flight"
    ],
    "wof:repo": "sfomuseum-data-flights-2026-08",
    "wof:superseded_by": [],
    "wof:supersedes": []
  },
  "bbox": [
    -73.787845,
    0,
    0,
    40.643286
  ],
  "geometry": {"type":"MultiPoint","coordinates":[[0,0],[-73.787845,40.643286]]}
}
