{
  "id": 2047940579,
  "type": "Feature",
  "properties": {
    "geom:area": 0,
    "geom:bbox": "-122.370833,37.491944,-73.558333,42.063056",
    "geom:latitude": 40.20725656699738,
    "geom:longitude": -97.84417977983264,
    "src:alt_label": "swim-path",
    "src:geom": "swim",
    "swim:altitudes": [
      "022",
      "027",
      "030",
      "043",
      "051",
      "068",
      "074",
      "090",
      "107",
      "116",
      "123",
      "139",
      "154",
      "169",
      "187",
      "211",
      "231",
      "247",
      "252",
      "257",
      "261",
      "264",
      "270",
      "279",
      "291",
      "304",
      "313",
      "320C",
      "320C",
      "320C",
      "320C",
      "320C",
      "320C",
      "320C",
      "320C",
      "320C",
      "320C",
      "320C",
      "320C",
      "320C",
      "320C",
      "320C",
      "320C",
      "320C",
      "320C",
      "320C",
      "320C",
      "320C",
      "320C",
      "320C",
      "320C",
      "320C",
      "320C",
      "320C",
      "320C",
      "320C",
      "321C",
      "321C",
      "321C",
      "320C",
      "320C",
      "320C",
      "320C",
      "320C",
      "320C",
      "320C",
      "320C",
      "320C",
      "320C",
      "321C",
      "321C",
      "321C",
      "321C",
      "320C",
      "320C",
      "320C",
      "320C",
      "320C",
      "320C",
      "320C",
      "320C",
      "320C",
      "320C",
      "320C",
      "320C",
      "321C",
      "320C",
      "320C",
      "320C",
      "320C",
      "320C",
      "321C",
      "320C",
      "320C",
      "320C",
      "321C",
      "320C",
      "320C",
      "320C",
      "320C",
      "320C",
      "320C",
      "320C",
      "321C",
      "321C",
      "320C",
      "320C",
      "320C",
      "320C",
      "320C",
      "320C",
      "320C",
      "320C",
      "320C",
      "320C",
      "320C",
      "320C",
      "320C",
      "320C",
      "320C",
      "320C",
      "320C",
      "320C",
      "320C",
      "320C",
      "320C",
      "320C",
      "320C",
      "320C",
      "320C",
      "320C",
      "320C",
      "320C",
      "320C",
      "320C",
      "320C",
      "320C",
      "320C",
      "320C",
      "320C",
      "320C",
      "320C",
      "320C",
      "320C",
      "320C",
      "320C",
      "320C",
      "320C",
      "320C",
      "320C",
      "320C",
      "320C",
      "320C",
      "320C",
      "320C",
      "320C",
      "320C",
      "320C",
      "320",
      "320",
      "320",
      "320",
      "323",
      "325",
      "330",
      "332",
      "338C",
      "340C",
      "340C",
      "340C",
      "340C",
      "340C",
      "340C",
      "340C",
      "340C",
      "340C",
      "340C",
      "340C",
      "340C",
      "340C",
      "340C",
      "340C",
      "340C",
      "340C",
      "340C",
      "340C",
      "340C",
      "340C",
      "340C",
      "340C",
      "340C",
      "340C",
      "340C",
      "340C",
      "340C",
      "340C",
      "340C",
      "340C",
      "340C",
      "340C",
      "340C",
      "340C",
      "340C",
      "340C",
      "340C",
      "340C",
      "340C",
      "340C",
      "340C",
      "340C",
      "340C",
      "340C",
      "340C",
      "340C",
      "340C",
      "340C",
      "340C",
      "340C",
      "340C",
      "340C",
      "340C",
      "340C",
      "340C",
      "340C",
      "340C",
      "340C",
      "340C",
      "340C",
      "340C",
      "340C",
      "340C",
      "340C",
      "340C",
      "340C",
      "340C",
      "340C",
      "340C",
      "340C",
      "340C",
      "340C",
      "340C",
      "340C",
      "340C",
      "340C",
      "340C",
      "340C",
      "340C",
      "340C",
      "340C",
      "340C",
      "340C",
      "340C",
      "340C",
      "340C",
      "340C",
      "340C",
      "340C",
      "340C",
      "340",
      "336",
      "326",
      "320",
      "320",
      "320",
      "320",
      "320",
      "325",
      "333",
      "340C",
      "340C",
      "340C",
      "340C",
      "340C",
      "340C",
      "340C",
      "340C",
      "340C",
      "340C",
      "340C",
      "340C",
      "340C",
      "340C",
      "340C",
      "340C",
      "340C",
      "340C",
      "340C",
      "340C",
      "340C",
      "340C",
      "340C",
      "340C",
      "340C",
      "340C",
      "340C",
      "340C",
      "340C",
      "340C",
      "340C",
      "340C",
      "340C",
      "340C",
      "340C",
      "340C",
      "340C",
      "340C",
      "340C",
      "340C",
      "340C",
      "340C",
      "340C",
      "341C",
      "341C",
      "340C",
      "340C",
      "340C",
      "340C",
      "340C",
      "340C",
      "340C",
      "340C",
      "340C",
      "340C",
      "340C",
      "341C",
      "341C",
      "340C",
      "340C",
      "340C",
      "341C",
      "341C",
      "340C",
      "340C",
      "340C",
      "340C",
      "340C",
      "340C",
      "340C",
      "340C",
      "340C",
      "340C",
      "340C",
      "340C",
      "340C",
      "340C",
      "340C",
      "340C",
      "340C",
      "340C",
      "340C",
      "340C",
      "340C",
      "340C",
      "340C",
      "340C",
      "340C",
      "340C",
      "340C",
      "340C",
      "340C",
      "341C",
      "341C",
      "340",
      "340",
      "350",
      "351",
      "355",
      "357",
      "360C",
      "360C",
      "360C",
      "361C",
      "361C",
      "360C",
      "360C",
      "360C",
      "360C",
      "360C",
      "360C",
      "360C",
      "360C",
      "360C",
      "360C",
      "360C",
      "360C",
      "360C",
      "360C",
      "360C",
      "360C",
      "360C",
      "360C",
      "360C",
      "360C",
      "361C",
      "360C",
      "360C",
      "360C",
      "360C",
      "360C",
      "360C",
      "360C",
      "360C",
      "360C",
      "361C",
      "361C",
      "361C",
      "361C",
      "360C",
      "360C",
      "360C",
      "360C",
      "359C",
      "360C",
      "360C",
      "360C",
      "360C",
      "360C",
      "360C",
      "361C",
      "361C",
      "361C",
      "360C",
      "360C",
      "360C",
      "361C",
      "361C",
      "360C",
      "360C",
      "360C",
      "360C",
      "360C",
      "360C",
      "360C",
      "360C",
      "360C",
      "361C",
      "361C",
      "360C",
      "360C",
      "360C",
      "360C",
      "360C",
      "360C",
      "360C",
      "360C",
      "360C",
      "360C",
      "360C",
      "360C",
      "360C",
      "361C",
      "361C",
      "360C",
      "361C",
      "360C",
      "360C",
      "360C",
      "360C",
      "360C",
      "356",
      "330",
      "297",
      "287",
      "276",
      "265",
      "255",
      "243",
      "237",
      "225",
      "216",
      "204",
      "195",
      "184",
      "174",
      "158",
      "148",
      "139",
      "129",
      "122",
      "112",
      "106",
      "101",
      "099",
      "085",
      "080C",
      "080",
      "077",
      "071",
      "067",
      "062",
      "060",
      "057",
      "044",
      "040",
      "034",
      "027",
      "019",
      "015",
      "010",
      "007",
      "002",
      "80"
    ],
    "swim:geom": "path",
    "swim:speeds": [
      188,
      233,
      262,
      271,
      277,
      276,
      288,
      276,
      279,
      330,
      368,
      380,
      391,
      394,
      400,
      381,
      369,
      362,
      393,
      412,
      428,
      444,
      442,
      442,
      435,
      422,
      414,
      408,
      411,
      403,
      402,
      403,
      403,
      403,
      400,
      402,
      400,
      401,
      400,
      401,
      400,
      400,
      400,
      399,
      400,
      400,
      400,
      401,
      401,
      403,
      402,
      404,
      404,
      405,
      405,
      406,
      405,
      405,
      405,
      399,
      397,
      392,
      390,
      387,
      386,
      384,
      383,
      383,
      383,
      383,
      383,
      384,
      384,
      384,
      384,
      384,
      388,
      385,
      381,
      382,
      381,
      386,
      386,
      382,
      382,
      382,
      383,
      387,
      388,
      390,
      393,
      395,
      395,
      394,
      395,
      398,
      400,
      401,
      402,
      402,
      403,
      406,
      411,
      420,
      420,
      419,
      418,
      418,
      417,
      416,
      415,
      413,
      411,
      410,
      407,
      405,
      403,
      401,
      398,
      397,
      396,
      397,
      399,
      401,
      403,
      405,
      407,
      409,
      411,
      411,
      411,
      411,
      411,
      411,
      411,
      411,
      411,
      410,
      408,
      407,
      407,
      407,
      407,
      406,
      407,
      404,
      407,
      404,
      405,
      411,
      412,
      414,
      413,
      414,
      415,
      414,
      417,
      416,
      418,
      417,
      418,
      418,
      419,
      419,
      420,
      419,
      419,
      418,
      417,
      417,
      415,
      415,
      415,
      415,
      415,
      415,
      415,
      415,
      415,
      415,
      415,
      416,
      416,
      417,
      417,
      417,
      417,
      417,
      417,
      417,
      416,
      416,
      415,
      415,
      415,
      415,
      416,
      415,
      416,
      415,
      414,
      414,
      415,
      416,
      418,
      418,
      419,
      419,
      418,
      418,
      418,
      418,
      419,
      420,
      421,
      421,
      421,
      421,
      421,
      416,
      421,
      417,
      421,
      419,
      420,
      420,
      420,
      421,
      422,
      423,
      423,
      424,
      424,
      425,
      426,
      426,
      426,
      426,
      426,
      426,
      426,
      427,
      427,
      427,
      427,
      427,
      427,
      427,
      427,
      427,
      427,
      426,
      426,
      426,
      426,
      425,
      425,
      425,
      425,
      426,
      429,
      431,
      435,
      436,
      432,
      432,
      433,
      434,
      434,
      434,
      433,
      434,
      434,
      433,
      433,
      434,
      438,
      441,
      442,
      442,
      444,
      450,
      445,
      452,
      447,
      452,
      448,
      452,
      449,
      451,
      449,
      451,
      449,
      451,
      450,
      451,
      453,
      455,
      455,
      455,
      457,
      455,
      457,
      456,
      457,
      456,
      458,
      456,
      459,
      457,
      459,
      458,
      460,
      459,
      458,
      458,
      458,
      454,
      455,
      454,
      454,
      456,
      457,
      459,
      457,
      461,
      462,
      461,
      462,
      461,
      462,
      460,
      458,
      458,
      456,
      453,
      452,
      451,
      449,
      446,
      446,
      445,
      445,
      444,
      445,
      444,
      445,
      445,
      445,
      445,
      445,
      444,
      444,
      444,
      445,
      445,
      446,
      447,
      450,
      451,
      453,
      452,
      452,
      451,
      450,
      448,
      445,
      445,
      440,
      438,
      439,
      441,
      441,
      440,
      438,
      437,
      436,
      435,
      436,
      435,
      434,
      434,
      436,
      437,
      439,
      467,
      485,
      488,
      478,
      476,
      475,
      475,
      451,
      433,
      428,
      407,
      406,
      405,
      407,
      409,
      406,
      406,
      405,
      406,
      412,
      416,
      424,
      423,
      424,
      423,
      422,
      423,
      421,
      419,
      421,
      420,
      422,
      422,
      424,
      425,
      426,
      427,
      428,
      429,
      429,
      429,
      428,
      427,
      426,
      426,
      425,
      426,
      429,
      432,
      435,
      437,
      438,
      439,
      432,
      430,
      430,
      430,
      429,
      428,
      427,
      425,
      424,
      424,
      423,
      423,
      424,
      425,
      432,
      439,
      440,
      439,
      439,
      443,
      443,
      442,
      460,
      476,
      475,
      465,
      452,
      445,
      428,
      414,
      403,
      400,
      389,
      390,
      379,
      370,
      362,
      350,
      349,
      339,
      339,
      331,
      331,
      304,
      288,
      293,
      290,
      264,
      263,
      254,
      255,
      248,
      251,
      244,
      229,
      226,
      198,
      200,
      194,
      175,
      159,
      159,
      147,
      147
    ],
    "swim:timestamps": [
      1786565424,
      1786565469,
      1786565484,
      1786565529,
      1786565544,
      1786565589,
      1786565604,
      1786565649,
      1786565709,
      1786565769,
      1786565829,
      1786565890,
      1786565950,
      1786566010,
      1786566070,
      1786566130,
      1786566190,
      1786566250,
      1786566310,
      1786566370,
      1786566430,
      1786566490,
      1786566551,
      1786566611,
      1786566671,
      1786566731,
      1786566791,
      1786566851,
      1786566860,
      1786566911,
      1786566920,
      1786566971,
      1786566981,
      1786567031,
      1786567041,
      1786567091,
      1786567101,
      1786567151,
      1786567161,
      1786567212,
      1786567221,
      1786567272,
      1786567281,
      1786567332,
      1786567341,
      1786567392,
      1786567401,
      1786567452,
      1786567461,
      1786567512,
      1786567521,
      1786567572,
      1786567582,
      1786567632,
      1786567642,
      1786567692,
      1786567702,
      1786567752,
      1786567762,
      1786567812,
      1786567822,
      1786567872,
      1786567882,
      1786567933,
      1786567942,
      1786567993,
      1786568002,
      1786568053,
      1786568062,
      1786568113,
      1786568122,
      1786568173,
      1786568183,
      1786568243,
      1786568303,
      1786568363,
      1786568423,
      1786568483,
      1786568543,
      1786568603,
      1786568663,
      1786568723,
      1786568783,
      1786568844,
      1786568904,
      1786568964,
      1786569024,
      1786569084,
      1786569144,
      1786569204,
      1786569264,
      1786569324,
      1786569384,
      1786569445,
      1786569505,
      1786569565,
      1786569625,
      1786569685,
      1786569745,
      1786569805,
      1786569866,
      1786569926,
      1786569986,
      1786570043,
      1786570104,
      1786570164,
      1786570224,
      1786570284,
      1786570344,
      1786570404,
      1786570464,
      1786570524,
      1786570584,
      1786570644,
      1786570705,
      1786570765,
      1786570825,
      1786570885,
      1786570945,
      1786571005,
      1786571065,
      1786571125,
      1786571185,
      1786571245,
      1786571305,
      1786571366,
      1786571426,
      1786571486,
      1786571546,
      1786571606,
      1786571666,
      1786571726,
      1786571786,
      1786571846,
      1786571906,
      1786571967,
      1786572027,
      1786572087,
      1786572147,
      1786572207,
      1786572267,
      1786572327,
      1786572387,
      1786572447,
      1786572507,
      1786572572,
      1786572628,
      1786572692,
      1786572752,
      1786572808,
      1786572868,
      1786572884,
      1786572928,
      1786572944,
      1786572988,
      1786573005,
      1786573048,
      1786573065,
      1786573108,
      1786573125,
      1786573169,
      1786573185,
      1786573229,
      1786573245,
      1786573289,
      1786573305,
      1786573349,
      1786573365,
      1786573409,
      1786573425,
      1786573469,
      1786573485,
      1786573529,
      1786573545,
      1786573605,
      1786573649,
      1786573665,
      1786573709,
      1786573726,
      1786573769,
      1786573786,
      1786573830,
      1786573846,
      1786573890,
      1786573906,
      1786573966,
      1786574010,
      1786574026,
      1786574070,
      1786574086,
      1786574130,
      1786574146,
      1786574190,
      1786574206,
      1786574266,
      1786574310,
      1786574326,
      1786574370,
      1786574386,
      1786574447,
      1786574519,
      1786574579,
      1786574639,
      1786574699,
      1786574759,
      1786574819,
      1786574879,
      1786574939,
      1786574999,
      1786575059,
      1786575119,
      1786575180,
      1786575240,
      1786575300,
      1786575360,
      1786575420,
      1786575480,
      1786575540,
      1786575600,
      1786575642,
      1786575660,
      1786575702,
      1786575720,
      1786575762,
      1786575780,
      1786575822,
      1786575840,
      1786575883,
      1786575901,
      1786575943,
      1786575961,
      1786576003,
      1786576021,
      1786576063,
      1786576081,
      1786576123,
      1786576141,
      1786576183,
      1786576201,
      1786576243,
      1786576261,
      1786576303,
      1786576321,
      1786576363,
      1786576381,
      1786576441,
      1786576483,
      1786576501,
      1786576543,
      1786576561,
      1786576604,
      1786576664,
      1786576682,
      1786576724,
      1786576742,
      1786576784,
      1786576802,
      1786576844,
      1786576862,
      1786576904,
      1786576964,
      1786577024,
      1786577084,
      1786577144,
      1786577204,
      1786577264,
      1786577325,
      1786577385,
      1786577445,
      1786577505,
      1786577565,
      1786577625,
      1786577685,
      1786577745,
      1786577805,
      1786577865,
      1786577925,
      1786577985,
      1786578046,
      1786578088,
      1786578106,
      1786578148,
      1786578166,
      1786578208,
      1786578226,
      1786578268,
      1786578286,
      1786578328,
      1786578346,
      1786578388,
      1786578406,
      1786578449,
      1786578466,
      1786578509,
      1786578526,
      1786578569,
      1786578586,
      1786578629,
      1786578646,
      1786578689,
      1786578706,
      1786578749,
      1786578767,
      1786578809,
      1786578827,
      1786578869,
      1786578887,
      1786578929,
      1786578947,
      1786578989,
      1786579007,
      1786579049,
      1786579067,
      1786579109,
      1786579127,
      1786579169,
      1786579187,
      1786579230,
      1786579247,
      1786579290,
      1786579307,
      1786579367,
      1786579410,
      1786579427,
      1786579470,
      1786579488,
      1786579530,
      1786579548,
      1786579590,
      1786579608,
      1786579650,
      1786579668,
      1786579710,
      1786579728,
      1786579770,
      1786579788,
      1786579830,
      1786579848,
      1786579890,
      1786579908,
      1786579951,
      1786579968,
      1786580011,
      1786580028,
      1786580071,
      1786580088,
      1786580131,
      1786580148,
      1786580191,
      1786580209,
      1786580251,
      1786580269,
      1786580311,
      1786580329,
      1786580371,
      1786580389,
      1786580431,
      1786580449,
      1786580491,
      1786580509,
      1786580551,
      1786580569,
      1786580611,
      1786580629,
      1786580671,
      1786580689,
      1786580732,
      1786580749,
      1786580792,
      1786580852,
      1786580912,
      1786580972,
      1786581032,
      1786581092,
      1786581152,
      1786581212,
      1786581272,
      1786581332,
      1786581404,
      1786581465,
      1786581525,
      1786581585,
      1786581645,
      1786581705,
      1786581765,
      1786581825,
      1786581885,
      1786581945,
      1786582005,
      1786582065,
      1786582125,
      1786582185,
      1786582246,
      1786582306,
      1786582366,
      1786582426,
      1786582486,
      1786582546,
      1786582606,
      1786582666,
      1786582726,
      1786582756,
      1786582786,
      1786582816,
      1786582846,
      1786582876,
      1786582906,
      1786582936,
      1786582967,
      1786582996,
      1786583027,
      1786583056,
      1786583087,
      1786583116,
      1786583147,
      1786583176,
      1786583207,
      1786583237,
      1786583267,
      1786583297,
      1786583327,
      1786583357,
      1786583387,
      1786583417,
      1786583447,
      1786583477,
      1786583507,
      1786583537,
      1786583567,
      1786583597,
      1786583627,
      1786583657,
      1786583687,
      1786583717,
      1786583748,
      1786583777,
      1786583808,
      1786583837,
      1786583868,
      1786583897,
      1786583928,
      1786583957,
      1786583988,
      1786584018,
      1786584048,
      1786584078,
      1786584108,
      1786584138,
      1786584168,
      1786584198,
      1786584228,
      1786584258,
      1786584318,
      1786584378,
      1786584438,
      1786584498,
      1786584558,
      1786584618,
      1786584738,
      1786584799,
      1786584859,
      1786584919,
      1786584947,
      1786584979,
      1786585013,
      1786585039,
      1786585073,
      1786585099,
      1786585133,
      1786585159,
      1786585193,
      1786585219,
      1786585253,
      1786585279,
      1786585339,
      1786585367,
      1786585399,
      1786585427,
      1786585459,
      1786585487,
      1786585519,
      1786585547,
      1786585579,
      1786585607,
      1786585640,
      1786585667,
      1786585700,
      1786585728,
      1786585760,
      1786585787,
      1786585820,
      1786585847,
      1786585908,
      1786585940,
      1786585968,
      1786586000,
      1786586028,
      1786586060,
      1786586087,
      1786586120,
      1786586147,
      1786586180
    ],
    "wof:geomhash": "1e4830ab44b68457fa75f1ee03183419",
    "wof:id": 2047940579,
    "wof:repo": "sfomuseum-data-flights-2026-08"
  },
  "bbox": [
    -122.37083333333332,
    37.49194444444444,
    -73.55833333333334,
    42.06305555555555
  ],
  "geometry": {"type":"LineString","coordinates":[[-73.81666666666666,40.583333333333336],[-73.81166666666667,40.55027777777777],[-73.78333333333333,40.53333333333333],[-73.72611111111111,40.55305555555555],[-73.7,40.56666666666667],[-73.6363888888889,40.59138888888889],[-73.61666666666666,40.6],[-73.56583333333333,40.64194444444444],[-73.56083333333333,40.719166666666666],[-73.55833333333334,40.80638888888888],[-73.57583333333334,40.903888888888886],[-73.6575,40.98833333333334],[-73.74138888888889,41.07694444444445],[-73.86416666666666,41.12916666666667],[-74.01027777777777,41.15222222222222],[-74.14944444444446,41.1725],[-74.28305555555555,41.184999999999995],[-74.42083333333333,41.198055555555555],[-74.55083333333333,41.159444444444446],[-74.67888888888889,41.10055555555556],[-74.81305555555555,41.03916666666667],[-74.95694444444445,40.973333333333336],[-75.11027777777777,40.936388888888885],[-75.26472222222222,40.9],[-75.38777777777779,40.87083333333334],[-75.53527777777778,40.836111111111116],[-75.67888888888889,40.801944444444445],[-75.82249999999999,40.76777777777777],[-75.85083333333333,40.760555555555555],[-75.96277777777777,40.73361111111111],[-75.98861111111111,40.727222222222224],[-76.10499999999999,40.69944444444444],[-76.14361111111111,40.690555555555555],[-76.24972222222222,40.68083333333333],[-76.28972222222222,40.68],[-76.3963888888889,40.69],[-76.435,40.69583333333333],[-76.56333333333333,40.715],[-76.5775,40.716944444444444],[-76.68194444444445,40.7325],[-76.72083333333333,40.738055555555555],[-76.82944444444443,40.75416666666667],[-76.86527777777778,40.759166666666665],[-76.97194444444445,40.77472222222222],[-77.00666666666666,40.779444444444444],[-77.11777777777777,40.79527777777778],[-77.15277777777779,40.80027777777777],[-77.26166666666667,40.815555555555555],[-77.2961111111111,40.82055555555556],[-77.41388888888889,40.83722222222222],[-77.44416666666667,40.84138888888889],[-77.56,40.8575],[-77.59027777777777,40.861666666666665],[-77.7063888888889,40.8775],[-77.7363888888889,40.88166666666667],[-77.85388888888889,40.8975],[-77.88472222222222,40.901666666666664],[-77.99916666666667,40.91694444444444],[-78.02777777777777,40.920833333333334],[-78.14194444444445,40.93472222222222],[-78.17277777777778,40.93861111111111],[-78.28388888888888,40.952222222222225],[-78.31027777777777,40.955555555555556],[-78.4225,40.969166666666666],[-78.45111111111112,40.97277777777778],[-78.55472222222222,40.98527777777778],[-78.58777777777777,40.98916666666667],[-78.69361111111111,41.00194444444445],[-78.7275,41.005833333333335],[-78.83444444444444,41.01861111111111],[-78.86833333333333,41.0225],[-78.97194444444445,41.03444444444444],[-79.00916666666667,41.038888888888884],[-79.14750000000001,41.055],[-79.28888888888889,41.07083333333334],[-79.42805555555556,41.08444444444444],[-79.57249999999999,41.07333333333334],[-79.71277777777777,41.06222222222222],[-79.85194444444444,41.045833333333334],[-79.98527777777778,41.01583333333333],[-80.12166666666666,40.98722222222222],[-80.25916666666667,40.95916666666667],[-80.39555555555556,40.93222222222222],[-80.53111111111112,40.907222222222224],[-80.66722222222222,40.88388888888889],[-80.80638888888889,40.874722222222225],[-80.94722222222222,40.88361111111111],[-81.09305555555555,40.905833333333334],[-81.23527777777778,40.92666666666666],[-81.3475,40.94305555555555],[-81.49111111111111,40.96472222222223],[-81.6363888888889,40.98583333333333],[-81.78027777777778,41.00694444444444],[-81.92416666666666,41.02777777777778],[-82.06888888888888,41.04833333333333],[-82.21472222222222,41.06888888888889],[-82.36,41.089444444444446],[-82.50472222222223,41.109722222222224],[-82.65055555555556,41.13],[-82.79722222222222,41.15],[-82.94333333333334,41.16972222222222],[-83.09277777777777,41.189722222222215],[-83.24194444444444,41.20944444444445],[-83.40277777777779,41.230555555555554],[-83.56,41.25111111111111],[-83.71000000000001,41.269999999999996],[-83.86055555555555,41.288888888888884],[-84.01416666666667,41.30833333333333],[-84.16361111111112,41.32666666666667],[-84.31583333333333,41.34527777777778],[-84.46388888888889,41.36333333333334],[-84.61555555555555,41.38166666666667],[-84.76444444444445,41.39944444444444],[-84.91333333333334,41.416666666666664],[-85.06055555555555,41.43388888888889],[-85.21000000000001,41.45111111111111],[-85.32722222222222,41.46416666666667],[-85.47666666666667,41.48083333333334],[-85.62249999999999,41.496944444444445],[-85.76888888888888,41.51305555555555],[-85.91583333333334,41.528888888888886],[-86.06083333333333,41.54416666666666],[-86.20722222222223,41.559444444444445],[-86.35694444444444,41.57527777777778],[-86.50444444444445,41.59027777777778],[-86.65583333333333,41.605555555555554],[-86.80583333333333,41.620555555555555],[-86.95666666666666,41.63583333333333],[-87.10888888888888,41.650555555555556],[-87.26,41.665],[-87.41111111111111,41.67944444444444],[-87.56138888888889,41.69333333333333],[-87.71416666666667,41.70722222222223],[-87.8825,41.722500000000004],[-88.03305555555555,41.73583333333333],[-88.15861111111111,41.74666666666667],[-88.31444444444445,41.76027777777778],[-88.46416666666667,41.77305555555555],[-88.61583333333333,41.785555555555554],[-88.76472222222222,41.79805555555556],[-88.9388888888889,41.81194444444444],[-89.0911111111111,41.82416666666667],[-89.23861111111111,41.85388888888889],[-89.38194444444444,41.888333333333335],[-89.52583333333334,41.922777777777775],[-89.65916666666668,41.95277777777778],[-89.8125,41.99194444444444],[-89.94777777777779,42.02333333333333],[-90.06277777777777,42.05222222222222],[-90.24166666666667,42.06305555555555],[-90.39583333333334,42.0475],[-90.42694444444444,42.04277777777778],[-90.54888888888888,42.032222222222224],[-90.58166666666666,42.02722222222222],[-90.70166666666667,42.01611111111111],[-90.73583333333333,42.01111111111111],[-90.85833333333333,41.99944444444444],[-90.88972222222223,41.99611111111111],[-91.01194444444444,41.98305555555556],[-91.04527777777777,41.97944444444445],[-91.16777777777779,41.965833333333336],[-91.22972222222222,41.95916666666667],[-91.32388888888889,41.948611111111106],[-91.35472222222222,41.945277777777775],[-91.47805555555556,41.93138888888889],[-91.51166666666667,41.92777777777778],[-91.63416666666667,41.913888888888884],[-91.66416666666667,41.910555555555554],[-91.78611111111111,41.89666666666667],[-91.7863888888889,41.89666666666667],[-91.9375,41.87916666666667],[-91.97055555555556,41.875277777777775],[-92.09222222222222,41.86083333333333],[-92.12388888888889,41.856944444444444],[-92.27638888888889,41.83888888888889],[-92.39527777777778,41.82472222222223],[-92.42833333333334,41.82055555555556],[-92.54916666666666,41.80583333333333],[-92.58083333333333,41.801944444444445],[-92.70083333333334,41.78722222222222],[-92.73388888888888,41.78333333333333],[-92.85472222222222,41.76833333333333],[-92.865,41.76694444444444],[-93.00694444444444,41.74888888888889],[-93.04805555555555,41.74388888888889],[-93.2025,41.72416666666667],[-93.32388888888889,41.70861111111111],[-93.35444444444444,41.70444444444445],[-93.47472222222223,41.68888888888888],[-93.50527777777778,41.684999999999995],[-93.62555555555555,41.66916666666666],[-93.65555555555557,41.665277777777774],[-93.7761111111111,41.649166666666666],[-93.80611111111111,41.64527777777778],[-93.9588888888889,41.624722222222225],[-94.07944444444443,41.608333333333334],[-94.11027777777777,41.60416666666667],[-94.23083333333334,41.587500000000006],[-94.28277777777778,41.58027777777778],[-94.43472222222222,41.55916666666666],[-94.61416666666666,41.53388888888889],[-94.76416666666667,41.51277777777778],[-94.91444444444446,41.49111111111111],[-95.03833333333333,41.473333333333336],[-95.18916666666667,41.45138888888889],[-95.37277777777777,41.424166666666665],[-95.52472222222222,41.401666666666664],[-95.64583333333334,41.38333333333333],[-95.80333333333333,41.35944444444445],[-95.95194444444445,41.33694444444445],[-96.10444444444444,41.31333333333333],[-96.25416666666666,41.29],[-96.41555555555556,41.26444444444444],[-96.56694444444445,41.24027777777778],[-96.71833333333333,41.21611111111111],[-96.87138888888889,41.19138888888889],[-97.0225,41.166666666666664],[-97.17277777777778,41.14194444444444],[-97.3261111111111,41.11638888888889],[-97.4375,41.09388888888889],[-97.47694444444444,41.09111111111111],[-97.58888888888889,41.069722222222225],[-97.62722222222222,41.06583333333333],[-97.74,41.04666666666667],[-97.77833333333334,41.04],[-97.89222222222223,41.02055555555555],[-97.92888888888889,41.01444444444444],[-98.04277777777777,40.99444444444445],[-98.08027777777778,40.98777777777778],[-98.19555555555556,40.967777777777776],[-98.23055555555555,40.961666666666666],[-98.3475,40.94083333333333],[-98.38444444444445,40.93444444444444],[-98.49861111111112,40.91444444444444],[-98.53611111111111,40.907777777777774],[-98.65305555555557,40.886944444444445],[-98.68722222222223,40.880833333333335],[-98.80444444444444,40.859722222222224],[-98.84083333333332,40.85305555555556],[-98.95555555555556,40.83222222222223],[-98.99166666666667,40.825],[-99.10083333333333,40.78638888888889],[-99.13194444444444,40.77472222222222],[-99.23972222222223,40.73416666666667],[-99.27194444444444,40.722500000000004],[-99.41972222222223,40.68111111111111],[-99.53083333333333,40.64972222222222],[-99.56666666666666,40.63972222222222],[-99.68,40.6075],[-99.71000000000001,40.59916666666667],[-99.825,40.56666666666667],[-99.97166666666666,40.52583333333333],[-100.00305555555556,40.51694444444444],[-100.11833333333333,40.48555555555556],[-100.16472222222222,40.473055555555554],[-100.26333333333334,40.44638888888888],[-100.3111111111111,40.43333333333333],[-100.41027777777778,40.406666666666666],[-100.44638888888889,40.39694444444444],[-100.5586111111111,40.36694444444444],[-100.70833333333334,40.32777777777778],[-100.85416666666666,40.284166666666664],[-101.00083333333333,40.23444444444444],[-101.14805555555556,40.18583333333333],[-101.28972222222222,40.138888888888886],[-101.43055555555556,40.08722222222222],[-101.57194444444444,40.030277777777776],[-101.71083333333334,39.974722222222226],[-101.85138888888888,39.91861111111111],[-101.98416666666667,39.85583333333334],[-102.11527777777778,39.79083333333333],[-102.24694444444445,39.72694444444445],[-102.38055555555555,39.663333333333334],[-102.50583333333333,39.60416666666667],[-102.63805555555557,39.54194444444444],[-102.7725,39.47833333333333],[-102.9225,39.44499999999999],[-103.0825,39.43944444444444],[-103.24166666666667,39.433611111111105],[-103.35055555555554,39.42861111111111],[-103.4,39.42777777777778],[-103.5175,39.421388888888885],[-103.55972222222222,39.42222222222222],[-103.67833333333334,39.414722222222224],[-103.72277777777778,39.41583333333333],[-103.83749999999999,39.40972222222222],[-103.88333333333334,39.409444444444446],[-103.99583333333334,39.403888888888886],[-104.04527777777777,39.40277777777778],[-104.1563888888889,39.39722222222222],[-104.20611111111111,39.395833333333336],[-104.31888888888888,39.38861111111111],[-104.36861111111111,39.38111111111111],[-104.47638888888889,39.36888888888889],[-104.53027777777778,39.370555555555555],[-104.63361111111112,39.37416666666667],[-104.69500000000001,39.37583333333333],[-104.80277777777778,39.379444444444445],[-104.86277777777777,39.38388888888889],[-104.96638888888889,39.38861111111111],[-105.02833333333334,39.393055555555556],[-105.13,39.39833333333333],[-105.19083333333333,39.403055555555554],[-105.29388888888889,39.408055555555556],[-105.35638888888889,39.413333333333334],[-105.45694444444445,39.41861111111111],[-105.51916666666666,39.42305555555555],[-105.62055555555555,39.428888888888885],[-105.68527777777778,39.43333333333333],[-105.78527777777778,39.43861111111111],[-105.84916666666666,39.442499999999995],[-105.95027777777779,39.44916666666666],[-106.01472222222222,39.45916666666667],[-106.1125,39.47027777777778],[-106.17527777777778,39.47916666666667],[-106.27416666666666,39.49111111111111],[-106.33833333333332,39.50388888888889],[-106.43444444444445,39.50611111111111],[-106.50222222222222,39.49805555555556],[-106.59555555555555,39.490833333333335],[-106.66250000000001,39.484722222222224],[-106.82416666666666,39.471111111111114],[-106.92500000000001,39.461111111111116],[-106.98916666666666,39.456944444444446],[-107.08777777777777,39.448055555555555],[-107.15361111111112,39.442499999999995],[-107.25361111111111,39.4325],[-107.31972222222223,39.42777777777778],[-107.41805555555555,39.41916666666666],[-107.48277777777778,39.413333333333334],[-107.58305555555555,39.40361111111111],[-107.63361111111112,39.39944444444444],[-107.74416666666667,39.388888888888886],[-107.79666666666667,39.38444444444444],[-107.91305555555556,39.373333333333335],[-107.95833333333334,39.369166666666665],[-108.06416666666667,39.35888888888889],[-108.11666666666666,39.35388888888889],[-108.23111111111112,39.34305555555556],[-108.28777777777778,39.337500000000006],[-108.38305555555554,39.32805555555556],[-108.4475,39.32166666666667],[-108.5436111111111,39.31222222222222],[-108.60722222222222,39.30583333333333],[-108.70194444444445,39.29611111111111],[-108.73388888888888,39.29277777777778],[-108.8625,39.27972222222222],[-108.89277777777778,39.276666666666664],[-109.0213888888889,39.26305555555555],[-109.05305555555556,39.26],[-109.18,39.243611111111115],[-109.2088888888889,39.23833333333334],[-109.33333333333333,39.21555555555556],[-109.36527777777778,39.209722222222226],[-109.49,39.186388888888885],[-109.5213888888889,39.18055555555555],[-109.64527777777778,39.15833333333333],[-109.67666666666668,39.153055555555554],[-109.80583333333333,39.14],[-109.83833333333332,39.13722222222222],[-109.96805555555555,39.12388888888889],[-109.99972222222222,39.120555555555555],[-110.12722222222222,39.10638888888889],[-110.1588888888889,39.10277777777778],[-110.28722222222223,39.08861111111111],[-110.31527777777778,39.08555555555556],[-110.44333333333334,39.07138888888889],[-110.47444444444444,39.06777777777778],[-110.59833333333333,39.05361111111111],[-110.75194444444445,39.03611111111111],[-110.90833333333335,39.01777777777777],[-111.06444444444445,38.999722222222225],[-111.21972222222223,38.98111111111111],[-111.37277777777777,38.96277777777778],[-111.52722222222222,38.94416666666666],[-111.67416666666666,38.92583333333333],[-111.82638888888889,38.90694444444444],[-111.97888888888889,38.88777777777778],[-112.13333333333334,38.86833333333333],[-112.315,38.845],[-112.46916666666667,38.825],[-112.61999999999999,38.805],[-112.77555555555556,38.784166666666664],[-112.92888888888889,38.763888888888886],[-113.0825,38.74305555555556],[-113.24055555555556,38.76888888888889],[-113.36416666666666,38.86055555555556],[-113.46972222222223,38.969166666666666],[-113.57777777777777,39.07638888888889],[-113.68166666666667,39.18083333333333],[-113.78388888888888,39.28388888888889],[-113.89222222222223,39.3875],[-114.03972222222222,39.43527777777778],[-114.19194444444445,39.408055555555556],[-114.33333333333333,39.36527777777778],[-114.47083333333333,39.32361111111111],[-114.60555555555555,39.28194444444444],[-114.74111111111111,39.23972222222222],[-114.875,39.196666666666665],[-114.99555555555555,39.13361111111111],[-115.08722222222222,39.0475],[-115.11083333333333,39.00611111111111],[-115.14583333333334,38.945277777777775],[-115.17027777777778,38.903055555555554],[-115.22305555555556,38.85027777777778],[-115.27722222222222,38.82611111111112],[-115.36138888888888,38.80583333333333],[-115.43333333333334,38.78861111111111],[-115.5175,38.76638888888889],[-115.57638888888889,38.75194444444445],[-115.65916666666668,38.730555555555554],[-115.71861111111112,38.715],[-115.80083333333333,38.69472222222222],[-115.86027777777777,38.680277777777775],[-115.94361111111111,38.65833333333333],[-116.0025,38.64333333333333],[-116.08583333333333,38.621944444444445],[-116.14694444444446,38.60611111111111],[-116.23083333333334,38.58444444444444],[-116.28999999999999,38.56916666666667],[-116.37694444444443,38.54666666666667],[-116.43472222222222,38.531666666666666],[-116.52055555555556,38.50944444444445],[-116.57916666666667,38.49388888888889],[-116.66444444444446,38.47166666666667],[-116.72277777777778,38.45611111111111],[-116.80666666666666,38.43388888888889],[-116.86611111111111,38.41833333333333],[-116.95027777777779,38.395833333333336],[-117.00666666666666,38.37888888888889],[-117.08194444444445,38.34638888888889],[-117.14666666666668,38.31916666666667],[-117.21555555555555,38.290277777777774],[-117.28111111111112,38.2625],[-117.34888888888888,38.23388888888889],[-117.41944444444445,38.203611111111115],[-117.48277777777778,38.17666666666666],[-117.56388888888888,38.14194444444444],[-117.61666666666666,38.11944444444445],[-117.6975,38.084722222222226],[-117.74861111111112,38.062777777777775],[-117.82972222222222,38.02777777777778],[-117.88083333333333,38.005833333333335],[-117.96000000000001,37.97138888888889],[-118.01277777777777,37.948611111111106],[-118.09138888888889,37.91444444444444],[-118.14111111111112,37.8925],[-118.22055555555556,37.85805555555556],[-118.2725,37.83527777777778],[-118.35,37.80138888888889],[-118.40222222222222,37.77861111111111],[-118.48527777777778,37.74888888888889],[-118.63111111111111,37.719722222222224],[-118.78777777777778,37.71472222222223],[-118.9363888888889,37.71416666666667],[-119.08972222222222,37.71333333333334],[-119.24472222222222,37.712500000000006],[-119.4,37.71138888888889],[-119.71111111111111,37.70861111111111],[-119.86666666666666,37.706944444444446],[-120.02666666666667,37.70444444444445],[-120.19527777777778,37.7025],[-120.26666666666667,37.7],[-120.36083333333333,37.7],[-120.45,37.7],[-120.51527777777778,37.68555555555555],[-120.6,37.68333333333333],[-120.66416666666667,37.66888888888889],[-120.73333333333333,37.666666666666664],[-120.80333333333333,37.65222222222222],[-120.88333333333334,37.65],[-120.93722222222223,37.63611111111111],[-121.01666666666667,37.63333333333333],[-121.06888888888888,37.619166666666665],[-121.1825,37.603611111111114],[-121.25,37.6],[-121.30305555555556,37.587500000000006],[-121.36666666666666,37.583333333333336],[-121.42027777777778,37.57472222222223],[-121.48333333333333,37.56666666666667],[-121.53388888888888,37.561388888888885],[-121.6,37.55],[-121.63861111111112,37.54805555555556],[-121.68333333333334,37.53333333333333],[-121.735,37.524166666666666],[-121.78333333333333,37.516666666666666],[-121.82416666666666,37.503055555555555],[-121.86666666666666,37.5],[-121.91027777777778,37.49194444444444],[-121.95,37.5],[-121.99722222222222,37.49722222222222],[-122.03333333333333,37.516666666666666],[-122.11666666666666,37.53333333333333],[-122.14833333333334,37.54694444444444],[-122.18333333333334,37.55],[-122.21277777777777,37.5675],[-122.25,37.583333333333336],[-122.27277777777778,37.586666666666666],[-122.3,37.6],[-122.325,37.60194444444445],[-122.35,37.61666666666667],[-122.37083333333332,37.619166666666665]]}
}
