{
  "id": 2032085103,
  "type": "Feature",
  "properties": {
    "date:inception_lower": "2026-08-03",
    "date:inception_upper": "2026-08-03",
    "edtf:cessation": "",
    "edtf:inception": "2026-08-03",
    "flysfo:actual_timestamp": -1,
    "flysfo:airline": "NZ",
    "flysfo:base_airline": "",
    "flysfo:base_flight_number": "2254",
    "flysfo:date": "2026-08-03",
    "flysfo:estimated_timestamp": 1785825960,
    "flysfo:event": "A",
    "flysfo:flight_number": "NZ9156",
    "flysfo:gate": "E3",
    "flysfo:journey": "HNL-SFO",
    "flysfo:scheduled_timestamp": 1785826740,
    "flysfo:timestamp": 1785826740,
    "geom:area": 0,
    "geom:bbox": "-157.918416,21.332508,-122.370943,37.617990",
    "geom:latitude": 29.475248999999998,
    "geom:longitude": -140.1446795,
    "iata:airline": "NZ",
    "iata:base_airline": "",
    "icao:airline": "ANZ",
    "icao:base_airline": "AVA",
    "lbl:latitude": 37.618578,
    "lbl:longitude": -122.385434,
    "sfomuseum:airline_id": 1159283697,
    "sfomuseum:arrival_id": 102527513,
    "sfomuseum:base_flight_id": "20260803-A-AVA-2254",
    "sfomuseum:departure_id": 102533997,
    "sfomuseum:flight_id": "20260803-A-ANZ-9156",
    "sfomuseum:flight_number": [
      "ANZ9156",
      "NZ9156"
    ],
    "sfomuseum:placetype": "flight",
    "src:geom": "flysfo",
    "wof:belongsto": [
      1947304067,
      102527513,
      1947304451,
      102191575,
      85633793,
      102087579,
      85922583,
      554784711,
      85688637,
      1947304495,
      1947304447,
      102085387
    ],
    "wof:country": "US",
    "wof:created": 1785859390,
    "wof:geomhash": "1ad63fa22de9103ed4396c0ca683f63f",
    "wof:hierarchy": [
      {
        "building_id": 1947304067,
        "campus_id": 102527513,
        "concourse_id": 1947304451,
        "continent_id": 102191575,
        "country_id": 85633793,
        "county_id": 102087579,
        "custom_id": 2032085103,
        "flight_id": 2032085103,
        "locality_id": 85922583,
        "postalcode_id": 554784711,
        "region_id": 85688637,
        "venue_id": 1947304495,
        "wing_id": 1947304447
      },
      {
        "building_id": 1947304067,
        "campus_id": 102527513,
        "concourse_id": 1947304451,
        "continent_id": 102191575,
        "country_id": 85633793,
        "county_id": 102085387,
        "custom_id": 2032085103,
        "flight_id": 2032085103,
        "region_id": 85688637,
        "venue_id": 1947304495,
        "wing_id": 1947304447
      }
    ],
    "wof:id": 2032085103,
    "wof:involves": [
      102527513,
      102533997,
      1159283697,
      1947304495,
      1159285749
    ],
    "wof:lastmodified": 1785859390,
    "wof:name": "NZ9156 (HNL-SFO)",
    "wof:parent_id": 1947304495,
    "wof:placetype": "custom",
    "wof:placetype_alt": [
      "flight"
    ],
    "wof:repo": "sfomuseum-data-flights-2026-08",
    "wof:superseded_by": [],
    "wof:supersedes": []
  },
  "bbox": [
    -157.918416,
    21.332508,
    -122.370943,
    37.61799
  ],
  "geometry": {"type":"MultiPoint","coordinates":[[-157.918416,21.332508],[-122.370943,37.61799]]}
}
