{
  "id": 2032120813,
  "type": "Feature",
  "properties": {
    "geom:area": 0,
    "geom:bbox": "-122.412950,37.626860,-121.296770,37.947620",
    "geom:latitude": 37.80764343687904,
    "geom:longitude": -121.87429514326861,
    "src:alt_label": "swim-takeoff",
    "src:geom": "swim",
    "swim:elevations": [
      224,
      476,
      645,
      1074,
      1139,
      1206,
      1506,
      1717,
      1972,
      2342,
      2740,
      3108,
      3227,
      3481,
      3564,
      3892,
      4037,
      4577,
      4755,
      5122,
      6052,
      6193,
      6237
    ],
    "swim:geom": "takeoff",
    "swim:timestamps": [
      1785928149,
      1785928166,
      1785928184,
      1785928226,
      1785928235,
      1785928248,
      1785928287,
      1785928308,
      1785928328,
      1785928356,
      1785928393,
      1785928428,
      1785928452,
      1785928491,
      1785928506,
      1785928544,
      1785928564,
      1785928608,
      1785928621,
      1785928667,
      1785928769,
      1785928786,
      1785928790
    ],
    "wof:geomhash": "4be6ffffa1df0ccd093f2ffded38dbc1",
    "wof:id": 2032120813,
    "wof:repo": "sfomuseum-data-flights-2026-08"
  },
  "bbox": [
    -122.41295,
    37.62686,
    -121.29677,
    37.94762
  ],
  "geometry": {"type":"LineString","coordinates":[[-122.39506,37.62686],[-122.40873,37.63555],[-122.41295,37.65132],[-122.37724,37.67272],[-122.36667,37.67456],[-122.34996,37.67868],[-122.29797,37.69329],[-122.26771,37.70225],[-122.23756,37.71111],[-122.1951,37.72756],[-122.14063,37.75102],[-122.08184,37.76513],[-122.04034,37.77507],[-121.96552,37.79256],[-121.93493,37.79965],[-121.85313,37.81851],[-121.81191,37.82806],[-121.71521,37.85087],[-121.68744,37.8575],[-121.58303,37.88173],[-121.34862,37.93579],[-121.30632,37.9455],[-121.29677,37.94762]]}
}
