{
  "id": 2047975123,
  "type": "Feature",
  "properties": {
    "geom:area": 0,
    "geom:bbox": "-122.543910,36.726970,-121.450700,37.669300",
    "geom:latitude": 37.215468424614734,
    "geom:longitude": -122.07267028487406,
    "src:alt_label": "swim-takeoff",
    "src:geom": "swim",
    "swim:elevations": [
      122,
      887,
      997,
      1372,
      1945,
      2030,
      2777,
      3185,
      3352,
      3669,
      3951,
      4279,
      4735,
      4856,
      5409,
      5842,
      6110,
      6502,
      6794,
      6891,
      7030,
      7294,
      7357,
      7620,
      8002,
      8110,
      8402,
      8676,
      8838
    ],
    "swim:geom": "takeoff",
    "swim:timestamps": [
      1786747443,
      1786747496,
      1786747514,
      1786747553,
      1786747588,
      1786747594,
      1786747638,
      1786747665,
      1786747692,
      1786747737,
      1786747759,
      1786747784,
      1786747820,
      1786747830,
      1786747880,
      1786747916,
      1786747940,
      1786747977,
      1786748007,
      1786748019,
      1786748034,
      1786748064,
      1786748073,
      1786748103,
      1786748154,
      1786748171,
      1786748213,
      1786748240,
      1786748259
    ],
    "wof:geomhash": "0b3dffeef89b0f9e1481c0503d6052db",
    "wof:id": 2047975123,
    "wof:repo": "sfomuseum-data-flights-2026-08"
  },
  "bbox": [
    -122.54391,
    36.72697,
    -121.4507,
    37.6693
  ],
  "geometry": {"type":"LineString","coordinates":[[-122.38689,37.62375],[-122.4317,37.64348],[-122.44824,37.65068],[-122.49538,37.6693],[-122.54032,37.65066],[-122.54391,37.64369],[-122.52661,37.59009],[-122.50964,37.55698],[-122.49093,37.52071],[-122.43497,37.46079],[-122.39866,37.43403],[-122.35617,37.40264],[-122.29579,37.35815],[-122.27817,37.34517],[-122.18951,37.27982],[-122.12438,37.23175],[-122.08052,37.19926],[-122.0135,37.14944],[-121.9557,37.10647],[-121.93285,37.08935],[-121.90399,37.06777],[-121.8446,37.02344],[-121.82695,37.01028],[-121.76789,36.96608],[-121.66396,36.88938],[-121.63074,36.86492],[-121.54508,36.79955],[-121.48805,36.75673],[-121.4507,36.72697]]}
}
