{
  "id": 2032131079,
  "type": "Feature",
  "properties": {
    "date:cessation_lower": "2026-08-06",
    "date:cessation_upper": "2026-08-06",
    "date:inception_lower": "2026-08-06",
    "date:inception_upper": "2026-08-06",
    "edtf:cessation": "2026-08-06T02:24:48-07:00",
    "edtf:inception": "2026-08-06T14:50:00Z",
    "flysfo:actual_timestamp": -1,
    "flysfo:airline": "UA",
    "flysfo:base_airline": "",
    "flysfo:base_flight_number": "4464",
    "flysfo:date": "2026-08-06",
    "flysfo:estimated_timestamp": 1786033680,
    "flysfo:event": "A",
    "flysfo:flight_number": "UA2209",
    "flysfo:gate": "E7",
    "flysfo:journey": "PHX-SFO",
    "flysfo:scheduled_timestamp": 1786033800,
    "flysfo:timestamp": 1786033800,
    "geom:area": 0,
    "geom:bbox": "-122.370943,33.432684,-112.017392,37.617990",
    "geom:latitude": 35.525337,
    "geom:longitude": -117.19416749999999,
    "iata:airline": "UA",
    "iata:base_airline": "",
    "icao:aircraft": "B739",
    "icao:airline": "UAL",
    "icao:base_airline": "ACA",
    "lbl:latitude": 37.618874,
    "lbl:longitude": -122.38419,
    "sfomuseum:aircraft_id": 1377564285,
    "sfomuseum:airline_id": 1159285413,
    "sfomuseum:arrival_id": 102527513,
    "sfomuseum:base_flight_id": "20260806-A-ACA-4464",
    "sfomuseum:departure_id": 102526751,
    "sfomuseum:flight_id": "20260806-A-UAL-2209",
    "sfomuseum:flight_number": [
      "UAL2209",
      "UA2209"
    ],
    "sfomuseum:placetype": "flight",
    "src:geom": "flysfo",
    "src:geom_alt": [
      "swim-path",
      "swim-approach"
    ],
    "swim:tail_number": "N69813",
    "wof:belongsto": [
      1947304067,
      102527513,
      1947304511,
      102191575,
      85633793,
      102087579,
      85922583,
      554784711,
      85688637,
      1947304529,
      1947304447,
      102085387
    ],
    "wof:concordances": {
      "swim:flight_ref": "153857109"
    },
    "wof:country": "US",
    "wof:created": 1786118921,
    "wof:geomhash": "c9fdc5df38b6a105de4fe30ae6ada830",
    "wof:hierarchy": [
      {
        "building_id": 1947304067,
        "campus_id": 102527513,
        "concourse_id": 1947304511,
        "continent_id": 102191575,
        "country_id": 85633793,
        "county_id": 102087579,
        "custom_id": 2032131079,
        "flight_id": 2032131079,
        "locality_id": 85922583,
        "postalcode_id": 554784711,
        "region_id": 85688637,
        "venue_id": 1947304529,
        "wing_id": 1947304447
      },
      {
        "building_id": 1947304067,
        "campus_id": 102527513,
        "concourse_id": 1947304511,
        "continent_id": 102191575,
        "country_id": 85633793,
        "county_id": 102085387,
        "custom_id": 2032131079,
        "flight_id": 2032131079,
        "region_id": 85688637,
        "venue_id": 1947304529,
        "wing_id": 1947304447
      }
    ],
    "wof:id": 2032131079,
    "wof:involves": [
      1377564285,
      102527513,
      102526751,
      1159285413,
      1947304529,
      1159283597
    ],
    "wof:lastmodified": 1786119628,
    "wof:name": "UA2209 (PHX-SFO)",
    "wof:parent_id": 1947304529,
    "wof:placetype": "custom",
    "wof:placetype_alt": [
      "flight"
    ],
    "wof:repo": "sfomuseum-data-flights-2026-08",
    "wof:superseded_by": [],
    "wof:supersedes": []
  },
  "bbox": [
    -122.370943,
    33.432684,
    -112.017392,
    37.61799
  ],
  "geometry": {"type":"MultiPoint","coordinates":[[-112.017392,33.432684],[-122.370943,37.61799]]}
}
