{
  "id": 2047958029,
  "type": "Feature",
  "properties": {
    "geom:area": 0,
    "geom:bbox": "-122.542470,37.254250,-121.253150,37.668060",
    "geom:latitude": 37.39248127561348,
    "geom:longitude": -122.00036422117637,
    "src:alt_label": "swim-takeoff",
    "src:geom": "swim",
    "swim:elevations": [
      302,
      521,
      617,
      960,
      1042,
      1194,
      1748,
      2019,
      2411,
      3023,
      3155,
      3303,
      3557,
      3734,
      4204,
      4559,
      5090,
      5511,
      5661,
      5784,
      6107,
      6472,
      6836,
      7231,
      7397,
      7792,
      8011,
      8089,
      8364,
      8659,
      8793,
      8957
    ],
    "swim:geom": "takeoff",
    "swim:timestamps": [
      1786663674,
      1786663701,
      1786663717,
      1786663752,
      1786663763,
      1786663781,
      1786663825,
      1786663845,
      1786663871,
      1786663915,
      1786663927,
      1786663952,
      1786663977,
      1786663990,
      1786664024,
      1786664051,
      1786664089,
      1786664122,
      1786664134,
      1786664149,
      1786664179,
      1786664209,
      1786664240,
      1786664274,
      1786664290,
      1786664328,
      1786664350,
      1786664358,
      1786664389,
      1786664428,
      1786664446,
      1786664469
    ],
    "wof:geomhash": "90a294ecbecb9996e0603afcbcd5fc0c",
    "wof:id": 2047958029,
    "wof:repo": "sfomuseum-data-flights-2026-08"
  },
  "bbox": [
    -122.54247,
    37.25425,
    -121.25315,
    37.66806
  ],
  "geometry": {"type":"LineString","coordinates":[[-122.4005,37.62949],[-122.42375,37.63979],[-122.43849,37.64623],[-122.4785,37.66315],[-122.49251,37.66806],[-122.51873,37.66656],[-122.54247,37.62067],[-122.53105,37.59692],[-122.51371,37.56564],[-122.48633,37.51323],[-122.47712,37.49883],[-122.44456,37.47243],[-122.40478,37.44969],[-122.38313,37.43721],[-122.32262,37.40957],[-122.26791,37.39766],[-122.18863,37.38177],[-122.1162,37.36748],[-122.08982,37.36225],[-122.05623,37.35559],[-121.98705,37.34164],[-121.91652,37.32754],[-121.84201,37.31447],[-121.75856,37.30633],[-121.7178,37.30226],[-121.62257,37.29249],[-121.56478,37.28678],[-121.5442,37.28455],[-121.4643,37.27621],[-121.36295,37.26562],[-121.31505,37.26063],[-121.25315,37.25425]]}
}
