{
  "id": 2047917991,
  "type": "Feature",
  "properties": {
    "geom:area": 0,
    "geom:bbox": "-158.100000,21.233333,-122.400000,37.672500",
    "geom:latitude": 30.173009364476833,
    "geom:longitude": -140.74424916287475,
    "src:alt_label": "swim-path",
    "src:geom": "swim",
    "swim:altitudes": [
      "004",
      "024",
      "035",
      "038C",
      "038",
      "051C",
      "053",
      "075",
      "098",
      "111",
      "125C",
      "148C",
      "170",
      "191",
      "208",
      "220C",
      "224",
      "236C",
      "240",
      "251C",
      "255",
      "266C",
      "269",
      "282",
      "297",
      "309",
      "321",
      "337",
      "349",
      "360C",
      "360C",
      "360C",
      "360C",
      "360C",
      "360C",
      "360C",
      "360C",
      "360C",
      "360C",
      "360C",
      "370",
      "370",
      "370",
      "370",
      "370",
      "370",
      "370",
      "370",
      "370",
      "370",
      "370",
      "370",
      "370",
      "370",
      "370",
      "370",
      "370",
      "370",
      "370",
      "370",
      "370",
      "370",
      "370T",
      "370T",
      "362T",
      "330T",
      "299T",
      "274T",
      "250T",
      "226T",
      "202T",
      "179T",
      "157T",
      "114T",
      "104T",
      "100T",
      "100T",
      "100T",
      "098T",
      "072T",
      "043T",
      "030T",
      "030T",
      "027T",
      "021T",
      "013T",
      "006T",
      "003"
    ],
    "swim:geom": "path",
    "swim:speeds": [
      168,
      186,
      187,
      190,
      212,
      250,
      261,
      271,
      278,
      311,
      350,
      360,
      375,
      394,
      408,
      410,
      422,
      430,
      432,
      440,
      442,
      450,
      455,
      467,
      468,
      475,
      478,
      479,
      474,
      469,
      468,
      467,
      467,
      467,
      467,
      467,
      468,
      469,
      472,
      474,
      470,
      460,
      460,
      470,
      470,
      470,
      460,
      460,
      460,
      470,
      470,
      470,
      470,
      470,
      470,
      470,
      470,
      470,
      470,
      470,
      460,
      470,
      470,
      470,
      460,
      460,
      470,
      460,
      450,
      440,
      440,
      430,
      420,
      390,
      360,
      310,
      300,
      300,
      290,
      290,
      280,
      270,
      240,
      190,
      180,
      150,
      130,
      130
    ],
    "swim:timestamps": [
      1786397911,
      1786397975,
      1786397995,
      1786398029,
      1786398035,
      1786398089,
      1786398096,
      1786398156,
      1786398216,
      1786398276,
      1786398329,
      1786398389,
      1786398456,
      1786398528,
      1786398588,
      1786398629,
      1786398648,
      1786398689,
      1786398708,
      1786398749,
      1786398769,
      1786398809,
      1786398829,
      1786398889,
      1786398949,
      1786399009,
      1786399069,
      1786399129,
      1786399189,
      1786399249,
      1786399309,
      1786399369,
      1786399429,
      1786399490,
      1786399550,
      1786399610,
      1786399670,
      1786399730,
      1786399790,
      1786399850,
      1786411559,
      1786411619,
      1786411679,
      1786411739,
      1786411860,
      1786411919,
      1786411980,
      1786412040,
      1786412100,
      1786412160,
      1786412220,
      1786412280,
      1786412340,
      1786412400,
      1786412461,
      1786412521,
      1786412581,
      1786412641,
      1786412701,
      1786412761,
      1786412822,
      1786412882,
      1786412942,
      1786413002,
      1786413062,
      1786413122,
      1786413183,
      1786413243,
      1786413303,
      1786413363,
      1786413423,
      1786413484,
      1786413543,
      1786413664,
      1786413724,
      1786413784,
      1786413844,
      1786413905,
      1786413964,
      1786414025,
      1786414085,
      1786414145,
      1786414205,
      1786414265,
      1786414325,
      1786414386,
      1786414446,
      1786414471
    ],
    "wof:geomhash": "44008a93f34f41685bffb5f1ba27b654",
    "wof:id": 2047917991,
    "wof:repo": "sfomuseum-data-flights-2026-08"
  },
  "bbox": [
    -158.1,
    21.233333333333334,
    -122.4,
    37.6725
  ],
  "geometry": {"type":"LineString","coordinates":[[-122.4,37.63333333333333],[-122.44388888888889,37.64861111111111],[-122.46666666666667,37.666666666666664],[-122.5,37.666666666666664],[-122.50527777777778,37.6725],[-122.58333333333333,37.65],[-122.58916666666666,37.65277777777778],[-122.68055555555556,37.629444444444445],[-122.77416666666666,37.60583333333334],[-122.87416666666665,37.58027777777778],[-122.98333333333333,37.55],[-123.1,37.516666666666666],[-123.23611111111111,37.48777777777778],[-123.39333333333335,37.44694444444444],[-123.52833333333334,37.41166666666666],[-123.63333333333334,37.38333333333333],[-123.66694444444445,37.37555555555556],[-123.76666666666667,37.333333333333336],[-123.81083333333333,37.337500000000006],[-123.91666666666667,37.3],[-123.95694444444445,37.29888888888889],[-124.06666666666666,37.266666666666666],[-124.1086111111111,37.25833333333333],[-124.2611111111111,37.217777777777776],[-124.41777777777779,37.17527777777777],[-124.57472222222222,37.132777777777775],[-124.73194444444445,37.09],[-124.89,37.046388888888885],[-125.04333333333334,37.00416666666667],[-125.19805555555556,36.961111111111116],[-125.35,36.91861111111111],[-125.50111111111111,36.87638888888889],[-125.65416666666667,36.83305555555556],[-125.80694444444444,36.78944444444444],[-125.95833333333334,36.74611111111111],[-126.11055555555555,36.7025],[-126.26444444444445,36.658055555555556],[-126.41666666666667,36.61388888888889],[-126.57138888888889,36.56861111111112],[-126.72555555555556,36.52333333333333],[-153.81666666666666,24.55],[-153.95,24.466666666666665],[-154.06666666666666,24.4],[-154.18333333333334,24.316666666666666],[-154.41666666666666,24.166666666666668],[-154.51666666666668,24.083333333333332],[-154.61666666666667,24],[-154.71666666666667,23.9],[-154.81666666666666,23.816666666666666],[-154.91666666666666,23.733333333333334],[-155.03333333333333,23.633333333333333],[-155.13333333333333,23.55],[-155.23333333333332,23.45],[-155.33333333333334,23.366666666666667],[-155.43333333333334,23.266666666666666],[-155.53333333333333,23.183333333333334],[-155.63333333333333,23.1],[-155.73333333333332,23],[-155.83333333333334,22.916666666666668],[-155.93333333333334,22.816666666666666],[-156.05,22.733333333333334],[-156.15,22.65],[-156.25,22.55],[-156.35,22.466666666666665],[-156.45,22.366666666666667],[-156.53333333333333,22.283333333333335],[-156.65,22.2],[-156.75,22.1],[-156.83333333333334,22.016666666666666],[-156.93333333333334,21.933333333333334],[-157.03333333333333,21.833333333333332],[-157.11666666666667,21.75],[-157.21666666666667,21.683333333333334],[-157.38333333333333,21.533333333333335],[-157.48333333333332,21.483333333333334],[-157.56666666666666,21.433333333333334],[-157.65,21.4],[-157.71666666666667,21.35],[-157.8,21.316666666666666],[-157.88333333333333,21.283333333333335],[-157.95,21.233333333333334],[-158.03333333333333,21.233333333333334],[-158.1,21.25],[-158.1,21.3],[-158.05,21.316666666666666],[-158,21.316666666666666],[-157.96666666666667,21.316666666666666],[-157.95,21.316666666666666]]}
}
