{
  "id": 2047942379,
  "type": "Feature",
  "properties": {
    "geom:area": 0,
    "geom:bbox": "-122.409140,37.624250,-121.243390,37.991340",
    "geom:latitude": 37.93298825754971,
    "geom:longitude": -121.94204278681472,
    "src:alt_label": "swim-takeoff",
    "src:geom": "swim",
    "swim:elevations": [
      122,
      530,
      546,
      675,
      1313,
      1541,
      2265,
      2845,
      3324,
      3482,
      3838,
      3981,
      4219,
      4737,
      5004,
      5144,
      5281,
      5808,
      5837,
      6168,
      6296,
      6689
    ],
    "swim:geom": "takeoff",
    "swim:timestamps": [
      1786579280,
      1786579317,
      1786579320,
      1786579350,
      1786579407,
      1786579425,
      1786579488,
      1786579542,
      1786579612,
      1786579654,
      1786579712,
      1786579728,
      1786579751,
      1786579794,
      1786579824,
      1786579842,
      1786579860,
      1786579917,
      1786579920,
      1786579963,
      1786579986,
      1786580041
    ],
    "wof:geomhash": "bedde14cc752a33a2debb7b328407fb4",
    "wof:id": 2047942379,
    "wof:repo": "sfomuseum-data-flights-2026-08"
  },
  "bbox": [
    -122.40914,
    37.62425,
    -121.24339,
    37.99134
  ],
  "geometry": {"type":"LineString","coordinates":[[-122.38828,37.62425],[-122.40914,37.64784],[-122.40865,37.65063],[-122.38678,37.67613],[-122.33799,37.73412],[-122.34354,37.75634],[-122.38112,37.83369],[-122.3836,37.90823],[-122.28235,37.9606],[-122.1966,37.9783],[-122.06197,37.98852],[-122.02301,37.98883],[-121.96774,37.98932],[-121.86474,37.98996],[-121.79254,37.99032],[-121.74923,37.99051],[-121.70458,37.99068],[-121.56262,37.99105],[-121.5551,37.99108],[-121.44534,37.9913],[-121.38704,37.99128],[-121.24339,37.99134]]}
}
