{
  "id": 2047884265,
  "type": "Feature",
  "properties": {
    "geom:area": 0,
    "geom:bbox": "-122.738430,37.376200,-122.087890,38.125540",
    "geom:latitude": 37.6465278518669,
    "geom:longitude": -122.39251649171447,
    "src:alt_label": "swim-approach",
    "src:geom": "swim",
    "swim:elevations": [
      5642,
      5330,
      5149,
      4944,
      4181,
      4025,
      3861,
      3499,
      3378,
      3353,
      3353,
      3353,
      3353,
      3353,
      3118,
      2952,
      2881,
      2566,
      2373,
      2013,
      1710,
      1240,
      1219,
      1201,
      980,
      915,
      914,
      914,
      786,
      674,
      551,
      435,
      319,
      149,
      120,
      42
    ],
    "swim:geom": "approach",
    "swim:timestamps": [
      1786211667,
      1786211698,
      1786211717,
      1786211737,
      1786211817,
      1786211835,
      1786211853,
      1786211891,
      1786211921,
      1786211940,
      1786212024,
      1786212043,
      1786212056,
      1786212087,
      1786212117,
      1786212140,
      1786212150,
      1786212192,
      1786212222,
      1786212274,
      1786212380,
      1786212442,
      1786212462,
      1786212502,
      1786212530,
      1786212549,
      1786212562,
      1786212591,
      1786212626,
      1786212651,
      1786212676,
      1786212707,
      1786212733,
      1786212776,
      1786212789,
      1786212811
    ],
    "wof:geomhash": "86b6305ad9a116d6b518f6de5e49c0ec",
    "wof:id": 2047884265,
    "wof:repo": "sfomuseum-data-flights-2026-08"
  },
  "bbox": [
    -122.73843,
    37.3762,
    -122.08789,
    38.12554
  ],
  "geometry": {"type":"LineString","coordinates":[[-122.73843,38.12554],[-122.72323,38.07216],[-122.71438,38.0409],[-122.70458,38.00736],[-122.65482,37.88222],[-122.63102,37.8596],[-122.6074,37.83729],[-122.55806,37.79058],[-122.52119,37.75521],[-122.49749,37.73341],[-122.40534,37.64707],[-122.38669,37.62948],[-122.37462,37.61815],[-122.34824,37.58627],[-122.33266,37.55347],[-122.31897,37.52718],[-122.31233,37.51638],[-122.2954,37.46908],[-122.30452,37.4354],[-122.31562,37.3762],[-122.19515,37.38718],[-122.12324,37.42512],[-122.10573,37.44104],[-122.08789,37.47932],[-122.1065,37.50226],[-122.12457,37.5133],[-122.13846,37.51929],[-122.1659,37.53066],[-122.19921,37.54485],[-122.223,37.55486],[-122.2461,37.56459],[-122.27453,37.57653],[-122.29596,37.58553],[-122.33156,37.60044],[-122.34127,37.6045],[-122.35673,37.61065]]}
}
