{
  "id": 2047975725,
  "type": "Feature",
  "properties": {
    "geom:area": 0,
    "geom:bbox": "-122.341550,37.441710,-121.248630,37.606990",
    "geom:latitude": 37.533972406771305,
    "geom:longitude": -121.80104817234732,
    "src:alt_label": "swim-approach",
    "src:geom": "swim",
    "swim:elevations": [
      4708,
      4609,
      4154,
      3778,
      3432,
      3353,
      3248,
      3093,
      3048,
      3048,
      2896,
      2779,
      2569,
      2434,
      2429,
      2285,
      2194,
      2102,
      1959,
      1859,
      1782,
      1658,
      1517,
      1179,
      973,
      856,
      754,
      665,
      473,
      449,
      274,
      189,
      101
    ],
    "swim:geom": "approach",
    "swim:timestamps": [
      1786790967,
      1786790978,
      1786791039,
      1786791073,
      1786791102,
      1786791138,
      1786791174,
      1786791198,
      1786791232,
      1786791265,
      1786791291,
      1786791303,
      1786791335,
      1786791370,
      1786791418,
      1786791442,
      1786791456,
      1786791497,
      1786791519,
      1786791544,
      1786791592,
      1786791611,
      1786791632,
      1786791693,
      1786791726,
      1786791751,
      1786791771,
      1786791798,
      1786791837,
      1786791856,
      1786791889,
      1786791919,
      1786791936
    ],
    "wof:geomhash": "0069586c419c7c9342bc145b3cbd83c7",
    "wof:id": 2047975725,
    "wof:repo": "sfomuseum-data-flights-2026-08"
  },
  "bbox": [
    -122.34155,
    37.44171,
    -121.24863,
    37.60699
  ],
  "geometry": {"type":"LineString","coordinates":[[-121.24863,37.5947],[-121.27117,37.59162],[-121.38342,37.57883],[-121.44275,37.57201],[-121.49253,37.56633],[-121.55198,37.55953],[-121.60535,37.55889],[-121.63796,37.56659],[-121.68595,37.57797],[-121.73297,37.58653],[-121.76352,37.5732],[-121.76952,37.56121],[-121.76105,37.52903],[-121.76425,37.49217],[-121.7955,37.44975],[-121.82868,37.44609],[-121.84743,37.44524],[-121.90395,37.44271],[-121.93464,37.44171],[-121.96631,37.44903],[-122.02394,37.47286],[-122.04723,37.48283],[-122.07221,37.49338],[-122.1414,37.52268],[-122.17848,37.53833],[-122.20346,37.54884],[-122.22227,37.55683],[-122.24475,37.56626],[-122.27309,37.57815],[-122.28598,37.58371],[-122.30881,37.59328],[-122.32983,37.6021],[-122.34155,37.60699]]}
}
