{
  "id": 2032075535,
  "type": "Feature",
  "properties": {
    "geom:area": 0,
    "geom:bbox": "-123.479190,37.093860,-122.410210,37.663400",
    "geom:latitude": 37.40118821824241,
    "geom:longitude": -122.94805673226908,
    "src:alt_label": "swim-takeoff",
    "src:geom": "swim",
    "swim:elevations": [
      368,
      505,
      605,
      1082,
      1157,
      1816,
      2046,
      2364,
      2820,
      3116,
      3237,
      3498,
      3604,
      3868,
      4213,
      4299,
      4661,
      4868,
      5042,
      5356,
      5560,
      5734,
      5873,
      6126
    ],
    "swim:geom": "takeoff",
    "swim:timestamps": [
      1785655677,
      1785655698,
      1785655713,
      1785655763,
      1785655771,
      1785655823,
      1785655840,
      1785655867,
      1785655907,
      1785655934,
      1785655956,
      1785656006,
      1785656026,
      1785656055,
      1785656096,
      1785656105,
      1785656153,
      1785656179,
      1785656204,
      1785656244,
      1785656272,
      1785656296,
      1785656318,
      1785656352
    ],
    "wof:geomhash": "0ee414d5231639d517d620277b12dd26",
    "wof:id": 2032075535,
    "wof:repo": "sfomuseum-data-flights-2026-08"
  },
  "bbox": [
    -123.47919,
    37.09386,
    -122.41021,
    37.6634
  ],
  "geometry": {"coordinates":[[-122.41021,37.63345],[-122.43151,37.64273],[-122.44856,37.65052],[-122.51787,37.6634],[-122.52843,37.65883],[-122.59503,37.61599],[-122.61652,37.60239],[-122.65117,37.58015],[-122.70276,37.54688],[-122.73877,37.52382],[-122.76967,37.50543],[-122.84939,37.45997],[-122.88304,37.44061],[-122.93333,37.41157],[-123.00611,37.36943],[-123.02096,37.36091],[-123.10787,37.31051],[-123.15502,37.2832],[-123.20081,37.25659],[-123.27554,37.21307],[-123.32761,37.18267],[-123.37226,37.15654],[-123.41469,37.13175],[-123.47919,37.09386]],"type":"LineString"}
}
