{
  "id": 2032131255,
  "type": "Feature",
  "properties": {
    "geom:area": 0,
    "geom:bbox": "-122.345833,37.383333,-122.116667,37.606389",
    "geom:latitude": 37.5041091767252,
    "geom:longitude": -122.20600901392478,
    "src:alt_label": "swim-path",
    "src:geom": "swim",
    "swim:altitudes": [
      "060",
      "060",
      "053",
      "050",
      "045",
      "042",
      "036",
      "021",
      "017",
      "012",
      "005",
      "002"
    ],
    "swim:geom": "path",
    "swim:speeds": [
      249,
      246,
      244,
      237,
      212,
      208,
      184,
      167,
      169,
      161,
      135,
      139
    ],
    "swim:timestamps": [
      1786072233,
      1786072262,
      1786072299,
      1786072322,
      1786072353,
      1786072382,
      1786072413,
      1786072533,
      1786072562,
      1786072593,
      1786072653,
      1786072682
    ],
    "wof:geomhash": "a9afc9d941cc542184dbcb20baeca73e",
    "wof:id": 2032131255,
    "wof:repo": "sfomuseum-data-flights-2026-08"
  },
  "bbox": [
    -122.34583333333333,
    37.38333333333333,
    -122.11666666666666,
    37.60638888888889
  ],
  "geometry": {"type":"LineString","coordinates":[[-122.26666666666667,37.38333333333333],[-122.23833333333333,37.394999999999996],[-122.18333333333334,37.416666666666664],[-122.16944444444445,37.43472222222222],[-122.13333333333334,37.46666666666667],[-122.12222222222222,37.47888888888889],[-122.11666666666666,37.516666666666666],[-122.23333333333333,37.56666666666667],[-122.25361111111111,37.5675],[-122.28333333333333,37.583333333333336],[-122.33333333333333,37.6],[-122.34583333333333,37.60638888888889]]}
}
