{
  "id": 2032058595,
  "type": "Feature",
  "properties": {
    "geom:area": 0,
    "geom:bbox": "-122.314722,37.430278,-77.521111,40.445833",
    "geom:latitude": 39.55327844487825,
    "geom:longitude": -100.09989951262847,
    "src:alt_label": "swim-path",
    "src:geom": "swim",
    "swim:altitudes": [
      "017",
      "038",
      "057",
      "085",
      "108",
      "129",
      "164",
      "178",
      "196",
      "212",
      "231",
      "244",
      "253",
      "266",
      "275",
      "289",
      "300",
      "318",
      "327",
      "332",
      "341",
      "346",
      "354",
      "360C",
      "360C",
      "360C",
      "360C",
      "360C",
      "360C",
      "360C",
      "360C",
      "360C",
      "360C",
      "360C",
      "360C",
      "360C",
      "360C",
      "360C",
      "360C",
      "360C",
      "360C",
      "360C",
      "360C",
      "360C",
      "360C",
      "360C",
      "360C",
      "360C",
      "360C",
      "360C",
      "360C",
      "360C",
      "360C",
      "360C",
      "360C",
      "360C",
      "360C",
      "360C",
      "360C",
      "360C",
      "360C",
      "360C",
      "360C",
      "360C",
      "360C",
      "360C",
      "360C",
      "360C",
      "360C",
      "360C",
      "360C",
      "360C",
      "360C",
      "360C",
      "360C",
      "360C",
      "360C",
      "360C",
      "360C",
      "360C",
      "360C",
      "360C",
      "360C",
      "360C",
      "360C",
      "360C",
      "360C",
      "360C",
      "360C",
      "360C",
      "360C",
      "360C",
      "360C",
      "360C",
      "360C",
      "360C",
      "360C",
      "360C",
      "360C",
      "360C",
      "360C",
      "360C",
      "360C",
      "360C",
      "360C",
      "360C",
      "360C",
      "360C",
      "360C",
      "360C",
      "360C",
      "360C",
      "360C",
      "360C",
      "360C",
      "360C",
      "360C",
      "360C",
      "360C",
      "360C",
      "360C",
      "360C",
      "360C",
      "360C",
      "360C",
      "360C",
      "360C",
      "360C",
      "360C",
      "360C",
      "360C",
      "360C",
      "360C",
      "360C",
      "360C",
      "360C",
      "360C",
      "360C",
      "360C",
      "360C",
      "360C",
      "360C",
      "360C",
      "360C",
      "360C",
      "360C",
      "360C",
      "360C",
      "360C",
      "360C",
      "360C",
      "360C",
      "360C",
      "360C",
      "360C",
      "360C",
      "360C",
      "360C",
      "360C",
      "360C",
      "360C",
      "360C",
      "360C",
      "360C",
      "360C",
      "360C",
      "360C",
      "360C",
      "360C",
      "360C",
      "360C",
      "360C",
      "360C",
      "360C",
      "360C",
      "360C",
      "360C",
      "360C",
      "360C",
      "360C",
      "360C",
      "360C",
      "360C",
      "360C",
      "360C",
      "360C",
      "360C",
      "360C",
      "360C",
      "360C",
      "360C",
      "360C",
      "360C",
      "360C",
      "360C",
      "360C",
      "360C",
      "360C",
      "360C",
      "360C",
      "360C",
      "360C",
      "360C",
      "360C",
      "360C",
      "360C",
      "360C",
      "360C",
      "360C",
      "360C",
      "360C",
      "360C",
      "360C",
      "360C",
      "360C",
      "360C",
      "360C",
      "360C",
      "360C",
      "360C",
      "360C",
      "360C",
      "360C",
      "360C",
      "360C",
      "360C",
      "360C",
      "360C",
      "360C",
      "360C",
      "360C",
      "360C",
      "360C",
      "360C",
      "360C",
      "360C",
      "360C",
      "360C",
      "360C",
      "360C",
      "360C",
      "360C",
      "360C",
      "360C",
      "360C",
      "360C",
      "360C",
      "360C",
      "360C",
      "360C",
      "360C",
      "360C",
      "360C",
      "360C",
      "360C",
      "360C",
      "360C",
      "360C",
      "360C",
      "360C",
      "360C",
      "360C",
      "360C",
      "360C",
      "360C",
      "360C",
      "360C",
      "360C",
      "360C",
      "360C",
      "360C",
      "360C",
      "360C",
      "360C",
      "360C",
      "360C",
      "360C",
      "360C",
      "360C",
      "360C",
      "360C",
      "360C",
      "360C",
      "360C",
      "360C",
      "360C",
      "360C",
      "360C",
      "360C",
      "360C",
      "360C",
      "360C",
      "360C",
      "360C",
      "360C",
      "360C",
      "360C",
      "360C",
      "360C",
      "360C",
      "360C",
      "360C",
      "360C",
      "360C",
      "360C",
      "360C",
      "360C",
      "360C",
      "360C",
      "360C",
      "360C",
      "360C",
      "360C",
      "360C",
      "360C",
      "360C",
      "360C",
      "360C",
      "360",
      "359",
      "351",
      "350",
      "340C",
      "340C",
      "340C",
      "340C",
      "340C",
      "340C",
      "340C",
      "340C",
      "340C",
      "340C",
      "340C",
      "340",
      "340",
      "340",
      "326",
      "309",
      "276",
      "271",
      "255",
      "235",
      "218",
      "197",
      "177",
      "136",
      "125",
      "107",
      "100",
      "095",
      "085",
      "077",
      "069",
      "048",
      "026",
      "016",
      "008"
    ],
    "swim:geom": "path",
    "swim:speeds": [
      176,
      244,
      260,
      269,
      285,
      303,
      352,
      378,
      390,
      391,
      395,
      410,
      405,
      429,
      445,
      448,
      452,
      449,
      444,
      451,
      453,
      457,
      458,
      456,
      455,
      455,
      453,
      453,
      451,
      450,
      450,
      449,
      448,
      449,
      449,
      450,
      450,
      451,
      451,
      455,
      452,
      454,
      452,
      454,
      453,
      454,
      454,
      456,
      457,
      454,
      457,
      455,
      458,
      456,
      459,
      456,
      460,
      457,
      461,
      459,
      460,
      462,
      460,
      463,
      460,
      465,
      464,
      464,
      466,
      464,
      467,
      466,
      467,
      467,
      467,
      468,
      468,
      469,
      469,
      471,
      472,
      474,
      475,
      475,
      476,
      477,
      478,
      478,
      478,
      479,
      478,
      477,
      477,
      477,
      477,
      477,
      476,
      476,
      476,
      476,
      475,
      476,
      475,
      475,
      474,
      474,
      474,
      474,
      474,
      474,
      473,
      472,
      472,
      472,
      472,
      472,
      472,
      472,
      471,
      470,
      471,
      471,
      472,
      471,
      472,
      472,
      472,
      472,
      473,
      473,
      473,
      474,
      473,
      474,
      474,
      476,
      475,
      476,
      477,
      476,
      477,
      478,
      479,
      480,
      480,
      481,
      481,
      482,
      482,
      483,
      484,
      484,
      484,
      485,
      485,
      485,
      486,
      487,
      487,
      487,
      487,
      487,
      485,
      485,
      484,
      483,
      483,
      482,
      481,
      480,
      480,
      479,
      478,
      477,
      476,
      476,
      476,
      476,
      476,
      477,
      478,
      479,
      480,
      481,
      483,
      484,
      486,
      486,
      486,
      486,
      486,
      486,
      486,
      486,
      486,
      486,
      486,
      485,
      485,
      485,
      485,
      485,
      484,
      484,
      484,
      484,
      484,
      484,
      484,
      485,
      485,
      486,
      486,
      485,
      487,
      487,
      431,
      485,
      484,
      483,
      481,
      481,
      479,
      478,
      482,
      479,
      481,
      483,
      484,
      486,
      486,
      483,
      483,
      483,
      482,
      480,
      481,
      479,
      478,
      479,
      479,
      477,
      476,
      478,
      475,
      477,
      476,
      474,
      475,
      480,
      478,
      477,
      474,
      472,
      471,
      470,
      470,
      470,
      469,
      467,
      466,
      465,
      465,
      465,
      465,
      465,
      467,
      467,
      468,
      469,
      469,
      471,
      471,
      471,
      471,
      470,
      469,
      469,
      469,
      470,
      472,
      473,
      473,
      473,
      480,
      473,
      478,
      472,
      476,
      471,
      475,
      464,
      459,
      459,
      459,
      458,
      457,
      457,
      456,
      456,
      455,
      456,
      455,
      455,
      453,
      445,
      429,
      428,
      424,
      425,
      424,
      424,
      424,
      424,
      425,
      425,
      426,
      426,
      426,
      427,
      428,
      427,
      412,
      413,
      413,
      415,
      415,
      412,
      412,
      412,
      412,
      413,
      413,
      413,
      413,
      414,
      410,
      400,
      383,
      379,
      390,
      404,
      393,
      390,
      387,
      356,
      344,
      258,
      252,
      247,
      247,
      246,
      243,
      234,
      214,
      185,
      157
    ],
    "swim:timestamps": [
      1785589294,
      1785589362,
      1785589415,
      1785589475,
      1785589535,
      1785589595,
      1785589715,
      1785589775,
      1785589835,
      1785589894,
      1785589954,
      1785590016,
      1785590074,
      1785590134,
      1785590195,
      1785590256,
      1785590316,
      1785590375,
      1785590435,
      1785590496,
      1785590557,
      1785590617,
      1785590677,
      1785590735,
      1785590795,
      1785590857,
      1785590916,
      1785590977,
      1785591036,
      1785591156,
      1785591216,
      1785591276,
      1785591336,
      1785591396,
      1785591456,
      1785591516,
      1785591577,
      1785591637,
      1785591697,
      1785591740,
      1785591757,
      1785591800,
      1785591817,
      1785591860,
      1785591877,
      1785591920,
      1785591937,
      1785591997,
      1785592057,
      1785592098,
      1785592117,
      1785592158,
      1785592177,
      1785592218,
      1785592237,
      1785592278,
      1785592298,
      1785592338,
      1785592358,
      1785592398,
      1785592458,
      1785592478,
      1785592518,
      1785592538,
      1785592578,
      1785592598,
      1785592638,
      1785592699,
      1785592713,
      1785592723,
      1785592773,
      1785592783,
      1785592843,
      1785592894,
      1785592903,
      1785592958,
      1785593014,
      1785593074,
      1785593083,
      1785593134,
      1785593143,
      1785593194,
      1785593254,
      1785593263,
      1785593323,
      1785593374,
      1785593384,
      1785593434,
      1785593444,
      1785593495,
      1785593504,
      1785593555,
      1785593564,
      1785593615,
      1785593624,
      1785593679,
      1785593735,
      1785593744,
      1785593804,
      1785593855,
      1785593864,
      1785593884,
      1785593915,
      1785593924,
      1785593975,
      1785593984,
      1785594035,
      1785594045,
      1785594096,
      1785594105,
      1785594156,
      1785594216,
      1785594225,
      1785594276,
      1785594285,
      1785594336,
      1785594345,
      1785594396,
      1785594405,
      1785594465,
      1785594516,
      1785594537,
      1785594563,
      1785594576,
      1785594623,
      1785594636,
      1785594657,
      1785594683,
      1785594696,
      1785594718,
      1785594757,
      1785594778,
      1785594804,
      1785594817,
      1785594838,
      1785594864,
      1785594877,
      1785594898,
      1785594924,
      1785594937,
      1785594958,
      1785594984,
      1785595018,
      1785595044,
      1785595078,
      1785595104,
      1785595138,
      1785595164,
      1785595198,
      1785595258,
      1785595284,
      1785595318,
      1785595344,
      1785595378,
      1785595404,
      1785595439,
      1785595464,
      1785595499,
      1785595525,
      1785595559,
      1785595585,
      1785595619,
      1785595679,
      1785595705,
      1785595739,
      1785595765,
      1785595799,
      1785595825,
      1785595859,
      1785595885,
      1785595919,
      1785595945,
      1785595979,
      1785596005,
      1785596039,
      1785596065,
      1785596100,
      1785596160,
      1785596185,
      1785596220,
      1785596245,
      1785596306,
      1785596340,
      1785596366,
      1785596426,
      1785596486,
      1785596546,
      1785596606,
      1785596666,
      1785596726,
      1785596768,
      1785596786,
      1785596828,
      1785596846,
      1785596888,
      1785596966,
      1785597068,
      1785597147,
      1785597188,
      1785597207,
      1785597249,
      1785597267,
      1785597309,
      1785597327,
      1785597369,
      1785597387,
      1785597447,
      1785597489,
      1785597507,
      1785597549,
      1785597567,
      1785597609,
      1785597669,
      1785597687,
      1785597849,
      1785597909,
      1785597973,
      1785598030,
      1785598150,
      1785598210,
      1785598273,
      1785598330,
      1785598390,
      1785598450,
      1785598514,
      1785598630,
      1785598694,
      1785598751,
      1785598811,
      1785598871,
      1785598931,
      1785598994,
      1785599054,
      1785599111,
      1785599171,
      1785599231,
      1785599295,
      1785599351,
      1785599411,
      1785599475,
      1785599535,
      1785599592,
      1785599652,
      1785599715,
      1785599772,
      1785599835,
      1785599896,
      1785600136,
      1785600256,
      1785600316,
      1785600436,
      1785600496,
      1785600616,
      1785600677,
      1785600737,
      1785600797,
      1785600857,
      1785600977,
      1785601037,
      1785601097,
      1785601157,
      1785601217,
      1785601277,
      1785601337,
      1785601458,
      1785601518,
      1785601698,
      1785601758,
      1785601818,
      1785601878,
      1785601938,
      1785602058,
      1785602118,
      1785602179,
      1785602239,
      1785602299,
      1785602359,
      1785602479,
      1785602539,
      1785602599,
      1785602659,
      1785602719,
      1785602779,
      1785602839,
      1785602847,
      1785602900,
      1785602907,
      1785602960,
      1785602967,
      1785603020,
      1785603027,
      1785603080,
      1785603147,
      1785603200,
      1785603207,
      1785603260,
      1785603320,
      1785603327,
      1785603380,
      1785603387,
      1785603440,
      1785603447,
      1785603500,
      1785603507,
      1785603560,
      1785603568,
      1785603620,
      1785603628,
      1785603681,
      1785603688,
      1785603741,
      1785603801,
      1785603808,
      1785603861,
      1785603868,
      1785603921,
      1785603928,
      1785603981,
      1785604041,
      1785604048,
      1785604101,
      1785604108,
      1785604161,
      1785604168,
      1785604228,
      1785604281,
      1785604289,
      1785604349,
      1785604409,
      1785604469,
      1785604529,
      1785604589,
      1785604649,
      1785604769,
      1785604829,
      1785604889,
      1785604949,
      1785605009,
      1785605130,
      1785605146,
      1785605190,
      1785605250,
      1785605310,
      1785605370,
      1785605430,
      1785605555,
      1785605610,
      1785605791,
      1785605851,
      1785605911,
      1785605971,
      1785606031,
      1785606091,
      1785606211,
      1785606331,
      1785606391,
      1785606451
    ],
    "wof:geomhash": "e0ad4a3c74f3c677a66dd073bb488fe1",
    "wof:id": 2032058595,
    "wof:repo": "sfomuseum-data-flights-2026-08"
  },
  "bbox": [
    -122.31472222222222,
    37.430277777777775,
    -77.52111111111111,
    40.44583333333333
  ],
  "geometry": {"coordinates":[[-77.52111111111111,38.94499999999999],[-77.61666666666666,38.916666666666664],[-77.68083333333334,38.90333333333333],[-77.77444444444444,38.888333333333335],[-77.87583333333333,38.8775],[-77.97916666666667,38.88777777777778],[-78.20277777777778,38.95583333333334],[-78.33305555555555,38.967777777777776],[-78.4725,38.97694444444445],[-78.59194444444444,38.984722222222224],[-78.73444444444445,38.9925],[-78.89111111111112,39.00333333333333],[-79.0225,39.01138888888889],[-79.1763888888889,39.01861111111111],[-79.36333333333333,39.03194444444444],[-79.50944444444444,39.04111111111111],[-79.66694444444445,39.05083333333333],[-79.84277777777777,39.06194444444444],[-80.00083333333333,39.071111111111115],[-80.15194444444445,39.080000000000005],[-80.31138888888889,39.089444444444446],[-80.47694444444444,39.098888888888894],[-80.64083333333333,39.106944444444444],[-80.80499999999999,39.11527777777778],[-80.96611111111112,39.123333333333335],[-81.13444444444445,39.13583333333333],[-81.28611111111111,39.15888888888889],[-81.45222222222222,39.18416666666666],[-81.5975,39.20583333333334],[-81.91027777777778,39.25222222222222],[-82.06722222222221,39.275],[-82.23611111111111,39.29944444444444],[-82.3938888888889,39.32194444444445],[-82.55361111111111,39.34444444444445],[-82.71222222222222,39.36666666666667],[-82.87222222222222,39.388888888888886],[-83.03138888888888,39.410555555555554],[-83.18916666666667,39.43194444444444],[-83.35055555555554,39.453611111111115],[-83.43916666666667,39.46555555555556],[-83.51083333333334,39.475],[-83.59861111111111,39.48527777777778],[-83.67166666666667,39.49583333333334],[-83.76027777777777,39.506388888888885],[-83.83305555555555,39.51694444444444],[-83.92,39.52722222222222],[-83.99138888888889,39.53722222222222],[-84.15333333333334,39.55777777777777],[-84.31666666666666,39.57805555555556],[-84.40444444444445,39.59027777777778],[-84.47777777777777,39.59805555555556],[-84.56805555555555,39.612500000000004],[-84.6413888888889,39.61805555555556],[-84.73166666666667,39.63111111111111],[-84.80527777777777,39.63777777777778],[-84.8938888888889,39.649166666666666],[-84.96361111111112,39.65694444444444],[-85.05833333333334,39.66833333333333],[-85.1286111111111,39.67611111111111],[-85.22500000000001,39.689166666666665],[-85.38916666666667,39.70777777777778],[-85.46444444444445,39.715],[-85.55388888888889,39.725833333333334],[-85.64222222222223,39.73527777777778],[-85.72055555555556,39.74472222222222],[-85.80916666666667,39.75388888888889],[-85.88777777777779,39.763333333333335],[-86.05416666666666,39.78138888888889],[-86.12055555555555,39.78805555555555],[-86.12138888888889,39.78861111111111],[-86.28305555555555,39.80555555555555],[-86.28916666666666,39.806666666666665],[-86.45666666666666,39.824444444444445],[-86.60916666666667,39.84],[-86.62416666666665,39.842222222222226],[-86.80694444444444,39.86027777777778],[-86.94333333333334,39.87416666666667],[-87.1125,39.89111111111111],[-87.12972222222221,39.89277777777778],[-87.28305555555555,39.908055555555556],[-87.2961111111111,39.909166666666664],[-87.4525,39.92444444444444],[-87.62416666666665,39.94083333333333],[-87.64111111111112,39.942499999999995],[-87.81194444444444,39.95861111111111],[-87.96833333333333,39.973055555555554],[-88.0025,39.976111111111116],[-88.13944444444445,39.98861111111111],[-88.17805555555556,39.99194444444444],[-88.3125,40.00388888888889],[-88.34777777777778,40.007222222222225],[-88.485,40.01916666666666],[-88.52083333333333,40.02222222222222],[-88.6563888888889,40.03388888888889],[-88.69,40.03666666666666],[-88.84861111111111,40.05027777777777],[-88.99916666666667,40.062777777777775],[-89.03444444444445,40.06583333333333],[-89.2063888888889,40.080000000000005],[-89.34138888888889,40.09055555555556],[-89.37722222222222,40.093333333333334],[-89.42472222222223,40.09722222222222],[-89.51416666666667,40.10416666666667],[-89.54972222222221,40.106944444444444],[-89.68472222222222,40.1175],[-89.72166666666666,40.12027777777778],[-89.8586111111111,40.13055555555555],[-89.89361111111111,40.13333333333333],[-90.03027777777778,40.14361111111111],[-90.06388888888888,40.145833333333336],[-90.20166666666667,40.155833333333334],[-90.37277777777777,40.168055555555554],[-90.40666666666667,40.17055555555555],[-90.54305555555555,40.18],[-90.57888888888888,40.1825],[-90.71416666666667,40.19166666666666],[-90.74944444444445,40.19416666666666],[-90.88388888888889,40.20305555555556],[-90.92055555555557,40.205555555555556],[-91.08916666666666,40.21638888888889],[-91.22611111111111,40.225],[-91.26083333333334,40.227222222222224],[-91.3561111111111,40.2325],[-91.39500000000001,40.23555555555556],[-91.5275,40.24333333333333],[-91.56638888888888,40.24611111111111],[-91.63694444444445,40.24888888888889],[-91.69944444444445,40.249722222222225],[-91.73944444444444,40.24805555555556],[-91.8086111111111,40.24888888888889],[-91.91166666666668,40.25333333333333],[-91.97916666666667,40.25694444444444],[-92.04277777777777,40.26],[-92.08222222222221,40.26277777777778],[-92.15277777777779,40.266666666666666],[-92.21638888888889,40.27027777777778],[-92.2538888888889,40.27222222222222],[-92.32444444444444,40.27611111111111],[-92.3888888888889,40.27972222222222],[-92.42833333333334,40.281666666666666],[-92.47972222222222,40.28444444444444],[-92.56527777777778,40.288888888888884],[-92.65416666666667,40.29361111111111],[-92.75472222222223,40.29861111111111],[-92.82944444444443,40.302499999999995],[-92.93055555555556,40.3075],[-93.00472222222223,40.31111111111111],[-93.10472222222222,40.31583333333333],[-93.17611111111111,40.31916666666667],[-93.35111111111111,40.327222222222225],[-93.45527777777778,40.331944444444446],[-93.52527777777777,40.335],[-93.63111111111111,40.33972222222222],[-93.70361111111112,40.34277777777778],[-93.80944444444444,40.34722222222222],[-93.84472222222222,40.34861111111111],[-93.98611111111111,40.35444444444445],[-94.05638888888889,40.35722222222223],[-94.16361111111112,40.36138888888889],[-94.2325,40.36388888888889],[-94.34027777777777,40.36805555555556],[-94.40972222222223,40.370555555555555],[-94.58666666666666,40.376666666666665],[-94.69,40.38027777777778],[-94.76166666666667,40.382777777777775],[-94.86555555555555,40.38611111111111],[-94.93861111111111,40.388333333333335],[-95.04166666666667,40.391666666666666],[-95.11027777777777,40.39361111111111],[-95.21388888888889,40.39666666666667],[-95.31555555555555,40.39972222222222],[-95.38861111111112,40.401666666666664],[-95.48944444444444,40.404444444444444],[-95.5611111111111,40.406388888888884],[-95.66111111111111,40.40888888888889],[-95.73527777777778,40.41083333333333],[-95.83305555555555,40.41305555555555],[-96.00666666666666,40.41722222222222],[-96.08388888888888,40.41888888888889],[-96.17805555555556,40.420833333333334],[-96.25888888888889,40.4225],[-96.43305555555555,40.42583333333333],[-96.53,40.42777777777778],[-96.60916666666667,40.42916666666667],[-96.78722222222223,40.43194444444444],[-96.96416666666667,40.43444444444444],[-97.14222222222223,40.43694444444444],[-97.32083333333333,40.439166666666665],[-97.49833333333333,40.44083333333333],[-97.67277777777778,40.442499999999995],[-97.77805555555555,40.44305555555555],[-97.85,40.44361111111111],[-97.95416666666667,40.44416666666666],[-98.02694444444444,40.44472222222222],[-98.13027777777778,40.44499999999999],[-98.3825,40.44583333333333],[-98.66222222222223,40.44583333333333],[-98.91444444444446,40.44555555555555],[-99.01333333333334,40.445277777777775],[-99.08749999999999,40.44499999999999],[-99.19,40.44444444444444],[-99.26611111111112,40.443888888888885],[-99.36833333333333,40.44333333333333],[-99.44055555555556,40.44277777777778],[-99.54222222222222,40.44194444444444],[-99.61472222222221,40.44138888888889],[-99.79305555555555,40.439722222222215],[-99.89583333333334,40.43861111111111],[-99.97083333333333,40.437777777777775],[-100.07527777777777,40.436388888888885],[-100.1463888888889,40.43555555555555],[-100.25138888888888,40.43388888888889],[-100.42916666666667,40.43111111111111],[-100.48972222222223,40.430277777777775],[-100.96611111111112,40.421388888888885],[-101.14583333333334,40.4175],[-101.31583333333333,40.41555555555556],[-101.5,40.409166666666664],[-101.85,40.39972222222222],[-102.02666666666667,40.39472222222222],[-102.19805555555556,40.38916666666667],[-102.3761111111111,40.38361111111111],[-102.54861111111111,40.378055555555555],[-102.71305555555556,40.37222222222222],[-102.89666666666668,40.36416666666667],[-103.2325,40.3525],[-103.41861111111112,40.34305555555556],[-103.58305555555555,40.33777777777778],[-103.75833333333334,40.330000000000005],[-103.96916666666667,40.32055555555556],[-104.14472222222223,40.31194444444444],[-104.30277777777778,40.30361111111111],[-104.47777777777777,40.29472222222222],[-104.67,40.285555555555554],[-104.84166666666667,40.27638888888889],[-105.01388888888889,40.26694444444444],[-105.17277777777778,40.257777777777775],[-105.35777777777777,40.24722222222222],[-105.52916666666667,40.23694444444445],[-105.69083333333333,40.22666666666667],[-105.86388888888888,40.215],[-106.04777777777778,40.20472222222222],[-106.21722222222222,40.19361111111111],[-106.38194444444444,40.18194444444444],[-106.55305555555556,40.170833333333334],[-106.72416666666666,40.158055555555556],[-106.8938888888889,40.146388888888886],[-107.57472222222222,40.09527777777778],[-107.9175,40.06805555555556],[-108.11222222222221,40.04],[-108.4575,39.98861111111111],[-108.62527777777777,39.96333333333334],[-108.95555555555556,39.9125],[-109.12194444444444,39.88638888888889],[-109.28555555555555,39.86083333333333],[-109.45194444444445,39.83416666666667],[-109.61638888888888,39.80777777777777],[-109.9475,39.75388888888889],[-110.1111111111111,39.72694444444445],[-110.27388888888889,39.69972222222222],[-110.43805555555556,39.67222222222222],[-110.59916666666666,39.64472222222222],[-110.7625,39.61666666666667],[-110.9263888888889,39.58833333333334],[-111.25277777777778,39.53111111111111],[-111.40611111111112,39.50388888888889],[-111.89722222222223,39.415277777777774],[-112.06027777777777,39.38527777777778],[-112.22500000000001,39.35472222222222],[-112.38944444444445,39.32416666666667],[-112.5525,39.293055555555554],[-112.88555555555556,39.21611111111111],[-113.04805555555555,39.17916666666667],[-113.20722222222223,39.14277777777778],[-113.36944444444444,39.105000000000004],[-113.5286111111111,39.06777777777778],[-113.68694444444445,39.030833333333334],[-114.00861111111111,38.95416666666667],[-114.16611111111112,38.916666666666664],[-114.32694444444444,38.87777777777778],[-114.48777777777778,38.83861111111111],[-114.64777777777779,38.79944444444444],[-114.80694444444444,38.76],[-114.96861111111112,38.72],[-115.00138888888888,38.71083333333333],[-115.12805555555555,38.680277777777775],[-115.16083333333334,38.67111111111111],[-115.285,38.64083333333333],[-115.31944444444444,38.63166666666667],[-115.44527777777778,38.60027777777778],[-115.47972222222222,38.59444444444445],[-115.60222222222221,38.56027777777778],[-115.78944444444444,38.51416666666667],[-115.91027777777778,38.48111111111111],[-115.94361111111111,38.472500000000004],[-116.065,38.44083333333333],[-116.21861111111112,38.40083333333333],[-116.24972222222222,38.39277777777778],[-116.37083333333332,38.36083333333333],[-116.40416666666667,38.35194444444445],[-116.52472222222222,38.32027777777778],[-116.55694444444444,38.31166666666666],[-116.67444444444445,38.28055555555555],[-116.70861111111111,38.271388888888886],[-116.8275,38.239444444444445],[-116.85666666666665,38.23166666666667],[-116.97027777777778,38.200833333333335],[-116.99916666666667,38.19305555555555],[-117.11222222222221,38.1625],[-117.1286111111111,38.158055555555556],[-117.26638888888888,38.12083333333334],[-117.40861111111111,38.087500000000006],[-117.41222222222223,38.086666666666666],[-117.55333333333333,38.05444444444444],[-117.55694444444444,38.05361111111111],[-117.7,38.01972222222222],[-117.7,38.019999999999996],[-117.84555555555555,37.99527777777778],[-117.99305555555556,37.980000000000004],[-117.99638888888889,37.97972222222222],[-118.14222222222223,37.96416666666667],[-118.14527777777778,37.96388888888889],[-118.27472222222222,37.92111111111111],[-118.27777777777777,37.91888888888889],[-118.345,37.819722222222225],[-118.39583333333334,37.71277777777778],[-118.39666666666668,37.71083333333333],[-118.49444444444444,37.63194444444444],[-118.6375,37.63166666666667],[-118.78166666666667,37.638888888888886],[-118.92833333333334,37.64527777777778],[-119.07249999999999,37.651111111111106],[-119.21777777777778,37.657222222222224],[-119.50694444444444,37.66833333333333],[-119.65166666666667,37.67388888888889],[-119.79666666666667,37.67916666666667],[-119.93916666666667,37.68416666666666],[-120.08083333333333,37.68888888888888],[-120.35166666666666,37.6975],[-120.4,37.7],[-120.48555555555555,37.689722222222215],[-120.62666666666667,37.67333333333333],[-120.7625,37.657222222222224],[-120.89805555555556,37.64083333333333],[-121.03111111111112,37.62416666666667],[-121.31666666666666,37.583333333333336],[-121.40527777777778,37.57666666666667],[-121.68611111111112,37.57611111111112],[-121.75944444444444,37.613055555555555],[-121.81222222222222,37.56861111111112],[-121.83166666666666,37.50194444444445],[-121.85249999999999,37.43527777777778],[-121.92611111111111,37.430277777777775],[-122.07416666666666,37.494166666666665],[-122.21083333333334,37.55166666666666],[-122.26777777777778,37.57666666666667],[-122.31472222222222,37.596111111111114]],"type":"LineString"}
}
