{
  "id": 2047875707,
  "type": "Feature",
  "properties": {
    "geom:area": 0,
    "geom:bbox": "-122.333333,37.516667,-90.416667,39.538611",
    "geom:latitude": 38.98268965205247,
    "geom:longitude": -106.4112023425419,
    "src:alt_label": "swim-path",
    "src:geom": "swim",
    "swim:altitudes": [
      "012",
      "029",
      "043",
      "066",
      "095",
      "124",
      "138",
      "161",
      "179",
      "198",
      "218",
      "234",
      "245",
      "257",
      "270",
      "293",
      "306",
      "319",
      "329",
      "337",
      "356",
      "360C",
      "360C",
      "360C",
      "360C",
      "360C",
      "360C",
      "360C",
      "360C",
      "360C",
      "360C",
      "360C",
      "360C",
      "360C",
      "360C",
      "360C",
      "360C",
      "360C",
      "360C",
      "360C",
      "360C",
      "360C",
      "360C",
      "360C",
      "360C",
      "360C",
      "360C",
      "360C",
      "360C",
      "360C",
      "360C",
      "360C",
      "360C",
      "360C",
      "360C",
      "360C",
      "360C",
      "360C",
      "360C",
      "360C",
      "360C",
      "360C",
      "360C",
      "360C",
      "360C",
      "360C",
      "360C",
      "360C",
      "360C",
      "360C",
      "360C",
      "360C",
      "360C",
      "360C",
      "360C",
      "360C",
      "360C",
      "360C",
      "360C",
      "360C",
      "360C",
      "360C",
      "360C",
      "360C",
      "360C",
      "360C",
      "360C",
      "360C",
      "360C",
      "360C",
      "360C",
      "360C",
      "360C",
      "360C",
      "360C",
      "360C",
      "360C",
      "360C",
      "360C",
      "360C",
      "360C",
      "360C",
      "360C",
      "360C",
      "360C",
      "360C",
      "360C",
      "360C",
      "360C",
      "360C",
      "360C",
      "360C",
      "360C",
      "360C",
      "360C",
      "360C",
      "360C",
      "360C",
      "360C",
      "360C",
      "360C",
      "360C",
      "360C",
      "360C",
      "360C",
      "360C",
      "360C",
      "360C",
      "360C",
      "360C",
      "360",
      "362",
      "367",
      "371",
      "376",
      "379C",
      "380C",
      "380C",
      "380C",
      "380C",
      "380C",
      "380C",
      "380C",
      "380C",
      "380C",
      "380C",
      "380C",
      "380C",
      "380C",
      "380C",
      "380C",
      "380C",
      "380C",
      "380C",
      "380C",
      "380C",
      "380C",
      "380C",
      "380C",
      "380C",
      "380C",
      "380C",
      "380C",
      "380C",
      "380C",
      "380C",
      "380C",
      "380C",
      "380C",
      "380C",
      "380C",
      "380C",
      "380C",
      "380C",
      "380C",
      "380C",
      "380C",
      "380C",
      "380C",
      "380C",
      "380C",
      "380C",
      "380C",
      "380C",
      "380C",
      "380C",
      "380C",
      "380C",
      "380C",
      "380C",
      "380C",
      "380C",
      "380C",
      "380C",
      "380C",
      "380C",
      "380C",
      "380C",
      "380C",
      "380C",
      "380C",
      "380C",
      "380C",
      "380C",
      "380C",
      "380C",
      "380C",
      "380C",
      "380C",
      "380C",
      "380C",
      "380C",
      "380C",
      "380C",
      "380C",
      "380C",
      "380C",
      "380C",
      "380C",
      "380C",
      "380C",
      "380C",
      "380C",
      "380C",
      "380C",
      "380C",
      "380C",
      "380C",
      "380C",
      "380C",
      "380C",
      "380C",
      "380C",
      "380C",
      "380C",
      "380C",
      "380C",
      "380C",
      "380C",
      "380C",
      "380C",
      "380C",
      "380C",
      "380C",
      "380C",
      "380C",
      "380C",
      "380C",
      "380C",
      "380C",
      "380C",
      "380C",
      "380C",
      "380C",
      "380C",
      "380C",
      "380C",
      "380C",
      "380C",
      "380C",
      "380C",
      "380C",
      "380C",
      "380C",
      "380C",
      "377",
      "367",
      "351",
      "340C",
      "340C",
      "340C",
      "340C",
      "319",
      "295",
      "285",
      "274",
      "267",
      "253",
      "245",
      "232",
      "224",
      "211",
      "203",
      "192",
      "184",
      "175",
      "167",
      "155",
      "146",
      "135",
      "125",
      "118",
      "109",
      "102",
      "100",
      "091",
      "083",
      "078",
      "071",
      "066",
      "063",
      "056",
      "051",
      "045",
      "039",
      "034",
      "028",
      "024",
      "019",
      "015",
      "012",
      "008",
      "004"
    ],
    "swim:geom": "path",
    "swim:speeds": [
      171,
      215,
      217,
      253,
      266,
      269,
      327,
      339,
      355,
      367,
      372,
      380,
      399,
      405,
      411,
      426,
      435,
      437,
      436,
      432,
      426,
      426,
      426,
      427,
      428,
      429,
      429,
      429,
      429,
      429,
      429,
      428,
      428,
      428,
      428,
      429,
      430,
      431,
      432,
      433,
      433,
      433,
      432,
      431,
      431,
      430,
      430,
      429,
      429,
      427,
      428,
      427,
      428,
      428,
      428,
      429,
      429,
      429,
      429,
      429,
      429,
      430,
      430,
      430,
      431,
      431,
      431,
      431,
      431,
      432,
      431,
      432,
      432,
      432,
      431,
      431,
      431,
      430,
      429,
      429,
      428,
      428,
      429,
      429,
      430,
      430,
      431,
      432,
      433,
      433,
      433,
      433,
      433,
      432,
      433,
      433,
      434,
      441,
      434,
      439,
      435,
      439,
      436,
      439,
      436,
      439,
      435,
      439,
      436,
      439,
      436,
      439,
      435,
      437,
      436,
      436,
      438,
      436,
      438,
      438,
      438,
      438,
      437,
      438,
      437,
      437,
      436,
      437,
      436,
      437,
      436,
      437,
      436,
      437,
      435,
      436,
      432,
      434,
      432,
      433,
      432,
      433,
      432,
      433,
      431,
      433,
      430,
      432,
      430,
      431,
      430,
      431,
      430,
      431,
      430,
      431,
      431,
      436,
      433,
      435,
      434,
      436,
      435,
      436,
      435,
      435,
      435,
      435,
      435,
      435,
      435,
      434,
      434,
      433,
      432,
      431,
      430,
      429,
      428,
      427,
      426,
      426,
      427,
      430,
      431,
      432,
      433,
      433,
      434,
      435,
      436,
      438,
      439,
      439,
      439,
      438,
      437,
      436,
      435,
      435,
      436,
      437,
      438,
      439,
      439,
      439,
      438,
      437,
      435,
      434,
      433,
      433,
      435,
      437,
      438,
      439,
      440,
      436,
      441,
      440,
      441,
      440,
      442,
      440,
      441,
      441,
      442,
      441,
      442,
      442,
      442,
      442,
      442,
      443,
      442,
      442,
      443,
      443,
      444,
      445,
      446,
      447,
      448,
      448,
      448,
      448,
      447,
      447,
      447,
      446,
      446,
      444,
      444,
      443,
      443,
      443,
      443,
      443,
      443,
      443,
      444,
      445,
      431,
      422,
      418,
      418,
      420,
      417,
      413,
      416,
      425,
      427,
      434,
      436,
      427,
      424,
      418,
      413,
      404,
      402,
      393,
      393,
      387,
      390,
      373,
      369,
      362,
      362,
      355,
      359,
      352,
      350,
      341,
      330,
      302,
      293,
      283,
      285,
      276,
      267,
      247,
      240,
      228,
      229,
      221,
      214,
      191,
      185,
      174,
      171,
      166,
      163,
      149
    ],
    "swim:timestamps": [
      1786149859,
      1786149919,
      1786149950,
      1786150010,
      1786150071,
      1786150131,
      1786150191,
      1786150251,
      1786150311,
      1786150371,
      1786150431,
      1786150491,
      1786150551,
      1786150611,
      1786150671,
      1786150792,
      1786150852,
      1786150912,
      1786150972,
      1786151032,
      1786151152,
      1786151212,
      1786151272,
      1786151332,
      1786151393,
      1786151453,
      1786151513,
      1786151573,
      1786151633,
      1786151693,
      1786151753,
      1786151813,
      1786151873,
      1786151933,
      1786151993,
      1786152053,
      1786152114,
      1786152174,
      1786152234,
      1786152294,
      1786152354,
      1786152414,
      1786152474,
      1786152534,
      1786152594,
      1786152654,
      1786152714,
      1786152774,
      1786152834,
      1786152885,
      1786152895,
      1786152945,
      1786152955,
      1786153005,
      1786153015,
      1786153065,
      1786153075,
      1786153125,
      1786153135,
      1786153186,
      1786153195,
      1786153246,
      1786153255,
      1786153315,
      1786153366,
      1786153375,
      1786153426,
      1786153435,
      1786153486,
      1786153546,
      1786153555,
      1786153616,
      1786153676,
      1786153726,
      1786153736,
      1786153786,
      1786153846,
      1786153907,
      1786153967,
      1786154027,
      1786154087,
      1786154147,
      1786154207,
      1786154267,
      1786154327,
      1786154387,
      1786154447,
      1786154507,
      1786154567,
      1786154628,
      1786154688,
      1786154748,
      1786154808,
      1786154868,
      1786154928,
      1786154988,
      1786155048,
      1786155083,
      1786155108,
      1786155143,
      1786155168,
      1786155203,
      1786155228,
      1786155263,
      1786155288,
      1786155323,
      1786155349,
      1786155383,
      1786155409,
      1786155443,
      1786155469,
      1786155503,
      1786155529,
      1786155563,
      1786155589,
      1786155623,
      1786155649,
      1786155683,
      1786155709,
      1786155743,
      1786155769,
      1786155803,
      1786155829,
      1786155864,
      1786155889,
      1786155924,
      1786155949,
      1786155984,
      1786156009,
      1786156044,
      1786156070,
      1786156104,
      1786156130,
      1786156164,
      1786156190,
      1786156224,
      1786156250,
      1786156284,
      1786156310,
      1786156344,
      1786156370,
      1786156404,
      1786156430,
      1786156464,
      1786156490,
      1786156524,
      1786156550,
      1786156585,
      1786156610,
      1786156645,
      1786156670,
      1786156705,
      1786156730,
      1786156765,
      1786156790,
      1786156825,
      1786156851,
      1786156885,
      1786156911,
      1786156945,
      1786156971,
      1786157005,
      1786157031,
      1786157065,
      1786157091,
      1786157125,
      1786157151,
      1786157185,
      1786157211,
      1786157271,
      1786157306,
      1786157366,
      1786157391,
      1786157426,
      1786157451,
      1786157486,
      1786157511,
      1786157546,
      1786157572,
      1786157606,
      1786157632,
      1786157666,
      1786157692,
      1786157726,
      1786157752,
      1786157786,
      1786157812,
      1786157846,
      1786157872,
      1786157906,
      1786157966,
      1786158026,
      1786158087,
      1786158147,
      1786158207,
      1786158267,
      1786158387,
      1786158447,
      1786158507,
      1786158567,
      1786158627,
      1786158687,
      1786158747,
      1786158808,
      1786158868,
      1786158928,
      1786158988,
      1786159048,
      1786159108,
      1786159168,
      1786159228,
      1786159288,
      1786159348,
      1786159408,
      1786159468,
      1786159528,
      1786159589,
      1786159601,
      1786159649,
      1786159662,
      1786159709,
      1786159722,
      1786159769,
      1786159782,
      1786159829,
      1786159842,
      1786159889,
      1786159902,
      1786159949,
      1786159962,
      1786160009,
      1786160022,
      1786160069,
      1786160082,
      1786160129,
      1786160142,
      1786160189,
      1786160202,
      1786160249,
      1786160262,
      1786160310,
      1786160322,
      1786160382,
      1786160430,
      1786160442,
      1786160490,
      1786160502,
      1786160550,
      1786160563,
      1786160610,
      1786160623,
      1786160670,
      1786160683,
      1786160730,
      1786160743,
      1786160803,
      1786160850,
      1786160863,
      1786160910,
      1786160923,
      1786160970,
      1786160983,
      1786161043,
      1786161103,
      1786161163,
      1786161223,
      1786161283,
      1786161343,
      1786161403,
      1786161464,
      1786161524,
      1786161584,
      1786161704,
      1786161764,
      1786161792,
      1786161824,
      1786161846,
      1786161884,
      1786161906,
      1786161944,
      1786161966,
      1786162004,
      1786162026,
      1786162064,
      1786162092,
      1786162124,
      1786162146,
      1786162184,
      1786162212,
      1786162244,
      1786162272,
      1786162304,
      1786162326,
      1786162364,
      1786162386,
      1786162424,
      1786162458,
      1786162485,
      1786162513,
      1786162545,
      1786162566,
      1786162605,
      1786162632,
      1786162665,
      1786162692,
      1786162725,
      1786162753,
      1786162785,
      1786162812,
      1786162845,
      1786162873,
      1786162905,
      1786162933
    ],
    "wof:geomhash": "0952bd28c2d84d3a394c51c2473ec4e5",
    "wof:id": 2047875707,
    "wof:repo": "sfomuseum-data-flights-2026-08"
  },
  "bbox": [
    -122.33333333333333,
    37.516666666666666,
    -90.41666666666667,
    39.53861111111111
  ],
  "geometry": {"type":"LineString","coordinates":[[-90.41666666666667,38.766666666666666],[-90.48333333333333,38.78333333333333],[-90.5111111111111,38.80166666666666],[-90.5936111111111,38.82277777777778],[-90.68388888888889,38.846111111111114],[-90.77194444444444,38.868611111111115],[-90.88055555555555,38.89666666666667],[-90.9975,38.916666666666664],[-91.12277777777777,38.92972222222222],[-91.25055555555555,38.94277777777778],[-91.38388888888889,38.95638888888889],[-91.51861111111111,38.969722222222224],[-91.65944444444445,38.98388888888889],[-91.78361111111111,38.99583333333334],[-91.93111111111112,39.01027777777778],[-92.23055555555555,39.03861111111111],[-92.415,39.05555555555555],[-92.57027777777778,39.069722222222225],[-92.72416666666666,39.083333333333336],[-92.87527777777777,39.096944444444446],[-93.17666666666668,39.12277777777778],[-93.32833333333333,39.135555555555555],[-93.46194444444444,39.14666666666667],[-93.61416666666666,39.159444444444446],[-93.7675,39.17166666666667],[-93.92,39.183611111111105],[-94.07333333333332,39.19555555555555],[-94.22444444444444,39.20722222222223],[-94.37944444444443,39.21888888888889],[-94.53222222222222,39.230000000000004],[-94.68305555555555,39.240833333333335],[-94.83583333333333,39.251666666666665],[-94.9875,39.2625],[-95.15,39.27361111111111],[-95.3111111111111,39.28444444444444],[-95.45722222222223,39.29388888888889],[-95.61694444444444,39.30416666666667],[-95.77111111111111,39.31388888888888],[-95.92694444444444,39.32361111111111],[-96.08194444444445,39.33305555555556],[-96.22194444444445,39.34111111111111],[-96.37638888888888,39.35],[-96.54333333333334,39.35944444444445],[-96.69777777777779,39.36805555555556],[-96.85277777777777,39.376111111111115],[-97.00583333333333,39.384166666666665],[-97.15972222222223,39.39222222222222],[-97.31277777777777,39.39972222222222],[-97.46416666666667,39.40694444444444],[-97.60055555555554,39.413333333333334],[-97.61833333333333,39.41416666666667],[-97.75527777777778,39.42055555555555],[-97.77833333333334,39.421388888888885],[-97.9088888888889,39.42722222222222],[-97.9238888888889,39.42805555555555],[-98.06194444444444,39.43388888888889],[-98.07694444444444,39.43444444444444],[-98.21722222222222,39.440555555555555],[-98.23194444444445,39.441111111111105],[-98.36999999999999,39.446666666666665],[-98.39333333333335,39.4475],[-98.52472222222222,39.4525],[-98.54416666666667,39.45333333333333],[-98.69305555555556,39.45888888888889],[-98.83388888888888,39.46416666666667],[-98.8475,39.46472222222223],[-98.98916666666666,39.46944444444445],[-99.00277777777778,39.47],[-99.14277777777778,39.474722222222226],[-99.29944444444445,39.480000000000004],[-99.325,39.480555555555554],[-99.47944444444444,39.48555555555556],[-99.62666666666667,39.48972222222222],[-99.76277777777777,39.493611111111115],[-99.78027777777778,39.494166666666665],[-99.91861111111112,39.49777777777778],[-100.0736111111111,39.50194444444445],[-100.2286111111111,39.50555555555555],[-100.38277777777778,39.509166666666665],[-100.53583333333333,39.5125],[-100.69083333333333,39.51583333333333],[-100.84472222222222,39.51861111111111],[-100.99888888888889,39.521388888888886],[-101.15361111111112,39.52388888888889],[-101.30916666666667,39.52638888888889],[-101.46277777777777,39.52833333333333],[-101.61749999999999,39.53055555555555],[-101.77333333333333,39.532222222222224],[-101.93222222222222,39.53361111111111],[-102.08777777777777,39.535],[-102.2425,39.53638888888889],[-102.39805555555556,39.53722222222222],[-102.53916666666666,39.53777777777778],[-102.69500000000001,39.538333333333334],[-102.84944444444444,39.53861111111111],[-103.00722222222223,39.53861111111111],[-103.1613888888889,39.53861111111111],[-103.24027777777778,39.53777777777778],[-103.31944444444444,39.538333333333334],[-103.39472222222223,39.53777777777778],[-103.47583333333334,39.53777777777778],[-103.55444444444444,39.53666666666666],[-103.63305555555554,39.536944444444444],[-103.71416666666667,39.535],[-103.78944444444444,39.53611111111111],[-103.87194444444444,39.53472222222222],[-103.94527777777778,39.535],[-104.02777777777777,39.532777777777774],[-104.10249999999999,39.53333333333333],[-104.18388888888889,39.531666666666666],[-104.25833333333334,39.53194444444444],[-104.34027777777777,39.530277777777776],[-104.415,39.53],[-104.49277777777777,39.52777777777778],[-104.5736111111111,39.528055555555554],[-104.65138888888889,39.526666666666664],[-104.73777777777778,39.52583333333333],[-104.81416666666667,39.52305555555555],[-104.90111111111112,39.52305555555555],[-104.97194444444445,39.520833333333336],[-105.0586111111111,39.52055555555555],[-105.12833333333333,39.518055555555556],[-105.21388888888889,39.5175],[-105.285,39.51555555555556],[-105.37166666666666,39.51444444444444],[-105.44083333333333,39.51166666666666],[-105.52777777777777,39.51111111111111],[-105.59777777777778,39.50861111111111],[-105.68444444444445,39.507777777777775],[-105.75444444444445,39.50527777777778],[-105.83972222222222,39.50416666666667],[-105.90944444444445,39.50194444444445],[-105.99638888888889,39.5],[-106.06666666666666,39.498333333333335],[-106.15333333333334,39.49722222222222],[-106.2213888888889,39.495555555555555],[-106.30055555555555,39.49444444444445],[-106.37555555555555,39.49277777777778],[-106.45416666666667,39.49138888888889],[-106.53111111111112,39.48833333333334],[-106.62444444444444,39.48777777777778],[-106.68611111111112,39.48555555555556],[-106.7775,39.48444444444444],[-106.84083333333332,39.48222222222223],[-106.9325,39.480555555555554],[-106.99444444444444,39.47777777777778],[-107.08666666666666,39.47666666666667],[-107.14861111111112,39.47416666666667],[-107.24027777777778,39.472500000000004],[-107.3025,39.47027777777778],[-107.3938888888889,39.468333333333334],[-107.4563888888889,39.46555555555556],[-107.54916666666666,39.46388888888889],[-107.61083333333333,39.461111111111116],[-107.68,39.459722222222226],[-107.76555555555555,39.45583333333334],[-107.83694444444444,39.45472222222222],[-107.92277777777778,39.45194444444445],[-107.99416666666667,39.44944444444444],[-108.07916666666667,39.44638888888888],[-108.15166666666667,39.443888888888885],[-108.23416666666667,39.441111111111105],[-108.30972222222222,39.43833333333333],[-108.3913888888889,39.43527777777778],[-108.46583333333334,39.43277777777777],[-108.54888888888888,39.42944444444444],[-108.61222222222221,39.426944444444445],[-108.70666666666666,39.42305555555555],[-108.77083333333333,39.42055555555555],[-108.92833333333334,39.41416666666667],[-109.02361111111111,39.41],[-109.18027777777779,39.40333333333333],[-109.24194444444444,39.400555555555556],[-109.33333333333333,39.396388888888886],[-109.39583333333334,39.39361111111111],[-109.48694444444445,39.38916666666667],[-109.54722222222222,39.38638888888889],[-109.64055555555557,39.38194444444444],[-109.70111111111112,39.37916666666667],[-109.79388888888889,39.37444444444444],[-109.85305555555556,39.37166666666667],[-109.94361111111111,39.367222222222225],[-110.00555555555556,39.36083333333333],[-110.09861111111111,39.348333333333336],[-110.15777777777778,39.34027777777778],[-110.25055555555555,39.32777777777778],[-110.31194444444444,39.31944444444445],[-110.405,39.30694444444444],[-110.465,39.29861111111111],[-110.55944444444444,39.28583333333333],[-110.71166666666667,39.26444444444444],[-110.86694444444444,39.2425],[-111.02333333333333,39.220555555555556],[-111.17694444444444,39.19833333333333],[-111.33611111111111,39.175555555555555],[-111.49166666666667,39.15277777777778],[-111.79527777777777,39.10777777777778],[-111.95027777777779,39.08444444444444],[-112.10083333333333,39.06166666666666],[-112.2525,39.03861111111111],[-112.405,39.015],[-112.56,38.990833333333335],[-112.71277777777777,38.966944444444444],[-112.86638888888888,38.942499999999995],[-113.01833333333333,38.918055555555554],[-113.16972222222223,38.89361111111111],[-113.32194444444444,38.868611111111115],[-113.47305555555556,38.84388888888889],[-113.62277777777777,38.81916666666667],[-113.77277777777778,38.79388888888889],[-113.92222222222223,38.76888888888889],[-114.07305555555556,38.74305555555556],[-114.22361111111111,38.7175],[-114.37722222222222,38.69083333333333],[-114.5275,38.664722222222224],[-114.68138888888889,38.6375],[-114.83388888888888,38.61055555555556],[-114.86444444444444,38.60527777777778],[-114.985,38.58361111111111],[-115.01777777777778,38.578611111111115],[-115.13833333333334,38.55611111111111],[-115.17027777777778,38.550555555555555],[-115.29083333333332,38.52833333333333],[-115.31888888888888,38.52444444444444],[-115.46916666666667,38.49583333333334],[-115.47166666666666,38.49638888888889],[-115.59138888888889,38.473055555555554],[-115.62333333333332,38.467222222222226],[-115.77333333333333,38.439166666666665],[-115.77638888888889,38.439166666666665],[-115.89583333333334,38.41638888888889],[-115.95833333333334,38.40472222222222],[-116.04972222222221,38.3875],[-116.1111111111111,38.37583333333333],[-116.19972222222222,38.35888888888889],[-116.26166666666667,38.346944444444446],[-116.35194444444444,38.32944444444445],[-116.41388888888889,38.31527777777777],[-116.50416666666666,38.294999999999995],[-116.53666666666666,38.28777777777778],[-116.6575,38.26027777777778],[-116.68833333333333,38.25333333333333],[-116.84305555555555,38.21805555555556],[-116.96166666666667,38.19083333333333],[-116.99472222222222,38.18333333333333],[-117.11388888888888,38.155833333333334],[-117.17,38.14277777777778],[-117.27944444444444,38.117222222222225],[-117.32138888888889,38.1075],[-117.43138888888889,38.0825],[-117.46194444444444,38.07527777777778],[-117.57777777777777,38.04861111111111],[-117.61222222222221,38.04055555555556],[-117.72916666666667,38.01305555555555],[-117.76027777777777,38.00611111111111],[-117.91361111111112,37.98833333333334],[-118.03694444444444,37.97527777777778],[-118.07027777777778,37.97166666666667],[-118.19111111111111,37.95888888888889],[-118.22444444444444,37.95527777777778],[-118.3475,37.94194444444444],[-118.38027777777778,37.93833333333333],[-118.53027777777778,37.92166666666667],[-118.67722222222223,37.905277777777776],[-118.82222222222222,37.888888888888886],[-118.96694444444445,37.87277777777778],[-119.11916666666666,37.85527777777778],[-119.26611111111112,37.838055555555556],[-119.40666666666667,37.82138888888889],[-119.55333333333333,37.80416666666667],[-119.70083333333334,37.78638888888889],[-119.85,37.76833333333333],[-120.15222222222222,37.73111111111111],[-120.30416666666666,37.71194444444445],[-120.36666666666666,37.7],[-120.45166666666667,37.69333333333333],[-120.5,37.68333333333333],[-120.59555555555555,37.676944444444445],[-120.65,37.666666666666664],[-120.73305555555555,37.660555555555554],[-120.78333333333333,37.65],[-120.86999999999999,37.644444444444446],[-120.91666666666667,37.63333333333333],[-121.00361111111111,37.6275],[-121.06666666666666,37.61666666666667],[-121.13333333333334,37.61027777777778],[-121.18333333333334,37.6],[-121.25777777777778,37.593333333333334],[-121.31666666666666,37.583333333333336],[-121.38111111111111,37.57916666666667],[-121.43333333333334,37.56666666666667],[-121.5025,37.56861111111112],[-121.55,37.56666666666667],[-121.61888888888888,37.55777777777777],[-121.65,37.55],[-121.7213888888889,37.54833333333333],[-121.78333333333333,37.55],[-121.82,37.538888888888884],[-121.86666666666666,37.53333333333333],[-121.91333333333334,37.530277777777776],[-121.95,37.53333333333333],[-121.99805555555555,37.5225],[-122.03333333333333,37.516666666666666],[-122.07694444444444,37.52777777777778],[-122.11666666666666,37.53333333333333],[-122.15305555555557,37.532222222222224],[-122.18333333333334,37.53333333333333],[-122.21361111111112,37.55083333333333],[-122.23333333333333,37.56666666666667],[-122.26638888888888,37.573055555555555],[-122.28333333333333,37.583333333333336],[-122.31722222222221,37.594166666666666],[-122.33333333333333,37.6]]}
}
