{
  "id": 2032127475,
  "type": "Feature",
  "properties": {
    "geom:area": 0,
    "geom:bbox": "-122.348430,37.449560,-121.245120,37.634090",
    "geom:latitude": 37.54625457223369,
    "geom:longitude": -121.80144202480923,
    "src:alt_label": "swim-approach",
    "src:geom": "swim",
    "swim:elevations": [
      4644,
      4296,
      4208,
      4102,
      3883,
      3750,
      3660,
      3479,
      3428,
      3352,
      3352,
      3123,
      3085,
      3048,
      2991,
      2895,
      2767,
      2738,
      2590,
      2438,
      2438,
      2413,
      2289,
      2138,
      2102,
      1968,
      1840,
      1670,
      1583,
      1372,
      1274,
      1158,
      841,
      760,
      587,
      560,
      367,
      183,
      95,
      57
    ],
    "swim:geom": "approach",
    "swim:timestamps": [
      1786022230,
      1786022271,
      1786022280,
      1786022294,
      1786022322,
      1786022350,
      1786022374,
      1786022416,
      1786022430,
      1786022458,
      1786022466,
      1786022513,
      1786022522,
      1786022546,
      1786022582,
      1786022602,
      1786022637,
      1786022649,
      1786022673,
      1786022721,
      1786022733,
      1786022755,
      1786022784,
      1786022815,
      1786022841,
      1786022863,
      1786022885,
      1786022932,
      1786022946,
      1786022979,
      1786022993,
      1786023016,
      1786023058,
      1786023082,
      1786023115,
      1786023122,
      1786023165,
      1786023209,
      1786023234,
      1786023244
    ],
    "wof:geomhash": "5686991f29e79c5d802e5dfe361404f8",
    "wof:id": 2032127475,
    "wof:repo": "sfomuseum-data-flights-2026-08"
  },
  "bbox": [
    -122.34843,
    37.44956,
    -121.24512,
    37.63409
  ],
  "geometry": {"type":"LineString","coordinates":[[-121.24512,37.59521],[-121.32798,37.585],[-121.34546,37.58307],[-121.37349,37.57997],[-121.42576,37.57391],[-121.47705,37.5681],[-121.51663,37.56344],[-121.58323,37.55549],[-121.60398,37.55455],[-121.64015,37.57012],[-121.64887,37.57567],[-121.70248,37.60994],[-121.71415,37.61715],[-121.74241,37.63409],[-121.79122,37.63283],[-121.80589,37.61394],[-121.78934,37.5795],[-121.77798,37.56823],[-121.76972,37.54237],[-121.7834,37.49308],[-121.78987,37.48122],[-121.80423,37.46196],[-121.84078,37.45321],[-121.88359,37.4517],[-121.91958,37.45057],[-121.94901,37.44956],[-121.97801,37.45434],[-122.03505,37.47759],[-122.05208,37.48488],[-122.09175,37.50164],[-122.10887,37.50887],[-122.13625,37.52047],[-122.1868,37.54204],[-122.21452,37.55359],[-122.24683,37.5672],[-122.25368,37.57007],[-122.28844,37.58469],[-122.32206,37.59886],[-122.34161,37.60699],[-122.34843,37.6099]]}
}
