{
  "id": 2047879025,
  "type": "Feature",
  "properties": {
    "geom:area": 0,
    "geom:bbox": "-122.533333,37.629444,-96.725556,48.771667",
    "geom:latitude": 43.81279896115159,
    "geom:longitude": -109.97778148698654,
    "src:alt_label": "swim-path",
    "src:geom": "swim",
    "swim:altitudes": [
      "011",
      "014",
      "020",
      "022",
      "035",
      "040",
      "054",
      "060",
      "077",
      "088",
      "089",
      "098",
      "099",
      "108",
      "118",
      "131",
      "143",
      "154",
      "166",
      "177",
      "190",
      "199",
      "211",
      "221",
      "231",
      "241",
      "251",
      "261",
      "268",
      "274",
      "280",
      "286",
      "292",
      "297",
      "303",
      "307",
      "312",
      "317",
      "322",
      "327",
      "333",
      "338",
      "344",
      "351",
      "357",
      "363",
      "368",
      "375",
      "380",
      "384",
      "387",
      "389C",
      "390C",
      "390C",
      "390C",
      "390C",
      "390C",
      "390C",
      "390C",
      "390C",
      "390C",
      "390C",
      "390C",
      "390C",
      "390C",
      "390C",
      "390C",
      "390C",
      "390C",
      "390C",
      "390C",
      "390C",
      "390C",
      "390C",
      "390C",
      "390C",
      "390C",
      "390C",
      "390C",
      "390C",
      "390C",
      "390C",
      "390C",
      "390C",
      "390C",
      "390C",
      "390C",
      "390C",
      "390C",
      "390C",
      "390C",
      "390C",
      "390C",
      "390C",
      "390C",
      "390C",
      "390C",
      "390C",
      "390C",
      "390C",
      "390C",
      "390C",
      "390C",
      "390C",
      "390C",
      "390C",
      "390C",
      "390C",
      "390C",
      "390C",
      "390C",
      "390C",
      "390C",
      "390C",
      "390C",
      "390C",
      "390C",
      "390C",
      "390C",
      "390C",
      "390C",
      "390C",
      "390C",
      "390C",
      "390C",
      "390C",
      "390C",
      "390C",
      "390C",
      "390C",
      "390C",
      "390C",
      "390C",
      "390C",
      "390C",
      "390C",
      "390C",
      "390C",
      "390C",
      "390C",
      "390C",
      "390C",
      "390C",
      "390C",
      "390C",
      "390C",
      "390C",
      "390C",
      "390C",
      "390C",
      "390C",
      "390C",
      "390C",
      "390C",
      "390C",
      "390C",
      "390C",
      "390C",
      "390C",
      "390C"
    ],
    "swim:geom": "path",
    "swim:speeds": [
      149,
      181,
      225,
      252,
      269,
      278,
      274,
      285,
      291,
      309,
      320,
      340,
      352,
      367,
      386,
      392,
      402,
      414,
      421,
      428,
      434,
      441,
      445,
      448,
      452,
      453,
      454,
      456,
      456,
      463,
      467,
      475,
      478,
      483,
      491,
      495,
      507,
      508,
      512,
      516,
      518,
      520,
      521,
      520,
      519,
      519,
      520,
      519,
      519,
      519,
      517,
      518,
      519,
      521,
      524,
      523,
      523,
      518,
      517,
      516,
      514,
      514,
      511,
      508,
      506,
      506,
      506,
      508,
      506,
      506,
      506,
      507,
      508,
      509,
      509,
      509,
      508,
      507,
      507,
      508,
      509,
      510,
      510,
      511,
      511,
      512,
      512,
      513,
      512,
      511,
      512,
      513,
      513,
      513,
      513,
      513,
      513,
      512,
      511,
      510,
      510,
      511,
      511,
      506,
      503,
      503,
      501,
      500,
      500,
      499,
      500,
      500,
      501,
      503,
      504,
      505,
      505,
      504,
      505,
      506,
      507,
      510,
      512,
      513,
      509,
      511,
      512,
      512,
      512,
      512,
      512,
      512,
      512,
      511,
      506,
      506,
      506,
      505,
      504,
      504,
      503,
      501,
      502,
      503,
      504,
      504,
      503,
      502,
      503,
      505,
      505,
      504,
      511,
      513,
      514,
      514,
      514,
      512,
      511,
      511
    ],
    "swim:timestamps": [
      1786142012,
      1786142020,
      1786142072,
      1786142080,
      1786142132,
      1786142140,
      1786142192,
      1786142200,
      1786142260,
      1786142312,
      1786142321,
      1786142372,
      1786142381,
      1786142432,
      1786142492,
      1786142552,
      1786142612,
      1786142673,
      1786142733,
      1786142793,
      1786142853,
      1786142913,
      1786142973,
      1786143033,
      1786143093,
      1786143151,
      1786143211,
      1786143271,
      1786143331,
      1786143391,
      1786143451,
      1786143511,
      1786143571,
      1786143631,
      1786143694,
      1786143751,
      1786143811,
      1786143871,
      1786143932,
      1786143992,
      1786144052,
      1786144112,
      1786144172,
      1786144232,
      1786144295,
      1786144355,
      1786144412,
      1786144475,
      1786144535,
      1786144593,
      1786144655,
      1786144713,
      1786144773,
      1786144833,
      1786144893,
      1786144953,
      1786145013,
      1786145073,
      1786145133,
      1786145193,
      1786145253,
      1786145313,
      1786145374,
      1786145434,
      1786145494,
      1786145554,
      1786145614,
      1786145674,
      1786145734,
      1786145794,
      1786145854,
      1786145914,
      1786145974,
      1786146034,
      1786146095,
      1786146155,
      1786146215,
      1786146275,
      1786146335,
      1786146395,
      1786146455,
      1786146515,
      1786146575,
      1786146635,
      1786146695,
      1786146755,
      1786146816,
      1786146876,
      1786146996,
      1786147056,
      1786147116,
      1786147176,
      1786147236,
      1786147296,
      1786147356,
      1786147416,
      1786147476,
      1786147536,
      1786147597,
      1786147657,
      1786147717,
      1786147777,
      1786147837,
      1786147897,
      1786147957,
      1786148017,
      1786148077,
      1786148137,
      1786148197,
      1786148257,
      1786148318,
      1786148378,
      1786148438,
      1786148498,
      1786148558,
      1786148618,
      1786148678,
      1786148738,
      1786148798,
      1786148858,
      1786148918,
      1786148978,
      1786149038,
      1786149099,
      1786149156,
      1786149216,
      1786149276,
      1786149336,
      1786149396,
      1786149456,
      1786149516,
      1786149576,
      1786149637,
      1786149697,
      1786149757,
      1786149817,
      1786149877,
      1786149937,
      1786149997,
      1786150057,
      1786150117,
      1786150177,
      1786150237,
      1786150297,
      1786150358,
      1786150418,
      1786150478,
      1786150538,
      1786150598,
      1786150658,
      1786150718,
      1786150958,
      1786151139,
      1786151259,
      1786151319,
      1786151379,
      1786151439,
      1786151499,
      1786151559,
      1786151619
    ],
    "wof:geomhash": "404351565ddf581de060415d456d2029",
    "wof:id": 2047879025,
    "wof:repo": "sfomuseum-data-flights-2026-08"
  },
  "bbox": [
    -122.53333333333333,
    37.629444444444445,
    -96.72555555555556,
    48.77166666666667
  ],
  "geometry": {"type":"LineString","coordinates":[[-122.39944444444446,37.629444444444445],[-122.41666666666667,37.63333333333333],[-122.46083333333334,37.65555555555555],[-122.48333333333333,37.666666666666664],[-122.52527777777777,37.70333333333333],[-122.53333333333333,37.733333333333334],[-122.51916666666666,37.77861111111111],[-122.5,37.8],[-122.41666666666667,37.85],[-122.35499999999999,37.89722222222222],[-122.33333333333333,37.9],[-122.26583333333333,37.95861111111111],[-122.25,37.96666666666667],[-122.16972222222223,38.02472222222222],[-122.06722222222221,38.094722222222224],[-121.96305555555556,38.16583333333333],[-121.85444444444444,38.23972222222222],[-121.74805555555555,38.31166666666666],[-121.63277777777778,38.38916666666667],[-121.51638888888888,38.465],[-121.3913888888889,38.538333333333334],[-121.28527777777778,38.60055555555556],[-121.15194444444445,38.67861111111111],[-121.02361111111111,38.75333333333333],[-120.8938888888889,38.828611111111115],[-120.76888888888888,38.897777777777776],[-120.63833333333334,38.97527777777778],[-120.50638888888889,39.05027777777777],[-120.37416666666665,39.125],[-120.2388888888889,39.20305555555556],[-120.10138888888888,39.279444444444444],[-119.96305555555556,39.35805555555556],[-119.82249999999999,39.43833333333333],[-119.67972222222222,39.5175],[-119.50527777777778,39.615833333333335],[-119.3888888888889,39.68055555555555],[-119.23972222222223,39.763333333333335],[-119.09055555555555,39.845555555555556],[-118.93666666666667,39.93],[-118.78222222222222,40.01444444444444],[-118.62666666666667,40.09916666666667],[-118.46861111111112,40.17361111111111],[-118.30499999999999,40.245555555555555],[-118.13972222222223,40.31777777777778],[-117.97444444444444,40.38972222222222],[-117.80833333333334,40.461666666666666],[-117.64694444444446,40.53111111111111],[-117.47805555555556,40.60333333333333],[-117.31,40.675],[-117.14555555555556,40.74444444444445],[-116.97527777777778,40.816111111111105],[-116.8111111111111,40.885],[-116.64444444444445,40.95444444444445],[-116.47444444444444,41.02472222222222],[-116.3025,41.095555555555556],[-116.13388888888889,41.16444444444444],[-115.96527777777779,41.233333333333334],[-115.79722222222222,41.301111111111105],[-115.62944444444443,41.36888888888889],[-115.46194444444444,41.43583333333333],[-115.29305555555555,41.50277777777778],[-115.12666666666667,41.56861111111112],[-114.96444444444445,41.64361111111111],[-114.81472222222222,41.72638888888889],[-114.66444444444446,41.80833333333333],[-114.50027777777778,41.897777777777776],[-114.34861111111111,41.97972222222222],[-114.19250000000001,42.06388888888888],[-114.04055555555556,42.14527777777778],[-113.88722222222223,42.227222222222224],[-113.73166666666667,42.309444444444445],[-113.575,42.39222222222222],[-113.41916666666667,42.47416666666667],[-113.26166666666667,42.55638888888888],[-113.10694444444444,42.63666666666666],[-112.9625,42.71138888888889],[-112.80749999999999,42.79111111111111],[-112.65083333333334,42.87138888888889],[-112.49166666666667,42.95277777777778],[-112.33416666666666,43.033055555555556],[-112.17583333333334,43.11277777777778],[-112.0175,43.192499999999995],[-111.85499999999999,43.27388888888889],[-111.6975,43.352222222222224],[-111.53694444444444,43.431666666666665],[-111.37249999999999,43.51277777777778],[-111.21055555555556,43.591944444444444],[-111.04916666666666,43.67055555555555],[-110.72555555555556,43.82666666666667],[-110.56055555555555,43.90555555555555],[-110.39722222222223,43.98361111111111],[-110.23222222222222,44.06166666666666],[-110.06805555555555,44.13916666666667],[-109.86916666666666,44.231944444444444],[-109.70305555555557,44.30916666666666],[-109.53555555555555,44.38666666666666],[-109.39833333333334,44.44944444444444],[-109.2238888888889,44.52916666666667],[-109.05472222222222,44.60611111111111],[-108.88833333333334,44.68138888888889],[-108.71861111111112,44.7575],[-108.54944444444445,44.83305555555556],[-108.38055555555555,44.908055555555556],[-108.21027777777778,44.983333333333334],[-108.04083333333332,45.0575],[-107.86999999999999,45.13194444444444],[-107.70111111111112,45.20527777777778],[-107.5325,45.27777777777778],[-107.36472222222221,45.349722222222226],[-107.19777777777779,45.420833333333334],[-107.02666666666667,45.49333333333333],[-106.85805555555555,45.564166666666665],[-106.68583333333333,45.63611111111111],[-106.51416666666667,45.7075],[-106.34222222222222,45.77833333333333],[-106.16638888888889,45.85055555555556],[-105.99388888888889,45.920833333333334],[-105.82138888888889,45.990833333333335],[-105.64777777777779,46.06055555555555],[-105.46972222222223,46.13166666666667],[-105.29333333333334,46.20194444444445],[-105.10944444444443,46.26138888888889],[-104.91583333333334,46.31333333333333],[-104.715,46.36694444444444],[-104.5625,46.407222222222224],[-104.33555555555554,46.46666666666667],[-104.14361111111111,46.51638888888889],[-103.95055555555555,46.566111111111105],[-103.755,46.615833333333335],[-103.56194444444444,46.664722222222224],[-103.37166666666666,46.712500000000006],[-103.17277777777778,46.761944444444445],[-102.97916666666667,46.80972222222222],[-102.785,46.858333333333334],[-102.60277777777777,46.920833333333334],[-102.42,46.985],[-102.23666666666666,47.04888888888889],[-102.05388888888889,47.11222222222222],[-101.87305555555555,47.17444444444444],[-101.68777777777778,47.23777777777778],[-101.50638888888889,47.299166666666665],[-101.32388888888889,47.36055555555556],[-101.13777777777779,47.42305555555555],[-100.95944444444444,47.48222222222223],[-100.77416666666666,47.54333333333333],[-100.58916666666666,47.60388888888889],[-100.40166666666667,47.664722222222224],[-100.2175,47.72416666666667],[-100.02972222222222,47.78444444444444],[-99.83777777777777,47.84527777777778],[-99.64861111111112,47.905277777777776],[-98.8913888888889,48.13972222222222],[-98.30638888888889,48.31583333333333],[-97.91111111111111,48.4325],[-97.71472222222222,48.49],[-97.51583333333333,48.5475],[-97.31972222222223,48.60388888888889],[-97.12083333333332,48.660555555555554],[-96.92527777777778,48.71555555555556],[-96.72555555555556,48.77166666666667]]}
}
