{
  "id": 2032120451,
  "type": "Feature",
  "properties": {
    "geom:area": 0,
    "geom:bbox": "-122.508889,33.953889,-118.221667,37.669167",
    "geom:latitude": 35.693021427310036,
    "geom:longitude": -120.35395042912185,
    "src:alt_label": "swim-path",
    "src:geom": "swim",
    "swim:altitudes": [
      "042",
      "044",
      "109",
      "134",
      "240",
      "260",
      "291",
      "315",
      "335",
      "350C",
      "350C",
      "350C",
      "350C",
      "350C",
      "350C",
      "350C",
      "350C",
      "350C",
      "350C",
      "350",
      "350",
      "350",
      "350",
      "338",
      "311",
      "290",
      "277",
      "255",
      "240",
      "220",
      "198",
      "186",
      "177",
      "154",
      "129",
      "123",
      "113",
      "107",
      "094",
      "085",
      "079",
      "074",
      "070",
      "063",
      "056",
      "050",
      "043",
      "039",
      "023",
      "019",
      "015",
      "012",
      "005"
    ],
    "swim:geom": "path",
    "swim:speeds": [
      250,
      258,
      287,
      345,
      405,
      416,
      463,
      474,
      473,
      470,
      471,
      472,
      470,
      469,
      468,
      467,
      467,
      466,
      465,
      461,
      461,
      462,
      462,
      463,
      462,
      444,
      432,
      417,
      402,
      392,
      384,
      368,
      364,
      355,
      316,
      308,
      300,
      304,
      299,
      293,
      295,
      280,
      273,
      261,
      240,
      239,
      233,
      208,
      186,
      180,
      148,
      134,
      129
    ],
    "swim:timestamps": [
      1785971202,
      1785971215,
      1785971335,
      1785971395,
      1785971631,
      1785971691,
      1785971812,
      1785971872,
      1785971932,
      1785971996,
      1785972052,
      1785972112,
      1785972172,
      1785972232,
      1785972292,
      1785972357,
      1785972413,
      1785972473,
      1785972533,
      1785972717,
      1785972777,
      1785972833,
      1785972893,
      1785972957,
      1785973013,
      1785973074,
      1785973138,
      1785973194,
      1785973254,
      1785973314,
      1785973374,
      1785973401,
      1785973434,
      1785973494,
      1785973582,
      1785973614,
      1785973648,
      1785973674,
      1785973735,
      1785973760,
      1785973795,
      1785973822,
      1785973855,
      1785973882,
      1785973942,
      1785973975,
      1785974002,
      1785974035,
      1785974122,
      1785974155,
      1785974182,
      1785974215,
      1785974275
    ],
    "wof:geomhash": "b235531e97506af1fd672db5b55f7800",
    "wof:id": 2032120451,
    "wof:repo": "sfomuseum-data-flights-2026-08"
  },
  "bbox": [
    -122.50888888888889,
    33.95388888888889,
    -118.22166666666666,
    37.66916666666666
  ],
  "geometry": {"type":"LineString","coordinates":[[-122.48333333333333,37.666666666666664],[-122.50888888888889,37.66916666666666],[-122.49694444444445,37.533055555555556],[-122.43055555555556,37.4575],[-122.06138888888889,37.1825],[-121.95944444444444,37.098333333333336],[-121.7375,36.91277777777778],[-121.62194444444444,36.816944444444445],[-121.50722222222223,36.725],[-121.36416666666666,36.60944444444445],[-121.28111111111112,36.536944444444444],[-121.16694444444445,36.442499999999995],[-121.05388888888889,36.34777777777778],[-120.94277777777778,36.25416666666667],[-120.83333333333333,36.16111111111111],[-120.69805555555556,36.045833333333334],[-120.6111111111111,35.97138888888889],[-120.50277777777778,35.87833333333333],[-120.39194444444445,35.782777777777774],[-120.06222222222222,35.49666666666667],[-119.95416666666667,35.402499999999996],[-119.84888888888888,35.31027777777778],[-119.75055555555555,35.21],[-119.65055555555556,35.10277777777778],[-119.55972222222222,35.004444444444445],[-119.46694444444445,34.90472222222222],[-119.3786111111111,34.80583333333333],[-119.29722222222222,34.71388888888889],[-119.2175,34.6225],[-119.1413888888889,34.534166666666664],[-119.065,34.44888888888889],[-119.01666666666667,34.4],[-118.99388888888889,34.36666666666667],[-118.92361111111111,34.28777777777778],[-118.81666666666666,34.166666666666664],[-118.78583333333333,34.14194444444444],[-118.75,34.1],[-118.71888888888888,34.08027777777778],[-118.64500000000001,34.02777777777778],[-118.58333333333333,34.016666666666666],[-118.5475,34.01861111111111],[-118.5,34.016666666666666],[-118.455,34.01111111111111],[-118.4,34.016666666666666],[-118.33333333333333,34.03333333333333],[-118.29027777777777,34.034166666666664],[-118.25,34.03333333333333],[-118.22166666666666,34.02111111111111],[-118.26666666666667,33.96666666666667],[-118.29416666666667,33.963055555555556],[-118.31666666666666,33.96666666666667],[-118.34166666666667,33.95888888888889],[-118.38416666666667,33.95388888888889]]}
}
