{
  "id": 2047941373,
  "type": "Feature",
  "properties": {
    "geom:area": 0,
    "geom:bbox": "-122.357200,36.722020,-121.878760,37.611290",
    "geom:latitude": 37.12708698848194,
    "geom:longitude": -122.09759417989102,
    "src:alt_label": "swim-approach",
    "src:geom": "swim",
    "swim:elevations": [
      5400,
      5181,
      5043,
      4874,
      4725,
      4715,
      4426,
      4337,
      4234,
      4061,
      3967,
      3685,
      3541,
      3411,
      3354,
      3226,
      3051,
      3048,
      3048,
      3048,
      3048,
      3048,
      3013,
      2834,
      2698,
      2681,
      2496,
      2314,
      2174,
      2031,
      1831,
      1829,
      1829,
      1693,
      1435,
      1167,
      971,
      943,
      768,
      614,
      456,
      448,
      267,
      212,
      42
    ],
    "swim:geom": "approach",
    "swim:timestamps": [
      1786524116,
      1786524148,
      1786524173,
      1786524208,
      1786524236,
      1786524241,
      1786524295,
      1786524315,
      1786524334,
      1786524368,
      1786524392,
      1786524448,
      1786524474,
      1786524501,
      1786524511,
      1786524537,
      1786524567,
      1786524593,
      1786524603,
      1786524616,
      1786524652,
      1786524660,
      1786524671,
      1786524702,
      1786524729,
      1786524735,
      1786524771,
      1786524807,
      1786524824,
      1786524849,
      1786524891,
      1786524914,
      1786524940,
      1786524973,
      1786525010,
      1786525046,
      1786525074,
      1786525080,
      1786525110,
      1786525146,
      1786525176,
      1786525179,
      1786525225,
      1786525234,
      1786525281
    ],
    "wof:geomhash": "516112980eb00b242569d733b3fbe9b2",
    "wof:id": 2047941373,
    "wof:repo": "sfomuseum-data-flights-2026-08"
  },
  "bbox": [
    -122.3572,
    36.72202,
    -121.87876,
    37.61129
  ],
  "geometry": {"type":"LineString","coordinates":[[-121.87876,36.72202],[-121.92168,36.75739],[-121.9676,36.76689],[-122.03105,36.77909],[-122.08107,36.78848],[-122.09062,36.79031],[-122.18013,36.8173],[-122.19447,36.84463],[-122.18909,36.87199],[-122.14446,36.9018],[-122.10653,36.91177],[-122.02454,36.93321],[-121.98704,36.94567],[-121.96816,36.97382],[-121.96811,36.98579],[-121.97705,37.01587],[-121.99054,37.05035],[-122.00234,37.08036],[-122.00675,37.09126],[-122.01254,37.10591],[-122.02891,37.14688],[-122.03282,37.15676],[-122.03853,37.1684],[-122.07214,37.1928],[-122.10355,37.21119],[-122.11097,37.21562],[-122.13737,37.25077],[-122.15094,37.29145],[-122.14933,37.31135],[-122.14184,37.33929],[-122.1277,37.38595],[-122.12061,37.40937],[-122.11284,37.43506],[-122.10336,37.4664],[-122.10698,37.50037],[-122.13955,37.51928],[-122.16792,37.53176],[-122.17392,37.53424],[-122.20437,37.54693],[-122.24117,37.56246],[-122.26983,37.57444],[-122.27274,37.57568],[-122.31079,37.59187],[-122.31859,37.59501],[-122.3572,37.61129]]}
}
