{
  "id": 2032073149,
  "type": "Feature",
  "properties": {
    "geom:area": 0,
    "geom:bbox": "-122.347910,37.438750,-121.243910,37.614490",
    "geom:latitude": 37.540254457398824,
    "geom:longitude": -121.80348404964411,
    "src:alt_label": "swim-approach",
    "src:geom": "swim",
    "swim:elevations": [
      4560,
      4439,
      4137,
      3988,
      3933,
      3788,
      3613,
      3510,
      3445,
      3178,
      3048,
      3048,
      3048,
      3048,
      3048,
      2968,
      2663,
      2549,
      2400,
      2207,
      2134,
      2106,
      1939,
      1829,
      1768,
      1653,
      1447,
      1301,
      1157,
      1073,
      881,
      697,
      513,
      472,
      266,
      175,
      80
    ],
    "swim:geom": "approach",
    "swim:timestamps": [
      1785708561,
      1785708578,
      1785708624,
      1785708658,
      1785708672,
      1785708703,
      1785708728,
      1785708742,
      1785708756,
      1785708801,
      1785708833,
      1785708849,
      1785708864,
      1785708895,
      1785708928,
      1785708940,
      1785708982,
      1785709006,
      1785709043,
      1785709066,
      1785709108,
      1785709131,
      1785709167,
      1785709198,
      1785709222,
      1785709246,
      1785709284,
      1785709317,
      1785709344,
      1785709357,
      1785709394,
      1785709426,
      1785709465,
      1785709471,
      1785709522,
      1785709543,
      1785709569
    ],
    "wof:geomhash": "92d6ce17e96dd98a0e7aee994f37d791",
    "wof:id": 2032073149,
    "wof:repo": "sfomuseum-data-flights-2026-08"
  },
  "bbox": [
    -122.34791,
    37.43875,
    -121.24391,
    37.61449
  ],
  "geometry": {"coordinates":[[-121.24391,37.59531],[-121.27655,37.59094],[-121.36607,37.58094],[-121.42387,37.57435],[-121.44672,37.57162],[-121.49537,37.56593],[-121.53172,37.56158],[-121.55327,37.55896],[-121.57316,37.55671],[-121.63552,37.57058],[-121.67641,37.58605],[-121.6964,37.59365],[-121.71687,37.6014],[-121.75686,37.61449],[-121.79957,37.60007],[-121.80726,37.5881],[-121.79908,37.53957],[-121.78976,37.51275],[-121.78353,37.47392],[-121.79952,37.45246],[-121.85329,37.4445],[-121.88348,37.44211],[-121.92929,37.43875],[-121.96664,37.44921],[-121.99442,37.45976],[-122.02131,37.4717],[-122.06452,37.49006],[-122.10192,37.50596],[-122.13308,37.51913],[-122.1472,37.52505],[-122.18986,37.54308],[-122.22452,37.55775],[-122.26168,37.5734],[-122.26732,37.57573],[-122.31079,37.59411],[-122.32807,37.6014],[-122.34791,37.60968]],"type":"LineString"}
}
