{
  "id": 2032105065,
  "type": "Feature",
  "properties": {
    "geom:area": 0,
    "geom:bbox": "-122.536300,36.732160,-121.499040,37.666870",
    "geom:latitude": 37.2218330716454,
    "geom:longitude": -122.08795270003816,
    "src:alt_label": "swim-takeoff",
    "src:geom": "swim",
    "swim:elevations": [
      152,
      481,
      975,
      1026,
      1126,
      1176,
      1325,
      1505,
      1736,
      2022,
      2464,
      2616,
      3121,
      3202,
      3291,
      3628,
      3729,
      4000,
      4587,
      5144,
      5274,
      5605,
      5917,
      6128,
      6676,
      6951,
      7087,
      7295,
      7434,
      7825
    ],
    "swim:geom": "takeoff",
    "swim:timestamps": [
      1785868387,
      1785868423,
      1785868480,
      1785868491,
      1785868516,
      1785868531,
      1785868558,
      1785868574,
      1785868597,
      1785868622,
      1785868665,
      1785868681,
      1785868733,
      1785868760,
      1785868778,
      1785868827,
      1785868838,
      1785868862,
      1785868920,
      1785868977,
      1785868992,
      1785869024,
      1785869058,
      1785869081,
      1785869127,
      1785869158,
      1785869176,
      1785869205,
      1785869222,
      1785869267
    ],
    "wof:geomhash": "fd8ad0eda2d2abd9d4c319371362df0c",
    "wof:id": 2032105065,
    "wof:repo": "sfomuseum-data-flights-2026-08"
  },
  "bbox": [
    -122.5363,
    36.73216,
    -121.49904,
    37.66687
  ],
  "geometry": {"type":"LineString","coordinates":[[-122.38883,37.62667],[-122.42242,37.63979],[-122.48022,37.66363],[-122.49308,37.66687],[-122.5239,37.66059],[-122.5363,37.6478],[-122.53306,37.61516],[-122.52359,37.59644],[-122.50989,37.5696],[-122.49523,37.53841],[-122.46783,37.48661],[-122.45078,37.47188],[-122.38391,37.42384],[-122.34827,37.39713],[-122.32139,37.37708],[-122.24583,37.32081],[-122.22902,37.30816],[-122.1896,37.2793],[-122.09563,37.21007],[-121.99814,37.13788],[-121.97334,37.11949],[-121.91616,37.077],[-121.85748,37.03225],[-121.81899,37.00022],[-121.74064,36.9346],[-121.6877,36.89046],[-121.65681,36.86467],[-121.60633,36.82252],[-121.57713,36.79812],[-121.49904,36.73216]]}
}
