{
  "id": 2048093537,
  "type": "Feature",
  "properties": {
    "geom:area": 0,
    "geom:bbox": "-122.356800,37.451720,-121.266290,37.613530",
    "geom:latitude": 37.5421056770978,
    "geom:longitude": -121.82113700143654,
    "src:alt_label": "swim-approach",
    "src:geom": "swim",
    "swim:elevations": [
      4567,
      4538,
      4204,
      3762,
      3633,
      3515,
      3414,
      3413,
      3336,
      3093,
      3078,
      3078,
      2997,
      2774,
      2774,
      2499,
      2477,
      2160,
      2081,
      2009,
      1891,
      1807,
      1682,
      1431,
      1150,
      989,
      929,
      684,
      578,
      426,
      264,
      149,
      63,
      61
    ],
    "swim:geom": "approach",
    "swim:timestamps": [
      1787296017,
      1787296028,
      1787296063,
      1787296107,
      1787296120,
      1787296132,
      1787296167,
      1787296170,
      1787296207,
      1787296256,
      1787296284,
      1787296308,
      1787296330,
      1787296378,
      1787296382,
      1787296438,
      1787296441,
      1787296496,
      1787296508,
      1787296522,
      1787296540,
      1787296586,
      1787296601,
      1787296631,
      1787296675,
      1787296702,
      1787296712,
      1787296762,
      1787296778,
      1787296816,
      1787296857,
      1787296888,
      1787296917,
      1787296926
    ],
    "wof:geomhash": "5ce843838bd730c5012e781f20bb6cd0",
    "wof:id": 2048093537,
    "wof:repo": "sfomuseum-data-flights-2026-08"
  },
  "bbox": [
    -122.3568,
    37.45172,
    -121.26629,
    37.61353
  ],
  "geometry": {"type":"LineString","coordinates":[[-121.26629,37.59578],[-121.2888,37.59298],[-121.35762,37.58438],[-121.444,37.5735],[-121.47081,37.57011],[-121.49405,37.56716],[-121.55816,37.55914],[-121.56328,37.55851],[-121.61963,37.55126],[-121.69017,37.55165],[-121.72592,37.56681],[-121.75894,37.5805],[-121.78967,37.58083],[-121.82599,37.54059],[-121.82818,37.53649],[-121.85769,37.4829],[-121.85933,37.48],[-121.91932,37.45306],[-121.93556,37.45248],[-121.95377,37.45172],[-121.9782,37.45496],[-122.03489,37.47755],[-122.0527,37.48514],[-122.08903,37.50052],[-122.13969,37.52195],[-122.16992,37.53467],[-122.18081,37.53924],[-122.23458,37.56196],[-122.24982,37.5684],[-122.28267,37.58228],[-122.31154,37.59439],[-122.33183,37.60291],[-122.35068,37.6108],[-122.3568,37.61353]]}
}
