{
  "id": 2047926511,
  "type": "Feature",
  "properties": {
    "geom:area": 0,
    "geom:bbox": "-122.316667,37.591667,-122.310833,37.600000",
    "geom:latitude": 37.59583333333333,
    "geom:longitude": -122.31375,
    "src:alt_label": "swim-path",
    "src:geom": "swim",
    "swim:altitudes": [
      "008",
      "007"
    ],
    "swim:geom": "path",
    "swim:speeds": [
      140,
      136
    ],
    "swim:timestamps": [
      1786507793,
      1786507804
    ],
    "wof:geomhash": "8e3bcaa6e1eeb2bcd1eb58a7aa0d2c44",
    "wof:id": 2047926511,
    "wof:repo": "sfomuseum-data-flights-2026-08"
  },
  "bbox": [
    -122.31666666666666,
    37.59166666666667,
    -122.31083333333333,
    37.6
  ],
  "geometry": {"type":"LineString","coordinates":[[-122.31083333333333,37.59166666666667],[-122.31666666666666,37.6]]}
}
