{
  "id": 2048035841,
  "type": "Feature",
  "properties": {
    "geom:area": 0,
    "geom:bbox": "-122.356140,37.492760,-121.246770,37.613120",
    "geom:latitude": 37.54282940034862,
    "geom:longitude": -121.8084714550901,
    "src:alt_label": "swim-approach",
    "src:geom": "swim",
    "swim:elevations": [
      4607,
      4370,
      4124,
      3859,
      3671,
      3582,
      3204,
      3091,
      2928,
      2746,
      2516,
      2499,
      2337,
      2218,
      2050,
      1889,
      1743,
      1680,
      1518,
      1347,
      981,
      912,
      677,
      576,
      549,
      336,
      251,
      127,
      17
    ],
    "swim:geom": "approach",
    "swim:timestamps": [
      1786957436,
      1786957464,
      1786957491,
      1786957523,
      1786957545,
      1786957574,
      1786957614,
      1786957642,
      1786957676,
      1786957700,
      1786957736,
      1786957742,
      1786957796,
      1786957816,
      1786957858,
      1786957888,
      1786957911,
      1786957920,
      1786957959,
      1786957984,
      1786958038,
      1786958053,
      1786958098,
      1786958119,
      1786958140,
      1786958188,
      1786958208,
      1786958234,
      1786958264
    ],
    "wof:geomhash": "4c7d31b094d53c9e4c98703701688719",
    "wof:id": 2048035841,
    "wof:repo": "sfomuseum-data-flights-2026-08"
  },
  "bbox": [
    -122.35614,
    37.49276,
    -121.24677,
    37.61312
  ],
  "geometry": {"type":"LineString","coordinates":[[-121.24677,37.59493],[-121.30169,37.58759],[-121.35172,37.58185],[-121.40841,37.5757],[-121.44513,37.57163],[-121.49256,37.56616],[-121.55526,37.55879],[-121.59829,37.55385],[-121.6507,37.54464],[-121.68525,37.53602],[-121.7386,37.52322],[-121.74715,37.52119],[-121.82696,37.50216],[-121.85572,37.49529],[-121.91693,37.49276],[-121.96042,37.49555],[-121.99193,37.4975],[-122.00388,37.49817],[-122.05777,37.50134],[-122.09084,37.50328],[-122.15502,37.5284],[-122.17211,37.5356],[-122.21728,37.55467],[-122.23759,37.56321],[-122.25676,37.57135],[-122.29637,37.58798],[-122.31227,37.59472],[-122.33282,37.60329],[-122.35614,37.61312]]}
}
