{
  "id": 2047875451,
  "type": "Feature",
  "properties": {
    "geom:area": 0,
    "geom:bbox": "-122.349730,37.492800,-121.260800,37.610400",
    "geom:latitude": 37.54184238169834,
    "geom:longitude": -121.81193711841587,
    "src:alt_label": "swim-approach",
    "src:geom": "swim",
    "swim:elevations": [
      4531,
      4337,
      3682,
      3604,
      3301,
      3153,
      2972,
      2782,
      2595,
      2485,
      2438,
      2320,
      2255,
      2115,
      1938,
      1886,
      1854,
      1540,
      1502,
      1186,
      1009,
      876,
      797,
      667,
      549,
      434,
      305,
      274,
      108,
      70
    ],
    "swim:geom": "approach",
    "swim:timestamps": [
      1786147915,
      1786147932,
      1786147976,
      1786147983,
      1786148013,
      1786148059,
      1786148098,
      1786148122,
      1786148156,
      1786148177,
      1786148195,
      1786148228,
      1786148243,
      1786148270,
      1786148302,
      1786148314,
      1786148320,
      1786148368,
      1786148377,
      1786148422,
      1786148455,
      1786148482,
      1786148503,
      1786148537,
      1786148570,
      1786148600,
      1786148638,
      1786148647,
      1786148698,
      1786148707
    ],
    "wof:geomhash": "d39818e2f0aef7b769122b62010ed8f3",
    "wof:id": 2047875451,
    "wof:repo": "sfomuseum-data-flights-2026-08"
  },
  "bbox": [
    -122.34973,
    37.4928,
    -121.2608,
    37.6104
  ],
  "geometry": {"type":"LineString","coordinates":[[-121.2608,37.59293],[-121.29887,37.58789],[-121.3956,37.5772],[-121.41035,37.57551],[-121.47522,37.56807],[-121.56656,37.55743],[-121.63685,37.54768],[-121.67671,37.53797],[-121.73057,37.52531],[-121.76243,37.51769],[-121.78914,37.51121],[-121.83876,37.49939],[-121.86128,37.49402],[-121.90186,37.4928],[-121.95226,37.49537],[-121.97043,37.49635],[-121.97949,37.49682],[-122.05162,37.50093],[-122.06489,37.50169],[-122.12362,37.51528],[-122.16055,37.53073],[-122.1867,37.54177],[-122.20552,37.54978],[-122.23477,37.56205],[-122.25816,37.57191],[-122.27843,37.58044],[-122.30509,37.59166],[-122.31116,37.59427],[-122.34417,37.6081],[-122.34973,37.6104]]}
}
