{
  "id": 2032071539,
  "type": "Feature",
  "properties": {
    "geom:area": 0,
    "geom:bbox": "-122.352500,33.650000,-84.433333,38.237222",
    "geom:latitude": 36.67067741714627,
    "geom:longitude": -103.32816389546569,
    "src:alt_label": "swim-path",
    "src:geom": "swim",
    "swim:altitudes": [
      "017",
      "036",
      "038",
      "053",
      "061",
      "079",
      "085",
      "101",
      "104",
      "114",
      "130",
      "140",
      "156",
      "169",
      "185",
      "196",
      "210",
      "220",
      "229",
      "238",
      "248",
      "256",
      "265",
      "284",
      "292",
      "313",
      "326",
      "340C",
      "340C",
      "340C",
      "340C",
      "340C",
      "340C",
      "340C",
      "340C",
      "340C",
      "340C",
      "340C",
      "341C",
      "340C",
      "340C",
      "340C",
      "340C",
      "340C",
      "340C",
      "340C",
      "340C",
      "340C",
      "340C",
      "340C",
      "340C",
      "340C",
      "340C",
      "340C",
      "340C",
      "340C",
      "340C",
      "340C",
      "340C",
      "340C",
      "340C",
      "340C",
      "340C",
      "340C",
      "340C",
      "340C",
      "340C",
      "340C",
      "340C",
      "340C",
      "340C",
      "340C",
      "340C",
      "340C",
      "340C",
      "340C",
      "340C",
      "340C",
      "340C",
      "340C",
      "340C",
      "340C",
      "340C",
      "340C",
      "340C",
      "340C",
      "340C",
      "340C",
      "340C",
      "340C",
      "340C",
      "340C",
      "340C",
      "341C",
      "340C",
      "340C",
      "340C",
      "340C",
      "340C",
      "340C",
      "340C",
      "340C",
      "340C",
      "340C",
      "340C",
      "340C",
      "340C",
      "340C",
      "340C",
      "340C",
      "340C",
      "340C",
      "340C",
      "340C",
      "340C",
      "340C",
      "340C",
      "340C",
      "340C",
      "340C",
      "340C",
      "340C",
      "340C",
      "340C",
      "340C",
      "340C",
      "340C",
      "340C",
      "340C",
      "340C",
      "340C",
      "340C",
      "340C",
      "340C",
      "340C",
      "340C",
      "340C",
      "340C",
      "340C",
      "340C",
      "340C",
      "340C",
      "340C",
      "340C",
      "340C",
      "341C",
      "341C",
      "340C",
      "340C",
      "340C",
      "340C",
      "340C",
      "340C",
      "340C",
      "340C",
      "340C",
      "340C",
      "341C",
      "340C",
      "340C",
      "340C",
      "340C",
      "340C",
      "340C",
      "340C",
      "340C",
      "340C",
      "340C",
      "340C",
      "340C",
      "340C",
      "340C",
      "340C",
      "340C",
      "341C",
      "341C",
      "341C",
      "341C",
      "341C",
      "340C",
      "340C",
      "340C",
      "340C",
      "340C",
      "340C",
      "340C",
      "340C",
      "341C",
      "341C",
      "341C",
      "341C",
      "340C",
      "340C",
      "340C",
      "340C",
      "340C",
      "340C",
      "340C",
      "340C",
      "340C",
      "340C",
      "340C",
      "340C",
      "340C",
      "340C",
      "340C",
      "340C",
      "340C",
      "340C",
      "340C",
      "340C",
      "340C",
      "340C",
      "340C",
      "340C",
      "340C",
      "340C",
      "340C",
      "340C",
      "340C",
      "340C",
      "340C",
      "340C",
      "340C",
      "340C",
      "340C",
      "340C",
      "340C",
      "340C",
      "340C",
      "340C",
      "340C",
      "340C",
      "340C",
      "341C",
      "340C",
      "340C",
      "340C",
      "340C",
      "340C",
      "340C",
      "340C",
      "340C",
      "340C",
      "340C",
      "340C",
      "340C",
      "340C",
      "340C",
      "340C",
      "340C",
      "340C",
      "340C",
      "340C",
      "340C",
      "340C",
      "340C",
      "340C",
      "340C",
      "340C",
      "340C",
      "340C",
      "340C",
      "340C",
      "340C",
      "340C",
      "340C",
      "340C",
      "340C",
      "340C",
      "340C",
      "340C",
      "340C",
      "340C",
      "340C",
      "340C",
      "340C",
      "340C",
      "340C",
      "340C",
      "340C",
      "340C",
      "340C",
      "340C",
      "340C",
      "340C",
      "340C",
      "340C",
      "340C",
      "340C",
      "340C",
      "340C",
      "340C",
      "340C",
      "340C",
      "340C",
      "340C",
      "340C",
      "340C",
      "340C",
      "340C",
      "340C",
      "340C",
      "340C",
      "340C",
      "340C",
      "340C",
      "340C",
      "340C",
      "340C",
      "340C",
      "340C",
      "340C",
      "340C",
      "340C",
      "340",
      "340",
      "309",
      "288",
      "264",
      "265",
      "243",
      "229",
      "207",
      "208",
      "187",
      "167",
      "153",
      "140",
      "128",
      "110",
      "096",
      "078",
      "078",
      "066",
      "060",
      "046",
      "046",
      "035",
      "025",
      "016",
      "009",
      "002"
    ],
    "swim:geom": "path",
    "swim:speeds": [
      160,
      214,
      226,
      266,
      262,
      270,
      268,
      284,
      287,
      338,
      340,
      366,
      395,
      402,
      407,
      417,
      429,
      436,
      443,
      447,
      449,
      452,
      453,
      454,
      454,
      452,
      438,
      437,
      436,
      437,
      441,
      442,
      442,
      442,
      442,
      441,
      441,
      441,
      448,
      448,
      449,
      449,
      449,
      450,
      451,
      452,
      454,
      454,
      452,
      453,
      453,
      454,
      453,
      454,
      458,
      461,
      460,
      461,
      462,
      462,
      463,
      463,
      463,
      464,
      463,
      463,
      464,
      463,
      463,
      463,
      463,
      464,
      461,
      461,
      460,
      461,
      460,
      461,
      460,
      460,
      460,
      460,
      461,
      462,
      462,
      463,
      463,
      464,
      464,
      465,
      465,
      466,
      467,
      467,
      468,
      468,
      468,
      468,
      468,
      468,
      468,
      467,
      467,
      466,
      466,
      466,
      466,
      465,
      466,
      465,
      465,
      464,
      464,
      464,
      463,
      463,
      463,
      463,
      462,
      463,
      463,
      463,
      463,
      463,
      464,
      464,
      464,
      464,
      463,
      463,
      463,
      463,
      463,
      464,
      464,
      465,
      465,
      466,
      467,
      469,
      470,
      471,
      475,
      474,
      479,
      482,
      483,
      484,
      485,
      485,
      484,
      484,
      481,
      480,
      477,
      476,
      475,
      476,
      475,
      475,
      474,
      475,
      474,
      474,
      474,
      474,
      473,
      473,
      473,
      473,
      474,
      474,
      475,
      475,
      477,
      475,
      475,
      476,
      474,
      472,
      470,
      468,
      467,
      465,
      465,
      465,
      465,
      466,
      467,
      468,
      468,
      467,
      467,
      467,
      467,
      467,
      467,
      467,
      467,
      466,
      466,
      465,
      464,
      463,
      462,
      461,
      460,
      460,
      460,
      459,
      452,
      451,
      452,
      452,
      453,
      454,
      454,
      452,
      452,
      451,
      452,
      449,
      448,
      446,
      444,
      442,
      442,
      445,
      442,
      442,
      442,
      442,
      442,
      443,
      444,
      444,
      444,
      443,
      442,
      442,
      442,
      442,
      442,
      442,
      442,
      442,
      441,
      440,
      440,
      440,
      440,
      439,
      438,
      437,
      436,
      435,
      434,
      434,
      433,
      432,
      432,
      432,
      433,
      433,
      433,
      431,
      429,
      430,
      429,
      430,
      429,
      429,
      430,
      430,
      430,
      430,
      431,
      430,
      430,
      430,
      430,
      430,
      430,
      430,
      430,
      430,
      430,
      430,
      430,
      430,
      430,
      430,
      430,
      430,
      431,
      431,
      432,
      432,
      433,
      432,
      432,
      431,
      430,
      429,
      429,
      428,
      428,
      429,
      429,
      431,
      431,
      430,
      429,
      428,
      427,
      427,
      427,
      438,
      441,
      419,
      421,
      409,
      356,
      334,
      339,
      336,
      334,
      322,
      296,
      264,
      256,
      250,
      244,
      245,
      236,
      234,
      233,
      235,
      228,
      203,
      187,
      146,
      136
    ],
    "swim:timestamps": [
      1785715483,
      1785715555,
      1785715578,
      1785715615,
      1785715638,
      1785715676,
      1785715698,
      1785715735,
      1785715758,
      1785715818,
      1785715874,
      1785715934,
      1785715995,
      1785716055,
      1785716115,
      1785716175,
      1785716235,
      1785716295,
      1785716355,
      1785716415,
      1785716475,
      1785716535,
      1785716595,
      1785716715,
      1785716776,
      1785716896,
      1785716956,
      1785717076,
      1785717136,
      1785717256,
      1785717376,
      1785717436,
      1785717497,
      1785717557,
      1785717617,
      1785717677,
      1785717737,
      1785717857,
      1785717977,
      1785718037,
      1785718097,
      1785718157,
      1785718218,
      1785718278,
      1785718322,
      1785718338,
      1785718398,
      1785718458,
      1785718503,
      1785718518,
      1785718563,
      1785718578,
      1785718623,
      1785718683,
      1785718698,
      1785718818,
      1785718863,
      1785718878,
      1785718938,
      1785718972,
      1785718999,
      1785719032,
      1785719043,
      1785719059,
      1785719092,
      1785719103,
      1785719119,
      1785719152,
      1785719163,
      1785719179,
      1785719212,
      1785719224,
      1785719299,
      1785719344,
      1785719359,
      1785719404,
      1785719419,
      1785719464,
      1785719479,
      1785719512,
      1785719524,
      1785719539,
      1785719572,
      1785719599,
      1785719632,
      1785719644,
      1785719659,
      1785719693,
      1785719704,
      1785719720,
      1785719753,
      1785719764,
      1785719780,
      1785719813,
      1785719824,
      1785719840,
      1785719873,
      1785719885,
      1785719933,
      1785719945,
      1785720005,
      1785720065,
      1785720092,
      1785720125,
      1785720152,
      1785720173,
      1785720185,
      1785720212,
      1785720233,
      1785720245,
      1785720272,
      1785720305,
      1785720332,
      1785720353,
      1785720365,
      1785720392,
      1785720413,
      1785720474,
      1785720485,
      1785720534,
      1785720545,
      1785720606,
      1785720654,
      1785720666,
      1785720714,
      1785720726,
      1785720774,
      1785720786,
      1785720834,
      1785720846,
      1785720894,
      1785720906,
      1785720954,
      1785720966,
      1785721014,
      1785721026,
      1785721074,
      1785721134,
      1785721146,
      1785721206,
      1785721387,
      1785721447,
      1785721500,
      1785721507,
      1785721567,
      1785721620,
      1785721627,
      1785721680,
      1785721738,
      1785721747,
      1785721798,
      1785721807,
      1785721858,
      1785721867,
      1785721918,
      1785721978,
      1785722047,
      1785722099,
      1785722159,
      1785722168,
      1785722228,
      1785722279,
      1785722288,
      1785722339,
      1785722348,
      1785722384,
      1785722408,
      1785722444,
      1785722459,
      1785722468,
      1785722519,
      1785722528,
      1785722579,
      1785722588,
      1785722624,
      1785722639,
      1785722648,
      1785722684,
      1785722700,
      1785722744,
      1785722768,
      1785722804,
      1785722828,
      1785722880,
      1785722941,
      1785722985,
      1785723001,
      1785723045,
      1785723061,
      1785723105,
      1785723121,
      1785723165,
      1785723181,
      1785723225,
      1785723241,
      1785723301,
      1785723361,
      1785723405,
      1785723421,
      1785723465,
      1785723482,
      1785723525,
      1785723542,
      1785723586,
      1785723602,
      1785723662,
      1785723706,
      1785723722,
      1785723766,
      1785723826,
      1785724006,
      1785724066,
      1785724126,
      1785724186,
      1785724246,
      1785724307,
      1785724367,
      1785724431,
      1785724487,
      1785724547,
      1785724612,
      1785724667,
      1785724727,
      1785724787,
      1785724847,
      1785724907,
      1785724967,
      1785725032,
      1785725088,
      1785725148,
      1785725208,
      1785725268,
      1785725328,
      1785725388,
      1785725448,
      1785725508,
      1785725568,
      1785725628,
      1785725688,
      1785725748,
      1785725809,
      1785725869,
      1785725933,
      1785725989,
      1785726049,
      1785726114,
      1785726169,
      1785726229,
      1785726294,
      1785726474,
      1785726534,
      1785726594,
      1785726654,
      1785726775,
      1785726895,
      1785726955,
      1785727015,
      1785727075,
      1785727135,
      1785727195,
      1785727255,
      1785727315,
      1785727375,
      1785727435,
      1785727496,
      1785727556,
      1785727676,
      1785727709,
      1785727736,
      1785727769,
      1785727796,
      1785727856,
      1785727889,
      1785727916,
      1785727949,
      1785727976,
      1785728009,
      1785728036,
      1785728069,
      1785728096,
      1785728129,
      1785728156,
      1785728189,
      1785728216,
      1785728249,
      1785728277,
      1785728309,
      1785728337,
      1785728369,
      1785728397,
      1785728429,
      1785728457,
      1785728489,
      1785728517,
      1785728550,
      1785728577,
      1785728610,
      1785728637,
      1785728697,
      1785728730,
      1785728757,
      1785728817,
      1785728877,
      1785728910,
      1785728937,
      1785728970,
      1785728998,
      1785729030,
      1785729090,
      1785729210,
      1785729270,
      1785729330,
      1785729390,
      1785729450,
      1785729510,
      1785729571,
      1785729631,
      1785729748,
      1785729811,
      1785729863,
      1785729871,
      1785729931,
      1785729991,
      1785730043,
      1785730051,
      1785730111,
      1785730171,
      1785730231,
      1785730291,
      1785730351,
      1785730411,
      1785730471,
      1785730583,
      1785730592,
      1785730652,
      1785730712,
      1785730763,
      1785730772,
      1785730832,
      1785730892,
      1785730952,
      1785731012,
      1785731072
    ],
    "wof:geomhash": "3c8915e36e1b670aaed4e72d5096cf15",
    "wof:id": 2032071539,
    "wof:repo": "sfomuseum-data-flights-2026-08"
  },
  "bbox": [
    -122.35249999999999,
    33.65,
    -84.43333333333334,
    38.23722222222222
  ],
  "geometry": {"coordinates":[[-84.43333333333334,33.65],[-84.51666666666667,33.65],[-84.53305555555555,33.66083333333333],[-84.6,33.666666666666664],[-84.61861111111111,33.676944444444445],[-84.68333333333334,33.68333333333333],[-84.70666666666666,33.69166666666666],[-84.76666666666667,33.7],[-84.79833333333333,33.71055555555556],[-84.90222222222222,33.739444444444445],[-85.0038888888889,33.766666666666666],[-85.12388888888889,33.79805555555556],[-85.25305555555556,33.821111111111115],[-85.38777777777779,33.82666666666667],[-85.52583333333334,33.831944444444446],[-85.66583333333334,33.841944444444444],[-85.80222222222221,33.885],[-85.94083333333333,33.92361111111111],[-86.08027777777778,33.96416666666667],[-86.22222222222223,34.005],[-86.36749999999999,34.046388888888885],[-86.51027777777777,34.08722222222222],[-86.65222222222222,34.1275],[-86.94222222222223,34.20916666666667],[-87.08472222222221,34.24916666666667],[-87.37249999999999,34.32888888888889],[-87.51611111111112,34.36833333333333],[-87.8025,34.446666666666665],[-87.94250000000001,34.48444444444444],[-88.22222222222223,34.559444444444445],[-88.50583333333333,34.63527777777778],[-88.64055555555557,34.67055555555555],[-88.7825,34.70805555555556],[-88.92333333333333,34.74472222222222],[-89.06666666666666,34.78194444444444],[-89.2075,34.81805555555556],[-89.34888888888888,34.85472222222222],[-89.63,34.92638888888889],[-89.94305555555556,35.00527777777778],[-90.08555555555554,35.04555555555555],[-90.22833333333334,35.087500000000006],[-90.37055555555555,35.12916666666667],[-90.515,35.171388888888885],[-90.6588888888889,35.21333333333334],[-90.75277777777778,35.24111111111111],[-90.80388888888889,35.254444444444445],[-90.9525,35.282777777777774],[-91.1036111111111,35.30916666666666],[-91.19361111111111,35.32527777777778],[-91.25333333333333,35.335],[-91.345,35.35138888888889],[-91.40611111111112,35.361111111111114],[-91.49694444444445,35.37777777777778],[-91.65,35.40222222222222],[-91.71194444444444,35.41277777777778],[-92.01861111111111,35.46388888888889],[-92.115,35.480000000000004],[-92.17194444444445,35.48916666666667],[-92.32833333333333,35.51444444444444],[-92.38944444444445,35.52388888888889],[-92.48055555555555,35.53916666666667],[-92.54333333333334,35.54888888888889],[-92.57333333333332,35.55555555555555],[-92.63694444444445,35.564166666666665],[-92.69777777777779,35.574444444444445],[-92.72722222222222,35.580000000000005],[-92.78833333333333,35.58833333333334],[-92.85027777777778,35.59916666666667],[-92.88,35.605000000000004],[-92.94083333333333,35.61222222222222],[-93.03305555555555,35.62722222222222],[-93.06361111111111,35.632777777777775],[-93.24555555555555,35.659444444444446],[-93.36694444444444,35.67805555555555],[-93.39861111111112,35.683055555555555],[-93.52305555555556,35.70194444444445],[-93.55138888888888,35.70611111111111],[-93.67583333333334,35.725],[-93.7075,35.72972222222222],[-93.80111111111111,35.743611111111115],[-93.83194444444445,35.748333333333335],[-93.86194444444443,35.75277777777778],[-93.95666666666666,35.766666666666666],[-94.01638888888888,35.775555555555556],[-94.11138888888888,35.78972222222222],[-94.14111111111112,35.79388888888889],[-94.1725,35.79833333333333],[-94.27277777777778,35.81305555555555],[-94.30777777777777,35.81805555555556],[-94.33083333333333,35.82138888888889],[-94.43805555555556,35.83694444444445],[-94.46527777777779,35.840833333333336],[-94.49777777777778,35.845555555555556],[-94.59472222222222,35.85916666666667],[-94.6275,35.86388888888889],[-94.65527777777778,35.86805555555556],[-94.755,35.88194444444444],[-94.78444444444445,35.88611111111111],[-94.91166666666668,35.903888888888886],[-94.91166666666668,35.903888888888886],[-95.07194444444444,35.92611111111111],[-95.23,35.94777777777777],[-95.32249999999999,35.96027777777778],[-95.3863888888889,35.96888888888889],[-95.48027777777779,35.98166666666667],[-95.51777777777778,35.986666666666665],[-95.54805555555555,35.990833333333335],[-95.64250000000001,36.00333333333333],[-95.67500000000001,36.007777777777775],[-95.70777777777778,36.011944444444445],[-95.8,36.024166666666666],[-95.86388888888888,36.0325],[-95.95583333333333,36.044444444444444],[-95.99222222222222,36.049166666666665],[-96.02194444444444,36.05305555555555],[-96.11444444444444,36.065],[-96.14916666666667,36.06944444444445],[-96.30666666666666,36.08972222222222],[-96.33777777777777,36.093611111111116],[-96.46444444444445,36.109722222222224],[-96.49444444444444,36.11333333333334],[-96.65277777777779,36.13305555555556],[-96.78305555555555,36.14944444444444],[-96.81222222222222,36.15277777777778],[-96.93833333333333,36.16833333333333],[-96.97222222222223,36.17222222222222],[-97.095,36.18722222222222],[-97.1286111111111,36.19138888888889],[-97.25277777777778,36.20611111111111],[-97.28444444444445,36.21],[-97.40861111111111,36.224444444444444],[-97.4388888888889,36.22805555555556],[-97.56444444444445,36.2425],[-97.59666666666666,36.24638888888889],[-97.72277777777778,36.26083333333333],[-97.75416666666666,36.26444444444444],[-97.89472222222223,36.28055555555555],[-98.05444444444444,36.29861111111111],[-98.08388888888888,36.301944444444445],[-98.24583333333334,36.319722222222225],[-98.72472222222223,36.37138888888889],[-98.88527777777779,36.38861111111111],[-99.01805555555555,36.402499999999996],[-99.0475,36.40555555555555],[-99.21166666666667,36.42222222222222],[-99.34583333333333,36.43583333333333],[-99.37388888888889,36.43861111111111],[-99.51222222222222,36.4525],[-99.67833333333334,36.46888888888889],[-99.7075,36.47166666666667],[-99.84222222222222,36.485],[-99.87194444444444,36.48777777777778],[-100.00694444444444,36.50111111111111],[-100.03527777777778,36.505],[-100.1675,36.52388888888889],[-100.32055555555556,36.54527777777778],[-100.51222222222222,36.57194444444445],[-100.64583333333334,36.59027777777778],[-100.80499999999999,36.61194444444445],[-100.83583333333333,36.61611111111111],[-100.99916666666667,36.63805555555555],[-101.12972222222221,36.65555555555555],[-101.16194444444444,36.65972222222222],[-101.29222222222222,36.676944444444445],[-101.32277777777777,36.68083333333333],[-101.42055555555557,36.69305555555555],[-101.48583333333333,36.702222222222225],[-101.58166666666666,36.71361111111111],[-101.615,36.71888888888889],[-101.64694444444446,36.72277777777778],[-101.77805555555555,36.739444444444445],[-101.80916666666667,36.74333333333333],[-101.94333333333334,36.760555555555555],[-101.97194444444445,36.763888888888886],[-102.07222222222222,36.776666666666664],[-102.10416666666666,36.78055555555555],[-102.13444444444445,36.78444444444444],[-102.23583333333333,36.79666666666667],[-102.26777777777778,36.800555555555555],[-102.39555555555556,36.81638888888889],[-102.455,36.82361111111111],[-102.56638888888888,36.83694444444445],[-102.61611111111111,36.84277777777778],[-102.7575,36.859722222222224],[-102.91527777777779,36.87833333333333],[-103.04388888888889,36.893055555555556],[-103.07722222222222,36.89694444444444],[-103.20361111111112,36.91166666666666],[-103.23694444444445,36.91555555555556],[-103.36638888888888,36.93],[-103.39972222222222,36.93388888888889],[-103.52833333333334,36.94833333333333],[-103.5586111111111,36.95166666666667],[-103.68722222222223,36.96611111111111],[-103.72111111111111,36.969722222222224],[-103.88361111111112,36.98722222222222],[-104.04277777777777,37.00861111111111],[-104.16861111111112,37.03361111111111],[-104.20055555555555,37.04],[-104.3275,37.06527777777777],[-104.35972222222222,37.07166666666667],[-104.48361111111112,37.096111111111114],[-104.51611111111112,37.1025],[-104.64,37.126666666666665],[-104.67083333333333,37.1325],[-104.82888888888888,37.163333333333334],[-104.95111111111112,37.18694444444444],[-104.98333333333333,37.19305555555555],[-105.10805555555555,37.216944444444444],[-105.26194444444444,37.24583333333334],[-105.71916666666667,37.331388888888895],[-105.87083333333332,37.35888888888889],[-106.02444444444444,37.38388888888889],[-106.17694444444444,37.42333333333333],[-106.325,37.46222222222222],[-106.47638888888889,37.50222222222222],[-106.62638888888888,37.5425],[-106.77277777777778,37.57277777777778],[-106.93444444444445,37.58888888888889],[-107.09138888888889,37.60722222222223],[-107.24194444444444,37.625],[-107.39972222222222,37.643055555555556],[-107.55583333333333,37.66111111111111],[-107.7088888888889,37.67805555555555],[-107.86055555555555,37.695277777777775],[-108.01305555555555,37.71194444444445],[-108.16472222222222,37.728611111111114],[-108.31944444444444,37.745],[-108.47083333333333,37.76111111111111],[-108.62638888888888,37.777499999999996],[-108.77805555555555,37.793055555555554],[-108.93166666666667,37.80888888888889],[-109.08555555555554,37.82472222222223],[-109.23861111111111,37.84055555555556],[-109.39250000000001,37.85611111111111],[-109.5461111111111,37.87138888888889],[-109.70222222222222,37.88666666666666],[-109.85527777777777,37.901666666666664],[-110.00861111111111,37.91638888888889],[-110.16416666666667,37.93083333333333],[-110.31833333333333,37.945277777777775],[-110.47111111111111,37.95944444444445],[-110.63583333333334,37.97416666666667],[-110.77944444444444,37.98694444444445],[-110.93555555555555,38.00055555555556],[-111.11166666666666,38.01583333333333],[-111.24194444444444,38.026944444444446],[-111.39555555555556,38.03972222222222],[-111.57333333333332,38.05444444444444],[-112.0325,38.09111111111111],[-112.18611111111112,38.10277777777778],[-112.34138888888889,38.114444444444445],[-112.49333333333334,38.12583333333333],[-112.7975,38.147777777777776],[-113.10138888888888,38.16888888888889],[-113.25055555555555,38.178888888888885],[-113.40277777777779,38.189166666666665],[-113.55472222222222,38.19916666666666],[-113.70694444444445,38.20888888888889],[-113.8561111111111,38.21805555555556],[-114.00777777777778,38.2275],[-114.16111111111111,38.236666666666665],[-114.3125,38.23722222222222],[-114.46416666666667,38.22833333333333],[-114.61805555555554,38.21944444444445],[-114.76805555555555,38.21027777777778],[-115.06944444444444,38.19138888888889],[-115.15861111111111,38.186388888888885],[-115.21944444444445,38.181666666666665],[-115.30916666666667,38.17583333333333],[-115.36888888888888,38.17166666666667],[-115.51916666666666,38.16166666666666],[-115.61194444444443,38.156388888888884],[-115.67,38.15138888888889],[-115.76305555555555,38.14555555555555],[-115.82083333333333,38.14083333333333],[-115.91277777777778,38.134166666666665],[-115.97222222222223,38.13],[-116.06527777777778,38.12305555555555],[-116.12555555555555,38.11888888888889],[-116.215,38.11222222222222],[-116.2761111111111,38.10777777777778],[-116.36694444444444,38.100833333333334],[-116.42527777777778,38.09638888888889],[-116.51722222222222,38.089444444444446],[-116.57777777777777,38.084722222222226],[-116.67,38.0775],[-116.7275,38.073055555555555],[-116.81972222222223,38.06583333333333],[-116.87972222222221,38.06111111111111],[-116.97194444444445,38.053888888888885],[-117.03194444444445,38.04888888888889],[-117.1261111111111,38.04111111111111],[-117.18694444444445,38.03611111111111],[-117.28222222222222,38.02833333333333],[-117.34222222222222,38.02333333333333],[-117.43611111111112,38.015277777777776],[-117.49555555555555,38.01027777777778],[-117.64861111111112,37.9975],[-117.74166666666667,37.989444444444445],[-117.79833333333333,37.98444444444444],[-117.94972222222222,37.97083333333334],[-118.09888888888888,37.9575],[-118.19083333333333,37.94916666666666],[-118.25055555555555,37.943888888888885],[-118.34166666666667,37.93527777777778],[-118.39944444444446,37.93],[-118.49083333333333,37.921388888888885],[-118.64166666666668,37.907222222222224],[-118.94,37.87555555555556],[-119.08916666666666,37.85861111111111],[-119.24,37.84111111111111],[-119.38777777777779,37.82361111111111],[-119.53694444444444,37.80583333333333],[-119.68416666666667,37.788333333333334],[-119.83166666666666,37.77027777777778],[-119.98111111111112,37.75222222222222],[-120.26666666666667,37.71666666666667],[-120.40083333333334,37.69972222222222],[-120.55,37.68333333333333],[-120.54805555555555,37.68222222222222],[-120.69166666666668,37.66555555555556],[-120.81944444444444,37.650277777777774],[-120.93333333333334,37.63333333333333],[-120.93694444444445,37.63583333333333],[-121.05333333333333,37.62083333333334],[-121.16694444444445,37.605555555555554],[-121.28555555555555,37.589444444444446],[-121.3875,37.57805555555556],[-121.48083333333334,37.5675],[-121.56888888888888,37.55722222222222],[-121.6538888888889,37.54361111111111],[-121.81666666666666,37.5],[-121.81888888888888,37.50416666666667],[-121.89972222222222,37.49277777777778],[-121.98111111111112,37.49916666666667],[-122.06666666666666,37.5],[-122.06277777777777,37.505833333333335],[-122.14,37.519999999999996],[-122.20583333333333,37.5475],[-122.26444444444445,37.57222222222222],[-122.31,37.59138888888889],[-122.35249999999999,37.60916666666667]],"type":"LineString"}
}
