{
  "id": 2047941275,
  "type": "Feature",
  "properties": {
    "geom:area": 0,
    "geom:bbox": "-122.362700,36.731210,-121.884500,37.613800",
    "geom:latitude": 37.217828301642555,
    "geom:longitude": -122.07300638730977,
    "src:alt_label": "swim-approach",
    "src:geom": "swim",
    "swim:elevations": [
      5250,
      4832,
      4262,
      4168,
      3916,
      3496,
      3251,
      3122,
      2997,
      2961,
      2586,
      2559,
      2421,
      2359,
      2130,
      1871,
      1671,
      1396,
      1331,
      1191,
      1030,
      1009,
      699,
      575,
      395,
      328,
      241,
      139,
      119,
      173
    ],
    "swim:geom": "approach",
    "swim:timestamps": [
      1786564364,
      1786564406,
      1786564467,
      1786564476,
      1786564503,
      1786564546,
      1786564570,
      1786564605,
      1786564645,
      1786564651,
      1786564707,
      1786564711,
      1786564734,
      1786564743,
      1786564775,
      1786564807,
      1786564839,
      1786564885,
      1786564898,
      1786564918,
      1786564947,
      1786564952,
      1786565003,
      1786565028,
      1786565061,
      1786565074,
      1786565095,
      1786565124,
      1786565131,
      1786565160
    ],
    "wof:geomhash": "4ab279ffd1909e3c3a10944a80bdbfc9",
    "wof:id": 2047941275,
    "wof:repo": "sfomuseum-data-flights-2026-08"
  },
  "bbox": [
    -122.3627,
    36.73121,
    -121.8845,
    37.6138
  ],
  "geometry": {"type":"LineString","coordinates":[[-121.8845,36.73121],[-121.91003,36.79979],[-121.93788,36.89814],[-121.94205,36.91297],[-121.95459,36.95575],[-121.9811,37.02374],[-121.99533,37.0605],[-122.01551,37.11237],[-122.03676,37.16574],[-122.03983,37.17346],[-122.06736,37.24481],[-122.06907,37.24925],[-122.081,37.27915],[-122.08528,37.28978],[-122.10043,37.32912],[-122.11522,37.36689],[-122.12903,37.40305],[-122.1456,37.45434],[-122.15025,37.46804],[-122.15768,37.48886],[-122.16811,37.51901],[-122.16985,37.52389],[-122.21984,37.55377],[-122.2474,37.56488],[-122.28069,37.57883],[-122.29298,37.58416],[-122.31042,37.5917],[-122.33393,37.60156],[-122.3394,37.60383],[-122.3627,37.6138]]}
}
