{
  "id": 2047998261,
  "type": "Feature",
  "properties": {
    "date:inception_lower": "2026-08-16",
    "date:inception_upper": "2026-08-16",
    "edtf:cessation": "",
    "edtf:inception": "2026-08-16",
    "flysfo:actual_timestamp": -1,
    "flysfo:airline": "VA",
    "flysfo:base_airline": "",
    "flysfo:base_flight_number": "9253",
    "flysfo:date": "2026-08-16",
    "flysfo:estimated_timestamp": 1786908540,
    "flysfo:event": "D",
    "flysfo:flight_number": "VA8049",
    "flysfo:gate": "E9",
    "flysfo:journey": "SFO-LAX",
    "flysfo:scheduled_timestamp": 1786908540,
    "flysfo:timestamp": 1786908540,
    "geom:area": 0,
    "geom:bbox": "-118.389510,0.000000,0.000000,33.942593",
    "geom:latitude": 16.9712965,
    "geom:longitude": -59.194755,
    "iata:airline": "VA",
    "iata:base_airline": "",
    "icao:airline": "VOZ",
    "icao:base_airline": "ANZ",
    "lbl:latitude": 37.619124,
    "lbl:longitude": -122.383949,
    "sfomuseum:airline_id": 1159285485,
    "sfomuseum:arrival_id": 102533795,
    "sfomuseum:base_flight_id": "20260816-D-ANZ-9253",
    "sfomuseum:departure_id": 102527513,
    "sfomuseum:flight_id": "20260816-D-VOZ-8049",
    "sfomuseum:flight_number": [
      "VOZ8049",
      "VA8049"
    ],
    "sfomuseum:placetype": "flight",
    "src:geom": "flysfo",
    "wof:belongsto": [
      1947304067,
      102527513,
      1947304511,
      102191575,
      85633793,
      102087579,
      85922583,
      554784711,
      85688637,
      1947304523,
      1947304447,
      102085387
    ],
    "wof:country": "US",
    "wof:created": 1786983955,
    "wof:geomhash": "0c7e2dddcdfe916df4160f12b59ac25a",
    "wof:hierarchy": [
      {
        "building_id": 1947304067,
        "campus_id": 102527513,
        "concourse_id": 1947304511,
        "continent_id": 102191575,
        "country_id": 85633793,
        "county_id": 102087579,
        "custom_id": 2047998261,
        "flight_id": 2047998261,
        "locality_id": 85922583,
        "postalcode_id": 554784711,
        "region_id": 85688637,
        "venue_id": 1947304523,
        "wing_id": 1947304447
      },
      {
        "building_id": 1947304067,
        "campus_id": 102527513,
        "concourse_id": 1947304511,
        "continent_id": 102191575,
        "country_id": 85633793,
        "county_id": 102085387,
        "custom_id": 2047998261,
        "flight_id": 2047998261,
        "region_id": 85688637,
        "venue_id": 1947304523,
        "wing_id": 1947304447
      }
    ],
    "wof:id": 2047998261,
    "wof:involves": [
      102533795,
      102527513,
      1159285485,
      1947304523,
      1159283697
    ],
    "wof:lastmodified": 1786983955,
    "wof:name": "VA8049 (SFO-LAX)",
    "wof:parent_id": 1947304523,
    "wof:placetype": "custom",
    "wof:placetype_alt": [
      "flight"
    ],
    "wof:repo": "sfomuseum-data-flights-2026-08",
    "wof:superseded_by": [],
    "wof:supersedes": []
  },
  "bbox": [
    -118.38951,
    0,
    0,
    33.942593
  ],
  "geometry": {"type":"MultiPoint","coordinates":[[0,0],[-118.38951,33.942593]]}
}
