{
  "id": 2047993153,
  "type": "Feature",
  "properties": {
    "date:cessation_lower": "2026-08-16",
    "date:cessation_upper": "2026-08-16",
    "date:inception_lower": "1970-01-01",
    "date:inception_upper": "1970-01-01",
    "edtf:cessation": "2026-08-16T06:23:18-07:00",
    "edtf:inception": "1970-01-01T00:00:00Z",
    "flysfo:actual_timestamp": -1,
    "flysfo:airline": "UA",
    "flysfo:base_airline": "",
    "flysfo:base_flight_number": "4450",
    "flysfo:date": "2026-08-16",
    "flysfo:estimated_timestamp": 1786912320,
    "flysfo:event": "A",
    "flysfo:flight_number": "UA2309",
    "flysfo:gate": "F16",
    "flysfo:journey": "SAN-SFO",
    "flysfo:scheduled_timestamp": 1786910760,
    "flysfo:timestamp": 1786912320,
    "geom:area": 0,
    "geom:bbox": "-117.185927,0.000000,0.000000,32.733534",
    "geom:latitude": 16.366767,
    "geom:longitude": -58.5929635,
    "iata:airline": "UA",
    "iata:base_airline": "",
    "icao:aircraft": "B738",
    "icao:airline": "UAL",
    "icao:base_airline": "ACA",
    "lbl:latitude": 37.620533,
    "lbl:longitude": -122.389374,
    "sfomuseum:aircraft_id": 1159289871,
    "sfomuseum:airline_id": 1159285413,
    "sfomuseum:arrival_id": 102527513,
    "sfomuseum:base_flight_id": "20260816-A-ACA-4450",
    "sfomuseum:departure_id": 102528997,
    "sfomuseum:flight_id": "20260816-A-UAL-2309",
    "sfomuseum:flight_number": [
      "UAL2309",
      "UA2309"
    ],
    "sfomuseum:placetype": "flight",
    "src:geom": "flysfo",
    "src:geom_alt": [
      "swim-approach"
    ],
    "swim:tail_number": "N33289",
    "wof:belongsto": [
      1947304067,
      102527513,
      1947304451,
      102191575,
      85633793,
      102087579,
      85922583,
      554784711,
      85688637,
      1947304457,
      1947304447,
      102085387
    ],
    "wof:country": "US",
    "wof:created": 1786983360,
    "wof:geomhash": "51cc918e7f749c74c277866ead062874",
    "wof:hierarchy": [
      {
        "building_id": 1947304067,
        "campus_id": 102527513,
        "concourse_id": 1947304451,
        "continent_id": 102191575,
        "country_id": 85633793,
        "county_id": 102087579,
        "custom_id": 2047993153,
        "flight_id": 2047993153,
        "locality_id": 85922583,
        "postalcode_id": 554784711,
        "region_id": 85688637,
        "venue_id": 1947304457,
        "wing_id": 1947304447
      },
      {
        "building_id": 1947304067,
        "campus_id": 102527513,
        "concourse_id": 1947304451,
        "continent_id": 102191575,
        "country_id": 85633793,
        "county_id": 102085387,
        "custom_id": 2047993153,
        "flight_id": 2047993153,
        "region_id": 85688637,
        "venue_id": 1947304457,
        "wing_id": 1947304447
      }
    ],
    "wof:id": 2047993153,
    "wof:involves": [
      102527513,
      102528997,
      1159285413,
      1947304457,
      1159283597,
      1159289871
    ],
    "wof:lastmodified": 1786984051,
    "wof:name": "UA2309 (SAN-SFO)",
    "wof:parent_id": 1947304457,
    "wof:placetype": "custom",
    "wof:placetype_alt": [
      "flight"
    ],
    "wof:repo": "sfomuseum-data-flights-2026-08",
    "wof:superseded_by": [],
    "wof:supersedes": []
  },
  "bbox": [
    -117.185927,
    0,
    0,
    32.733534
  ],
  "geometry": {"type":"MultiPoint","coordinates":[[-117.185927,32.733534],[0,0]]}
}
