{
  "id": 2047885895,
  "type": "Feature",
  "properties": {
    "geom:area": 0,
    "geom:bbox": "-122.517500,37.616667,-97.638333,48.710278",
    "geom:latitude": 44.037247088623616,
    "geom:longitude": -110.55257691805534,
    "src:alt_label": "swim-path",
    "src:geom": "swim",
    "swim:altitudes": [
      "007",
      "022",
      "031",
      "032",
      "072",
      "092",
      "115",
      "138",
      "161",
      "181",
      "206",
      "227",
      "246",
      "265",
      "284",
      "301",
      "317",
      "336",
      "350",
      "350",
      "350",
      "350",
      "358",
      "370C",
      "370C",
      "370C",
      "370C",
      "370C",
      "370C",
      "370C",
      "370C",
      "370C",
      "370C",
      "370C",
      "370C",
      "370C",
      "370C",
      "370C",
      "370C",
      "370C",
      "370C",
      "370C",
      "370C",
      "370C",
      "370C",
      "370C",
      "370C",
      "370C",
      "370C",
      "370C",
      "370C",
      "370C",
      "370C",
      "370C",
      "370C",
      "370C",
      "370C",
      "370C",
      "370C",
      "370C",
      "370C",
      "370C",
      "370C",
      "370C",
      "370C",
      "370C",
      "370C",
      "370C",
      "370C",
      "370C",
      "370C",
      "370C",
      "370C",
      "370C",
      "370C",
      "370C",
      "370C",
      "370C",
      "370C",
      "370C",
      "370C",
      "370C",
      "370C",
      "370C",
      "370C",
      "370C",
      "370C",
      "370C",
      "370C",
      "370C",
      "370C",
      "370C",
      "370C",
      "370C",
      "370C",
      "370C",
      "370C",
      "370C",
      "370C",
      "370C",
      "370C",
      "370C",
      "370C",
      "370C",
      "370C",
      "370C",
      "370C",
      "370C",
      "370C",
      "370C",
      "370C",
      "370C",
      "370C",
      "370C",
      "370C",
      "370C",
      "370C",
      "370C",
      "370C",
      "370C",
      "370C",
      "370C",
      "370C",
      "370C",
      "370C",
      "370C",
      "370C",
      "370C",
      "370C",
      "370C",
      "370C",
      "370C",
      "370C",
      "370C",
      "370C",
      "370C",
      "370C",
      "370C",
      "370C",
      "370C",
      "370C",
      "370C",
      "370C",
      "370C",
      "370C",
      "370C",
      "370C",
      "370C",
      "370C",
      "370C",
      "370C",
      "370C",
      "370C",
      "370C",
      "370C",
      "370C",
      "370C",
      "370C",
      "370C",
      "370C",
      "370C"
    ],
    "swim:geom": "path",
    "swim:speeds": [
      164,
      178,
      196,
      230,
      282,
      290,
      299,
      323,
      363,
      400,
      418,
      434,
      451,
      470,
      481,
      496,
      509,
      515,
      511,
      511,
      511,
      514,
      514,
      515,
      514,
      514,
      513,
      512,
      512,
      517,
      514,
      514,
      513,
      513,
      513,
      513,
      513,
      514,
      514,
      515,
      515,
      515,
      517,
      519,
      520,
      520,
      521,
      522,
      523,
      524,
      524,
      525,
      524,
      525,
      525,
      525,
      524,
      525,
      526,
      527,
      528,
      529,
      529,
      530,
      531,
      531,
      531,
      531,
      530,
      531,
      531,
      531,
      531,
      531,
      532,
      532,
      533,
      533,
      533,
      533,
      532,
      528,
      524,
      521,
      520,
      518,
      518,
      518,
      518,
      520,
      520,
      520,
      519,
      520,
      516,
      516,
      516,
      515,
      515,
      515,
      514,
      514,
      513,
      514,
      516,
      518,
      519,
      520,
      522,
      523,
      523,
      523,
      523,
      524,
      524,
      524,
      523,
      524,
      524,
      526,
      525,
      526,
      526,
      526,
      526,
      527,
      528,
      529,
      529,
      531,
      531,
      531,
      532,
      532,
      532,
      533,
      533,
      532,
      531,
      531,
      529,
      528,
      527,
      527,
      528,
      529,
      529,
      530,
      531,
      531,
      532,
      533,
      534,
      535,
      536,
      537,
      537,
      538,
      540,
      541,
      543
    ],
    "swim:timestamps": [
      1786226805,
      1786226847,
      1786226877,
      1786226907,
      1786227027,
      1786227087,
      1786227147,
      1786227207,
      1786227267,
      1786227327,
      1786227388,
      1786227448,
      1786227508,
      1786227568,
      1786227628,
      1786227688,
      1786227748,
      1786227808,
      1786227864,
      1786227924,
      1786227984,
      1786228045,
      1786228105,
      1786228165,
      1786228225,
      1786228285,
      1786228345,
      1786228405,
      1786228465,
      1786228525,
      1786228585,
      1786228645,
      1786228709,
      1786228766,
      1786228826,
      1786228890,
      1786228950,
      1786229006,
      1786229070,
      1786229126,
      1786229186,
      1786229250,
      1786229310,
      1786229366,
      1786229426,
      1786229487,
      1786229547,
      1786229607,
      1786229667,
      1786229727,
      1786229787,
      1786229847,
      1786229907,
      1786229967,
      1786230027,
      1786230087,
      1786230147,
      1786230268,
      1786230328,
      1786230388,
      1786230448,
      1786230508,
      1786230568,
      1786230628,
      1786230688,
      1786230748,
      1786230808,
      1786230868,
      1786230928,
      1786230989,
      1786231049,
      1786231109,
      1786231169,
      1786231229,
      1786231289,
      1786231349,
      1786231409,
      1786231529,
      1786231589,
      1786231649,
      1786231710,
      1786231770,
      1786231830,
      1786231890,
      1786231950,
      1786232010,
      1786232070,
      1786232130,
      1786232190,
      1786232310,
      1786232370,
      1786232431,
      1786232491,
      1786232551,
      1786232611,
      1786232671,
      1786232731,
      1786232791,
      1786232851,
      1786232911,
      1786232971,
      1786233031,
      1786233091,
      1786233152,
      1786233212,
      1786233272,
      1786233332,
      1786233392,
      1786233452,
      1786233512,
      1786233572,
      1786233632,
      1786233692,
      1786233752,
      1786233812,
      1786233872,
      1786233894,
      1786233933,
      1786233954,
      1786233993,
      1786234014,
      1786234053,
      1786234074,
      1786234113,
      1786234134,
      1786234173,
      1786234194,
      1786234233,
      1786234254,
      1786234293,
      1786234314,
      1786234353,
      1786234374,
      1786234413,
      1786234435,
      1786234473,
      1786234533,
      1786234555,
      1786234593,
      1786234615,
      1786234654,
      1786234675,
      1786234735,
      1786234795,
      1786234855,
      1786234915,
      1786234975,
      1786235035,
      1786235095,
      1786235156,
      1786235216,
      1786235276,
      1786235336,
      1786235396,
      1786235516,
      1786235576,
      1786235636,
      1786235696,
      1786235756,
      1786235816,
      1786235876
    ],
    "wof:geomhash": "19f0c4f79f965dfc1125a3730c013dfe",
    "wof:id": 2047885895,
    "wof:repo": "sfomuseum-data-flights-2026-08"
  },
  "bbox": [
    -122.5175,
    37.61666666666667,
    -97.63833333333334,
    48.71027777777778
  ],
  "geometry": {"type":"LineString","coordinates":[[-122.38333333333334,37.61666666666667],[-122.4238888888889,37.63944444444444],[-122.45,37.65],[-122.48694444444445,37.666666666666664],[-122.5175,37.80166666666666],[-122.43111111111112,37.84111111111111],[-122.34944444444444,37.89611111111111],[-122.26694444444445,37.95388888888889],[-122.17111111111112,38.019999999999996],[-122.07027777777778,38.08972222222222],[-121.95833333333334,38.16638888888889],[-121.84333333333333,38.24527777777778],[-121.73583333333333,38.31861111111112],[-121.61055555555555,38.40361111111111],[-121.47638888888889,38.488055555555555],[-121.3325,38.572500000000005],[-121.18083333333334,38.66138888888889],[-121.0325,38.74805555555556],[-120.89305555555556,38.825],[-120.74722222222222,38.91027777777778],[-120.59944444444444,38.99527777777778],[-120.45083333333334,39.080000000000005],[-120.30222222222221,39.16555555555556],[-120.15361111111112,39.25055555555556],[-120.00555555555556,39.33444444444444],[-119.85722222222222,39.41833333333333],[-119.7088888888889,39.501666666666665],[-119.56444444444445,39.59027777777778],[-119.42361111111111,39.68388888888889],[-119.2825,39.77638888888889],[-119.13972222222223,39.86944444444445],[-118.99638888888889,39.96222222222222],[-118.84944444444444,40.056666666666665],[-118.71027777777778,40.14611111111111],[-118.5675,40.23722222222222],[-118.41972222222223,40.331388888888895],[-118.27666666666667,40.42194444444444],[-118.13472222222222,40.51111111111111],[-117.98666666666666,40.60416666666667],[-117.84388888888888,40.69305555555555],[-117.69694444444445,40.78444444444444],[-117.54833333333333,40.876111111111115],[-117.39916666666667,40.96805555555556],[-117.25055555555555,41.05916666666666],[-117.10138888888888,41.15],[-116.95083333333334,41.24111111111111],[-116.79888888888888,41.33277777777778],[-116.64750000000001,41.42361111111111],[-116.49555555555555,41.51416666666667],[-116.34277777777777,41.605000000000004],[-116.19055555555556,41.69499999999999],[-116.03583333333333,41.78611111111111],[-115.88361111111112,41.875277777777775],[-115.72972222222222,41.964444444444446],[-115.5736111111111,42.055],[-115.42305555555556,42.141666666666666],[-115.26833333333333,42.230555555555554],[-114.95722222222223,42.4075],[-114.81166666666667,42.48972222222222],[-114.65416666666667,42.57805555555556],[-114.495,42.66694444444444],[-114.335,42.755833333333335],[-114.17500000000001,42.84444444444445],[-114.015,42.93222222222222],[-113.8325,43.03194444444444],[-113.6725,43.119166666666665],[-113.50972222222222,43.206944444444446],[-113.3461111111111,43.29472222222222],[-113.18444444444445,43.38111111111111],[-113.02083333333333,43.468333333333334],[-112.85666666666665,43.555],[-112.69250000000001,43.64138888888889],[-112.52694444444444,43.72777777777778],[-112.3611111111111,43.814166666666665],[-112.19694444444445,43.89888888888889],[-112.03055555555555,43.98444444444444],[-111.8625,44.07083333333334],[-111.53111111111112,44.240833333333335],[-111.36138888888888,44.32694444444445],[-111.19833333333334,44.409166666666664],[-111.03055555555555,44.49333333333333],[-110.86527777777778,44.575833333333335],[-110.7,44.657777777777774],[-110.53472222222221,44.739444444444445],[-110.36694444444444,44.82166666666667],[-110.20138888888889,44.902499999999996],[-110.035,44.9825],[-109.85749999999999,45.05222222222222],[-109.65944444444445,45.124722222222225],[-109.29333333333334,45.25666666666667],[-109.1086111111111,45.32277777777778],[-108.9238888888889,45.388333333333335],[-108.74305555555556,45.452222222222225],[-108.55555555555556,45.51777777777777],[-108.37249999999999,45.581388888888895],[-108.18805555555556,45.644999999999996],[-108.00361111111111,45.708333333333336],[-107.82138888888889,45.77055555555555],[-107.63472222222222,45.83361111111111],[-107.45111111111112,45.89527777777778],[-107.26416666666667,45.9575],[-107.11666666666666,46.006388888888885],[-106.93416666666667,46.06666666666667],[-106.74555555555555,46.12833333333333],[-106.55638888888889,46.189722222222215],[-106.36777777777777,46.250277777777775],[-106.18027777777779,46.31027777777778],[-105.98972222222223,46.37083333333334],[-105.79972222222221,46.4325],[-105.60805555555555,46.495555555555555],[-105.38027777777778,46.56944444444445],[-105.20583333333333,46.62555555555556],[-105.01416666666667,46.68666666666666],[-104.82472222222222,46.74666666666667],[-104.63166666666666,46.8075],[-104.44027777777778,46.867222222222225],[-104.36555555555555,46.890277777777776],[-104.24722222222222,46.926944444444445],[-104.17333333333333,46.95],[-104.05111111111111,46.987500000000004],[-103.98027777777779,47.00888888888889],[-103.85666666666665,47.04666666666667],[-103.78388888888888,47.06888888888889],[-103.66166666666668,47.10583333333334],[-103.59027777777777,47.12722222222222],[-103.46888888888888,47.16361111111111],[-103.39111111111112,47.18694444444444],[-103.27083333333333,47.22277777777778],[-103.19194444444445,47.24611111111111],[-103.07416666666666,47.280833333333334],[-102.99416666666667,47.30416666666667],[-102.87527777777777,47.33916666666667],[-102.79333333333334,47.363055555555555],[-102.67722222222223,47.39694444444444],[-102.59194444444444,47.421388888888885],[-102.47333333333333,47.455555555555556],[-102.27527777777777,47.51222222222222],[-102.18944444444445,47.53666666666666],[-102.07527777777777,47.56916666666667],[-101.99083333333333,47.59277777777778],[-101.87472222222222,47.62555555555556],[-101.79027777777777,47.649166666666666],[-101.59083333333332,47.70444444444445],[-101.3913888888889,47.75944444444445],[-101.18833333333333,47.815],[-100.99166666666667,47.86833333333333],[-100.78583333333333,47.92388888888889],[-100.58277777777778,47.97777777777778],[-100.37694444444443,48.032222222222224],[-100.17111111111112,48.086111111111116],[-99.96416666666667,48.13972222222222],[-99.75611111111111,48.19305555555555],[-99.54861111111111,48.24611111111111],[-99.33833333333332,48.299166666666665],[-98.92083333333333,48.403055555555554],[-98.70694444444445,48.455555555555556],[-98.49638888888889,48.50666666666667],[-98.28194444444445,48.55833333333333],[-98.07055555555556,48.60861111111111],[-97.85694444444444,48.659166666666664],[-97.63833333333334,48.71027777777778]]}
}
