{
  "id": 2032090645,
  "type": "Feature",
  "properties": {
    "geom:area": 0,
    "geom:bbox": "-122.544167,33.950000,-118.166667,37.664722",
    "geom:latitude": 35.685255885794,
    "geom:longitude": -120.32362849879796,
    "src:alt_label": "swim-path",
    "src:geom": "swim",
    "swim:altitudes": [
      "035",
      "045",
      "065",
      "086",
      "105",
      "115",
      "132",
      "154",
      "194",
      "211",
      "227",
      "255",
      "267",
      "281",
      "294",
      "304",
      "315",
      "324",
      "330C",
      "330C",
      "330C",
      "330C",
      "330C",
      "330",
      "330",
      "312",
      "291",
      "271",
      "251",
      "230",
      "214",
      "213",
      "173",
      "156",
      "131",
      "124",
      "119",
      "108",
      "097",
      "085",
      "081",
      "076",
      "071",
      "060",
      "056",
      "046",
      "042",
      "032",
      "030",
      "030",
      "030",
      "030",
      "026",
      "023",
      "018",
      "015",
      "010",
      "008",
      "001"
    ],
    "swim:geom": "path",
    "swim:speeds": [
      191,
      253,
      276,
      291,
      303,
      332,
      379,
      387,
      406,
      420,
      423,
      450,
      455,
      467,
      481,
      479,
      476,
      480,
      481,
      481,
      480,
      479,
      478,
      459,
      457,
      450,
      436,
      424,
      414,
      406,
      395,
      399,
      380,
      364,
      353,
      337,
      328,
      320,
      297,
      296,
      278,
      261,
      257,
      253,
      246,
      243,
      233,
      236,
      229,
      197,
      195,
      193,
      194,
      197,
      177,
      152,
      146,
      143,
      140
    ],
    "swim:timestamps": [
      1785795486,
      1785795546,
      1785795606,
      1785795666,
      1785795726,
      1785795787,
      1785795846,
      1785795907,
      1785796027,
      1785796087,
      1785796148,
      1785796267,
      1785796328,
      1785796387,
      1785796448,
      1785796508,
      1785796567,
      1785796629,
      1785796689,
      1785796749,
      1785796868,
      1785796928,
      1785797048,
      1785797168,
      1785797228,
      1785797350,
      1785797409,
      1785797470,
      1785797530,
      1785797589,
      1785797639,
      1785797650,
      1785797770,
      1785797830,
      1785797898,
      1785797951,
      1785797959,
      1785798011,
      1785798071,
      1785798131,
      1785798138,
      1785798191,
      1785798199,
      1785798251,
      1785798259,
      1785798311,
      1785798319,
      1785798371,
      1785798379,
      1785798439,
      1785798491,
      1785798499,
      1785798552,
      1785798559,
      1785798612,
      1785798619,
      1785798672,
      1785798679,
      1785798732
    ],
    "wof:geomhash": "40e5652ba60e6eff70c81d57d2733349",
    "wof:id": 2032090645,
    "wof:repo": "sfomuseum-data-flights-2026-08"
  },
  "bbox": [
    -122.54416666666667,
    33.95,
    -118.16666666666667,
    37.664722222222224
  ],
  "geometry": {"type":"LineString","coordinates":[[-122.4786111111111,37.664722222222224],[-122.54416666666667,37.64472222222222],[-122.52305555555556,37.57166666666667],[-122.5436111111111,37.49194444444444],[-122.49666666666667,37.425],[-122.4113888888889,37.37111111111111],[-122.30305555555556,37.3],[-122.19972222222222,37.22805555555556],[-121.9875,37.08277777777778],[-121.87805555555555,37.00666666666667],[-121.77416666666666,36.93055555555555],[-121.53333333333333,36.76555555555556],[-121.4225,36.68333333333333],[-121.29027777777777,36.594166666666666],[-121.16055555555556,36.50222222222222],[-121.04861111111111,36.42222222222222],[-120.92055555555557,36.333333333333336],[-120.79861111111111,36.24805555555556],[-120.68416666666667,36.15],[-120.58111111111111,36.0475],[-120.36916666666666,35.837500000000006],[-120.26472222222222,35.73361111111111],[-120.05749999999999,35.525],[-119.8561111111111,35.32083333333334],[-119.75916666666667,35.22],[-119.57638888888889,35.02305555555555],[-119.48388888888888,34.92305555555555],[-119.40055555555556,34.830555555555556],[-119.3175,34.737500000000004],[-119.23694444444445,34.644444444444446],[-119.16666666666667,34.56666666666667],[-119.17,34.5675],[-119.01694444444445,34.39333333333333],[-118.94555555555556,34.311388888888885],[-118.85,34.21666666666667],[-118.8025,34.157222222222224],[-118.78333333333333,34.13333333333333],[-118.72916666666667,34.09],[-118.6575,34.03111111111111],[-118.56027777777777,34.01972222222222],[-118.53333333333333,34.016666666666666],[-118.47,34.01138888888889],[-118.45,34.016666666666666],[-118.38666666666667,34.022777777777776],[-118.36666666666666,34.03333333333333],[-118.30638888888889,34.0325],[-118.28333333333333,34.03333333333333],[-118.2286111111111,34.040277777777774],[-118.2,34.05],[-118.16666666666667,34.016666666666666],[-118.1825,33.98444444444444],[-118.2,33.983333333333334],[-118.24222222222222,33.968333333333334],[-118.26666666666667,33.96666666666667],[-118.30388888888889,33.96194444444445],[-118.31666666666666,33.96666666666667],[-118.35305555555556,33.956944444444446],[-118.36666666666666,33.95],[-118.4075,33.95166666666667]]}
}
