{
  "id": 2047913129,
  "type": "Feature",
  "properties": {
    "geom:area": 0,
    "geom:bbox": "-122.356330,37.460480,-121.252570,37.613160",
    "geom:latitude": 37.533125070496105,
    "geom:longitude": -121.81217199556998,
    "src:alt_label": "swim-approach",
    "src:geom": "swim",
    "swim:elevations": [
      4841,
      4789,
      4611,
      4095,
      3908,
      3854,
      3589,
      3413,
      3353,
      3118,
      2850,
      2660,
      2440,
      2278,
      2133,
      2134,
      2134,
      1925,
      1888,
      1829,
      1635,
      1466,
      1463,
      1198,
      1089,
      1003,
      901,
      823,
      573,
      441,
      398,
      282,
      190,
      150,
      73,
      38
    ],
    "swim:geom": "approach",
    "swim:timestamps": [
      1786403212,
      1786403230,
      1786403251,
      1786403306,
      1786403335,
      1786403342,
      1786403385,
      1786403414,
      1786403447,
      1786403474,
      1786403516,
      1786403539,
      1786403568,
      1786403591,
      1786403626,
      1786403642,
      1786403678,
      1786403719,
      1786403725,
      1786403750,
      1786403787,
      1786403813,
      1786403828,
      1786403867,
      1786403897,
      1786403912,
      1786403931,
      1786403949,
      1786403995,
      1786404027,
      1786404033,
      1786404058,
      1786404085,
      1786404094,
      1786404116,
      1786404125
    ],
    "wof:geomhash": "17668581a95231f09c6512389b484a74",
    "wof:id": 2047913129,
    "wof:repo": "sfomuseum-data-flights-2026-08"
  },
  "bbox": [
    -122.35633,
    37.46048,
    -121.25257,
    37.61316
  ],
  "geometry": {"type":"LineString","coordinates":[[-121.25257,37.59418],[-121.28236,37.59015],[-121.31535,37.58635],[-121.39994,37.57711],[-121.44248,37.57216],[-121.45338,37.5709],[-121.51779,37.56324],[-121.56019,37.5584],[-121.60707,37.55279],[-121.64426,37.54606],[-121.70145,37.53255],[-121.73013,37.52372],[-121.75526,37.49803],[-121.77283,37.4786],[-121.81818,37.46916],[-121.83941,37.46802],[-121.88934,37.4656],[-121.94381,37.46247],[-121.95179,37.46192],[-121.98493,37.46048],[-122.03134,37.47591],[-122.06179,37.48885],[-122.07866,37.49616],[-122.12092,37.51402],[-122.15174,37.52701],[-122.16684,37.53339],[-122.18631,37.54156],[-122.20411,37.5493],[-122.25027,37.56854],[-122.2792,37.58086],[-122.28424,37.58304],[-122.30447,37.59144],[-122.32589,37.60034],[-122.33286,37.60332],[-122.3495,37.61035],[-122.35633,37.61316]]}
}
