{
  "id": 2032113767,
  "type": "Feature",
  "properties": {
    "geom:area": 0,
    "geom:bbox": "-122.509520,36.785340,-121.906380,37.613020",
    "geom:latitude": 37.267518212317114,
    "geom:longitude": -122.20813763466056,
    "src:alt_label": "swim-approach",
    "src:geom": "swim",
    "swim:elevations": [
      5055,
      5011,
      4726,
      4088,
      3925,
      3742,
      3584,
      3429,
      3292,
      3231,
      3048,
      3048,
      3048,
      3018,
      2712,
      2686,
      2676,
      2508,
      2437,
      2438,
      2438,
      2439,
      2436,
      2107,
      2034,
      1830,
      1829,
      1829,
      1829,
      1829,
      1788,
      1640,
      1484,
      1315,
      1221,
      1219,
      1219,
      1040,
      859,
      820,
      802,
      681,
      524,
      427,
      333,
      246,
      120,
      182
    ],
    "swim:geom": "approach",
    "swim:timestamps": [
      1785933055,
      1785933060,
      1785933096,
      1785933173,
      1785933190,
      1785933227,
      1785933265,
      1785933296,
      1785933321,
      1785933330,
      1785933417,
      1785933447,
      1785933452,
      1785933461,
      1785933534,
      1785933542,
      1785933545,
      1785933580,
      1785933597,
      1785933654,
      1785933666,
      1785933717,
      1785933721,
      1785933778,
      1785933792,
      1785933837,
      1785933844,
      1785933895,
      1785933902,
      1785933957,
      1785933987,
      1785934016,
      1785934041,
      1785934069,
      1785934101,
      1785934136,
      1785934163,
      1785934193,
      1785934223,
      1785934235,
      1785934239,
      1785934261,
      1785934293,
      1785934313,
      1785934335,
      1785934361,
      1785934395,
      1785934427
    ],
    "wof:geomhash": "7004c09a7122442e5bcf3a1c19b7c4fe",
    "wof:id": 2032113767,
    "wof:repo": "sfomuseum-data-flights-2026-08"
  },
  "bbox": [
    -122.50952,
    36.78534,
    -121.90638,
    37.61302
  ],
  "geometry": {"type":"LineString","coordinates":[[-121.90638,36.78534],[-121.90852,36.79337],[-121.92395,36.84821],[-121.95774,36.96405],[-121.96757,36.98916],[-121.98854,37.04272],[-122.00791,37.09292],[-122.02278,37.13068],[-122.04603,37.15522],[-122.05689,37.15964],[-122.17688,37.19031],[-122.22011,37.19867],[-122.22694,37.19856],[-122.23964,37.19808],[-122.34181,37.19481],[-122.35386,37.19441],[-122.35807,37.19427],[-122.40602,37.19253],[-122.43079,37.19148],[-122.48855,37.22404],[-122.49301,37.23791],[-122.50952,37.29586],[-122.50878,37.30059],[-122.44381,37.33131],[-122.42455,37.33346],[-122.36634,37.34698],[-122.36006,37.3538],[-122.33117,37.40675],[-122.32736,37.41396],[-122.2693,37.43985],[-122.23075,37.42938],[-122.1923,37.42322],[-122.15924,37.41808],[-122.12218,37.41851],[-122.09157,37.44325],[-122.09273,37.48068],[-122.10869,37.50753],[-122.14596,37.52176],[-122.18291,37.53804],[-122.1963,37.54368],[-122.20014,37.54528],[-122.2241,37.55537],[-122.25613,37.56871],[-122.27401,37.57621],[-122.29216,37.58397],[-122.31228,37.59231],[-122.33766,37.60307],[-122.36082,37.61302]]}
}
