{
  "id": 2047996003,
  "type": "Feature",
  "properties": {
    "date:cessation_lower": "1970-01-01",
    "date:cessation_upper": "1970-01-01",
    "date:inception_lower": "2026-08-17",
    "date:inception_upper": "2026-08-17",
    "edtf:cessation": "1970-01-01T00:00:00Z",
    "edtf:inception": "2026-08-16T23:14:56-07:00",
    "flysfo:actual_timestamp": -1,
    "flysfo:airline": "DL",
    "flysfo:base_airline": "",
    "flysfo:base_flight_number": "4208",
    "flysfo:date": "2026-08-16",
    "flysfo:estimated_timestamp": 1786884300,
    "flysfo:event": "D",
    "flysfo:flight_number": "DL1331",
    "flysfo:gate": "D5",
    "flysfo:journey": "SFO-SLC",
    "flysfo:scheduled_timestamp": 1786884600,
    "flysfo:timestamp": 1786884600,
    "geom:area": 0,
    "geom:bbox": "0.000000,0.000000,0.000000,0.000000",
    "geom:latitude": 0,
    "geom:longitude": 0,
    "iata:airline": "DL",
    "iata:base_airline": "",
    "icao:aircraft": "A321",
    "icao:airline": "DAL",
    "icao:base_airline": "AMX",
    "lbl:latitude": 37.616825,
    "lbl:longitude": -122.381021,
    "sfomuseum:aircraft_id": 1159289411,
    "sfomuseum:airline_id": 1159284261,
    "sfomuseum:arrival_id": 102527363,
    "sfomuseum:base_flight_id": "20260816-D-AMX-4208",
    "sfomuseum:departure_id": 102527513,
    "sfomuseum:flight_id": "20260816-D-DAL-1331",
    "sfomuseum:flight_number": [
      "DAL1331",
      "DL1331"
    ],
    "sfomuseum:placetype": "flight",
    "src:geom": "flysfo",
    "src:geom_alt": [
      "swim-takeoff"
    ],
    "swim:tail_number": "N390DN",
    "wof:belongsto": [
      1947304067,
      102527513,
      1947304595,
      102191575,
      85633793,
      102087579,
      85922583,
      554784711,
      85688637,
      1947304607,
      1947304591,
      102085387
    ],
    "wof:country": "US",
    "wof:created": 1786983700,
    "wof:geomhash": "58fe0ac52aab9ea6af40709b179f7a28",
    "wof:hierarchy": [
      {
        "building_id": 1947304067,
        "campus_id": 102527513,
        "concourse_id": 1947304595,
        "continent_id": 102191575,
        "country_id": 85633793,
        "county_id": 102087579,
        "custom_id": 2047996003,
        "flight_id": 2047996003,
        "locality_id": 85922583,
        "postalcode_id": 554784711,
        "region_id": 85688637,
        "venue_id": 1947304607,
        "wing_id": 1947304591
      },
      {
        "building_id": 1947304067,
        "campus_id": 102527513,
        "concourse_id": 1947304595,
        "continent_id": 102191575,
        "country_id": 85633793,
        "county_id": 102085387,
        "custom_id": 2047996003,
        "flight_id": 2047996003,
        "region_id": 85688637,
        "venue_id": 1947304607,
        "wing_id": 1947304591
      }
    ],
    "wof:id": 2047996003,
    "wof:involves": [
      1947304607,
      1159283539,
      1159289411,
      102527363,
      102527513,
      1159284261
    ],
    "wof:lastmodified": 1786984072,
    "wof:name": "DL1331 (SFO-SLC)",
    "wof:parent_id": 1947304607,
    "wof:placetype": "custom",
    "wof:placetype_alt": [
      "flight"
    ],
    "wof:repo": "sfomuseum-data-flights-2026-08",
    "wof:superseded_by": [],
    "wof:supersedes": []
  },
  "bbox": [
    0,
    0,
    0,
    0
  ],
  "geometry": {"type":"MultiPoint","coordinates":[[0,0],[0,0]]}
}
