{
  "id": 2047913119,
  "type": "Feature",
  "properties": {
    "geom:area": 0,
    "geom:bbox": "-123.508889,37.411389,-122.128611,49.192500",
    "geom:latitude": 43.08428589224332,
    "geom:longitude": -123.15809708601675,
    "src:alt_label": "swim-path",
    "src:geom": "swim",
    "swim:altitudes": [
      "021",
      "047",
      "075",
      "103",
      "120",
      "144",
      "168",
      "187",
      "206",
      "222",
      "239",
      "255",
      "268",
      "278",
      "290",
      "301",
      "311",
      "321",
      "330",
      "340",
      "349C",
      "350C",
      "350C",
      "350C",
      "350C",
      "350C",
      "350C",
      "350C",
      "350C",
      "350C",
      "350C",
      "350C",
      "350C",
      "350C",
      "350C",
      "350C",
      "350C",
      "350C",
      "350C",
      "350C",
      "350C",
      "350C",
      "350C",
      "350C",
      "350C",
      "350C",
      "350C",
      "350C",
      "350C",
      "350C",
      "350C",
      "350C",
      "350C",
      "350C",
      "350C",
      "350C",
      "350C",
      "350C",
      "350C",
      "350C",
      "350C",
      "350C",
      "350C",
      "350C",
      "350C",
      "350C",
      "350C",
      "350C",
      "350C",
      "350C",
      "350C",
      "350C",
      "350C",
      "350C",
      "350C",
      "350C",
      "350C",
      "350C",
      "350C",
      "350C",
      "350C",
      "350C",
      "350C",
      "350C",
      "350C",
      "350C",
      "350C",
      "350C",
      "350C",
      "350C",
      "350C",
      "350C",
      "350C",
      "350C",
      "350C",
      "350C",
      "350C",
      "350C",
      "350C",
      "350C",
      "350C",
      "350C",
      "350C",
      "350C",
      "350C",
      "350C",
      "350C",
      "350C",
      "350",
      "350",
      "350",
      "350",
      "350",
      "350",
      "346",
      "313",
      "290",
      "268",
      "246",
      "224",
      "202",
      "180",
      "160",
      "151",
      "142",
      "135",
      "125",
      "112",
      "110",
      "110",
      "110",
      "110",
      "110",
      "111",
      "087",
      "082",
      "072",
      "042",
      "038",
      "036",
      "034",
      "010",
      "002"
    ],
    "swim:geom": "path",
    "swim:speeds": [
      242,
      252,
      272,
      282,
      340,
      355,
      364,
      375,
      388,
      400,
      410,
      414,
      424,
      432,
      436,
      440,
      446,
      449,
      451,
      452,
      452,
      452,
      452,
      452,
      451,
      451,
      449,
      448,
      448,
      448,
      448,
      449,
      449,
      450,
      451,
      452,
      453,
      453,
      452,
      452,
      452,
      451,
      450,
      449,
      449,
      448,
      447,
      446,
      445,
      444,
      443,
      441,
      440,
      440,
      440,
      440,
      441,
      441,
      442,
      441,
      443,
      441,
      443,
      442,
      443,
      442,
      446,
      443,
      447,
      443,
      445,
      443,
      444,
      442,
      443,
      442,
      442,
      443,
      444,
      444,
      444,
      445,
      446,
      446,
      447,
      447,
      446,
      446,
      445,
      445,
      444,
      444,
      443,
      442,
      441,
      440,
      438,
      437,
      436,
      435,
      434,
      433,
      432,
      431,
      431,
      431,
      431,
      431,
      431,
      432,
      432,
      432,
      432,
      430,
      429,
      438,
      442,
      430,
      419,
      408,
      399,
      386,
      380,
      371,
      364,
      353,
      354,
      327,
      304,
      300,
      274,
      256,
      247,
      248,
      244,
      242,
      241,
      234,
      221,
      197,
      191,
      174,
      157
    ],
    "swim:timestamps": [
      1786401680,
      1786401741,
      1786401801,
      1786401861,
      1786401921,
      1786401981,
      1786402041,
      1786402101,
      1786402161,
      1786402221,
      1786402281,
      1786402341,
      1786402401,
      1786402461,
      1786402522,
      1786402582,
      1786402642,
      1786402702,
      1786402762,
      1786402822,
      1786402882,
      1786402942,
      1786403002,
      1786403062,
      1786403122,
      1786403182,
      1786403242,
      1786403303,
      1786403363,
      1786403423,
      1786403483,
      1786403543,
      1786403603,
      1786403663,
      1786403723,
      1786403783,
      1786403843,
      1786403903,
      1786403963,
      1786404023,
      1786404083,
      1786404144,
      1786404204,
      1786404264,
      1786404324,
      1786404384,
      1786404444,
      1786404504,
      1786404564,
      1786404624,
      1786404684,
      1786404744,
      1786404765,
      1786404804,
      1786404825,
      1786404864,
      1786404885,
      1786404924,
      1786404945,
      1786404985,
      1786405005,
      1786405045,
      1786405065,
      1786405105,
      1786405125,
      1786405165,
      1786405185,
      1786405225,
      1786405246,
      1786405285,
      1786405306,
      1786405345,
      1786405366,
      1786405405,
      1786405426,
      1786405465,
      1786405486,
      1786405546,
      1786405606,
      1786405645,
      1786405666,
      1786405705,
      1786405738,
      1786405765,
      1786405798,
      1786405826,
      1786405858,
      1786405886,
      1786405918,
      1786405946,
      1786405978,
      1786406006,
      1786406039,
      1786406066,
      1786406099,
      1786406126,
      1786406159,
      1786406186,
      1786406219,
      1786406246,
      1786406279,
      1786406306,
      1786406339,
      1786406366,
      1786406399,
      1786406426,
      1786406459,
      1786406486,
      1786406519,
      1786406546,
      1786406579,
      1786406639,
      1786406699,
      1786406820,
      1786406880,
      1786406940,
      1786407000,
      1786407060,
      1786407120,
      1786407180,
      1786407240,
      1786407295,
      1786407360,
      1786407380,
      1786407420,
      1786407440,
      1786407480,
      1786407540,
      1786407554,
      1786407601,
      1786407614,
      1786407661,
      1786407674,
      1786407721,
      1786407841,
      1786407849,
      1786407901,
      1786408021,
      1786408034,
      1786408081,
      1786408088,
      1786408201,
      1786408261
    ],
    "wof:geomhash": "8d2708dd2589dc70aee7aeba16930446",
    "wof:id": 2047913119,
    "wof:repo": "sfomuseum-data-flights-2026-08"
  },
  "bbox": [
    -123.50888888888889,
    37.41138888888889,
    -122.1286111111111,
    49.192499999999995
  ],
  "geometry": {"type":"LineString","coordinates":[[-123.28444444444445,49.192499999999995],[-123.37194444444444,49.174166666666665],[-123.42027777777778,49.106944444444444],[-123.46805555555555,49.03722222222222],[-123.50888888888889,48.95388888888889],[-123.49694444444445,48.85666666666667],[-123.4875,48.74944444444444],[-123.48083333333334,48.645833333333336],[-123.47583333333334,48.53861111111111],[-123.47027777777778,48.43138888888889],[-123.46444444444445,48.31361111111111],[-123.4588888888889,48.198611111111106],[-123.45333333333333,48.07888888888889],[-123.44833333333334,47.973055555555554],[-123.44222222222223,47.85055555555556],[-123.4363888888889,47.72777777777778],[-123.43083333333334,47.60444444444445],[-123.42472222222223,47.48027777777778],[-123.41916666666667,47.35638888888889],[-123.41333333333334,47.22972222222222],[-123.40777777777778,47.10611111111111],[-123.4038888888889,46.980555555555554],[-123.4,46.855555555555554],[-123.39611111111111,46.730000000000004],[-123.39194444444445,46.60444444444445],[-123.38833333333334,46.480555555555554],[-123.38416666666667,46.349722222222226],[-123.38027777777778,46.224722222222226],[-123.37638888888888,46.1025],[-123.37277777777777,45.976111111111116],[-123.36916666666666,45.85194444444445],[-123.36527777777778,45.72888888888889],[-123.36138888888888,45.60194444444445],[-123.35749999999999,45.475833333333334],[-123.35388888888889,45.35055555555556],[-123.35,45.224722222222226],[-123.34638888888888,45.09861111111111],[-123.3425,44.969722222222224],[-123.33888888888889,44.840833333333336],[-123.33527777777778,44.714444444444446],[-123.33138888888888,44.587500000000006],[-123.32777777777777,44.463055555555556],[-123.32249999999999,44.33722222222222],[-123.3175,44.212500000000006],[-123.3125,44.089444444444446],[-123.30749999999999,43.96472222222223],[-123.30277777777778,43.84138888888889],[-123.29777777777778,43.71638888888889],[-123.29277777777777,43.5925],[-123.28805555555556,43.469166666666666],[-123.28333333333333,43.34777777777778],[-123.2786111111111,43.225],[-123.27416666666666,43.18888888888888],[-123.27388888888889,43.103611111111114],[-123.27111111111111,43.066944444444445],[-123.26944444444445,42.981388888888894],[-123.26555555555555,42.943888888888885],[-123.26472222222222,42.8575],[-123.2611111111111,42.82222222222222],[-123.25972222222222,42.73527777777778],[-123.25805555555556,42.69916666666666],[-123.25555555555556,42.62555555555556],[-123.25277777777778,42.5775],[-123.25111111111111,42.50333333333333],[-123.25055555555555,42.47916666666667],[-123.24555555555555,42.35527777777778],[-123.24472222222222,42.330000000000005],[-123.24111111111111,42.23277777777778],[-123.24027777777778,42.20888888888889],[-123.23666666666666,42.11027777777778],[-123.23555555555555,42.085],[-123.23222222222222,41.987500000000004],[-123.23111111111112,41.963055555555556],[-123.2275,41.86638888888889],[-123.22666666666667,41.84055555555556],[-123.22333333333333,41.743611111111115],[-123.2225,41.71888888888889],[-123.21805555555555,41.59527777777778],[-123.21361111111112,41.47416666666667],[-123.21027777777778,41.37388888888889],[-123.20944444444444,41.349444444444444],[-123.2025,41.25666666666667],[-123.19222222222223,41.18861111111111],[-123.18388888888889,41.13361111111111],[-123.17361111111111,41.06444444444444],[-123.16527777777779,41.01],[-123.15444444444445,40.93527777777778],[-123.14694444444446,40.885555555555555],[-123.13583333333334,40.81194444444444],[-123.13,40.77166666666667],[-123.11916666666666,40.69833333333333],[-123.11194444444443,40.64861111111111],[-123.10138888888888,40.57694444444445],[-123.09416666666667,40.52861111111111],[-123.08333333333333,40.455000000000005],[-123.07666666666667,40.409166666666664],[-123.06611111111111,40.33527777777778],[-123.05749999999999,40.276666666666664],[-123.04888888888888,40.217222222222226],[-123.03972222222222,40.155833333333334],[-123.03138888888888,40.098888888888894],[-123.0225,40.03638888888889],[-123.01472222222222,39.98166666666667],[-123.00527777777778,39.9175],[-122.9975,39.86222222222222],[-122.98833333333333,39.797777777777775],[-122.98055555555555,39.74388888888889],[-122.97111111111111,39.678888888888885],[-122.96333333333334,39.62444444444444],[-122.95416666666667,39.55916666666666],[-122.94694444444445,39.5075],[-122.92805555555556,39.37583333333333],[-122.91111111111111,39.255],[-122.87777777777777,39.01861111111111],[-122.86083333333333,38.9],[-122.84444444444443,38.78],[-122.82777777777777,38.65888888888889],[-122.8111111111111,38.54],[-122.795,38.425],[-122.77972222222222,38.31166666666666],[-122.76083333333334,38.20166666666667],[-122.73333333333333,38.1],[-122.70138888888889,37.99638888888889],[-122.68333333333334,37.95],[-122.66944444444445,37.901111111111106],[-122.63333333333334,37.86666666666667],[-122.59583333333333,37.82611111111112],[-122.52027777777778,37.755],[-122.5,37.733333333333334],[-122.45305555555557,37.69166666666666],[-122.43333333333334,37.666666666666664],[-122.39222222222223,37.635],[-122.36666666666666,37.61666666666667],[-122.34444444444443,37.578611111111115],[-122.26027777777777,37.46],[-122.25,37.45],[-122.2038888888889,37.41138888888889],[-122.1286111111111,37.49638888888889],[-122.15,37.516666666666666],[-122.17722222222223,37.53777777777778],[-122.2,37.55],[-122.30416666666666,37.59138888888889],[-122.35305555555556,37.611666666666665]]}
}
