{
  "id": 2047930307,
  "type": "Feature",
  "properties": {
    "geom:area": 0,
    "geom:bbox": "-122.526667,37.650000,-83.277500,43.500000",
    "geom:latitude": 42.00524807637491,
    "geom:longitude": -103.1271538112195,
    "src:alt_label": "swim-path",
    "src:geom": "swim",
    "swim:altitudes": [
      "028",
      "045",
      "061",
      "080",
      "101",
      "113",
      "123",
      "141",
      "159",
      "177",
      "193",
      "210",
      "225",
      "237",
      "248",
      "257",
      "259",
      "267",
      "279",
      "281",
      "293",
      "301",
      "304",
      "311",
      "313",
      "319",
      "326",
      "327",
      "330C",
      "330C",
      "330C",
      "330C",
      "330C",
      "330C",
      "330C",
      "330C",
      "330C",
      "330C",
      "330C",
      "330C",
      "330C",
      "330C",
      "330C",
      "330C",
      "330C",
      "330C",
      "330C",
      "330C",
      "330C",
      "330C",
      "330C",
      "330C",
      "330C",
      "330C",
      "330C",
      "330C",
      "330C",
      "330C",
      "330C",
      "330C",
      "330C",
      "330C",
      "330C",
      "330C",
      "330C",
      "330C",
      "330C",
      "330C",
      "330C",
      "330C",
      "330C",
      "330C",
      "330C",
      "330C",
      "330C",
      "330C",
      "330C",
      "330C",
      "336",
      "344",
      "350C",
      "350C",
      "350C",
      "350C",
      "350C",
      "350C",
      "350C",
      "350C",
      "350C",
      "350C",
      "350C",
      "350C",
      "350C",
      "350C",
      "350C",
      "350C",
      "350C",
      "350C",
      "350C",
      "350C",
      "350C",
      "350C",
      "350C",
      "350C",
      "350C",
      "350C",
      "350C",
      "350C",
      "350C",
      "350C",
      "350C",
      "350C",
      "350C",
      "350C",
      "350C",
      "350C",
      "350C",
      "350C",
      "350C",
      "350C",
      "350C",
      "350C",
      "350C",
      "350C",
      "350C",
      "350C",
      "350C",
      "350C",
      "350C",
      "350C",
      "350C",
      "350C",
      "350C",
      "350C",
      "350C",
      "350C",
      "350C",
      "350C",
      "350C",
      "350C",
      "350C",
      "350C",
      "350C",
      "350C",
      "350C",
      "350C",
      "350C",
      "350C",
      "350C",
      "350C",
      "350C",
      "350C",
      "350C",
      "350C",
      "350C",
      "350C",
      "350C",
      "350C",
      "350C",
      "350C",
      "350C",
      "350C",
      "350C",
      "350C",
      "350C",
      "350C",
      "350C",
      "350C",
      "350C",
      "350C",
      "350C",
      "350C",
      "350C",
      "350C",
      "350C",
      "350C",
      "350C",
      "350C",
      "350C",
      "350C",
      "350C",
      "350C",
      "350C",
      "350C",
      "350C",
      "350C",
      "350C",
      "350C",
      "350C",
      "350C",
      "350C",
      "350C",
      "350C",
      "350C",
      "350C",
      "350C",
      "350C",
      "350C",
      "350C",
      "350C",
      "350C",
      "350C",
      "350C",
      "350C",
      "350C",
      "350C",
      "350C",
      "350C",
      "350C",
      "350C",
      "350C",
      "350C",
      "350C",
      "350C",
      "350C",
      "350C",
      "350C",
      "350C",
      "350C",
      "350C",
      "350C",
      "350C",
      "350C",
      "350C",
      "350C",
      "350C",
      "350C",
      "350C",
      "350C",
      "350C",
      "350C",
      "350C",
      "350C",
      "350C",
      "350C",
      "350C",
      "350C",
      "350C",
      "350C",
      "350C",
      "350C",
      "350C",
      "350C",
      "350C",
      "350C",
      "350C",
      "350C",
      "350C",
      "350C",
      "350C",
      "350C",
      "350C",
      "350C",
      "350C",
      "350C",
      "347",
      "337",
      "330C",
      "330C",
      "330",
      "330",
      "330",
      "330",
      "330",
      "330",
      "330",
      "330",
      "330",
      "330",
      "330",
      "316",
      "310",
      "285",
      "279",
      "258",
      "253",
      "246",
      "241",
      "230",
      "230",
      "217",
      "213",
      "194",
      "190",
      "171",
      "164",
      "151",
      "141",
      "127",
      "123",
      "122",
      "121",
      "118",
      "107",
      "104",
      "100",
      "093",
      "085",
      "069",
      "063",
      "061",
      "057",
      "050",
      "040",
      "037",
      "033",
      "031",
      "029",
      "025",
      "020",
      "016",
      "011",
      "006"
    ],
    "swim:geom": "path",
    "swim:speeds": [
      194,
      239,
      277,
      297,
      313,
      352,
      398,
      414,
      420,
      427,
      437,
      442,
      451,
      463,
      478,
      487,
      493,
      495,
      498,
      494,
      496,
      498,
      499,
      498,
      499,
      498,
      502,
      502,
      507,
      507,
      509,
      509,
      511,
      510,
      512,
      513,
      519,
      512,
      513,
      511,
      511,
      509,
      509,
      508,
      508,
      508,
      508,
      509,
      510,
      511,
      512,
      513,
      513,
      513,
      514,
      514,
      514,
      514,
      514,
      514,
      512,
      511,
      510,
      510,
      509,
      509,
      509,
      509,
      509,
      509,
      510,
      511,
      511,
      510,
      510,
      510,
      511,
      512,
      513,
      512,
      513,
      515,
      516,
      517,
      517,
      517,
      517,
      516,
      515,
      516,
      519,
      520,
      521,
      521,
      523,
      523,
      527,
      523,
      526,
      522,
      522,
      521,
      522,
      517,
      523,
      521,
      526,
      525,
      526,
      526,
      526,
      527,
      527,
      527,
      527,
      526,
      526,
      525,
      525,
      525,
      524,
      524,
      523,
      523,
      524,
      524,
      525,
      525,
      527,
      527,
      527,
      528,
      528,
      528,
      527,
      527,
      527,
      526,
      526,
      525,
      525,
      524,
      523,
      523,
      522,
      522,
      522,
      521,
      520,
      519,
      518,
      518,
      517,
      517,
      517,
      515,
      513,
      510,
      506,
      508,
      507,
      507,
      507,
      510,
      507,
      512,
      513,
      509,
      513,
      512,
      511,
      512,
      511,
      511,
      511,
      511,
      511,
      511,
      511,
      512,
      520,
      521,
      521,
      521,
      522,
      522,
      522,
      522,
      522,
      522,
      521,
      521,
      520,
      520,
      519,
      519,
      520,
      517,
      512,
      511,
      512,
      514,
      519,
      520,
      520,
      520,
      519,
      519,
      517,
      516,
      514,
      512,
      510,
      508,
      506,
      505,
      505,
      506,
      507,
      508,
      509,
      509,
      509,
      509,
      508,
      507,
      506,
      504,
      503,
      502,
      502,
      502,
      503,
      505,
      504,
      503,
      495,
      492,
      490,
      490,
      490,
      489,
      488,
      489,
      493,
      502,
      507,
      509,
      510,
      517,
      521,
      520,
      518,
      519,
      522,
      523,
      522,
      530,
      531,
      532,
      537,
      535,
      537,
      540,
      546,
      542,
      546,
      544,
      546,
      547,
      548,
      549,
      532,
      525,
      510,
      510,
      510,
      509,
      497,
      497,
      495,
      490,
      474,
      469,
      460,
      451,
      448,
      435,
      432,
      426,
      406,
      390,
      383,
      367,
      343,
      323,
      311,
      303,
      288,
      278,
      263,
      247,
      235,
      228,
      217,
      206,
      198,
      185,
      186,
      183,
      160,
      159,
      142
    ],
    "swim:timestamps": [
      1786452205,
      1786452285,
      1786452345,
      1786452405,
      1786452465,
      1786452525,
      1786452585,
      1786452645,
      1786452705,
      1786452765,
      1786452825,
      1786452885,
      1786452945,
      1786453005,
      1786453065,
      1786453125,
      1786453145,
      1786453185,
      1786453245,
      1786453265,
      1786453325,
      1786453365,
      1786453385,
      1786453425,
      1786453445,
      1786453485,
      1786453545,
      1786453565,
      1786453605,
      1786453625,
      1786453665,
      1786453685,
      1786453725,
      1786453745,
      1786453785,
      1786453845,
      1786453866,
      1786453905,
      1786453926,
      1786453965,
      1786453986,
      1786454025,
      1786454046,
      1786454086,
      1786454106,
      1786454146,
      1786454166,
      1786454226,
      1786454266,
      1786454286,
      1786454326,
      1786454346,
      1786454386,
      1786454406,
      1786454446,
      1786454466,
      1786454506,
      1786454526,
      1786454566,
      1786454586,
      1786454626,
      1786454646,
      1786454686,
      1786454706,
      1786454746,
      1786454767,
      1786454806,
      1786454827,
      1786454887,
      1786454947,
      1786455007,
      1786455067,
      1786455127,
      1786455247,
      1786455307,
      1786455367,
      1786455427,
      1786455487,
      1786455547,
      1786455608,
      1786455668,
      1786455728,
      1786455788,
      1786455848,
      1786455908,
      1786455968,
      1786456028,
      1786456088,
      1786456148,
      1786456268,
      1786456389,
      1786456449,
      1786456509,
      1786456569,
      1786456629,
      1786456689,
      1786456706,
      1786456749,
      1786456766,
      1786456809,
      1786456869,
      1786456929,
      1786456989,
      1786457006,
      1786457049,
      1786457066,
      1786457126,
      1786457170,
      1786457186,
      1786457230,
      1786457246,
      1786457290,
      1786457306,
      1786457350,
      1786457367,
      1786457410,
      1786457427,
      1786457470,
      1786457487,
      1786457530,
      1786457547,
      1786457607,
      1786457650,
      1786457667,
      1786457710,
      1786457727,
      1786457770,
      1786457787,
      1786457831,
      1786457847,
      1786457891,
      1786457907,
      1786457951,
      1786457967,
      1786458011,
      1786458027,
      1786458071,
      1786458088,
      1786458131,
      1786458148,
      1786458191,
      1786458208,
      1786458251,
      1786458268,
      1786458328,
      1786458388,
      1786458448,
      1786458508,
      1786458568,
      1786458628,
      1786458688,
      1786458748,
      1786458809,
      1786458869,
      1786458929,
      1786458989,
      1786459049,
      1786459109,
      1786459161,
      1786459169,
      1786459221,
      1786459229,
      1786459281,
      1786459289,
      1786459342,
      1786459349,
      1786459409,
      1786459462,
      1786459469,
      1786459530,
      1786459582,
      1786459590,
      1786459650,
      1786459702,
      1786459710,
      1786459762,
      1786459770,
      1786459822,
      1786459830,
      1786459882,
      1786459942,
      1786460002,
      1786460010,
      1786460063,
      1786460070,
      1786460123,
      1786460130,
      1786460183,
      1786460190,
      1786460243,
      1786460303,
      1786460311,
      1786460363,
      1786460371,
      1786460423,
      1786460483,
      1786460491,
      1786460543,
      1786460603,
      1786460663,
      1786460723,
      1786460783,
      1786460844,
      1786460904,
      1786460964,
      1786461024,
      1786461084,
      1786461144,
      1786461204,
      1786461264,
      1786461324,
      1786461384,
      1786461444,
      1786461504,
      1786461565,
      1786461625,
      1786461685,
      1786461745,
      1786461805,
      1786461865,
      1786461925,
      1786461985,
      1786462045,
      1786462105,
      1786462165,
      1786462225,
      1786462286,
      1786462346,
      1786462406,
      1786462466,
      1786462526,
      1786462586,
      1786462646,
      1786462710,
      1786462766,
      1786462826,
      1786462886,
      1786462946,
      1786463007,
      1786463067,
      1786463127,
      1786463187,
      1786463247,
      1786463307,
      1786463367,
      1786463427,
      1786463487,
      1786463547,
      1786463607,
      1786463667,
      1786463728,
      1786463792,
      1786463853,
      1786463913,
      1786463973,
      1786464033,
      1786464093,
      1786464153,
      1786464213,
      1786464273,
      1786464322,
      1786464333,
      1786464382,
      1786464391,
      1786464442,
      1786464451,
      1786464502,
      1786464511,
      1786464562,
      1786464571,
      1786464622,
      1786464631,
      1786464682,
      1786464691,
      1786464743,
      1786464751,
      1786464803,
      1786464811,
      1786464863,
      1786464871,
      1786464920,
      1786464932,
      1786464980,
      1786464989,
      1786465040,
      1786465055,
      1786465100,
      1786465115,
      1786465160,
      1786465172,
      1786465181,
      1786465220,
      1786465232,
      1786465281,
      1786465296,
      1786465341,
      1786465356,
      1786465401,
      1786465461,
      1786465482,
      1786465521,
      1786465536,
      1786465581,
      1786465641,
      1786465656,
      1786465701,
      1786465716,
      1786465761,
      1786465782,
      1786465821,
      1786465842,
      1786465881,
      1786465942
    ],
    "wof:geomhash": "8c2a371fa0d771489c72736e94601ce5",
    "wof:id": 2047930307,
    "wof:repo": "sfomuseum-data-flights-2026-08"
  },
  "bbox": [
    -122.52666666666667,
    37.65,
    -83.2775,
    43.5
  ],
  "geometry": {"type":"LineString","coordinates":[[-122.45,37.65],[-122.5213888888889,37.69416666666666],[-122.52666666666667,37.76722222222222],[-122.47027777777778,37.82472222222223],[-122.38138888888888,37.87444444444444],[-122.2925,37.93611111111111],[-122.19111111111111,38.006388888888885],[-122.08166666666666,38.081944444444446],[-121.96833333333333,38.15972222222222],[-121.85499999999999,38.23722222222222],[-121.74583333333334,38.31166666666666],[-121.62694444444443,38.3925],[-121.50166666666667,38.474444444444444],[-121.37027777777777,38.55444444444444],[-121.23,38.64],[-121.0911111111111,38.72416666666667],[-121.06083333333333,38.742222222222225],[-120.95027777777779,38.80916666666666],[-120.80805555555555,38.89472222222222],[-120.7786111111111,38.909444444444446],[-120.63722222222223,38.99527777777778],[-120.52527777777777,39.06333333333333],[-120.49527777777777,39.07888888888889],[-120.38583333333334,39.145833333333336],[-120.35555555555555,39.16444444444444],[-120.24277777777777,39.23027777777778],[-120.09833333333333,39.315],[-120.06805555555555,39.33222222222223],[-119.95027777777779,39.401666666666664],[-119.92111111111112,39.41722222222222],[-119.80166666666666,39.488055555555555],[-119.77444444444444,39.50333333333333],[-119.65333333333334,39.573888888888895],[-119.62583333333333,39.58888888888889],[-119.50444444444445,39.65972222222222],[-119.35638888888889,39.74472222222222],[-119.32805555555555,39.76083333333333],[-119.20805555555556,39.82944444444445],[-119.18027777777779,39.845555555555556],[-119.05638888888889,39.913333333333334],[-119.02833333333334,39.927499999999995],[-118.90055555555556,39.99111111111111],[-118.86999999999999,40.00388888888889],[-118.74,40.059444444444445],[-118.71000000000001,40.07222222222222],[-118.61138888888888,40.11416666666667],[-118.54916666666666,40.140277777777776],[-118.38611111111112,40.20888888888889],[-118.28583333333333,40.25111111111111],[-118.2238888888889,40.27722222222222],[-118.12194444444444,40.31944444444445],[-118.05694444444444,40.34111111111111],[-117.91527777777779,40.38722222222222],[-117.88361111111112,40.39694444444444],[-117.74222222222222,40.44194444444444],[-117.71083333333334,40.45194444444445],[-117.56888888888888,40.498333333333335],[-117.5375,40.50833333333333],[-117.43166666666667,40.54277777777778],[-117.36361111111111,40.56361111111111],[-117.255,40.58777777777778],[-117.18472222222222,40.60333333333333],[-117.07249999999999,40.628055555555555],[-117.00333333333333,40.64333333333333],[-116.89222222222223,40.66777777777777],[-116.82444444444444,40.6825],[-116.71055555555556,40.7075],[-116.64333333333335,40.721944444444446],[-116.46222222222222,40.76111111111111],[-116.28027777777778,40.8],[-116.10194444444444,40.83777777777778],[-115.92194444444445,40.87583333333333],[-115.73833333333333,40.91361111111111],[-115.37722222222222,40.98833333333334],[-115.19861111111112,41.025],[-115.01666666666667,41.061388888888885],[-114.83361111111111,41.09805555555556],[-114.64444444444445,41.13527777777778],[-114.46000000000001,41.171388888888885],[-114.27805555555555,41.20666666666667],[-114.09416666666667,41.24194444444444],[-113.91000000000001,41.27722222222222],[-113.72222222222223,41.3125],[-113.53833333333333,41.346944444444446],[-113.35249999999999,41.38138888888889],[-113.16555555555556,41.41583333333333],[-112.98055555555555,41.44916666666666],[-112.7936111111111,41.48277777777778],[-112.60888888888888,41.51555555555556],[-112.23361111111112,41.581388888888895],[-111.85444444444444,41.646388888888886],[-111.66555555555556,41.67833333333333],[-111.47583333333334,41.71],[-111.28666666666666,41.74111111111111],[-111.09555555555555,41.77222222222222],[-110.92666666666668,41.79972222222222],[-110.88861111111112,41.80777777777777],[-110.73388888888888,41.830555555555556],[-110.66166666666668,41.84527777777778],[-110.545,41.86055555555556],[-110.35638888888889,41.89],[-110.16611111111112,41.91916666666666],[-109.9725,41.94888888888889],[-109.93611111111112,41.95527777777778],[-109.78055555555555,41.97777777777778],[-109.74388888888889,41.98416666666667],[-109.54916666666666,42.01277777777778],[-109.39527777777778,42.035],[-109.35499999999999,42.04138888888889],[-109.19861111111112,42.06361111111111],[-109.16111111111111,42.06888888888889],[-109.00416666666666,42.09138888888889],[-108.96861111111112,42.096111111111114],[-108.81194444444444,42.118611111111115],[-108.77333333333333,42.12416666666667],[-108.61749999999999,42.145833333333336],[-108.57888888888888,42.15138888888889],[-108.42222222222223,42.172777777777775],[-108.385,42.17805555555555],[-108.22972222222222,42.19916666666666],[-108.19444444444444,42.20416666666667],[-107.99972222222222,42.23027777777778],[-107.84583333333333,42.25055555555556],[-107.80611111111111,42.255833333333335],[-107.65222222222222,42.27583333333333],[-107.61527777777778,42.28055555555555],[-107.45666666666666,42.301111111111105],[-107.41833333333334,42.30611111111111],[-107.2611111111111,42.32611111111112],[-107.22444444444444,42.330555555555556],[-107.06777777777778,42.35027777777778],[-107.02944444444444,42.35527777777778],[-106.87249999999999,42.374722222222225],[-106.81722222222221,42.38138888888889],[-106.69888888888889,42.395833333333336],[-106.62138888888889,42.405277777777776],[-106.50416666666666,42.41916666666666],[-106.42861111111111,42.42805555555555],[-106.3086111111111,42.442499999999995],[-106.23222222222222,42.45138888888889],[-106.11583333333333,42.465],[-106.03916666666666,42.47361111111111],[-105.92194444444445,42.48694444444445],[-105.84638888888888,42.495555555555555],[-105.65111111111112,42.51777777777777],[-105.4575,42.53916666666667],[-105.26388888888889,42.56027777777778],[-105.07027777777778,42.58083333333334],[-104.875,42.60166666666667],[-104.68194444444445,42.62166666666667],[-104.51555555555555,42.638888888888886],[-104.31777777777778,42.65861111111111],[-104.12666666666667,42.677499999999995],[-103.9325,42.69638888888888],[-103.74027777777778,42.71472222222223],[-103.54638888888888,42.73277777777778],[-103.35777777777777,42.75],[-103.16805555555555,42.76722222222222],[-102.98861111111111,42.78111111111111],[-102.97555555555556,42.784166666666664],[-102.79972222222221,42.79833333333333],[-102.7863888888889,42.800555555555555],[-102.60888888888888,42.81472222222222],[-102.59472222222222,42.816944444444445],[-102.41777777777779,42.83222222222223],[-102.40166666666667,42.83305555555556],[-102.20916666666668,42.84861111111111],[-102.02722222222222,42.863055555555555],[-101.9786111111111,42.86694444444444],[-101.78527777777778,42.88194444444444],[-101.64277777777778,42.89277777777778],[-101.61277777777777,42.894999999999996],[-101.42194444444445,42.909444444444446],[-101.26027777777777,42.921388888888885],[-101.22166666666666,42.924166666666665],[-101.07,42.93472222222222],[-101.0325,42.93722222222222],[-100.8786111111111,42.948055555555555],[-100.8386111111111,42.950833333333335],[-100.68166666666667,42.96138888888889],[-100.48805555555556,42.96083333333333],[-100.29861111111111,42.91916666666666],[-100.2625,42.90888888888889],[-100.11888888888888,42.867777777777775],[-100.0786111111111,42.85638888888889],[-99.93,42.81527777777777],[-99.89583333333334,42.80611111111111],[-99.74555555555555,42.765277777777776],[-99.71138888888889,42.75611111111111],[-99.56333333333333,42.71611111111111],[-99.38027777777778,42.66555555555556],[-99.34333333333333,42.655277777777776],[-99.19861111111112,42.61472222222223],[-99.15972222222223,42.60388888888889],[-98.99555555555555,42.55777777777777],[-98.81388888888888,42.506388888888885],[-98.79888888888888,42.50222222222222],[-98.62388888888889,42.47805555555556],[-98.43444444444445,42.49777777777778],[-98.24555555555555,42.5175],[-98.05416666666666,42.5375],[-97.86027777777777,42.55722222222222],[-97.66638888888889,42.57666666666667],[-97.47305555555556,42.595555555555556],[-97.27944444444444,42.614444444444445],[-97.0825,42.63305555555556],[-96.89055555555557,42.651111111111106],[-96.69472222222223,42.66888888888889],[-96.50333333333333,42.68611111111111],[-96.30805555555555,42.70333333333333],[-96.1286111111111,42.71888888888889],[-95.93666666666667,42.735],[-95.74638888888889,42.75083333333333],[-95.55888888888889,42.76611111111111],[-95.36888888888888,42.78111111111111],[-95.17944444444444,42.795833333333334],[-94.99333333333334,42.809999999999995],[-94.8025,42.82416666666667],[-94.60916666666667,42.83833333333334],[-94.42750000000001,42.85111111111111],[-94.2363888888889,42.864444444444445],[-94.045,42.8775],[-93.85166666666666,42.890277777777776],[-93.66361111111112,42.90222222222222],[-93.46944444444445,42.91444444444444],[-93.27777777777777,42.92611111111111],[-93.08999999999999,42.93722222222222],[-92.89833333333334,42.94833333333333],[-92.67,42.96083333333333],[-92.52055555555556,42.96888888888889],[-92.3286111111111,42.97916666666667],[-92.13861111111112,42.98888888888889],[-91.94888888888889,42.998333333333335],[-91.71472222222222,43.00944444444445],[-91.5611111111111,43.01611111111111],[-91.36694444444444,43.025],[-91.17722222222223,43.035],[-90.99805555555555,43.0625],[-90.81527777777778,43.08972222222222],[-90.63083333333333,43.11833333333333],[-90.44972222222222,43.14666666666667],[-90.27111111111111,43.175555555555555],[-90.09805555555555,43.203611111111115],[-89.91722222222222,43.23361111111111],[-89.73277777777778,43.26555555555556],[-89.54805555555555,43.29972222222222],[-89.35944444444443,43.335],[-89.17027777777778,43.37166666666667],[-88.98472222222222,43.41166666666666],[-88.79333333333334,43.450833333333335],[-88.59916666666666,43.49138888888889],[-88.39444444444445,43.5],[-88.19305555555556,43.48388888888889],[-87.99722222222222,43.468611111111116],[-87.7961111111111,43.45305555555556],[-87.5975,43.43666666666666],[-87.40111111111112,43.419999999999995],[-87.18916666666667,43.401944444444446],[-86.9863888888889,43.38333333333333],[-86.78527777777778,43.361111111111114],[-86.625,43.34444444444445],[-86.58333333333333,43.33888888888889],[-86.4213888888889,43.321111111111115],[-86.37694444444443,43.31638888888889],[-86.21444444444445,43.29805555555556],[-86.1713888888889,43.29333333333333],[-86.005,43.27472222222222],[-85.96138888888889,43.26972222222222],[-85.79555555555555,43.25055555555556],[-85.75111111111111,43.24527777777778],[-85.58666666666666,43.22527777777778],[-85.545,43.220555555555556],[-85.38222222222221,43.20138888888889],[-85.34472222222222,43.196666666666665],[-85.19472222222223,43.17805555555555],[-85.15166666666667,43.17305555555555],[-85.00194444444445,43.15472222222222],[-84.95972222222223,43.14944444444444],[-84.82083333333333,43.115833333333335],[-84.78694444444444,43.099722222222226],[-84.66416666666667,43.038333333333334],[-84.63222222222221,43.0225],[-84.51527777777778,42.96361111111111],[-84.48944444444444,42.95],[-84.37194444444444,42.89194444444444],[-84.33138888888888,42.87138888888889],[-84.25,42.831388888888895],[-84.19222222222223,42.80138888888889],[-84.11333333333333,42.763333333333335],[-84.06972222222223,42.74166666666667],[-84.04722222222222,42.72972222222222],[-83.98833333333333,42.70111111111111],[-83.94555555555556,42.68555555555555],[-83.85583333333332,42.6675],[-83.80305555555556,42.65555555555555],[-83.73666666666666,42.632777777777775],[-83.69527777777778,42.61805555555556],[-83.63277777777778,42.598333333333336],[-83.53277777777778,42.565555555555555],[-83.4863888888889,42.54666666666667],[-83.45027777777779,42.52027777777778],[-83.42583333333334,42.50111111111111],[-83.38527777777779,42.47416666666667],[-83.32249999999999,42.43055555555555],[-83.30055555555555,42.41444444444444],[-83.2775,42.38583333333333],[-83.28194444444445,42.36361111111111],[-83.29416666666667,42.33416666666667],[-83.3086111111111,42.31111111111111],[-83.32444444444444,42.28861111111111],[-83.33666666666666,42.26916666666666],[-83.35138888888888,42.248333333333335],[-83.375,42.214444444444446]]}
}
