{
  "id": 2047931755,
  "type": "Feature",
  "properties": {
    "geom:area": 0,
    "geom:bbox": "-122.528000,37.632650,-121.247450,38.051730",
    "geom:latitude": 37.91856171231302,
    "geom:longitude": -121.98075628382072,
    "src:alt_label": "swim-takeoff",
    "src:geom": "swim",
    "swim:elevations": [
      368,
      568,
      956,
      1151,
      1729,
      2345,
      2996,
      3254,
      3496,
      3614,
      4217,
      4495,
      5749,
      5925,
      6139,
      6325,
      6547,
      6837,
      7082,
      7473,
      7695,
      8012,
      8070
    ],
    "swim:geom": "takeoff",
    "swim:timestamps": [
      1786494986,
      1786495007,
      1786495037,
      1786495067,
      1786495127,
      1786495171,
      1786495223,
      1786495253,
      1786495283,
      1786495295,
      1786495340,
      1786495358,
      1786495465,
      1786495486,
      1786495516,
      1786495555,
      1786495579,
      1786495607,
      1786495634,
      1786495676,
      1786495700,
      1786495736,
      1786495742
    ],
    "wof:geomhash": "7ad596700a1a83530613b27de187b202",
    "wof:id": 2047931755,
    "wof:repo": "sfomuseum-data-flights-2026-08"
  },
  "bbox": [
    -122.528,
    37.63265,
    -121.24745,
    38.05173
  ],
  "geometry": {"type":"LineString","coordinates":[[-122.40837,37.63265],[-122.42803,37.64143],[-122.45746,37.65397],[-122.48962,37.66763],[-122.528,37.72666],[-122.52528,37.78637],[-122.45911,37.83055],[-122.40724,37.8458],[-122.35006,37.86011],[-122.32606,37.86641],[-122.23444,37.89164],[-122.1975,37.90177],[-121.96837,37.96266],[-121.92151,37.97517],[-121.85424,37.98879],[-121.757,37.99846],[-121.6943,38.00491],[-121.62004,38.013],[-121.5473,38.02058],[-121.43282,38.03226],[-121.36616,38.0392],[-121.26447,38.04982],[-121.24745,38.05173]]}
}
