{
  "id": 2047931629,
  "type": "Feature",
  "properties": {
    "geom:area": 0,
    "geom:bbox": "-122.562470,36.731560,-122.363770,37.667650",
    "geom:latitude": 37.23910229580537,
    "geom:longitude": -122.51411461287108,
    "src:alt_label": "swim-takeoff",
    "src:geom": "swim",
    "swim:elevations": [
      213,
      649,
      1034,
      1429,
      1885,
      2254,
      2808,
      3125,
      3565,
      3882,
      4010,
      4531,
      4686,
      4972,
      5335,
      5807,
      5911,
      6292,
      6818,
      7101,
      7461,
      7996,
      8149
    ],
    "swim:geom": "takeoff",
    "swim:timestamps": [
      1786449296,
      1786449328,
      1786449355,
      1786449395,
      1786449429,
      1786449454,
      1786449491,
      1786449510,
      1786449563,
      1786449594,
      1786449606,
      1786449648,
      1786449664,
      1786449693,
      1786449727,
      1786449770,
      1786449780,
      1786449815,
      1786449859,
      1786449887,
      1786449931,
      1786449979,
      1786449990
    ],
    "wof:geomhash": "3e7e1b7cf71b5168ebf46d93da0c26ff",
    "wof:id": 2047931629,
    "wof:repo": "sfomuseum-data-flights-2026-08"
  },
  "bbox": [
    -122.56247,
    36.73156,
    -122.36377,
    37.66765
  ],
  "geometry": {"type":"LineString","coordinates":[[-122.38994,37.62494],[-122.41964,37.63768],[-122.44592,37.64898],[-122.49181,37.66765],[-122.5358,37.65526],[-122.54583,37.62578],[-122.54696,37.58005],[-122.54759,37.55554],[-122.55001,37.48107],[-122.55092,37.43224],[-122.55163,37.41246],[-122.55375,37.34204],[-122.55424,37.31411],[-122.5563,37.26168],[-122.55862,37.19997],[-122.56097,37.11953],[-122.56152,37.10077],[-122.56247,37.03361],[-122.52632,36.95559],[-122.49251,36.9092],[-122.438,36.83452],[-122.37744,36.75017],[-122.36377,36.73156]]}
}
