{
  "id": 2032072951,
  "type": "Feature",
  "properties": {
    "geom:area": 0,
    "geom:bbox": "-122.423150,36.730480,-121.884130,37.612460",
    "geom:latitude": 37.182412264439876,
    "geom:longitude": -122.19827423844583,
    "src:alt_label": "swim-approach",
    "src:geom": "swim",
    "swim:elevations": [
      5408,
      5367,
      5026,
      4892,
      4898,
      4907,
      4907,
      4873,
      4871,
      4725,
      4543,
      4275,
      4174,
      3876,
      3779,
      3658,
      3312,
      3171,
      2930,
      2890,
      2677,
      2583,
      2498,
      2437,
      2438,
      2438,
      2438,
      2325,
      2188,
      1969,
      1920,
      1713,
      1707,
      1641,
      1590,
      1284,
      1152,
      1076,
      914,
      825,
      770,
      642,
      627,
      545,
      487,
      343,
      183,
      91,
      181
    ],
    "swim:geom": "approach",
    "swim:timestamps": [
      1785700116,
      1785700119,
      1785700155,
      1785700173,
      1785700183,
      1785700204,
      1785700269,
      1785700284,
      1785700293,
      1785700305,
      1785700331,
      1785700378,
      1785700418,
      1785700475,
      1785700495,
      1785700536,
      1785700604,
      1785700631,
      1785700676,
      1785700686,
      1785700728,
      1785700756,
      1785700780,
      1785700819,
      1785700825,
      1785700831,
      1785700840,
      1785700876,
      1785700906,
      1785700945,
      1785700957,
      1785700996,
      1785701016,
      1785701032,
      1785701044,
      1785701096,
      1785701119,
      1785701131,
      1785701178,
      1785701213,
      1785701222,
      1785701248,
      1785701254,
      1785701272,
      1785701288,
      1785701322,
      1785701365,
      1785701388,
      1785701412
    ],
    "wof:geomhash": "7239db51c2d91d13574fc2caee59234c",
    "wof:id": 2032072951,
    "wof:repo": "sfomuseum-data-flights-2026-08"
  },
  "bbox": [
    -122.42315,
    36.73048,
    -121.88413,
    37.61246
  ],
  "geometry": {"coordinates":[[-121.88413,36.73048],[-121.88692,36.73528],[-121.90889,36.79474],[-121.9177,36.82571],[-121.92222,36.84185],[-121.93164,36.87577],[-121.96087,36.97173],[-121.96815,36.99076],[-121.97172,37.00066],[-121.98035,37.01493],[-122.01043,37.03382],[-122.08124,37.03263],[-122.14133,37.02603],[-122.22729,37.01643],[-122.25722,37.01319],[-122.31658,37.00632],[-122.39456,37.03498],[-122.40479,37.06409],[-122.41331,37.11543],[-122.41452,37.12644],[-122.4198,37.17348],[-122.42315,37.2041],[-122.42163,37.23084],[-122.40694,37.27317],[-122.40475,37.27976],[-122.40203,37.28706],[-122.39632,37.29612],[-122.35348,37.31694],[-122.31392,37.33164],[-122.26369,37.35047],[-122.24941,37.35577],[-122.20038,37.37487],[-122.18387,37.39169],[-122.17577,37.40591],[-122.16961,37.41644],[-122.14327,37.46129],[-122.13286,37.48137],[-122.1323,37.49214],[-122.16173,37.526],[-122.19343,37.54269],[-122.20222,37.54675],[-122.22576,37.55639],[-122.23142,37.55867],[-122.24732,37.56507],[-122.26075,37.5707],[-122.28818,37.58222],[-122.32296,37.59684],[-122.34245,37.60498],[-122.36018,37.61246]],"type":"LineString"}
}
