{
  "id": 2047899081,
  "type": "Feature",
  "properties": {
    "geom:area": 0,
    "geom:bbox": "-122.328056,35.657778,-78.810833,38.635556",
    "geom:latitude": 37.42738147766304,
    "geom:longitude": -100.5912307792406,
    "src:alt_label": "swim-path",
    "src:geom": "swim",
    "swim:altitudes": [
      "010",
      "020",
      "039",
      "059",
      "087",
      "110",
      "119",
      "134",
      "154",
      "169",
      "184",
      "199",
      "210",
      "220",
      "234",
      "243",
      "250",
      "252",
      "262",
      "267",
      "270",
      "279",
      "284",
      "287",
      "294",
      "296",
      "301",
      "302",
      "308",
      "310",
      "319",
      "321",
      "331",
      "340C",
      "340C",
      "340C",
      "340C",
      "340C",
      "340C",
      "340C",
      "340C",
      "340C",
      "340C",
      "340C",
      "340C",
      "340C",
      "340C",
      "340C",
      "340C",
      "340C",
      "340C",
      "340C",
      "340C",
      "340C",
      "340C",
      "340C",
      "340C",
      "340C",
      "340C",
      "340C",
      "340C",
      "340C",
      "340C",
      "340C",
      "340C",
      "340C",
      "340C",
      "340C",
      "340C",
      "340C",
      "340C",
      "340C",
      "340C",
      "340C",
      "340C",
      "340C",
      "340C",
      "340C",
      "340C",
      "340C",
      "340C",
      "340C",
      "340C",
      "340C",
      "340C",
      "340C",
      "340C",
      "340C",
      "340C",
      "340C",
      "340C",
      "340C",
      "340C",
      "340C",
      "340C",
      "340C",
      "340C",
      "340C",
      "340C",
      "340C",
      "340C",
      "340C",
      "340C",
      "340C",
      "340C",
      "340C",
      "340C",
      "340C",
      "340C",
      "340C",
      "340",
      "349",
      "360C",
      "360C",
      "360C",
      "360C",
      "360C",
      "360C",
      "360C",
      "360C",
      "360C",
      "360C",
      "360C",
      "360C",
      "360C",
      "360C",
      "360C",
      "360C",
      "360C",
      "360C",
      "360C",
      "360C",
      "360C",
      "360C",
      "360C",
      "360C",
      "360C",
      "360C",
      "360C",
      "360C",
      "360C",
      "360C",
      "360C",
      "360C",
      "360C",
      "360C",
      "360C",
      "360C",
      "360C",
      "360C",
      "360C",
      "360C",
      "360C",
      "360C",
      "360C",
      "360C",
      "360C",
      "360C",
      "360C",
      "360C",
      "360C",
      "360C",
      "360C",
      "360C",
      "360C",
      "360C",
      "360C",
      "360C",
      "360C",
      "360C",
      "360C",
      "360C",
      "360C",
      "360C",
      "360C",
      "360C",
      "360C",
      "360C",
      "360C",
      "360C",
      "360C",
      "360C",
      "360C",
      "360C",
      "360C",
      "360C",
      "360C",
      "360C",
      "360C",
      "360C",
      "360C",
      "360C",
      "360C",
      "360C",
      "360C",
      "360C",
      "360C",
      "360C",
      "360C",
      "360C",
      "360C",
      "360C",
      "360C",
      "360C",
      "360C",
      "360C",
      "360C",
      "360C",
      "360C",
      "360C",
      "360C",
      "360C",
      "360C",
      "360C",
      "360C",
      "360C",
      "360C",
      "360C",
      "360C",
      "360C",
      "360C",
      "360C",
      "360C",
      "360C",
      "360C",
      "360C",
      "360C",
      "360C",
      "360C",
      "360C",
      "360C",
      "360C",
      "360C",
      "360C",
      "360C",
      "360C",
      "360C",
      "360C",
      "360C",
      "360C",
      "360C",
      "360C",
      "360C",
      "360C",
      "360C",
      "360C",
      "360C",
      "360C",
      "360C",
      "360C",
      "360C",
      "360C",
      "360C",
      "360C",
      "360C",
      "360C",
      "360C",
      "360C",
      "360C",
      "360C",
      "360C",
      "360C",
      "360C",
      "360C",
      "360C",
      "360C",
      "360C",
      "360C",
      "360C",
      "360C",
      "360C",
      "360C",
      "360C",
      "360C",
      "360C",
      "360C",
      "360C",
      "360C",
      "360C",
      "360C",
      "360C",
      "360C",
      "360C",
      "360C",
      "360C",
      "360C",
      "360C",
      "360C",
      "360C",
      "360C",
      "360C",
      "360C",
      "360C",
      "360C",
      "360C",
      "360C",
      "360C",
      "360C",
      "360C",
      "360C",
      "360C",
      "360C",
      "360C",
      "360C",
      "360C",
      "360C",
      "360C",
      "360C",
      "360C",
      "360C",
      "360C",
      "360C",
      "360C",
      "360C",
      "360C",
      "360C",
      "360C",
      "360C",
      "360C",
      "360C",
      "360C",
      "360C",
      "360C",
      "360C",
      "360C",
      "360C",
      "360C",
      "360C",
      "360C",
      "360C",
      "360C",
      "360C",
      "360C",
      "360C",
      "360C",
      "360C",
      "360C",
      "360C",
      "360C",
      "360C",
      "360C",
      "360C",
      "360C",
      "360C",
      "360C",
      "360C",
      "360C",
      "360C",
      "360C",
      "360C",
      "360C",
      "360C",
      "360C",
      "360C",
      "360C",
      "360C",
      "360C",
      "360C",
      "360C",
      "360C",
      "360C",
      "360C",
      "360C",
      "360C",
      "360C",
      "360C",
      "360C",
      "360C",
      "360C",
      "360C",
      "360C",
      "360C",
      "360C",
      "360C",
      "360C",
      "360C",
      "360C",
      "360",
      "360",
      "350",
      "323",
      "300",
      "297",
      "274",
      "257",
      "230",
      "209",
      "189",
      "174",
      "169",
      "153",
      "146",
      "131",
      "125",
      "113",
      "105",
      "102",
      "100",
      "090",
      "085",
      "079",
      "075",
      "070",
      "069",
      "064",
      "049",
      "045",
      "030",
      "023",
      "020",
      "011",
      "006"
    ],
    "swim:geom": "path",
    "swim:speeds": [
      182,
      196,
      229,
      260,
      270,
      281,
      332,
      366,
      374,
      381,
      389,
      394,
      403,
      410,
      416,
      428,
      437,
      433,
      440,
      440,
      448,
      449,
      451,
      453,
      452,
      454,
      453,
      457,
      458,
      462,
      463,
      462,
      460,
      454,
      451,
      454,
      449,
      449,
      447,
      447,
      446,
      446,
      444,
      444,
      442,
      441,
      442,
      441,
      440,
      440,
      437,
      437,
      441,
      437,
      440,
      439,
      438,
      438,
      438,
      438,
      436,
      436,
      435,
      435,
      434,
      434,
      433,
      432,
      430,
      430,
      429,
      428,
      428,
      427,
      428,
      429,
      432,
      431,
      431,
      432,
      433,
      434,
      436,
      437,
      439,
      439,
      439,
      439,
      438,
      438,
      438,
      438,
      438,
      440,
      441,
      443,
      444,
      445,
      445,
      446,
      447,
      450,
      457,
      460,
      462,
      463,
      464,
      463,
      463,
      463,
      463,
      467,
      461,
      460,
      461,
      461,
      460,
      459,
      457,
      455,
      453,
      451,
      450,
      450,
      450,
      451,
      453,
      454,
      456,
      456,
      454,
      453,
      451,
      450,
      449,
      447,
      447,
      447,
      448,
      448,
      448,
      448,
      447,
      446,
      444,
      445,
      444,
      444,
      444,
      443,
      444,
      443,
      444,
      444,
      444,
      444,
      444,
      444,
      443,
      444,
      444,
      444,
      444,
      445,
      445,
      446,
      446,
      448,
      448,
      449,
      449,
      450,
      450,
      450,
      450,
      450,
      450,
      449,
      449,
      448,
      448,
      446,
      446,
      444,
      443,
      442,
      441,
      439,
      438,
      438,
      437,
      438,
      436,
      437,
      436,
      437,
      437,
      438,
      438,
      437,
      436,
      436,
      436,
      436,
      437,
      437,
      438,
      437,
      437,
      437,
      437,
      437,
      436,
      436,
      436,
      437,
      436,
      436,
      435,
      436,
      434,
      436,
      434,
      435,
      433,
      435,
      433,
      435,
      435,
      435,
      436,
      437,
      435,
      437,
      435,
      436,
      436,
      435,
      436,
      434,
      435,
      433,
      435,
      433,
      435,
      433,
      435,
      433,
      435,
      434,
      435,
      434,
      435,
      435,
      434,
      434,
      433,
      433,
      431,
      431,
      430,
      430,
      431,
      431,
      431,
      431,
      432,
      432,
      432,
      432,
      432,
      432,
      431,
      431,
      431,
      430,
      430,
      430,
      430,
      430,
      429,
      429,
      429,
      429,
      429,
      429,
      429,
      429,
      428,
      427,
      426,
      426,
      425,
      425,
      424,
      424,
      424,
      426,
      427,
      429,
      430,
      430,
      429,
      429,
      428,
      428,
      428,
      428,
      428,
      428,
      424,
      419,
      418,
      418,
      418,
      419,
      408,
      419,
      417,
      418,
      418,
      418,
      418,
      409,
      425,
      407,
      407,
      406,
      406,
      406,
      406,
      407,
      407,
      408,
      408,
      409,
      409,
      410,
      410,
      410,
      410,
      411,
      411,
      411,
      411,
      412,
      412,
      411,
      412,
      412,
      412,
      412,
      412,
      413,
      413,
      413,
      414,
      414,
      414,
      414,
      415,
      415,
      415,
      415,
      416,
      416,
      417,
      417,
      417,
      417,
      418,
      418,
      418,
      419,
      419,
      419,
      420,
      420,
      421,
      422,
      424,
      439,
      438,
      433,
      427,
      407,
      389,
      380,
      372,
      362,
      362,
      358,
      357,
      347,
      346,
      337,
      318,
      300,
      296,
      286,
      277,
      269,
      255,
      257,
      253,
      256,
      252,
      235,
      221,
      203,
      159,
      151
    ],
    "swim:timestamps": [
      1786284461,
      1786284491,
      1786284557,
      1786284618,
      1786284678,
      1786284738,
      1786284798,
      1786284858,
      1786284918,
      1786284979,
      1786285038,
      1786285098,
      1786285159,
      1786285219,
      1786285279,
      1786285339,
      1786285389,
      1786285399,
      1786285459,
      1786285509,
      1786285519,
      1786285580,
      1786285629,
      1786285640,
      1786285689,
      1786285700,
      1786285750,
      1786285760,
      1786285810,
      1786285820,
      1786285870,
      1786285880,
      1786285930,
      1786285990,
      1786286000,
      1786286050,
      1786286060,
      1786286110,
      1786286120,
      1786286170,
      1786286180,
      1786286230,
      1786286301,
      1786286350,
      1786286361,
      1786286421,
      1786286471,
      1786286531,
      1786286601,
      1786286651,
      1786286730,
      1786286781,
      1786286790,
      1786286841,
      1786286850,
      1786286910,
      1786286961,
      1786287022,
      1786287082,
      1786287142,
      1786287187,
      1786287202,
      1786287247,
      1786287262,
      1786287307,
      1786287322,
      1786287367,
      1786287382,
      1786287427,
      1786287442,
      1786287487,
      1786287502,
      1786287547,
      1786287667,
      1786287728,
      1786287788,
      1786287850,
      1786287908,
      1786287970,
      1786288028,
      1786288090,
      1786288150,
      1786288210,
      1786288270,
      1786288330,
      1786288391,
      1786288451,
      1786288511,
      1786288571,
      1786288631,
      1786288691,
      1786288751,
      1786288811,
      1786288871,
      1786288931,
      1786288991,
      1786289052,
      1786289112,
      1786289172,
      1786289232,
      1786289292,
      1786289352,
      1786289472,
      1786289532,
      1786289592,
      1786289652,
      1786289773,
      1786289833,
      1786289893,
      1786289953,
      1786290073,
      1786290133,
      1786290193,
      1786290253,
      1786290373,
      1786290434,
      1786290554,
      1786290614,
      1786290674,
      1786290734,
      1786290794,
      1786290854,
      1786290914,
      1786290974,
      1786291034,
      1786291095,
      1786291155,
      1786291215,
      1786291275,
      1786291455,
      1786291515,
      1786291575,
      1786291635,
      1786291695,
      1786291756,
      1786291876,
      1786291936,
      1786291996,
      1786292056,
      1786292116,
      1786292176,
      1786292236,
      1786292296,
      1786292356,
      1786292439,
      1786292477,
      1786292499,
      1786292537,
      1786292560,
      1786292597,
      1786292620,
      1786292657,
      1786292680,
      1786292740,
      1786292777,
      1786292800,
      1786292837,
      1786292860,
      1786292897,
      1786292920,
      1786292957,
      1786292980,
      1786293040,
      1786293077,
      1786293100,
      1786293138,
      1786293160,
      1786293198,
      1786293220,
      1786293258,
      1786293281,
      1786293318,
      1786293341,
      1786293378,
      1786293401,
      1786293438,
      1786293461,
      1786293498,
      1786293521,
      1786293558,
      1786293581,
      1786293618,
      1786293641,
      1786293678,
      1786293701,
      1786293739,
      1786293761,
      1786293799,
      1786293821,
      1786293859,
      1786293881,
      1786293919,
      1786293941,
      1786293979,
      1786294002,
      1786294062,
      1786294122,
      1786294182,
      1786294242,
      1786294302,
      1786294362,
      1786294422,
      1786294482,
      1786294542,
      1786294602,
      1786294662,
      1786294723,
      1786294783,
      1786294843,
      1786294903,
      1786294963,
      1786295023,
      1786295083,
      1786295143,
      1786295203,
      1786295237,
      1786295263,
      1786295297,
      1786295323,
      1786295357,
      1786295383,
      1786295417,
      1786295444,
      1786295477,
      1786295504,
      1786295537,
      1786295564,
      1786295597,
      1786295624,
      1786295658,
      1786295684,
      1786295744,
      1786295778,
      1786295804,
      1786295838,
      1786295864,
      1786295898,
      1786295924,
      1786295958,
      1786295984,
      1786296018,
      1786296044,
      1786296078,
      1786296104,
      1786296138,
      1786296165,
      1786296198,
      1786296225,
      1786296258,
      1786296285,
      1786296330,
      1786296345,
      1786296391,
      1786296405,
      1786296451,
      1786296465,
      1786296511,
      1786296525,
      1786296571,
      1786296585,
      1786296631,
      1786296645,
      1786296691,
      1786296705,
      1786296751,
      1786296765,
      1786296811,
      1786296825,
      1786296871,
      1786296886,
      1786296931,
      1786296946,
      1786296991,
      1786297006,
      1786297051,
      1786297066,
      1786297111,
      1786297126,
      1786297172,
      1786297186,
      1786297232,
      1786297246,
      1786297292,
      1786297306,
      1786297352,
      1786297366,
      1786297412,
      1786297426,
      1786297472,
      1786297486,
      1786297532,
      1786297547,
      1786297592,
      1786297607,
      1786297652,
      1786297667,
      1786297712,
      1786297772,
      1786297832,
      1786297893,
      1786297953,
      1786298013,
      1786298073,
      1786298133,
      1786298193,
      1786298253,
      1786298313,
      1786298373,
      1786298433,
      1786298493,
      1786298553,
      1786298614,
      1786298674,
      1786298734,
      1786298794,
      1786298854,
      1786298881,
      1786298914,
      1786298941,
      1786298974,
      1786299001,
      1786299034,
      1786299062,
      1786299094,
      1786299122,
      1786299154,
      1786299182,
      1786299214,
      1786299242,
      1786299274,
      1786299302,
      1786299334,
      1786299362,
      1786299395,
      1786299422,
      1786299455,
      1786299482,
      1786299515,
      1786299542,
      1786299575,
      1786299602,
      1786299635,
      1786299662,
      1786299695,
      1786299723,
      1786299755,
      1786299783,
      1786299815,
      1786299843,
      1786299875,
      1786299903,
      1786299935,
      1786299963,
      1786299995,
      1786300023,
      1786300055,
      1786300083,
      1786300116,
      1786300143,
      1786300176,
      1786300203,
      1786300236,
      1786300263,
      1786300296,
      1786300323,
      1786300356,
      1786300383,
      1786300416,
      1786300444,
      1786300476,
      1786300504,
      1786300624,
      1786300684,
      1786300744,
      1786300804,
      1786300864,
      1786300924,
      1786300984,
      1786301044,
      1786301104,
      1786301165,
      1786301218,
      1786301225,
      1786301291,
      1786301345,
      1786301411,
      1786301472,
      1786301531,
      1786301585,
      1786301591,
      1786301645,
      1786301657,
      1786301705,
      1786301716,
      1786301765,
      1786301777,
      1786301826,
      1786301832,
      1786301886,
      1786301897,
      1786301946,
      1786301957,
      1786302012,
      1786302066,
      1786302072,
      1786302126,
      1786302132,
      1786302197,
      1786302246,
      1786302252,
      1786302312,
      1786302366
    ],
    "wof:geomhash": "d2b2c120660571a1af1072a50dc74de1",
    "wof:id": 2047899081,
    "wof:repo": "sfomuseum-data-flights-2026-08"
  },
  "bbox": [
    -122.32805555555555,
    35.657777777777774,
    -78.81083333333333,
    38.635555555555555
  ],
  "geometry": {"type":"LineString","coordinates":[[-78.81083333333333,35.86555555555556],[-78.83138888888888,35.846944444444446],[-78.88861111111112,35.805],[-78.97555555555556,35.80583333333333],[-79.07,35.80638888888888],[-79.17055555555557,35.809444444444445],[-79.27166666666666,35.81194444444444],[-79.4038888888889,35.815],[-79.53277777777778,35.816111111111105],[-79.64972222222222,35.797777777777775],[-79.78777777777778,35.77472222222222],[-79.92166666666667,35.751666666666665],[-80.04861111111111,35.72916666666667],[-80.17472222222223,35.70722222222223],[-80.3436111111111,35.67777777777778],[-80.48833333333333,35.657777777777774],[-80.58972222222222,35.66416666666667],[-80.60638888888889,35.66555555555556],[-80.78527777777778,35.68083333333333],[-80.88833333333334,35.68944444444444],[-80.93666666666667,35.69361111111111],[-81.08916666666666,35.70638888888889],[-81.19666666666667,35.715],[-81.23916666666666,35.718611111111116],[-81.35055555555554,35.727222222222224],[-81.3888888888889,35.730555555555554],[-81.50611111111111,35.73972222222222],[-81.54333333333334,35.74305555555556],[-81.66305555555556,35.75194444444445],[-81.70055555555555,35.755],[-81.82277777777777,35.76444444444444],[-81.85916666666667,35.76722222222222],[-81.97694444444444,35.77638888888889],[-82.13,35.7875],[-82.16361111111112,35.790277777777774],[-82.28333333333333,35.799166666666665],[-82.31388888888888,35.801944444444445],[-82.43361111111112,35.81027777777778],[-82.46555555555555,35.81222222222222],[-82.58722222222222,35.82055555555556],[-82.61638888888888,35.82277777777778],[-82.73555555555555,35.83083333333334],[-82.91944444444445,35.843611111111116],[-83.03833333333333,35.85138888888889],[-83.07,35.853611111111114],[-83.22111111111111,35.86333333333334],[-83.34027777777777,35.87083333333334],[-83.48916666666666,35.88],[-83.66333333333334,35.89083333333333],[-83.78833333333333,35.89861111111111],[-83.98583333333333,35.92833333333333],[-84.09833333333333,35.96416666666667],[-84.12694444444443,35.972500000000004],[-84.26666666666667,36.01305555555555],[-84.26888888888888,36.013888888888886],[-84.40861111111111,36.05444444444444],[-84.54805555555555,36.09444444444445],[-84.68916666666667,36.13472222222222],[-84.83,36.17472222222222],[-84.96888888888888,36.21416666666667],[-85.08083333333333,36.24583333333334],[-85.10833333333333,36.25333333333333],[-85.2213888888889,36.285],[-85.24833333333333,36.29277777777778],[-85.36138888888888,36.32416666666667],[-85.38722222222223,36.331388888888895],[-85.49916666666667,36.362500000000004],[-85.5286111111111,36.37083333333334],[-85.63916666666667,36.40138888888889],[-85.66694444444445,36.40888888888889],[-85.77944444444444,36.439722222222215],[-85.80583333333333,36.44694444444444],[-85.90333333333334,36.47361111111111],[-86.18611111111112,36.535555555555554],[-86.32888888888888,36.562777777777775],[-86.4713888888889,36.58972222222222],[-86.62333333333332,36.617222222222225],[-86.75888888888889,36.64333333333333],[-86.91527777777779,36.67222222222222],[-87.0761111111111,36.70166666666667],[-87.21000000000001,36.726111111111116],[-87.35777777777777,36.751666666666665],[-87.48944444444444,36.776944444444446],[-87.6375,36.80277777777778],[-87.81555555555555,36.83416666666667],[-87.96583333333334,36.86027777777778],[-88.11333333333333,36.88583333333333],[-88.26444444444445,36.911944444444444],[-88.40805555555556,36.93666666666666],[-88.5586111111111,36.96194444444445],[-88.70805555555556,36.98694444444445],[-88.8561111111111,37.010555555555555],[-89.00888888888889,37.025277777777774],[-89.16027777777778,37.03944444444444],[-89.31416666666667,37.053888888888885],[-89.46638888888889,37.06777777777778],[-89.6211111111111,37.08166666666667],[-89.77361111111111,37.09527777777778],[-89.92805555555556,37.10888888888889],[-90.08166666666666,37.12222222222222],[-90.23611111111111,37.13527777777778],[-90.39583333333334,37.14861111111111],[-90.71333333333334,37.17472222222222],[-90.85083333333333,37.18555555555555],[-91.01472222222222,37.198611111111106],[-91.17472222222223,37.21083333333333],[-91.49777777777778,37.235],[-91.65805555555556,37.24666666666667],[-91.82083333333333,37.25833333333333],[-91.98138888888889,37.26972222222222],[-92.30527777777777,37.291666666666664],[-92.47027777777778,37.30277777777778],[-92.63083333333333,37.31305555555555],[-92.7911111111111,37.323055555555555],[-93.11166666666666,37.34277777777778],[-93.27333333333333,37.352222222222224],[-93.59277777777777,37.37277777777778],[-93.75416666666666,37.382777777777775],[-93.9113888888889,37.39222222222222],[-94.07,37.401666666666664],[-94.2286111111111,37.41111111111111],[-94.38555555555556,37.419999999999995],[-94.5436111111111,37.428888888888885],[-94.70083333333334,37.4375],[-94.85722222222222,37.44555555555555],[-95.01416666666667,37.453611111111115],[-95.17416666666666,37.46194444444445],[-95.33472222222221,37.469722222222224],[-95.49305555555556,37.477222222222224],[-95.97055555555556,37.49861111111111],[-96.1286111111111,37.513333333333335],[-96.28416666666666,37.52916666666667],[-96.44194444444445,37.54527777777778],[-96.59527777777777,37.56083333333333],[-96.75194444444445,37.57638888888889],[-97.0611111111111,37.60638888888889],[-97.21583333333334,37.62111111111111],[-97.37249999999999,37.63583333333333],[-97.51972222222223,37.64944444444444],[-97.67694444444444,37.66361111111111],[-97.83388888888888,37.67777777777778],[-97.98722222222223,37.69138888888889],[-98.15861111111111,37.70611111111111],[-98.31638888888888,37.719722222222224],[-98.50611111111111,37.73555555555556],[-98.62722222222222,37.745555555555555],[-98.66027777777778,37.74777777777778],[-98.78,37.75805555555556],[-98.815,37.76138888888889],[-98.93472222222222,37.77027777777778],[-98.96972222222223,37.77333333333333],[-99.09055555555555,37.782777777777774],[-99.12416666666665,37.784166666666664],[-99.2786111111111,37.796388888888885],[-99.40055555555556,37.80638888888888],[-99.43361111111112,37.808055555555555],[-99.525,37.81583333333333],[-99.58777777777777,37.819722222222225],[-99.71083333333334,37.82944444444445],[-99.77527777777777,37.83416666666667],[-99.86555555555555,37.84055555555556],[-99.93055555555556,37.84527777777778],[-100.08333333333333,37.85666666666667],[-100.17555555555556,37.864444444444445],[-100.23722222222223,37.86972222222222],[-100.33111111111111,37.8775],[-100.39666666666668,37.882777777777775],[-100.4888888888889,37.89],[-100.55138888888888,37.894999999999996],[-100.64361111111111,37.901944444444446],[-100.70833333333334,37.90694444444444],[-100.80111111111111,37.91416666666667],[-100.86472222222221,37.91916666666666],[-100.95416666666667,37.92583333333333],[-101.01666666666667,37.93055555555555],[-101.11194444444443,37.937777777777775],[-101.17305555555556,37.94222222222222],[-101.265,37.94888888888889],[-101.3286111111111,37.95333333333333],[-101.42111111111112,37.96],[-101.48583333333333,37.96472222222223],[-101.57527777777777,37.97083333333334],[-101.63944444444445,37.97527777777778],[-101.72722222222222,37.98166666666667],[-101.79416666666667,37.986111111111114],[-101.88305555555554,37.992222222222225],[-101.94444444444444,37.99638888888889],[-102.03388888888888,38.00055555555556],[-102.09888888888888,38.00083333333333],[-102.1888888888889,38.001666666666665],[-102.25194444444445,38.00222222222222],[-102.33944444444444,38.00277777777778],[-102.40416666666667,38.00333333333333],[-102.49527777777777,38.00388888888889],[-102.56138888888889,38.00416666666667],[-102.71444444444445,38.005],[-102.86833333333333,38.00555555555555],[-103.0213888888889,38.005833333333335],[-103.17416666666666,38.007777777777775],[-103.32694444444444,38.009166666666665],[-103.48111111111112,38.01027777777778],[-103.63166666666666,38.01111111111111],[-103.78472222222221,38.011944444444445],[-103.93666666666667,38.01222222222222],[-104.09055555555555,38.0125],[-104.24388888888889,38.01277777777778],[-104.39527777777778,38.01277777777778],[-104.54944444444445,38.0125],[-104.7,38.011944444444445],[-104.88555555555556,38.01111111111111],[-105.03916666666666,38.01027777777778],[-105.19222222222223,38.009166666666665],[-105.34555555555555,38.007777777777775],[-105.49638888888889,38.006388888888885],[-105.65055555555556,38.00472222222222],[-105.7325,37.999722222222225],[-105.80333333333333,38.00277777777778],[-105.88444444444445,38],[-105.95611111111111,38.00055555555556],[-106.03666666666666,37.99666666666667],[-106.10694444444444,37.994166666666665],[-106.18916666666667,37.98833333333334],[-106.26055555555556,37.98583333333333],[-106.34083333333332,37.980000000000004],[-106.41000000000001,37.97777777777778],[-106.49277777777777,37.970555555555556],[-106.55166666666666,37.96944444444445],[-106.64555555555556,37.96194444444445],[-106.70527777777778,37.96083333333333],[-106.79833333333333,37.95416666666667],[-106.85722222222222,37.95166666666667],[-107.0111111111111,37.942499999999995],[-107.07527777777777,37.93666666666666],[-107.16361111111112,37.933055555555555],[-107.25888888888889,37.92583333333333],[-107.32027777777778,37.92305555555555],[-107.41194444444444,37.91555555555556],[-107.47,37.913333333333334],[-107.56388888888888,37.90555555555555],[-107.62333333333332,37.903055555555554],[-107.68444444444445,37.897777777777776],[-107.77472222222222,37.893055555555556],[-107.865,37.88638888888889],[-107.92416666666666,37.882777777777775],[-108.01694444444445,37.875277777777775],[-108.07638888888889,37.871944444444445],[-108.16777777777779,37.865],[-108.22833333333334,37.86138888888889],[-108.32111111111111,37.85444444444445],[-108.37944444444443,37.85027777777778],[-108.50472222222223,37.840833333333336],[-108.52916666666667,37.839444444444446],[-108.6575,37.82916666666667],[-108.68305555555555,37.82777777777778],[-108.80611111111111,37.818333333333335],[-108.83305555555555,37.816111111111105],[-108.95666666666666,37.81222222222222],[-108.98222222222222,37.81472222222222],[-109.10555555555555,37.82805555555556],[-109.12972222222221,37.83083333333334],[-109.25694444444444,37.844722222222224],[-109.28,37.847500000000004],[-109.40555555555557,37.861111111111114],[-109.42861111111111,37.86361111111111],[-109.55694444444444,37.8775],[-109.58083333333333,37.88],[-109.70694444444445,37.89333333333333],[-109.73138888888889,37.895833333333336],[-109.85805555555555,37.909444444444446],[-109.88027777777778,37.91166666666666],[-110.00833333333334,37.925],[-110.03138888888888,37.92722222222222],[-110.1588888888889,37.94027777777777],[-110.17944444444444,37.94222222222222],[-110.30944444444444,37.955555555555556],[-110.3286111111111,37.9575],[-110.45805555555556,37.970555555555556],[-110.47916666666667,37.97277777777778],[-110.60749999999999,37.98527777777778],[-110.6286111111111,37.98722222222222],[-110.75805555555556,37.999722222222225],[-110.7786111111111,38.00194444444445],[-110.90944444444445,38.01416666666667],[-110.94944444444445,38.018055555555556],[-111.04166666666667,38.026666666666664],[-111.10055555555554,38.0325],[-111.19111111111111,38.04055555555556],[-111.25055555555555,38.04611111111111],[-111.33833333333332,38.05444444444444],[-111.39944444444446,38.059999999999995],[-111.48611111111111,38.06777777777778],[-111.54583333333333,38.073055555555555],[-111.63388888888889,38.08111111111111],[-111.69527777777778,38.086666666666666],[-111.78333333333333,38.09444444444445],[-111.84333333333333,38.099444444444444],[-111.93083333333334,38.106944444444444],[-112.08,38.11972222222222],[-112.22944444444444,38.1325],[-112.40944444444445,38.1475],[-112.56027777777777,38.15972222222222],[-112.71000000000001,38.17166666666667],[-112.85833333333333,38.18333333333333],[-113.00833333333334,38.19499999999999],[-113.15722222222223,38.20638888888889],[-113.30805555555555,38.217777777777776],[-113.45611111111111,38.22888888888889],[-113.60444444444444,38.239444444444445],[-113.75666666666666,38.250277777777775],[-113.90444444444445,38.260555555555555],[-114.05499999999999,38.270833333333336],[-114.20166666666667,38.280833333333334],[-114.34694444444445,38.290277777777774],[-114.49388888888889,38.3],[-114.63611111111112,38.32555555555556],[-114.76027777777777,38.39083333333333],[-114.80722222222222,38.416666666666664],[-114.88166666666666,38.45805555555556],[-114.92833333333334,38.48527777777778],[-115.00305555555556,38.52611111111111],[-115.05166666666666,38.55333333333333],[-115.12333333333332,38.593333333333334],[-115.1725,38.620555555555555],[-115.25361111111111,38.635555555555555],[-115.31,38.62138888888889],[-115.38611111111112,38.60333333333333],[-115.44388888888889,38.590833333333336],[-115.52333333333333,38.57083333333334],[-115.58111111111111,38.558055555555555],[-115.66222222222223,38.5375],[-115.71888888888888,38.52472222222222],[-115.8,38.50388888888889],[-115.85805555555555,38.490833333333335],[-115.93916666666667,38.47],[-115.99638888888889,38.45583333333334],[-116.07833333333333,38.43583333333333],[-116.13555555555556,38.42166666666667],[-116.21777777777778,38.401111111111106],[-116.27416666666666,38.38722222222222],[-116.35472222222222,38.36694444444444],[-116.41277777777778,38.3525],[-116.49361111111111,38.33222222222223],[-116.55138888888888,38.31777777777778],[-116.63333333333334,38.29694444444444],[-116.69083333333333,38.2825],[-116.77194444444444,38.261944444444445],[-116.82833333333333,38.24777777777778],[-116.90944444444445,38.22694444444445],[-116.96611111111112,38.21222222222222],[-117.04722222222222,38.19166666666666],[-117.10333333333332,38.17722222222222],[-117.18388888888889,38.156388888888884],[-117.23805555555556,38.1425],[-117.31166666666667,38.123333333333335],[-117.37694444444443,38.10666666666667],[-117.45083333333334,38.08722222222222],[-117.53694444444444,38.06472222222222],[-117.58833333333332,38.051111111111105],[-117.67333333333333,38.028888888888886],[-117.72638888888889,38.014722222222225],[-117.81555555555555,37.99861111111111],[-117.86944444444444,37.99305555555556],[-117.96138888888889,37.98305555555556],[-118.0175,37.977222222222224],[-118.10694444444444,37.967777777777776],[-118.16277777777778,37.96194444444445],[-118.25083333333333,37.9525],[-118.30805555555555,37.94611111111111],[-118.39694444444446,37.936388888888885],[-118.455,37.93],[-118.54333333333334,37.92027777777778],[-118.83416666666666,37.88777777777778],[-118.97972222222222,37.87111111111111],[-119.13027777777778,37.85388888888889],[-119.27472222222222,37.83694444444445],[-119.42194444444445,37.819722222222225],[-119.56777777777778,37.802499999999995],[-119.71305555555556,37.785],[-119.86194444444443,37.76694444444444],[-120.00722222222223,37.74888888888889],[-120.155,37.730555555555554],[-120.28333333333333,37.71666666666667],[-120.30638888888889,37.711666666666666],[-120.46666666666667,37.7],[-120.5775,37.67916666666667],[-120.76666666666667,37.65],[-120.9,37.63333333333333],[-121.03333333333333,37.61666666666667],[-121.1261111111111,37.611111111111114],[-121.16666666666667,37.6],[-121.25666666666666,37.593333333333334],[-121.3,37.583333333333336],[-121.38055555555555,37.57916666666667],[-121.41666666666667,37.583333333333336],[-121.49888888888889,37.565555555555555],[-121.53333333333333,37.56666666666667],[-121.61305555555555,37.55222222222222],[-121.63333333333334,37.55],[-121.7125,37.52972222222222],[-121.73333333333333,37.516666666666666],[-121.80611111111111,37.507777777777775],[-121.83333333333333,37.5],[-121.91666666666667,37.5],[-121.98361111111112,37.49944444444444],[-122,37.5],[-122.07194444444444,37.50666666666667],[-122.08333333333333,37.5],[-122.16666666666667,37.53333333333333],[-122.22333333333333,37.555],[-122.23333333333333,37.56666666666667],[-122.28333333333333,37.583333333333336],[-122.32805555555555,37.598888888888894]]}
}
