{
  "id": 2032063093,
  "type": "Feature",
  "properties": {
    "date:inception_lower": "2026-08-01",
    "date:inception_upper": "2026-08-01",
    "edtf:cessation": "",
    "edtf:inception": "2026-08-01",
    "flysfo:actual_timestamp": -1,
    "flysfo:airline": "UA",
    "flysfo:date": "2026-08-01",
    "flysfo:estimated_timestamp": 1785606480,
    "flysfo:event": "D",
    "flysfo:flight_number": "UA2139",
    "flysfo:gate": "B2",
    "flysfo:journey": "SFO-LIR",
    "flysfo:scheduled_timestamp": 1785606600,
    "flysfo:timestamp": 1785606600,
    "geom:area": 0,
    "geom:bbox": "-122.370943,10.593056,-85.545556,37.617990",
    "geom:latitude": 24.105522999999998,
    "geom:longitude": -103.9582495,
    "iata:airline": "UA",
    "icao:airline": "UAL",
    "lbl:latitude": 37.61799,
    "lbl:longitude": -122.370943,
    "sfomuseum:airline_id": 1159285413,
    "sfomuseum:arrival_id": 102537565,
    "sfomuseum:departure_id": 102527513,
    "sfomuseum:flight_id": "20260801-D-UAL-2139",
    "sfomuseum:flight_number": [
      "UAL2139",
      "UA2139"
    ],
    "sfomuseum:placetype": "flight",
    "src:geom": "flysfo",
    "wof:belongsto": [
      1947304067,
      102527513,
      1947304383,
      102191575,
      85633793,
      102087579,
      85922583,
      554784711,
      85688637,
      1947304385,
      1947304259,
      102085387
    ],
    "wof:country": "US",
    "wof:created": 1785687368,
    "wof:geomhash": "616ffa6e449396b97f6247dc82a6219c",
    "wof:hierarchy": [
      {
        "building_id": 1947304067,
        "campus_id": 102527513,
        "concourse_id": 1947304383,
        "continent_id": 102191575,
        "country_id": 85633793,
        "county_id": 102087579,
        "custom_id": 2032063093,
        "flight_id": 2032063093,
        "locality_id": 85922583,
        "postalcode_id": 554784711,
        "region_id": 85688637,
        "venue_id": 1947304385,
        "wing_id": 1947304259
      },
      {
        "building_id": 1947304067,
        "campus_id": 102527513,
        "concourse_id": 1947304383,
        "continent_id": 102191575,
        "country_id": 85633793,
        "county_id": 102085387,
        "custom_id": 2032063093,
        "flight_id": 2032063093,
        "region_id": 85688637,
        "venue_id": 1947304385,
        "wing_id": 1947304259
      }
    ],
    "wof:id": 2032063093,
    "wof:involves": [
      102537565,
      102527513,
      1159285413,
      1947304385
    ],
    "wof:lastmodified": 1785687368,
    "wof:name": "UA2139 (SFO-LIR)",
    "wof:parent_id": 1947304385,
    "wof:placetype": "custom",
    "wof:placetype_alt": [
      "flight"
    ],
    "wof:repo": "sfomuseum-data-flights-2026-08",
    "wof:superseded_by": [],
    "wof:supersedes": []
  },
  "bbox": [
    -122.370943,
    10.593056,
    -85.545556,
    37.61799
  ],
  "geometry": {"coordinates":[[-122.370943,37.61799],[-85.545556,10.593056]],"type":"MultiPoint"}
}
