{
  "id": 2032091769,
  "type": "Feature",
  "properties": {
    "geom:area": 0,
    "geom:bbox": "-122.402190,37.623190,-121.264230,38.161800",
    "geom:latitude": 37.98602861322736,
    "geom:longitude": -121.94710139848081,
    "src:alt_label": "swim-takeoff",
    "src:geom": "swim",
    "swim:elevations": [
      91,
      426,
      618,
      901,
      1291,
      1368,
      1404,
      1458,
      2309,
      2592,
      2886,
      3192,
      4035,
      4445,
      5054,
      5535,
      5931,
      6183,
      6237,
      6478,
      6557,
      7110,
      7251,
      7531,
      8105,
      8491
    ],
    "swim:geom": "takeoff",
    "swim:timestamps": [
      1785800238,
      1785800274,
      1785800302,
      1785800321,
      1785800355,
      1785800366,
      1785800375,
      1785800384,
      1785800443,
      1785800460,
      1785800480,
      1785800501,
      1785800557,
      1785800586,
      1785800632,
      1785800665,
      1785800694,
      1785800726,
      1785800743,
      1785800788,
      1785800794,
      1785800846,
      1785800861,
      1785800893,
      1785800969,
      1785801017
    ],
    "wof:geomhash": "1310583c68c13ce0707b62ca932c89b9",
    "wof:id": 2032091769,
    "wof:repo": "sfomuseum-data-flights-2026-08"
  },
  "bbox": [
    -122.40219,
    37.62319,
    -121.26423,
    38.1618
  ],
  "geometry": {"type":"LineString","coordinates":[[-122.38547,37.62319],[-122.40219,37.64558],[-122.38382,37.66662],[-122.36826,37.68174],[-122.34497,37.71254],[-122.33853,37.72372],[-122.33652,37.73404],[-122.338,37.74493],[-122.37272,37.81635],[-122.38214,37.83773],[-122.38614,37.8651],[-122.38458,37.89417],[-122.32301,37.95273],[-122.26887,37.96385],[-122.18246,37.98147],[-122.1186,37.9942],[-122.0625,38.00544],[-121.99731,38.01859],[-121.96156,38.02574],[-121.85518,38.04684],[-121.84129,38.04956],[-121.71399,38.07455],[-121.67618,38.08203],[-121.59509,38.09789],[-121.39616,38.13604],[-121.26423,38.1618]]}
}
