{
  "id": 2047930239,
  "type": "Feature",
  "properties": {
    "geom:area": 0,
    "geom:bbox": "-122.524300,37.631760,-121.303730,38.121530",
    "geom:latitude": 37.89708377718089,
    "geom:longitude": -121.97490897130501,
    "src:alt_label": "swim-takeoff",
    "src:geom": "swim",
    "swim:elevations": [
      382,
      633,
      699,
      1035,
      1163,
      1192,
      1250,
      1353,
      1417,
      2033,
      2325,
      2390,
      2869,
      3094,
      3210,
      3384,
      3452,
      3598,
      3719,
      4227,
      4322,
      4541,
      4996,
      5149,
      5350,
      5628,
      5885,
      5953,
      6116
    ],
    "swim:geom": "takeoff",
    "swim:timestamps": [
      1786516045,
      1786516069,
      1786516084,
      1786516133,
      1786516166,
      1786516172,
      1786516183,
      1786516224,
      1786516230,
      1786516288,
      1786516316,
      1786516322,
      1786516376,
      1786516406,
      1786516430,
      1786516468,
      1786516483,
      1786516516,
      1786516533,
      1786516588,
      1786516603,
      1786516628,
      1786516678,
      1786516696,
      1786516723,
      1786516756,
      1786516793,
      1786516805,
      1786516832
    ],
    "wof:geomhash": "f43cdfcf9af0d9bcd165576f8e38fa5a",
    "wof:id": 2047930239,
    "wof:repo": "sfomuseum-data-flights-2026-08"
  },
  "bbox": [
    -122.5243,
    37.63176,
    -121.30373,
    38.12153
  ],
  "geometry": {"type":"LineString","coordinates":[[-122.40536,37.63176],[-122.42676,37.64075],[-122.44053,37.64653],[-122.48535,37.66583],[-122.51719,37.68465],[-122.52087,37.69006],[-122.5243,37.70124],[-122.489,37.73714],[-122.47979,37.74],[-122.39114,37.77127],[-122.347,37.78574],[-122.33763,37.78866],[-122.25157,37.81663],[-122.20168,37.83274],[-122.16042,37.84628],[-122.09222,37.86864],[-122.06243,37.87858],[-121.9947,37.90045],[-121.95965,37.91172],[-121.84384,37.94894],[-121.81047,37.95973],[-121.7583,37.97651],[-121.64892,38.01164],[-121.60922,38.02438],[-121.55027,38.04323],[-121.47662,38.06669],[-121.39371,38.09298],[-121.36639,38.10156],[-121.30373,38.12153]]}
}
