{
  "id": 2047945693,
  "type": "Feature",
  "properties": {
    "geom:area": 0,
    "geom:bbox": "-122.544330,36.737160,-121.321750,37.668450",
    "geom:latitude": 37.21156944612186,
    "geom:longitude": -122.01345084364026,
    "src:alt_label": "swim-takeoff",
    "src:geom": "swim",
    "swim:elevations": [
      152,
      591,
      1041,
      1221,
      1647,
      1961,
      2293,
      2499,
      2621,
      3169,
      3251,
      3871,
      3979,
      4588,
      5118,
      5359,
      6031,
      6621,
      6882,
      7178,
      7476,
      7738,
      7866,
      8316,
      8329,
      8685,
      8813,
      9083,
      9245,
      9393,
      9514
    ],
    "swim:geom": "takeoff",
    "swim:timestamps": [
      1786535352,
      1786535384,
      1786535424,
      1786535452,
      1786535488,
      1786535511,
      1786535535,
      1786535546,
      1786535556,
      1786535595,
      1786535610,
      1786535663,
      1786535672,
      1786535725,
      1786535771,
      1786535790,
      1786535848,
      1786535909,
      1786535935,
      1786535963,
      1786535991,
      1786536017,
      1786536034,
      1786536086,
      1786536090,
      1786536145,
      1786536164,
      1786536205,
      1786536234,
      1786536255,
      1786536274
    ],
    "wof:geomhash": "ff0b1f7681235c53f69776582e352624",
    "wof:id": 2047945693,
    "wof:repo": "sfomuseum-data-flights-2026-08"
  },
  "bbox": [
    -122.54433,
    36.73716,
    -121.32175,
    37.66845
  ],
  "geometry": {"type":"LineString","coordinates":[[-122.39392,37.6265],[-122.42387,37.63943],[-122.46359,37.65665],[-122.49716,37.66845],[-122.54239,37.64778],[-122.54433,37.62112],[-122.52929,37.5926],[-122.52211,37.57903],[-122.51614,37.568],[-122.49081,37.52114],[-122.47965,37.50236],[-122.40616,37.44656],[-122.39379,37.43854],[-122.30999,37.38389],[-122.2362,37.33638],[-122.20456,37.31583],[-122.1072,37.25292],[-122.00337,37.18538],[-121.95679,37.15503],[-121.9061,37.12194],[-121.85558,37.08896],[-121.80855,37.05814],[-121.77872,37.03873],[-121.68282,36.97553],[-121.67527,36.97086],[-121.57115,36.90172],[-121.53535,36.8781],[-121.45659,36.82595],[-121.40049,36.78871],[-121.35868,36.76119],[-121.32175,36.73716]]}
}
