{
  "id": 2047994175,
  "type": "Feature",
  "properties": {
    "geom:area": 0,
    "geom:bbox": "-122.526370,37.624440,-121.265290,38.413470",
    "geom:latitude": 38.02200513001671,
    "geom:longitude": -121.89291564831149,
    "src:alt_label": "swim-takeoff",
    "src:geom": "swim",
    "swim:elevations": [
      404,
      612,
      658,
      1122,
      1314,
      1755,
      2111,
      2672,
      3057,
      3227,
      3260,
      3481,
      3810,
      4002,
      4546,
      4670,
      4907,
      5314,
      5586,
      5725,
      6086,
      6186,
      6531,
      6678,
      6802,
      7065,
      122,
      370,
      478,
      672,
      976,
      1153,
      1345,
      1854,
      2260,
      2621,
      2931,
      3143,
      3323,
      3453,
      3806,
      4087,
      4387,
      4574,
      4798,
      5097,
      5205,
      5558,
      5679,
      5880,
      6110,
      6163,
      6522,
      6632,
      7001,
      7153,
      7288,
      7364
    ],
    "swim:geom": "takeoff",
    "swim:timestamps": [
      1786867673,
      1786867705,
      1786867711,
      1786867762,
      1786867775,
      1786867805,
      1786867839,
      1786867888,
      1786867918,
      1786867947,
      1786867952,
      1786867991,
      1786868020,
      1786868040,
      1786868094,
      1786868106,
      1786868130,
      1786868175,
      1786868214,
      1786868232,
      1786868276,
      1786868287,
      1786868333,
      1786868354,
      1786868371,
      1786868404,
      1786948432,
      1786948451,
      1786948470,
      1786948500,
      1786948539,
      1786948557,
      1786948570,
      1786948610,
      1786948646,
      1786948676,
      1786948704,
      1786948727,
      1786948759,
      1786948788,
      1786948825,
      1786948851,
      1786948882,
      1786948903,
      1786948926,
      1786948968,
      1786948983,
      1786949031,
      1786949049,
      1786949074,
      1786949101,
      1786949113,
      1786949154,
      1786949170,
      1786949218,
      1786949248,
      1786949270,
      1786949281
    ],
    "wof:geomhash": "e201b6416895f94d847c65d68a02b7e7",
    "wof:id": 2047994175,
    "wof:repo": "sfomuseum-data-flights-2026-08"
  },
  "bbox": [
    -122.52637,
    37.62444,
    -121.26529,
    38.41347
  ],
  "geometry": {"type":"LineString","coordinates":[[-122.40002,37.63431],[-122.38672,37.65715],[-122.37981,37.65949],[-122.31186,37.68168],[-122.29284,37.68863],[-122.24997,37.70455],[-122.20377,37.72938],[-122.15639,37.78228],[-122.12655,37.81507],[-122.09574,37.84906],[-122.08959,37.85582],[-122.03678,37.90106],[-121.98912,37.93317],[-121.95619,37.95555],[-121.86577,38.01668],[-121.84434,38.03123],[-121.80269,38.05938],[-121.7231,38.11298],[-121.65246,38.16053],[-121.61896,38.18302],[-121.53676,38.23818],[-121.51437,38.25311],[-121.42552,38.31246],[-121.38502,38.33948],[-121.35094,38.36135],[-121.28135,38.40366],[-122.38844,37.62444],[-122.40434,37.63127],[-122.42267,37.63946],[-122.45418,37.65314],[-122.50383,37.67513],[-122.52147,37.69348],[-122.52487,37.71012],[-122.52637,37.76182],[-122.51055,37.80718],[-122.46611,37.82614],[-122.42398,37.84213],[-122.38716,37.857],[-122.33399,37.87942],[-122.28183,37.9016],[-122.21106,37.93087],[-122.16222,37.95166],[-122.10091,37.97872],[-122.06201,37.99861],[-122.01796,38.02094],[-121.93435,38.06319],[-121.90404,38.07844],[-121.80524,38.12831],[-121.76901,38.14656],[-121.71409,38.17417],[-121.65736,38.20263],[-121.63135,38.21567],[-121.54044,38.2612],[-121.50712,38.27783],[-121.39849,38.33236],[-121.33471,38.37042],[-121.29038,38.39796],[-121.26529,38.41347]]}
}
