{
  "id": 2048054297,
  "type": "Feature",
  "properties": {
    "date:inception_lower": "2026-08-18",
    "date:inception_upper": "2026-08-18",
    "edtf:cessation": "",
    "edtf:inception": "2026-08-18",
    "flysfo:actual_timestamp": -1,
    "flysfo:airline": "KL",
    "flysfo:base_airline": "",
    "flysfo:base_flight_number": "6936",
    "flysfo:date": "2026-08-18",
    "flysfo:estimated_timestamp": 1787101500,
    "flysfo:event": "D",
    "flysfo:flight_number": "KL9725",
    "flysfo:gate": "",
    "flysfo:journey": "SFO-YYC",
    "flysfo:scheduled_timestamp": 1787101500,
    "flysfo:timestamp": 1787101500,
    "geom:area": 0,
    "geom:bbox": "-122.370943,37.617990,-114.020920,51.119526",
    "geom:latitude": 44.368758,
    "geom:longitude": -118.1959315,
    "iata:airline": "KL",
    "iata:base_airline": "",
    "icao:airline": "KLM",
    "icao:base_airline": "DAL",
    "lbl:latitude": 37.61799,
    "lbl:longitude": -122.370943,
    "sfomuseum:airline_id": 1159284613,
    "sfomuseum:arrival_id": 102554947,
    "sfomuseum:base_flight_id": "20260818-D-DAL-6936",
    "sfomuseum:departure_id": 102527513,
    "sfomuseum:flight_id": "20260818-D-KLM-9725",
    "sfomuseum:flight_number": [
      "KLM9725",
      "KL9725"
    ],
    "sfomuseum:placetype": "flight",
    "src:geom": "flysfo",
    "wof:belongsto": [],
    "wof:country": "US",
    "wof:created": 1787156135,
    "wof:geomhash": "a7dd599440af55c5534b52449c3164ed",
    "wof:hierarchy": [
      {
        "custom_id": 2048054297,
        "flight_id": 2048054297
      }
    ],
    "wof:id": 2048054297,
    "wof:involves": [
      102554947,
      102527513,
      1159284613,
      -1,
      1159284261
    ],
    "wof:lastmodified": 1787156135,
    "wof:name": "KL9725 (SFO-YYC)",
    "wof:parent_id": -1,
    "wof:placetype": "custom",
    "wof:placetype_alt": [
      "flight"
    ],
    "wof:repo": "sfomuseum-data-flights-2026-08",
    "wof:superseded_by": [],
    "wof:supersedes": []
  },
  "bbox": [
    -122.370943,
    37.61799,
    -114.02092,
    51.119526
  ],
  "geometry": {"type":"MultiPoint","coordinates":[[-122.370943,37.61799],[-114.02092,51.119526]]}
}
