{
  "id": 2032115711,
  "type": "Feature",
  "properties": {
    "geom:area": 0,
    "geom:bbox": "-122.354167,33.917222,-118.519444,37.612222",
    "geom:latitude": 35.549395112222804,
    "geom:longitude": -120.63034576424981,
    "src:alt_label": "swim-path",
    "src:geom": "swim",
    "swim:altitudes": [
      "037",
      "048",
      "074",
      "099",
      "114",
      "130",
      "153",
      "175",
      "195",
      "217",
      "234",
      "254",
      "273",
      "291",
      "313",
      "320C",
      "320C",
      "320C",
      "320C",
      "320C",
      "320",
      "320",
      "320",
      "318",
      "289",
      "275",
      "262",
      "253",
      "248",
      "234",
      "219",
      "202",
      "189",
      "171",
      "154",
      "137",
      "118",
      "100",
      "088",
      "074",
      "058",
      "059",
      "046",
      "036",
      "027",
      "025",
      "019",
      "010",
      "002"
    ],
    "swim:geom": "path",
    "swim:speeds": [
      187,
      252,
      274,
      286,
      332,
      380,
      396,
      410,
      425,
      437,
      445,
      466,
      474,
      481,
      487,
      484,
      484,
      482,
      481,
      480,
      479,
      467,
      466,
      465,
      447,
      442,
      436,
      428,
      427,
      413,
      402,
      397,
      394,
      389,
      380,
      373,
      359,
      310,
      304,
      300,
      278,
      284,
      238,
      204,
      183,
      180,
      161,
      165,
      160
    ],
    "swim:timestamps": [
      1785914410,
      1785914470,
      1785914530,
      1785914590,
      1785914650,
      1785914710,
      1785914770,
      1785914831,
      1785914891,
      1785914951,
      1785915014,
      1785915071,
      1785915131,
      1785915191,
      1785915251,
      1785915311,
      1785915371,
      1785915431,
      1785915491,
      1785915551,
      1785915614,
      1785915731,
      1785915794,
      1785915851,
      1785915974,
      1785916034,
      1785916094,
      1785916124,
      1785916154,
      1785916214,
      1785916274,
      1785916335,
      1785916395,
      1785916455,
      1785916515,
      1785916575,
      1785916635,
      1785916755,
      1785916815,
      1785916875,
      1785916929,
      1785916935,
      1785916989,
      1785917055,
      1785917115,
      1785917121,
      1785917163,
      1785917235,
      1785917295
    ],
    "wof:geomhash": "633e2eff09256a7ac0f187117a3e1485",
    "wof:id": 2032115711,
    "wof:repo": "sfomuseum-data-flights-2026-08"
  },
  "bbox": [
    -122.35416666666666,
    33.91722222222222,
    -118.51944444444445,
    37.61222222222222
  ],
  "geometry": {"type":"LineString","coordinates":[[-118.51944444444445,33.92666666666666],[-118.59444444444443,33.92055555555555],[-118.68555555555555,33.9175],[-118.78055555555555,33.91722222222222],[-118.88611111111112,33.918055555555554],[-118.99527777777777,33.95472222222222],[-119.08416666666666,34.03777777777778],[-119.17555555555556,34.121944444444445],[-119.27,34.208333333333336],[-119.37055555555555,34.30027777777777],[-119.46833333333333,34.38972222222222],[-119.57722222222222,34.48861111111111],[-119.68472222222222,34.58638888888889],[-119.79222222222222,34.68333333333333],[-119.90333333333334,34.78361111111111],[-120.01444444444445,34.88305555555556],[-120.12472222222222,34.981944444444444],[-120.23555555555555,35.080555555555556],[-120.34638888888888,35.17916666666667],[-120.43583333333333,35.25861111111111],[-120.55277777777778,35.36194444444445],[-120.76944444444445,35.551944444444445],[-120.87972222222221,35.64833333333333],[-120.98527777777778,35.74027777777778],[-121.2,35.92638888888889],[-121.30333333333333,36.01555555555556],[-121.3963888888889,36.10861111111111],[-121.45,36.166666666666664],[-121.47444444444444,36.20916666666667],[-121.55055555555555,36.306666666666665],[-121.62472222222222,36.400555555555556],[-121.69805555555556,36.49388888888889],[-121.76972222222223,36.584722222222226],[-121.84305555555555,36.676944444444445],[-121.90222222222222,36.76916666666666],[-121.93027777777779,36.87083333333334],[-121.96666666666667,36.983333333333334],[-122.03277777777778,37.15555555555555],[-122.0611111111111,37.22833333333333],[-122.09194444444444,37.306666666666665],[-122.11666666666666,37.38333333333333],[-122.12194444444444,37.38305555555556],[-122.15,37.45],[-122.16472222222222,37.51166666666666],[-122.2025,37.54833333333333],[-122.21666666666667,37.55],[-122.25,37.56666666666667],[-122.30611111111111,37.591944444444444],[-122.35416666666666,37.61222222222222]]}
}
