{
  "id": 2047875163,
  "type": "Feature",
  "properties": {
    "geom:area": 0,
    "geom:bbox": "-122.350250,37.493560,-121.271750,37.610640",
    "geom:latitude": 37.54141942525416,
    "geom:longitude": -121.817815948907,
    "src:alt_label": "swim-approach",
    "src:geom": "swim",
    "swim:elevations": [
      4420,
      4174,
      4089,
      3688,
      3523,
      3139,
      3107,
      2981,
      2729,
      2596,
      2467,
      2276,
      2186,
      1928,
      1855,
      1824,
      1524,
      1524,
      1310,
      1070,
      1000,
      783,
      730,
      562,
      335,
      335,
      161,
      140,
      59
    ],
    "swim:geom": "approach",
    "swim:timestamps": [
      1786111825,
      1786111852,
      1786111860,
      1786111902,
      1786111921,
      1786111969,
      1786111981,
      1786112021,
      1786112058,
      1786112077,
      1786112107,
      1786112143,
      1786112161,
      1786112209,
      1786112227,
      1786112258,
      1786112300,
      1786112315,
      1786112348,
      1786112395,
      1786112409,
      1786112456,
      1786112464,
      1786112498,
      1786112547,
      1786112551,
      1786112596,
      1786112601,
      1786112620
    ],
    "wof:geomhash": "629b207f25abaa8d0657eeae39c863ec",
    "wof:id": 2047875163,
    "wof:repo": "sfomuseum-data-flights-2026-08"
  },
  "bbox": [
    -122.35025,
    37.49356,
    -121.27175,
    37.61064
  ],
  "geometry": {"type":"LineString","coordinates":[[-121.27175,37.59144],[-121.32626,37.58515],[-121.34153,37.58356],[-121.42731,37.574],[-121.46381,37.56991],[-121.55884,37.55861],[-121.58002,37.55605],[-121.65125,37.54452],[-121.71138,37.53001],[-121.74122,37.52284],[-121.78728,37.51197],[-121.83991,37.49928],[-121.86426,37.49356],[-121.93056,37.4942],[-121.95454,37.4955],[-121.99386,37.49731],[-122.0479,37.5008],[-122.06615,37.50191],[-122.10261,37.50668],[-122.15044,37.52652],[-122.16476,37.53256],[-122.2102,37.55176],[-122.21888,37.5553],[-122.25196,37.56928],[-122.29247,37.58639],[-122.29572,37.58775],[-122.33202,37.60297],[-122.33602,37.60468],[-122.35025,37.61064]]}
}
