{
  "id": 2047875163,
  "type": "Feature",
  "properties": {
    "geom:area": 0,
    "geom:bbox": "-122.344167,37.492778,-104.863611,39.842778",
    "geom:latitude": 38.70569758502615,
    "geom:longitude": -113.62683827898132,
    "src:alt_label": "swim-path",
    "src:geom": "swim",
    "swim:altitudes": [
      "087",
      "106",
      "134",
      "161",
      "182",
      "209",
      "220",
      "238",
      "243",
      "272",
      "280",
      "285",
      "295",
      "301",
      "311",
      "317",
      "323",
      "336",
      "353",
      "360C",
      "360C",
      "360C",
      "360C",
      "360C",
      "360C",
      "360C",
      "360C",
      "360C",
      "360C",
      "360C",
      "360C",
      "360C",
      "360C",
      "360C",
      "360C",
      "360C",
      "360C",
      "360C",
      "360C",
      "360C",
      "360C",
      "360C",
      "360C",
      "360C",
      "360C",
      "360C",
      "360C",
      "360C",
      "360C",
      "360C",
      "360C",
      "360C",
      "360C",
      "360C",
      "360C",
      "360C",
      "360",
      "368",
      "377",
      "380C",
      "380C",
      "380C",
      "380C",
      "380C",
      "380C",
      "380C",
      "380C",
      "380C",
      "380C",
      "380C",
      "380C",
      "380C",
      "380C",
      "380C",
      "380C",
      "380C",
      "380C",
      "380C",
      "380C",
      "380C",
      "380C",
      "380C",
      "380C",
      "380C",
      "380C",
      "380C",
      "380C",
      "380C",
      "380C",
      "380C",
      "380C",
      "380C",
      "380C",
      "380C",
      "380C",
      "380C",
      "380C",
      "380C",
      "380C",
      "380C",
      "380C",
      "380C",
      "380C",
      "380C",
      "380C",
      "380C",
      "380C",
      "380C",
      "380C",
      "380C",
      "380C",
      "380C",
      "380C",
      "380C",
      "380C",
      "380C",
      "380C",
      "380C",
      "380C",
      "380C",
      "380C",
      "380",
      "371",
      "344",
      "314",
      "290",
      "279",
      "266",
      "257",
      "244",
      "236",
      "224",
      "215",
      "203",
      "195",
      "183",
      "177",
      "163",
      "157",
      "144",
      "138",
      "125",
      "119",
      "108",
      "102",
      "100",
      "096",
      "087",
      "083",
      "077",
      "074",
      "067",
      "064",
      "060",
      "056",
      "050",
      "047",
      "040",
      "035",
      "030",
      "026",
      "020",
      "017",
      "011",
      "008",
      "003"
    ],
    "swim:geom": "path",
    "swim:speeds": [
      264,
      293,
      298,
      300,
      308,
      319,
      349,
      372,
      417,
      445,
      446,
      457,
      459,
      459,
      459,
      456,
      458,
      453,
      453,
      449,
      448,
      448,
      448,
      449,
      448,
      447,
      446,
      445,
      444,
      442,
      442,
      442,
      443,
      444,
      444,
      444,
      443,
      442,
      441,
      440,
      440,
      440,
      440,
      439,
      438,
      438,
      438,
      439,
      440,
      441,
      442,
      442,
      443,
      443,
      443,
      442,
      441,
      440,
      438,
      436,
      436,
      436,
      435,
      435,
      434,
      434,
      434,
      429,
      431,
      434,
      431,
      434,
      432,
      433,
      434,
      433,
      434,
      433,
      434,
      434,
      434,
      434,
      435,
      435,
      435,
      436,
      436,
      437,
      437,
      438,
      438,
      438,
      438,
      438,
      438,
      438,
      437,
      437,
      437,
      436,
      436,
      436,
      436,
      436,
      436,
      436,
      437,
      437,
      437,
      438,
      438,
      439,
      439,
      439,
      439,
      438,
      438,
      437,
      437,
      437,
      438,
      438,
      435,
      435,
      449,
      441,
      432,
      430,
      420,
      418,
      408,
      404,
      394,
      392,
      383,
      379,
      371,
      372,
      364,
      362,
      354,
      354,
      346,
      345,
      333,
      307,
      295,
      296,
      279,
      264,
      252,
      238,
      231,
      225,
      219,
      218,
      198,
      196,
      199,
      196,
      191,
      193,
      176,
      160,
      157,
      153
    ],
    "swim:timestamps": [
      1786130463,
      1786130523,
      1786130583,
      1786130643,
      1786130703,
      1786130775,
      1786130835,
      1786130895,
      1786130955,
      1786131075,
      1786131123,
      1786131135,
      1786131183,
      1786131196,
      1786131243,
      1786131256,
      1786131303,
      1786131375,
      1786131436,
      1786131496,
      1786131556,
      1786131676,
      1786131736,
      1786131795,
      1786131856,
      1786131916,
      1786131976,
      1786132036,
      1786132096,
      1786132157,
      1786132217,
      1786132277,
      1786132337,
      1786132396,
      1786132457,
      1786132517,
      1786132577,
      1786132637,
      1786132698,
      1786132758,
      1786132817,
      1786132877,
      1786132937,
      1786132997,
      1786133057,
      1786133117,
      1786133189,
      1786133249,
      1786133309,
      1786133370,
      1786133430,
      1786133490,
      1786133550,
      1786133610,
      1786133670,
      1786133754,
      1786133814,
      1786133874,
      1786133934,
      1786133994,
      1786134054,
      1786134115,
      1786134175,
      1786134235,
      1786134295,
      1786134355,
      1786134415,
      1786134453,
      1786134513,
      1786134535,
      1786134573,
      1786134595,
      1786134633,
      1786134693,
      1786134715,
      1786134753,
      1786134775,
      1786134813,
      1786134835,
      1786134874,
      1786134896,
      1786134934,
      1786134956,
      1786134994,
      1786135016,
      1786135054,
      1786135076,
      1786135114,
      1786135136,
      1786135174,
      1786135196,
      1786135234,
      1786135256,
      1786135294,
      1786135316,
      1786135354,
      1786135376,
      1786135414,
      1786135436,
      1786135474,
      1786135496,
      1786135534,
      1786135556,
      1786135595,
      1786135617,
      1786135655,
      1786135677,
      1786135715,
      1786135737,
      1786135775,
      1786135797,
      1786135835,
      1786135857,
      1786135895,
      1786135955,
      1786136015,
      1786136075,
      1786136135,
      1786136195,
      1786136255,
      1786136316,
      1786136376,
      1786136436,
      1786136496,
      1786136556,
      1786136616,
      1786136640,
      1786136676,
      1786136695,
      1786136736,
      1786136755,
      1786136796,
      1786136814,
      1786136856,
      1786136875,
      1786136916,
      1786136929,
      1786136977,
      1786136989,
      1786137037,
      1786137049,
      1786137097,
      1786137109,
      1786137157,
      1786137174,
      1786137217,
      1786137229,
      1786137277,
      1786137294,
      1786137337,
      1786137349,
      1786137397,
      1786137410,
      1786137457,
      1786137475,
      1786137517,
      1786137529,
      1786137577,
      1786137595,
      1786137637,
      1786137650,
      1786137698,
      1786137710,
      1786137758,
      1786137775,
      1786137818
    ],
    "wof:geomhash": "9d7b9935b5d992565edd74b235807893",
    "wof:id": 2047875163,
    "wof:repo": "sfomuseum-data-flights-2026-08"
  },
  "bbox": [
    -122.34416666666667,
    37.49277777777778,
    -104.86361111111111,
    39.84277777777778
  ],
  "geometry": {"type":"LineString","coordinates":[[-104.86361111111111,39.84277777777778],[-104.96638888888889,39.83166666666667],[-105.07083333333333,39.809999999999995],[-105.17583333333334,39.78861111111111],[-105.28416666666666,39.766666666666666],[-105.41444444444446,39.75472222222222],[-105.52305555555556,39.753055555555555],[-105.6563888888889,39.745],[-105.7961111111111,39.72],[-106.10472222222222,39.65972222222222],[-106.2225,39.63722222222222],[-106.28416666666666,39.625],[-106.385,39.60638888888889],[-106.44694444444445,39.60416666666667],[-106.54861111111111,39.594722222222224],[-106.61222222222221,39.59027777777778],[-106.71000000000001,39.58166666666667],[-106.8711111111111,39.56861111111112],[-107.09583333333333,39.5475],[-107.25666666666666,39.532777777777774],[-107.415,39.518055555555556],[-107.71333333333334,39.49],[-107.87222222222222,39.474722222222226],[-108.02083333333333,39.46027777777778],[-108.19277777777778,39.44333333333333],[-108.35583333333332,39.426944444444445],[-108.53388888888888,39.40888888888889],[-108.66222222222223,39.39555555555555],[-108.82055555555556,39.37888888888889],[-108.97972222222222,39.36194444444445],[-109.13611111111112,39.34527777777778],[-109.2961111111111,39.32777777777778],[-109.4538888888889,39.31055555555555],[-109.61277777777777,39.293055555555554],[-109.76916666666666,39.275277777777774],[-109.92555555555556,39.257222222222225],[-110.08194444444445,39.23916666666667],[-110.23805555555556,39.22083333333334],[-110.39333333333335,39.2025],[-110.55055555555555,39.183611111111105],[-110.70555555555556,39.164722222222224],[-110.86222222222221,39.14555555555555],[-111.01527777777778,39.12583333333333],[-111.16972222222223,39.10666666666667],[-111.33166666666666,39.08638888888889],[-111.45472222222223,39.07083333333334],[-111.63916666666667,39.04694444444444],[-111.82444444444444,39.0225],[-111.98,39.00194444444445],[-112.13361111111112,38.981388888888894],[-112.29083333333332,38.96],[-112.44555555555556,38.93861111111111],[-112.59972222222221,38.91722222222222],[-112.75444444444445,38.895833333333336],[-112.90833333333335,38.87444444444444],[-113.1236111111111,38.844166666666666],[-113.27777777777777,38.82194444444445],[-113.43166666666667,38.79972222222222],[-113.5825,38.77777777777778],[-113.73333333333333,38.755833333333335],[-113.88444444444445,38.733333333333334],[-114.03777777777778,38.71055555555556],[-114.1875,38.687777777777775],[-114.33916666666666,38.664722222222224],[-114.49,38.64138888888889],[-114.64,38.61805555555556],[-114.82,38.58972222222222],[-114.91194444444444,38.57555555555556],[-115.06194444444444,38.55222222222222],[-115.11972222222222,38.54222222222222],[-115.2088888888889,38.528888888888886],[-115.2713888888889,38.51777777777777],[-115.36,38.50472222222222],[-115.5111111111111,38.480000000000004],[-115.56944444444444,38.469166666666666],[-115.6613888888889,38.45527777777778],[-115.71972222222223,38.44444444444444],[-115.81222222222222,38.42972222222222],[-115.87083333333332,38.41916666666666],[-115.96194444444444,38.403888888888886],[-116.02194444444444,38.39388888888889],[-116.11138888888888,38.37861111111111],[-116.17194444444445,38.36833333333333],[-116.26277777777777,38.35277777777778],[-116.32222222222222,38.3425],[-116.41555555555556,38.32666666666667],[-116.47472222222223,38.31638888888889],[-116.56638888888888,38.300555555555555],[-116.62472222222222,38.29055555555556],[-116.7175,38.274166666666666],[-116.77638888888889,38.263888888888886],[-116.86861111111111,38.2475],[-116.92888888888889,38.23694444444445],[-117.01972222222223,38.22083333333334],[-117.07666666666667,38.21055555555556],[-117.16472222222222,38.19472222222222],[-117.2213888888889,38.18444444444444],[-117.31333333333333,38.168055555555554],[-117.36527777777778,38.15861111111111],[-117.45666666666666,38.14194444444444],[-117.51472222222222,38.13138888888889],[-117.60722222222222,38.114444444444445],[-117.66361111111112,38.10416666666667],[-117.75638888888889,38.08694444444445],[-117.81388888888888,38.07638888888889],[-117.90555555555557,38.061388888888885],[-117.96472222222222,38.05777777777777],[-118.06055555555555,38.05222222222222],[-118.11916666666666,38.04888888888889],[-118.21555555555555,38.04333333333333],[-118.27416666666666,38.04],[-118.37027777777777,38.03472222222222],[-118.42916666666667,38.03138888888889],[-118.52444444444444,38.02611111111111],[-118.67916666666667,38.0175],[-118.83111111111111,38.009166666666665],[-118.98333333333333,37.998333333333335],[-119.13305555555554,37.9675],[-119.28055555555555,37.93694444444444],[-119.42888888888889,37.906388888888884],[-119.57944444444443,37.875],[-119.7286111111111,37.843611111111116],[-119.87694444444443,37.81222222222222],[-120.02333333333333,37.78111111111111],[-120.17861111111111,37.74861111111111],[-120.3261111111111,37.71611111111111],[-120.4,37.7],[-120.47333333333333,37.691111111111105],[-120.53333333333333,37.68333333333333],[-120.61805555555554,37.674166666666665],[-120.68333333333334,37.666666666666664],[-120.75861111111111,37.6575],[-120.81666666666666,37.65],[-120.8963888888889,37.64083333333333],[-120.95,37.63333333333333],[-121.02833333333334,37.62444444444444],[-121.06666666666666,37.61666666666667],[-121.15472222222223,37.60722222222223],[-121.2,37.6],[-121.28027777777778,37.59027777777778],[-121.31666666666666,37.583333333333336],[-121.40416666666667,37.57666666666667],[-121.43333333333334,37.56666666666667],[-121.5213888888889,37.56305555555555],[-121.56666666666666,37.55],[-121.63277777777778,37.549166666666665],[-121.66666666666667,37.55],[-121.73194444444445,37.525],[-121.76666666666667,37.516666666666666],[-121.82333333333332,37.50361111111111],[-121.85,37.5],[-121.90583333333333,37.49277777777778],[-121.93333333333334,37.5],[-121.98472222222222,37.496944444444445],[-122.01666666666667,37.5],[-122.06222222222222,37.501666666666665],[-122.08333333333333,37.5],[-122.12555555555555,37.51638888888889],[-122.15,37.53333333333333],[-122.1863888888889,37.541666666666664],[-122.2,37.55],[-122.24527777777777,37.56638888888889],[-122.26666666666667,37.56666666666667],[-122.29666666666667,37.588055555555556],[-122.31666666666666,37.6],[-122.34416666666667,37.60805555555556]]}
}
