{
  "id": 2047941347,
  "type": "Feature",
  "properties": {
    "geom:area": 0,
    "geom:bbox": "-122.333333,37.550000,-122.085000,37.666667",
    "geom:latitude": 37.59849327481492,
    "geom:longitude": -122.19795570989257,
    "src:alt_label": "swim-path",
    "src:geom": "swim",
    "swim:altitudes": [
      "097",
      "057",
      "045",
      "036",
      "030",
      "026",
      "025",
      "017",
      "008",
      "009"
    ],
    "swim:geom": "path",
    "swim:speeds": [
      254,
      241,
      217,
      182,
      194,
      185,
      184,
      177,
      159,
      165
    ],
    "swim:timestamps": [
      1786587055,
      1786587189,
      1786587249,
      1786587309,
      1786587360,
      1786587420,
      1786587430,
      1786587481,
      1786587541,
      1786587550
    ],
    "wof:geomhash": "56f8a1c1167fa16f47ca9c53a69559ad",
    "wof:id": 2047941347,
    "wof:repo": "sfomuseum-data-flights-2026-08"
  },
  "bbox": [
    -122.33333333333333,
    37.55,
    -122.085,
    37.666666666666664
  ],
  "geometry": {"type":"LineString","coordinates":[[-122.33333333333333,37.666666666666664],[-122.16388888888889,37.61805555555556],[-122.08972222222222,37.596111111111114],[-122.085,37.55138888888889],[-122.15,37.55],[-122.2,37.56666666666667],[-122.20972222222223,37.56666666666667],[-122.26666666666667,37.583333333333336],[-122.31666666666666,37.6],[-122.31194444444444,37.59805555555556]]}
}
