{
  "id": 2047992697,
  "type": "Feature",
  "properties": {
    "geom:area": 0,
    "geom:bbox": "-122.357800,37.491390,-121.257820,37.613780",
    "geom:latitude": 37.54635583694293,
    "geom:longitude": -121.81271361446572,
    "src:alt_label": "swim-approach",
    "src:geom": "swim",
    "swim:elevations": [
      5465,
      5413,
      5155,
      5062,
      4600,
      4022,
      3705,
      3456,
      3220,
      3032,
      2825,
      2732,
      2224,
      2102,
      1993,
      1879,
      1713,
      1610,
      1357,
      1146,
      1096,
      939,
      851,
      665,
      504,
      385,
      282,
      186,
      91,
      3
    ],
    "swim:geom": "approach",
    "swim:timestamps": [
      1786914745,
      1786914751,
      1786914778,
      1786914786,
      1786914823,
      1786914867,
      1786914893,
      1786914921,
      1786914954,
      1786914981,
      1786915007,
      1786915028,
      1786915071,
      1786915091,
      1786915121,
      1786915159,
      1786915191,
      1786915208,
      1786915248,
      1786915282,
      1786915294,
      1786915321,
      1786915333,
      1786915372,
      1786915408,
      1786915436,
      1786915459,
      1786915478,
      1786915502,
      1786915523
    ],
    "wof:geomhash": "fbfbbf121bfbfa05eee6d668fdbee7f6",
    "wof:id": 2047992697,
    "wof:repo": "sfomuseum-data-flights-2026-08"
  },
  "bbox": [
    -122.3578,
    37.49139,
    -121.25782,
    37.61378
  ],
  "geometry": {"type":"LineString","coordinates":[[-121.25782,37.5935],[-121.27028,37.59187],[-121.32638,37.58521],[-121.34246,37.58348],[-121.41847,37.57531],[-121.5062,37.56514],[-121.55775,37.55901],[-121.61313,37.55224],[-121.67211,37.53922],[-121.7174,37.52853],[-121.75971,37.51859],[-121.79268,37.51069],[-121.8559,37.49527],[-121.88447,37.49139],[-121.92597,37.49184],[-121.97368,37.49311],[-122.01518,37.50304],[-122.03663,37.51005],[-122.08773,37.52694],[-122.12971,37.54057],[-122.14486,37.5456],[-122.17611,37.55586],[-122.18988,37.56032],[-122.23019,37.5732],[-122.26309,37.5834],[-122.2878,37.59072],[-122.30665,37.59639],[-122.32204,37.6008],[-122.34161,37.60717],[-122.3578,37.61378]]}
}
