{
  "id": 2047956701,
  "type": "Feature",
  "properties": {
    "geom:area": 0,
    "geom:bbox": "-122.550000,33.278333,-111.769167,37.666667",
    "geom:latitude": 34.80790788936408,
    "geom:longitude": -117.36413754487027,
    "src:alt_label": "swim-path",
    "src:geom": "swim",
    "swim:altitudes": [
      "018",
      "031",
      "030",
      "049",
      "051",
      "077",
      "102",
      "117",
      "117",
      "132",
      "154",
      "173",
      "173",
      "189",
      "193",
      "208",
      "224",
      "237",
      "251",
      "261",
      "273",
      "284",
      "291",
      "291",
      "298",
      "298",
      "309",
      "320",
      "329",
      "339",
      "339",
      "349C",
      "350C",
      "350C",
      "350C",
      "350C",
      "350C",
      "350C",
      "350C",
      "350C",
      "350C",
      "350C",
      "350C",
      "350C",
      "350C",
      "350C",
      "350C",
      "350C",
      "350C",
      "350C",
      "350C",
      "350C",
      "350C",
      "350C",
      "350C",
      "350C",
      "350C",
      "350C",
      "350C",
      "350C",
      "350C",
      "350C",
      "350C",
      "350C",
      "349C",
      "350C",
      "350C",
      "350C",
      "350C",
      "350C",
      "350C",
      "350C",
      "350C",
      "349C",
      "349C",
      "350C",
      "350C",
      "350C",
      "349",
      "350",
      "348",
      "339",
      "326",
      "303",
      "283",
      "249",
      "237",
      "226",
      "216",
      "205",
      "195",
      "185",
      "174",
      "159",
      "155",
      "148",
      "145",
      "137",
      "130",
      "128",
      "122",
      "120",
      "115",
      "110",
      "108",
      "103",
      "096",
      "090",
      "090",
      "090",
      "089",
      "084",
      "079",
      "072",
      "070",
      "070",
      "067",
      "059",
      "052",
      "046",
      "040",
      "036",
      "031",
      "030",
      "026",
      "022",
      "018",
      "015",
      "011"
    ],
    "swim:geom": "path",
    "swim:speeds": [
      165,
      238,
      221,
      261,
      258,
      273,
      278,
      290,
      318,
      353,
      366,
      369,
      374,
      381,
      392,
      407,
      416,
      429,
      435,
      439,
      445,
      450,
      456,
      459,
      471,
      469,
      475,
      474,
      473,
      472,
      472,
      461,
      461,
      455,
      455,
      453,
      453,
      451,
      451,
      450,
      450,
      448,
      448,
      448,
      448,
      448,
      447,
      447,
      446,
      444,
      444,
      442,
      440,
      439,
      438,
      439,
      439,
      414,
      434,
      459,
      462,
      464,
      464,
      465,
      465,
      465,
      466,
      467,
      468,
      468,
      467,
      465,
      462,
      458,
      458,
      459,
      460,
      462,
      464,
      469,
      470,
      469,
      468,
      465,
      454,
      420,
      421,
      402,
      399,
      396,
      391,
      383,
      373,
      351,
      354,
      341,
      340,
      326,
      322,
      324,
      319,
      322,
      302,
      295,
      281,
      269,
      258,
      258,
      257,
      256,
      251,
      255,
      248,
      252,
      237,
      210,
      197,
      202,
      195,
      199,
      190,
      192,
      185,
      187,
      167,
      158,
      151,
      155,
      137
    ],
    "swim:timestamps": [
      1786651421,
      1786651471,
      1786651481,
      1786651526,
      1786651541,
      1786651601,
      1786651661,
      1786651714,
      1786651721,
      1786651781,
      1786651841,
      1786651895,
      1786651901,
      1786651955,
      1786651961,
      1786652022,
      1786652082,
      1786652142,
      1786652202,
      1786652262,
      1786652322,
      1786652382,
      1786652435,
      1786652442,
      1786652496,
      1786652502,
      1786652556,
      1786652616,
      1786652676,
      1786652736,
      1786652743,
      1786652796,
      1786652803,
      1786652863,
      1786652916,
      1786652976,
      1786652983,
      1786653036,
      1786653043,
      1786653096,
      1786653103,
      1786653157,
      1786653163,
      1786653223,
      1786653277,
      1786653283,
      1786653337,
      1786653343,
      1786653397,
      1786653457,
      1786653464,
      1786653517,
      1786653577,
      1786653637,
      1786653697,
      1786653757,
      1786653818,
      1786653878,
      1786653938,
      1786653998,
      1786654058,
      1786654118,
      1786654178,
      1786654238,
      1786654298,
      1786654358,
      1786654418,
      1786654479,
      1786654539,
      1786654599,
      1786654659,
      1786654719,
      1786654779,
      1786654839,
      1786654899,
      1786654959,
      1786655019,
      1786655079,
      1786655140,
      1786655201,
      1786655261,
      1786655320,
      1786655381,
      1786655440,
      1786655500,
      1786655620,
      1786655682,
      1786655740,
      1786655802,
      1786655862,
      1786655921,
      1786655981,
      1786656041,
      1786656131,
      1786656162,
      1786656203,
      1786656223,
      1786656283,
      1786656323,
      1786656343,
      1786656383,
      1786656403,
      1786656437,
      1786656463,
      1786656491,
      1786656523,
      1786656551,
      1786656583,
      1786656606,
      1786656643,
      1786656671,
      1786656703,
      1786656725,
      1786656763,
      1786656785,
      1786656824,
      1786656845,
      1786656884,
      1786656911,
      1786656944,
      1786656971,
      1786657004,
      1786657031,
      1786657064,
      1786657091,
      1786657124,
      1786657157,
      1786657184,
      1786657244
    ],
    "wof:geomhash": "d48b50eeb6a11206fcb49efb3348e5fa",
    "wof:id": 2047956701,
    "wof:repo": "sfomuseum-data-flights-2026-08"
  },
  "bbox": [
    -122.55,
    33.27833333333333,
    -111.76916666666666,
    37.666666666666664
  ],
  "geometry": {"type":"LineString","coordinates":[[-122.41833333333334,37.636944444444445],[-122.48333333333333,37.666666666666664],[-122.47805555555556,37.663333333333334],[-122.55,37.65],[-122.54472222222222,37.63666666666666],[-122.505,37.568333333333335],[-122.47666666666667,37.49527777777778],[-122.40583333333333,37.43611111111111],[-122.39722222222223,37.44],[-122.30277777777778,37.37972222222222],[-122.20222222222222,37.31472222222222],[-122.10749999999999,37.24722222222222],[-122.10222222222221,37.249722222222225],[-122.00194444444445,37.18],[-121.97611111111111,37.16777777777777],[-121.86805555555554,37.09722222222222],[-121.75361111111111,37.02222222222222],[-121.6388888888889,36.94694444444444],[-121.52222222222223,36.87],[-121.42861111111111,36.808055555555555],[-121.30333333333333,36.725],[-121.18305555555555,36.64472222222222],[-121.06833333333333,36.565],[-121.06166666666667,36.56361111111111],[-120.93861111111111,36.48111111111111],[-120.9363888888889,36.47972222222222],[-120.81222222222222,36.39694444444444],[-120.68777777777778,36.31361111111111],[-120.56166666666667,36.228611111111114],[-120.43833333333333,36.14527777777778],[-120.43416666666667,36.1425],[-120.31638888888888,36.0625],[-120.31222222222222,36.05972222222222],[-120.19361111111111,35.97916666666667],[-120.07694444444444,35.89972222222222],[-119.9575,35.81777777777778],[-119.9538888888889,35.815],[-119.84083333333332,35.73527777777778],[-119.83722222222222,35.7325],[-119.72444444444444,35.653055555555554],[-119.72222222222223,35.65138888888889],[-119.60916666666667,35.57138888888889],[-119.60527777777777,35.56888888888889],[-119.49083333333333,35.487500000000004],[-119.37944444444443,35.408055555555556],[-119.37555555555555,35.405],[-119.26305555555555,35.325],[-119.26138888888889,35.32361111111111],[-119.14972222222222,35.24333333333333],[-119.03833333333333,35.163333333333334],[-119.03472222222221,35.160555555555554],[-118.92583333333334,35.081944444444446],[-118.81527777777778,35.00194444444445],[-118.70305555555557,34.92027777777778],[-118.60416666666666,34.848333333333336],[-118.4925,34.76638888888889],[-118.38472222222222,34.6875],[-118.28416666666666,34.60055555555556],[-118.18805555555556,34.516666666666666],[-118.04972222222221,34.47638888888889],[-117.90027777777779,34.43861111111111],[-117.7213888888889,34.393055555555556],[-117.5911111111111,34.359722222222224],[-117.4413888888889,34.32138888888889],[-117.29027777777777,34.282222222222224],[-117.12972222222221,34.24055555555556],[-116.98,34.20138888888889],[-116.83111111111111,34.16222222222222],[-116.68222222222222,34.12305555555555],[-116.52833333333334,34.08222222222223],[-116.38027777777778,34.0425],[-116.23444444444445,34.00361111111111],[-116.08638888888889,33.96333333333334],[-115.94027777777778,33.92388888888889],[-115.79583333333333,33.88444444444444],[-115.64833333333334,33.84388888888889],[-115.53111111111112,33.81166666666666],[-115.38444444444445,33.770833333333336],[-115.23527777777778,33.72944444444445],[-115.07583333333334,33.684999999999995],[-114.92805555555556,33.64333333333333],[-114.78972222222222,33.60416666666667],[-114.62888888888888,33.57055555555556],[-114.48916666666666,33.543055555555554],[-114.34083333333332,33.513888888888886],[-114.0611111111111,33.45861111111111],[-113.91361111111112,33.42916666666667],[-113.78,33.40222222222222],[-113.65361111111112,33.376666666666665],[-113.52722222222222,33.350833333333334],[-113.39944444444446,33.32694444444445],[-113.27666666666667,33.30555555555555],[-113.15305555555557,33.28666666666666],[-112.96666666666667,33.28333333333333],[-112.92027777777778,33.27833333333333],[-112.83333333333333,33.28333333333333],[-112.80444444444444,33.282222222222224],[-112.69805555555556,33.2925],[-112.61666666666666,33.3],[-112.58722222222222,33.30277777777778],[-112.5,33.31666666666667],[-112.48277777777778,33.3125],[-112.41666666666667,33.31666666666667],[-112.38361111111112,33.32138888888889],[-112.33333333333333,33.333333333333336],[-112.29166666666667,33.32972222222222],[-112.25,33.333333333333336],[-112.2075,33.33722222222222],[-112.16666666666667,33.333333333333336],[-112.12416666666665,33.345],[-112.08333333333333,33.35],[-112.04027777777777,33.34722222222222],[-112,33.35],[-111.95194444444445,33.34583333333334],[-111.91666666666667,33.35],[-111.8775,33.344722222222224],[-111.85,33.35],[-111.81194444444444,33.34805555555556],[-111.78333333333333,33.36666666666667],[-111.76916666666666,33.380833333333335],[-111.78333333333333,33.4],[-111.80916666666667,33.418055555555554],[-111.83333333333333,33.43333333333333],[-111.86333333333333,33.44],[-111.9,33.43333333333333],[-111.91944444444445,33.440555555555555],[-111.95,33.43333333333333],[-111.96888888888888,33.44083333333333],[-112.00944444444444,33.44083333333333]]}
}
