{
  "id": 2032135115,
  "type": "Feature",
  "properties": {
    "geom:area": 0,
    "geom:bbox": "-120.546111,33.275278,-111.800000,36.218333",
    "geom:latitude": 34.22427217300198,
    "geom:longitude": -116.23843094499053,
    "src:alt_label": "swim-path",
    "src:geom": "swim",
    "swim:altitudes": [
      "410C",
      "410C",
      "410C",
      "410C",
      "410C",
      "410C",
      "410C",
      "410C",
      "410C",
      "410C",
      "410C",
      "410C",
      "410C",
      "410C",
      "410C",
      "410C",
      "410C",
      "410C",
      "410C",
      "410C",
      "410C",
      "410C",
      "410C",
      "410C",
      "410C",
      "410C",
      "410C",
      "410C",
      "410C",
      "410C",
      "410C",
      "410C",
      "410C",
      "410C",
      "410C",
      "410C",
      "410C",
      "410C",
      "410C",
      "410C",
      "410C",
      "410C",
      "410C",
      "410C",
      "410C",
      "410C",
      "410C",
      "410C",
      "410C",
      "410C",
      "410",
      "410",
      "410",
      "410",
      "410",
      "410",
      "406",
      "400",
      "382",
      "375",
      "355",
      "346",
      "322",
      "314",
      "289",
      "272",
      "265",
      "250",
      "250",
      "250",
      "250",
      "250",
      "250",
      "250",
      "250",
      "240",
      "233",
      "220",
      "220",
      "220",
      "220",
      "206",
      "190",
      "183",
      "170",
      "170",
      "170",
      "159",
      "154",
      "138",
      "124",
      "116",
      "105",
      "093",
      "082",
      "074",
      "066",
      "065",
      "053",
      "045",
      "045",
      "036",
      "027",
      "020",
      "020",
      "014"
    ],
    "swim:geom": "path",
    "swim:speeds": [
      449,
      449,
      448,
      446,
      444,
      444,
      442,
      439,
      437,
      437,
      435,
      435,
      434,
      434,
      434,
      435,
      435,
      435,
      436,
      436,
      437,
      436,
      437,
      437,
      437,
      437,
      438,
      437,
      437,
      437,
      438,
      439,
      440,
      441,
      442,
      442,
      442,
      442,
      443,
      443,
      444,
      445,
      446,
      447,
      447,
      447,
      446,
      445,
      444,
      446,
      443,
      445,
      443,
      445,
      443,
      444,
      443,
      443,
      441,
      440,
      439,
      445,
      465,
      472,
      459,
      443,
      436,
      421,
      414,
      405,
      403,
      401,
      400,
      400,
      401,
      400,
      397,
      391,
      391,
      389,
      389,
      388,
      367,
      352,
      345,
      329,
      328,
      318,
      316,
      311,
      296,
      284,
      267,
      254,
      246,
      240,
      217,
      220,
      214,
      197,
      203,
      168,
      160,
      129,
      133,
      128
    ],
    "swim:timestamps": [
      1786072243,
      1786072250,
      1786072310,
      1786072370,
      1786072423,
      1786072430,
      1786072483,
      1786072550,
      1786072603,
      1786072610,
      1786072663,
      1786072670,
      1786072730,
      1786072783,
      1786072790,
      1786072844,
      1786072850,
      1786072910,
      1786072964,
      1786072970,
      1786073024,
      1786073030,
      1786073090,
      1786073144,
      1786073151,
      1786073211,
      1786073264,
      1786073324,
      1786073384,
      1786073505,
      1786073565,
      1786073625,
      1786073685,
      1786073745,
      1786073805,
      1786073865,
      1786073925,
      1786073985,
      1786074045,
      1786074105,
      1786074166,
      1786074226,
      1786074286,
      1786074346,
      1786074406,
      1786074466,
      1786074526,
      1786074586,
      1786074646,
      1786074667,
      1786074706,
      1786074727,
      1786074766,
      1786074787,
      1786074827,
      1786074848,
      1786074887,
      1786074908,
      1786074947,
      1786074968,
      1786075007,
      1786075028,
      1786075067,
      1786075088,
      1786075148,
      1786075187,
      1786075208,
      1786075247,
      1786075268,
      1786075307,
      1786075326,
      1786075367,
      1786075386,
      1786075427,
      1786075446,
      1786075488,
      1786075506,
      1786075548,
      1786075566,
      1786075608,
      1786075627,
      1786075668,
      1786075747,
      1786075807,
      1786075867,
      1786075885,
      1786075927,
      1786075987,
      1786075993,
      1786076053,
      1786076113,
      1786076167,
      1786076227,
      1786076287,
      1786076347,
      1786076408,
      1786076455,
      1786076468,
      1786076528,
      1786076581,
      1786076588,
      1786076648,
      1786076708,
      1786076755,
      1786076768,
      1786076828
    ],
    "wof:geomhash": "b98c50e2e58319ee2367af999381df5c",
    "wof:id": 2032135115,
    "wof:repo": "sfomuseum-data-flights-2026-08"
  },
  "bbox": [
    -120.5461111111111,
    33.275277777777774,
    -111.8,
    36.218333333333334
  ],
  "geometry": {"type":"LineString","coordinates":[[-120.5461111111111,36.218333333333334],[-120.52638888888889,36.205000000000005],[-120.4075,36.124722222222225],[-120.28972222222222,36.044999999999995],[-120.19388888888889,35.97972222222222],[-120.17416666666666,35.96611111111111],[-120.07972222222222,35.901666666666664],[-119.94361111111111,35.808055555555555],[-119.85111111111111,35.74277777777778],[-119.83083333333333,35.72833333333333],[-119.74,35.66416666666667],[-119.71805555555555,35.64861111111111],[-119.60555555555555,35.56916666666667],[-119.51666666666667,35.50611111111111],[-119.49388888888889,35.49],[-119.4088888888889,35.42916666666667],[-119.38277777777778,35.410555555555554],[-119.27027777777778,35.33027777777778],[-119.18583333333333,35.269444444444446],[-119.15777777777778,35.24944444444444],[-119.07416666666666,35.189166666666665],[-119.04694444444445,35.169444444444444],[-118.93555555555555,35.08916666666667],[-118.85305555555556,35.02916666666667],[-118.82333333333332,35.007777777777775],[-118.71361111111112,34.92833333333333],[-118.62833333333333,34.86611111111111],[-118.51861111111111,34.785555555555554],[-118.38944444444445,34.691111111111105],[-118.1888888888889,34.54333333333333],[-118.0611111111111,34.448611111111106],[-117.92805555555556,34.39944444444444],[-117.80472222222222,34.36944444444445],[-117.66111111111111,34.335],[-117.51861111111111,34.300555555555555],[-117.37472222222222,34.26583333333333],[-117.23277777777778,34.23111111111111],[-117.07944444444443,34.19333333333333],[-116.93694444444445,34.158055555555556],[-116.79416666666667,34.12277777777778],[-116.66388888888889,34.09],[-116.51916666666666,34.053888888888885],[-116.3761111111111,34.01777777777777],[-116.23194444444445,33.98083333333334],[-116.08805555555556,33.94416666666666],[-115.94638888888889,33.908055555555556],[-115.80444444444444,33.87138888888889],[-115.66166666666668,33.83416666666667],[-115.52027777777778,33.7975],[-115.47777777777777,33.785555555555554],[-115.37805555555555,33.76],[-115.33694444444444,33.74916666666667],[-115.23861111111111,33.723333333333336],[-115.20083333333334,33.71333333333334],[-115.09722222222221,33.68583333333333],[-115.05694444444444,33.675],[-114.95611111111111,33.64805555555556],[-114.91722222222222,33.63777777777778],[-114.81861111111111,33.61138888888889],[-114.78,33.60111111111111],[-114.67694444444444,33.57972222222222],[-114.63444444444445,33.57138888888889],[-114.5286111111111,33.55083333333333],[-114.485,33.54222222222222],[-114.33555555555554,33.51277777777778],[-114.23305555555555,33.4925],[-114.19194444444445,33.48444444444444],[-114.09444444444443,33.465],[-114.05722222222222,33.4575],[-113.96361111111112,33.43861111111111],[-113.92722222222223,33.43138888888889],[-113.835,33.41305555555555],[-113.79805555555555,33.405833333333334],[-113.70666666666666,33.38722222222222],[-113.66972222222223,33.37972222222222],[-113.57722222222222,33.36083333333333],[-113.54138888888889,33.353611111111114],[-113.44,33.333333333333336],[-113.41611111111112,33.32944444444445],[-113.31277777777777,33.31166666666666],[-113.28916666666666,33.3075],[-113.1875,33.29111111111111],[-113.03972222222222,33.275277777777774],[-112.9225,33.27777777777778],[-112.80749999999999,33.281666666666666],[-112.76666666666667,33.28333333333333],[-112.70055555555555,33.29194444444444],[-112.59555555555555,33.30166666666666],[-112.56666666666666,33.3],[-112.46666666666667,33.31666666666667],[-112.36666666666666,33.31666666666667],[-112.29277777777777,33.32944444444445],[-112.20444444444445,33.337500000000006],[-112.11666666666666,33.35],[-112.03333333333333,33.35],[-111.95916666666668,33.34583333333334],[-111.88333333333334,33.35],[-111.885,33.344722222222224],[-111.81722222222221,33.35138888888889],[-111.8,33.4],[-111.80722222222222,33.406666666666666],[-111.84722222222221,33.428888888888885],[-111.90083333333334,33.428888888888885],[-111.95,33.43333333333333],[-111.94694444444445,33.428888888888885],[-111.98777777777778,33.428888888888885]]}
}
