{
  "id": 2032135089,
  "type": "Feature",
  "properties": {
    "geom:area": 0,
    "geom:bbox": "-122.590190,36.880710,-122.384360,37.677430",
    "geom:latitude": 37.328731583307615,
    "geom:longitude": -122.54062031700796,
    "src:alt_label": "swim-takeoff",
    "src:geom": "swim",
    "swim:elevations": [
      122,
      372,
      396,
      417,
      527,
      583,
      638,
      958,
      1032,
      1717,
      2804,
      3245,
      3370,
      3722,
      4110,
      4569,
      5178,
      5562,
      6485,
      6937,
      7101,
      7167,
      7201,
      7538
    ],
    "swim:geom": "takeoff",
    "swim:timestamps": [
      1786005780,
      1786005802,
      1786005805,
      1786005808,
      1786005823,
      1786005828,
      1786005837,
      1786005863,
      1786005868,
      1786005915,
      1786005998,
      1786006037,
      1786006058,
      1786006090,
      1786006121,
      1786006155,
      1786006201,
      1786006235,
      1786006314,
      1786006359,
      1786006374,
      1786006382,
      1786006385,
      1786006419
    ],
    "wof:geomhash": "61dd2e5ccd7a808d2c78dbf0c17125b9",
    "wof:id": 2032135089,
    "wof:repo": "sfomuseum-data-flights-2026-08"
  },
  "bbox": [
    -122.59019,
    36.88071,
    -122.38436,
    37.67743
  ],
  "geometry": {"type":"LineString","coordinates":[[-122.38436,37.62511],[-122.40151,37.63262],[-122.4041,37.63366],[-122.40674,37.63473],[-122.42112,37.6404],[-122.42614,37.64247],[-122.43576,37.64639],[-122.46718,37.65892],[-122.47296,37.6612],[-122.53492,37.67743],[-122.59019,37.61536],[-122.58795,37.56284],[-122.58688,37.53014],[-122.5847,37.4791],[-122.58218,37.42449],[-122.57945,37.36475],[-122.57577,37.27996],[-122.57256,37.21567],[-122.55994,37.06259],[-122.52373,36.97766],[-122.49942,36.95393],[-122.48559,36.94052],[-122.48062,36.93569],[-122.42451,36.88071]]}
}
