{
  "id": 2047982279,
  "type": "Feature",
  "properties": {
    "date:inception_lower": "2026-08-15",
    "date:inception_upper": "2026-08-15",
    "edtf:cessation": "",
    "edtf:inception": "2026-08-15",
    "flysfo:actual_timestamp": -1,
    "flysfo:airline": "QF",
    "flysfo:base_airline": "",
    "flysfo:base_flight_number": "7054",
    "flysfo:date": "2026-08-15",
    "flysfo:estimated_timestamp": 1786828020,
    "flysfo:event": "D",
    "flysfo:flight_number": "QF3605",
    "flysfo:gate": "",
    "flysfo:journey": "SFO-YYC",
    "flysfo:scheduled_timestamp": 1786824000,
    "flysfo:timestamp": 1786828020,
    "geom:area": 0,
    "geom:bbox": "-122.370943,37.617990,-114.020920,51.119526",
    "geom:latitude": 44.368758,
    "geom:longitude": -118.1959315,
    "iata:airline": "QF",
    "iata:base_airline": "",
    "icao:airline": "QFA",
    "icao:base_airline": "AMX",
    "lbl:latitude": 37.61799,
    "lbl:longitude": -122.370943,
    "sfomuseum:airline_id": 1159285043,
    "sfomuseum:arrival_id": 102554947,
    "sfomuseum:base_flight_id": "20260815-D-AMX-7054",
    "sfomuseum:departure_id": 102527513,
    "sfomuseum:flight_id": "20260815-D-QFA-3605",
    "sfomuseum:flight_number": [
      "QFA3605",
      "QF3605"
    ],
    "sfomuseum:placetype": "flight",
    "src:geom": "flysfo",
    "wof:belongsto": [],
    "wof:country": "US",
    "wof:created": 1786896889,
    "wof:geomhash": "a7dd599440af55c5534b52449c3164ed",
    "wof:hierarchy": [
      {
        "custom_id": 2047982279,
        "flight_id": 2047982279
      }
    ],
    "wof:id": 2047982279,
    "wof:involves": [
      102554947,
      102527513,
      1159285043,
      -1,
      1159283539
    ],
    "wof:lastmodified": 1786896889,
    "wof:name": "QF3605 (SFO-YYC)",
    "wof:parent_id": -1,
    "wof:placetype": "custom",
    "wof:placetype_alt": [
      "flight"
    ],
    "wof:repo": "sfomuseum-data-flights-2026-08",
    "wof:superseded_by": [],
    "wof:supersedes": []
  },
  "bbox": [
    -122.370943,
    37.61799,
    -114.02092,
    51.119526
  ],
  "geometry": {"type":"MultiPoint","coordinates":[[-122.370943,37.61799],[-114.02092,51.119526]]}
}
