{
  "id": 2047977049,
  "type": "Feature",
  "properties": {
    "date:inception_lower": "2026-08-15",
    "date:inception_upper": "2026-08-15",
    "edtf:cessation": "",
    "edtf:inception": "2026-08-15",
    "flysfo:actual_timestamp": -1,
    "flysfo:airline": "AV",
    "flysfo:base_airline": "",
    "flysfo:base_flight_number": "2355",
    "flysfo:date": "2026-08-15",
    "flysfo:estimated_timestamp": 1786857060,
    "flysfo:event": "A",
    "flysfo:flight_number": "AV2355",
    "flysfo:gate": "",
    "flysfo:journey": "KOA-SFO",
    "flysfo:scheduled_timestamp": 1786857060,
    "flysfo:timestamp": 1786857060,
    "geom:area": 0,
    "geom:bbox": "-156.035060,19.732444,-122.370943,37.617990",
    "geom:latitude": 28.675217,
    "geom:longitude": -139.2030015,
    "iata:airline": "AV",
    "iata:base_airline": "",
    "icao:airline": "AVA",
    "icao:base_airline": "AVA",
    "lbl:latitude": 37.61799,
    "lbl:longitude": -122.370943,
    "sfomuseum:airline_id": 1159285749,
    "sfomuseum:arrival_id": 102527513,
    "sfomuseum:base_flight_id": "20260815-A-AVA-2355",
    "sfomuseum:departure_id": 102532939,
    "sfomuseum:flight_id": "20260815-A-AVA-2355",
    "sfomuseum:flight_number": [
      "AVA2355",
      "AV2355"
    ],
    "sfomuseum:placetype": "flight",
    "src:geom": "flysfo",
    "wof:belongsto": [],
    "wof:country": "US",
    "wof:created": 1786896293,
    "wof:geomhash": "d5ad4a83d3d679d1b3fe86e419b08d84",
    "wof:hierarchy": [
      {
        "custom_id": 2047977049,
        "flight_id": 2047977049
      }
    ],
    "wof:id": 2047977049,
    "wof:involves": [
      102527513,
      102532939,
      1159285749,
      -1,
      1159285749
    ],
    "wof:lastmodified": 1786896293,
    "wof:name": "AV2355 (KOA-SFO)",
    "wof:parent_id": -1,
    "wof:placetype": "custom",
    "wof:placetype_alt": [
      "flight"
    ],
    "wof:repo": "sfomuseum-data-flights-2026-08",
    "wof:superseded_by": [],
    "wof:supersedes": []
  },
  "bbox": [
    -156.03506,
    19.732444,
    -122.370943,
    37.61799
  ],
  "geometry": {"type":"MultiPoint","coordinates":[[-156.03506,19.732444],[-122.370943,37.61799]]}
}
