{
  "id": 2047899017,
  "type": "Feature",
  "properties": {
    "geom:area": 0,
    "geom:bbox": "-122.362222,35.916389,-114.901389,37.657500",
    "geom:latitude": 37.084645210802826,
    "geom:longitude": -118.4163925806055,
    "src:alt_label": "swim-path",
    "src:geom": "swim",
    "swim:altitudes": [
      "028",
      "040",
      "061",
      "066",
      "083",
      "105",
      "127",
      "142",
      "159",
      "183",
      "205",
      "224",
      "240",
      "255",
      "266",
      "279",
      "293",
      "308",
      "320",
      "332",
      "343",
      "343",
      "357",
      "360C",
      "360C",
      "360C",
      "360C",
      "360C",
      "360C",
      "360C",
      "360C",
      "360C",
      "360C",
      "360C",
      "360C",
      "360C",
      "360C",
      "360C",
      "360C",
      "360C",
      "360C",
      "360C",
      "360C",
      "360C",
      "360",
      "360",
      "346",
      "315",
      "286",
      "277",
      "262",
      "262",
      "238",
      "238",
      "220",
      "199",
      "179",
      "157",
      "147",
      "133",
      "114",
      "112",
      "099",
      "098",
      "084",
      "084",
      "073",
      "061",
      "060",
      "049",
      "038",
      "027",
      "017",
      "009",
      "009",
      "001"
    ],
    "swim:geom": "path",
    "swim:speeds": [
      192,
      229,
      243,
      260,
      271,
      288,
      304,
      352,
      379,
      385,
      393,
      410,
      409,
      432,
      451,
      457,
      462,
      465,
      467,
      465,
      467,
      465,
      461,
      457,
      458,
      457,
      454,
      452,
      446,
      445,
      445,
      445,
      445,
      440,
      439,
      438,
      438,
      437,
      437,
      437,
      437,
      437,
      436,
      436,
      436,
      436,
      435,
      448,
      458,
      452,
      445,
      445,
      429,
      432,
      405,
      394,
      376,
      366,
      377,
      355,
      342,
      344,
      307,
      311,
      288,
      292,
      266,
      258,
      261,
      248,
      228,
      215,
      193,
      161,
      165,
      157
    ],
    "swim:timestamps": [
      1786303174,
      1786303223,
      1786303273,
      1786303289,
      1786303333,
      1786303393,
      1786303453,
      1786303514,
      1786303574,
      1786303634,
      1786303694,
      1786303754,
      1786303814,
      1786303874,
      1786303934,
      1786303994,
      1786304054,
      1786304114,
      1786304169,
      1786304235,
      1786304289,
      1786304295,
      1786304355,
      1786304409,
      1786304475,
      1786304535,
      1786304595,
      1786304655,
      1786304710,
      1786304770,
      1786304830,
      1786304896,
      1786304956,
      1786305010,
      1786305070,
      1786305130,
      1786305196,
      1786305250,
      1786305310,
      1786305371,
      1786305431,
      1786305491,
      1786305551,
      1786305611,
      1786305671,
      1786305731,
      1786305791,
      1786305851,
      1786305911,
      1786305926,
      1786305962,
      1786305971,
      1786306023,
      1786306031,
      1786306092,
      1786306152,
      1786306203,
      1786306272,
      1786306332,
      1786306392,
      1786306443,
      1786306452,
      1786306504,
      1786306512,
      1786306563,
      1786306572,
      1786306623,
      1786306683,
      1786306692,
      1786306752,
      1786306813,
      1786306873,
      1786306933,
      1786306983,
      1786306993,
      1786307053
    ],
    "wof:geomhash": "a765d6c0efcb8fc29a1c417c0fc7d972",
    "wof:id": 2047899017,
    "wof:repo": "sfomuseum-data-flights-2026-08"
  },
  "bbox": [
    -122.36222222222221,
    35.91638888888889,
    -114.90138888888889,
    37.6575
  ],
  "geometry": {"type":"LineString","coordinates":[[-115.11055555555555,36.07555555555556],[-115.05166666666666,36.07055555555556],[-114.9825,36.06027777777778],[-114.96083333333334,36.05611111111111],[-114.90138888888889,36.03138888888889],[-114.94166666666668,35.973888888888894],[-115.04472222222222,35.966944444444444],[-115.16000000000001,35.95777777777778],[-115.27888888888889,35.94944444444444],[-115.41194444444444,35.93722222222222],[-115.54444444444444,35.92611111111111],[-115.68333333333334,35.916666666666664],[-115.80222222222221,35.916666666666664],[-115.97,35.91638888888889],[-116.07888888888888,36.00472222222222],[-116.1763888888889,36.085],[-116.29944444444445,36.18666666666666],[-116.41277777777778,36.27777777777778],[-116.51416666666667,36.36194444444445],[-116.63416666666667,36.46388888888889],[-116.73333333333333,36.551944444444445],[-116.73333333333333,36.551944444444445],[-116.84166666666667,36.64722222222222],[-116.94555555555556,36.74333333333333],[-117.02111111111111,36.85472222222222],[-117.095,36.968333333333334],[-117.18666666666667,37.07166666666667],[-117.28222222222222,37.17111111111111],[-117.40166666666667,37.25222222222222],[-117.52833333333334,37.323888888888895],[-117.6538888888889,37.394999999999996],[-117.78166666666667,37.467222222222226],[-117.91611111111112,37.531666666666666],[-118.03805555555556,37.543055555555554],[-118.1913888888889,37.555277777777775],[-118.34388888888888,37.566944444444445],[-118.52666666666667,37.58027777777778],[-118.64972222222222,37.58888888888889],[-118.80333333333333,37.599722222222226],[-118.95555555555556,37.61],[-119.10694444444444,37.62027777777778],[-119.25972222222222,37.62777777777778],[-119.41166666666668,37.630833333333335],[-119.565,37.63472222222222],[-119.71833333333333,37.638888888888886],[-119.87083333333332,37.6425],[-120.02388888888889,37.64555555555555],[-120.17833333333334,37.649166666666666],[-120.34138888888889,37.65222222222222],[-120.4,37.65],[-120.5,37.65],[-120.49638888888889,37.655],[-120.65,37.65],[-120.64972222222222,37.6575],[-120.79472222222222,37.653055555555554],[-120.93222222222222,37.636944444444445],[-121.06666666666666,37.61666666666667],[-121.20361111111112,37.60055555555556],[-121.33611111111111,37.58388888888889],[-121.46277777777777,37.57],[-121.56666666666666,37.55],[-121.5825,37.55583333333333],[-121.68333333333334,37.53333333333333],[-121.6913888888889,37.535],[-121.78333333333333,37.516666666666666],[-121.78888888888889,37.51166666666666],[-121.86666666666666,37.5],[-121.95,37.5],[-121.96972222222223,37.49611111111111],[-122.05722222222222,37.50111111111111],[-122.13361111111112,37.51916666666666],[-122.2,37.54722222222222],[-122.2611111111111,37.573055555555555],[-122.3,37.6],[-122.31416666666667,37.595555555555556],[-122.36222222222221,37.61555555555556]]}
}
