{
  "id": 2047900807,
  "type": "Feature",
  "properties": {
    "date:inception_lower": "2026-08-09",
    "date:inception_upper": "2026-08-09",
    "edtf:cessation": "",
    "edtf:inception": "2026-08-09",
    "flysfo:actual_timestamp": -1,
    "flysfo:airline": "NZ",
    "flysfo:base_airline": "",
    "flysfo:base_flight_number": "7326",
    "flysfo:date": "2026-08-09",
    "flysfo:estimated_timestamp": 1786308840,
    "flysfo:event": "D",
    "flysfo:flight_number": "NZ9403",
    "flysfo:gate": "F7",
    "flysfo:journey": "SFO-SEA",
    "flysfo:scheduled_timestamp": 1786309200,
    "flysfo:timestamp": 1786309200,
    "geom:area": 0,
    "geom:bbox": "-122.370943,37.617990,-122.304268,47.441823",
    "geom:latitude": 42.529906499999996,
    "geom:longitude": -122.3376055,
    "iata:airline": "NZ",
    "iata:base_airline": "",
    "icao:airline": "ANZ",
    "icao:base_airline": "ANA",
    "lbl:latitude": 37.61799,
    "lbl:longitude": -122.370943,
    "sfomuseum:airline_id": 1159283697,
    "sfomuseum:arrival_id": 102533269,
    "sfomuseum:base_flight_id": "20260809-D-ANA-7326",
    "sfomuseum:departure_id": 102527513,
    "sfomuseum:flight_id": "20260809-D-ANZ-9403",
    "sfomuseum:flight_number": [
      "ANZ9403",
      "NZ9403"
    ],
    "sfomuseum:placetype": "flight",
    "src:geom": "flysfo",
    "wof:belongsto": [
      1947304067,
      102527513,
      1947304451,
      102191575,
      85633793,
      102087579,
      85922583,
      554784711,
      85688637,
      1947304465,
      1947304447,
      102085387
    ],
    "wof:country": "US",
    "wof:created": 1786378384,
    "wof:geomhash": "4036ee3c983703867dbe0486453848b1",
    "wof:hierarchy": [
      {
        "building_id": 1947304067,
        "campus_id": 102527513,
        "concourse_id": 1947304451,
        "continent_id": 102191575,
        "country_id": 85633793,
        "county_id": 102087579,
        "custom_id": 2047900807,
        "flight_id": 2047900807,
        "locality_id": 85922583,
        "postalcode_id": 554784711,
        "region_id": 85688637,
        "venue_id": 1947304465,
        "wing_id": 1947304447
      },
      {
        "building_id": 1947304067,
        "campus_id": 102527513,
        "concourse_id": 1947304451,
        "continent_id": 102191575,
        "country_id": 85633793,
        "county_id": 102085387,
        "custom_id": 2047900807,
        "flight_id": 2047900807,
        "region_id": 85688637,
        "venue_id": 1947304465,
        "wing_id": 1947304447
      }
    ],
    "wof:id": 2047900807,
    "wof:involves": [
      102533269,
      102527513,
      1159283697,
      1947304465,
      1159283875
    ],
    "wof:lastmodified": 1786378384,
    "wof:name": "NZ9403 (SFO-SEA)",
    "wof:parent_id": 1947304465,
    "wof:placetype": "custom",
    "wof:placetype_alt": [
      "flight"
    ],
    "wof:repo": "sfomuseum-data-flights-2026-08",
    "wof:superseded_by": [],
    "wof:supersedes": []
  },
  "bbox": [
    -122.370943,
    37.61799,
    -122.304268,
    47.441823
  ],
  "geometry": {"type":"MultiPoint","coordinates":[[-122.370943,37.61799],[-122.304268,47.441823]]}
}
