{
  "id": 2047941363,
  "type": "Feature",
  "properties": {
    "geom:area": 0,
    "geom:bbox": "-156.416667,20.900000,-122.071944,37.616667",
    "geom:latitude": 29.838682223352997,
    "geom:longitude": -139.47114616977177,
    "src:alt_label": "swim-path",
    "src:geom": "swim",
    "swim:altitudes": [
      "006C",
      "020C",
      "043C",
      "070C",
      "093C",
      "112C",
      "127C",
      "147C",
      "158C",
      "168C",
      "181C",
      "192C",
      "203C",
      "215C",
      "225C",
      "234C",
      "243C",
      "252C",
      "260C",
      "268C",
      "275C",
      "281C",
      "288C",
      "297C",
      "306C",
      "315C",
      "329C",
      "340",
      "340",
      "340",
      "340",
      "340",
      "340",
      "340",
      "340",
      "340",
      "340",
      "340",
      "340",
      "340C",
      "340C",
      "340C",
      "340C",
      "340C",
      "340C",
      "340",
      "340C",
      "340",
      "340",
      "340",
      "340",
      "340",
      "340",
      "340",
      "340",
      "340",
      "340",
      "340",
      "340",
      "340",
      "340",
      "340",
      "340",
      "340",
      "340",
      "340",
      "340",
      "340",
      "330",
      "328C",
      "304",
      "298C",
      "276",
      "271C",
      "250",
      "246C",
      "227",
      "222C",
      "199C",
      "188",
      "179",
      "174",
      "154",
      "148",
      "129",
      "122",
      "102C",
      "100",
      "100C",
      "100",
      "100",
      "099C",
      "100",
      "096",
      "090",
      "082",
      "080",
      "071",
      "054",
      "040",
      "039",
      "035",
      "029",
      "018",
      "009",
      "001",
      "001"
    ],
    "swim:geom": "path",
    "swim:speeds": [
      140,
      200,
      250,
      270,
      280,
      300,
      340,
      350,
      370,
      400,
      410,
      420,
      430,
      430,
      440,
      450,
      450,
      460,
      470,
      470,
      480,
      480,
      490,
      490,
      490,
      490,
      480,
      470,
      480,
      490,
      490,
      490,
      490,
      490,
      490,
      490,
      490,
      490,
      490,
      472,
      470,
      469,
      469,
      470,
      474,
      470,
      477,
      480,
      479,
      480,
      480,
      480,
      481,
      480,
      482,
      490,
      483,
      490,
      483,
      490,
      482,
      480,
      482,
      480,
      482,
      480,
      482,
      480,
      483,
      480,
      482,
      480,
      485,
      480,
      469,
      470,
      450,
      450,
      440,
      419,
      419,
      412,
      412,
      406,
      407,
      401,
      402,
      373,
      370,
      374,
      372,
      324,
      310,
      311,
      303,
      304,
      298,
      285,
      276,
      243,
      226,
      220,
      203,
      196,
      160,
      149,
      153
    ],
    "swim:timestamps": [
      1786522656,
      1786522716,
      1786522777,
      1786522836,
      1786522897,
      1786522957,
      1786523017,
      1786523077,
      1786523138,
      1786523198,
      1786523258,
      1786523318,
      1786523379,
      1786523439,
      1786523499,
      1786523559,
      1786523619,
      1786523679,
      1786523739,
      1786523799,
      1786523859,
      1786523920,
      1786523980,
      1786524040,
      1786524100,
      1786524160,
      1786524220,
      1786524281,
      1786524341,
      1786524401,
      1786524461,
      1786524495,
      1786524521,
      1786524581,
      1786524642,
      1786524702,
      1786524732,
      1786524793,
      1786524864,
      1786536798,
      1786536858,
      1786536918,
      1786536978,
      1786537038,
      1786537098,
      1786537113,
      1786537158,
      1786537173,
      1786537218,
      1786537233,
      1786537278,
      1786537294,
      1786537338,
      1786537353,
      1786537398,
      1786537414,
      1786537458,
      1786537473,
      1786537518,
      1786537534,
      1786537578,
      1786537594,
      1786537638,
      1786537654,
      1786537698,
      1786537714,
      1786537758,
      1786537774,
      1786537818,
      1786537834,
      1786537878,
      1786537894,
      1786537938,
      1786537954,
      1786537998,
      1786538014,
      1786538058,
      1786538075,
      1786538134,
      1786538155,
      1786538178,
      1786538191,
      1786538238,
      1786538251,
      1786538298,
      1786538311,
      1786538358,
      1786538377,
      1786538418,
      1786538443,
      1786538479,
      1786538538,
      1786538557,
      1786538598,
      1786538623,
      1786538658,
      1786538665,
      1786538718,
      1786538778,
      1786538838,
      1786538898,
      1786538911,
      1786538959,
      1786539019,
      1786539079,
      1786539133,
      1786539139
    ],
    "wof:geomhash": "7e3f91a28dbea9d3ce06e3a25752f5a1",
    "wof:id": 2047941363,
    "wof:repo": "sfomuseum-data-flights-2026-08"
  },
  "bbox": [
    -156.41666666666666,
    20.9,
    -122.07194444444444,
    37.61666666666667
  ],
  "geometry": {"type":"LineString","coordinates":[[-156.41666666666666,20.9],[-156.4,20.95],[-156.4,21.016666666666666],[-156.38333333333333,21.1],[-156.35,21.166666666666668],[-156.28333333333333,21.216666666666665],[-156.21666666666667,21.283333333333335],[-156.13333333333333,21.35],[-156.05,21.416666666666668],[-155.96666666666667,21.5],[-155.88333333333333,21.566666666666666],[-155.8,21.65],[-155.7,21.733333333333334],[-155.6,21.816666666666666],[-155.51666666666668,21.9],[-155.41666666666666,21.983333333333334],[-155.31666666666666,22.083333333333332],[-155.21666666666667,22.166666666666668],[-155.11666666666667,22.25],[-155.01666666666668,22.35],[-154.9,22.433333333333334],[-154.8,22.533333333333335],[-154.7,22.616666666666667],[-154.58333333333334,22.716666666666665],[-154.48333333333332,22.8],[-154.36666666666667,22.9],[-154.26666666666668,22.983333333333334],[-154.16666666666666,23.083333333333332],[-154.06666666666666,23.166666666666668],[-153.95,23.266666666666666],[-153.85,23.35],[-153.78333333333333,23.4],[-153.73333333333332,23.45],[-153.63333333333333,23.55],[-153.51666666666668,23.633333333333333],[-153.4,23.733333333333334],[-153.35,23.783333333333335],[-153.23333333333332,23.85],[-153.06666666666666,23.95],[-126.52805555555555,35.606944444444444],[-126.38138888888888,35.64944444444444],[-126.22694444444444,35.693888888888885],[-126.07638888888889,35.73777777777778],[-125.93416666666667,35.799166666666665],[-125.79638888888888,35.8675],[-125.76666666666667,35.9],[-125.6563888888889,35.93666666666666],[-125.61666666666666,35.96666666666667],[-125.51611111111112,36.00555555555555],[-125.46666666666667,36.03333333333333],[-125.34416666666667,36.09],[-125.33333333333333,36.1],[-125.23222222222222,36.14416666666666],[-125.18333333333334,36.166666666666664],[-125.06055555555555,36.22777777777778],[-125.03333333333333,36.233333333333334],[-124.91888888888889,36.29611111111111],[-124.88333333333334,36.3],[-124.77555555555556,36.36527777777778],[-124.73333333333333,36.36666666666667],[-124.63305555555554,36.433611111111105],[-124.6,36.43333333333333],[-124.48972222222223,36.50194444444445],[-124.45,36.5],[-124.34722222222221,36.569722222222225],[-124.31666666666666,36.56666666666667],[-124.20305555555557,36.63777777777778],[-124.16666666666667,36.63333333333333],[-124.06027777777777,36.705000000000005],[-124.03333333333333,36.7],[-123.91611111111112,36.7725],[-123.88333333333334,36.78333333333333],[-123.77166666666666,36.84],[-123.73333333333333,36.85],[-123.62916666666666,36.90694444444444],[-123.6,36.916666666666664],[-123.49555555555555,36.968333333333334],[-123.46666666666667,36.96666666666667],[-123.33333333333333,37.03333333333333],[-123.28333333333333,37.06666666666667],[-123.23805555555556,37.08694444444445],[-123.21666666666667,37.1],[-123.11611111111111,37.1425],[-123.08333333333333,37.15],[-122.99416666666667,37.198055555555555],[-122.96666666666667,37.21666666666667],[-122.87333333333332,37.2525],[-122.83333333333333,37.266666666666666],[-122.75027777777778,37.28388888888889],[-122.7,37.3],[-122.61666666666666,37.31666666666667],[-122.51194444444444,37.339444444444446],[-122.46666666666667,37.35],[-122.40944444444445,37.363055555555555],[-122.36666666666666,37.36666666666667],[-122.30638888888889,37.38666666666666],[-122.3,37.38333333333333],[-122.21083333333334,37.40861111111111],[-122.11888888888888,37.42972222222222],[-122.07194444444444,37.480000000000004],[-122.1325,37.51888888888889],[-122.15,37.53333333333333],[-122.19694444444445,37.54611111111111],[-122.25805555555556,37.57166666666667],[-122.30944444444444,37.593611111111116],[-122.35,37.61666666666667],[-122.3561111111111,37.613055555555555]]}
}
