{
  "id": 2032077641,
  "type": "Feature",
  "properties": {
    "geom:area": 0,
    "geom:bbox": "-122.552740,36.726810,-121.486350,37.669300",
    "geom:latitude": 37.19622306199428,
    "geom:longitude": -122.11808713610773,
    "src:alt_label": "swim-takeoff",
    "src:geom": "swim",
    "swim:elevations": [
      371,
      659,
      1117,
      1327,
      1389,
      1626,
      1951,
      2363,
      2588,
      2852,
      3254,
      3493,
      3772,
      4168,
      4614,
      4646,
      4790,
      5113,
      5546,
      5683,
      5924,
      6189,
      6270,
      6579,
      6608,
      6932,
      7260,
      7405,
      7672,
      7970,
      8184,
      8228,
      8308,
      8423,
      8656,
      8857,
      8917
    ],
    "swim:geom": "takeoff",
    "swim:timestamps": [
      1785737395,
      1785737416,
      1785737454,
      1785737486,
      1785737495,
      1785737513,
      1785737535,
      1785737564,
      1785737581,
      1785737600,
      1785737629,
      1785737663,
      1785737689,
      1785737722,
      1785737758,
      1785737761,
      1785737773,
      1785737803,
      1785737843,
      1785737857,
      1785737881,
      1785737908,
      1785737916,
      1785737948,
      1785737952,
      1785737986,
      1785738024,
      1785738044,
      1785738077,
      1785738112,
      1785738140,
      1785738148,
      1785738157,
      1785738175,
      1785738208,
      1785738236,
      1785738245
    ],
    "wof:geomhash": "380606bbfd64d8136ff1c5b97c7cf8b0",
    "wof:id": 2032077641,
    "wof:repo": "sfomuseum-data-flights-2026-08"
  },
  "bbox": [
    -122.55274,
    36.72681,
    -121.48635,
    37.6693
  ],
  "geometry": {"coordinates":[[-122.40744,37.63276],[-122.42734,37.64146],[-122.46345,37.65682],[-122.50303,37.6693],[-122.51662,37.66759],[-122.54006,37.65489],[-122.55274,37.62858],[-122.54777,37.58914],[-122.54378,37.56685],[-122.539,37.54008],[-122.53212,37.49948],[-122.52113,37.4479],[-122.49307,37.41291],[-122.43891,37.37726],[-122.37964,37.33796],[-122.37473,37.33466],[-122.35494,37.32132],[-122.30541,37.28787],[-122.23787,37.24223],[-122.21367,37.22583],[-122.17065,37.19661],[-122.12411,37.16498],[-122.11014,37.1555],[-122.05329,37.11682],[-122.04609,37.11193],[-121.98445,37.06987],[-121.91436,37.02203],[-121.87698,36.99651],[-121.81478,36.95391],[-121.74627,36.90714],[-121.69193,36.87004],[-121.67716,36.8589],[-121.66015,36.8467],[-121.62572,36.82219],[-121.55998,36.77793],[-121.5044,36.73912],[-121.48635,36.72681]],"type":"LineString"}
}
