{
  "id": 2047872057,
  "type": "Feature",
  "properties": {
    "geom:area": 0,
    "geom:bbox": "-122.333333,35.112500,-80.970833,39.306111",
    "geom:latitude": 38.077337124101994,
    "geom:longitude": -101.50416705913473,
    "src:alt_label": "swim-path",
    "src:geom": "swim",
    "swim:altitudes": [
      "030",
      "033",
      "040",
      "048",
      "063",
      "071",
      "084",
      "092",
      "105",
      "122",
      "141",
      "182",
      "196",
      "208",
      "222",
      "226",
      "240",
      "247",
      "253",
      "261",
      "271",
      "281",
      "291",
      "293",
      "301",
      "302",
      "305",
      "305",
      "306",
      "307",
      "313",
      "314",
      "319C",
      "320C",
      "320C",
      "320C",
      "320C",
      "320C",
      "320C",
      "320C",
      "319C",
      "320C",
      "320C",
      "320C",
      "320C",
      "320C",
      "320C",
      "320C",
      "320C",
      "320C",
      "320C",
      "320C",
      "320C",
      "320C",
      "320C",
      "320C",
      "320C",
      "320C",
      "320C",
      "321C",
      "321C",
      "320C",
      "320C",
      "320C",
      "320C",
      "320C",
      "320C",
      "319C",
      "320C",
      "320C",
      "320C",
      "320C",
      "320C",
      "320C",
      "320C",
      "320C",
      "320C",
      "320C",
      "320C",
      "320C",
      "320C",
      "320C",
      "320C",
      "320C",
      "320C",
      "320C",
      "320C",
      "320C",
      "320C",
      "320C",
      "320C",
      "320C",
      "320C",
      "320C",
      "320C",
      "320C",
      "321C",
      "321C",
      "320C",
      "320C",
      "320C",
      "320C",
      "320C",
      "320C",
      "320C",
      "320C",
      "320C",
      "320C",
      "320C",
      "320C",
      "320C",
      "320C",
      "320C",
      "320C",
      "320C",
      "320C",
      "320C",
      "320C",
      "320C",
      "320C",
      "320C",
      "320C",
      "320C",
      "320C",
      "320C",
      "320C",
      "320C",
      "322",
      "330",
      "335",
      "340C",
      "340C",
      "340C",
      "340C",
      "340C",
      "340C",
      "340C",
      "340C",
      "340C",
      "340C",
      "340C",
      "340C",
      "340C",
      "340C",
      "340C",
      "340C",
      "340C",
      "340C",
      "340C",
      "340C",
      "340C",
      "340C",
      "340C",
      "340C",
      "340C",
      "340C",
      "340C",
      "340C",
      "340C",
      "340C",
      "340C",
      "340C",
      "340C",
      "340C",
      "340C",
      "340C",
      "340C",
      "340C",
      "340C",
      "340C",
      "340C",
      "340C",
      "340C",
      "340C",
      "340C",
      "340C",
      "340C",
      "340C",
      "340C",
      "340C",
      "340C",
      "340C",
      "340C",
      "340C",
      "340C",
      "340C",
      "340C",
      "340C",
      "340C",
      "340C",
      "340C",
      "340C",
      "340C",
      "340C",
      "340C",
      "340C",
      "340C",
      "341C",
      "341C",
      "340C",
      "340C",
      "340C",
      "340C",
      "340C",
      "340C",
      "340C",
      "340C",
      "340C",
      "340C",
      "340C",
      "340C",
      "340C",
      "340C",
      "340C",
      "340C",
      "340C",
      "340C",
      "340C",
      "340C",
      "340C",
      "340C",
      "340C",
      "340C",
      "340C",
      "340C",
      "340C",
      "340C",
      "340C",
      "340C",
      "340C",
      "340C",
      "340C",
      "340C",
      "340C",
      "340C",
      "340C",
      "340C",
      "340C",
      "340C",
      "340C",
      "340C",
      "340C",
      "340C",
      "340C",
      "340C",
      "340C",
      "340C",
      "340C",
      "340C",
      "340C",
      "340C",
      "340C",
      "340C",
      "340C",
      "340C",
      "340C",
      "340C",
      "340C",
      "340C",
      "340C",
      "340C",
      "340C",
      "340C",
      "340C",
      "340C",
      "340C",
      "340C",
      "340C",
      "340C",
      "340C",
      "340C",
      "340C",
      "340C",
      "340C",
      "340C",
      "340C",
      "340C",
      "340C",
      "340C",
      "340C",
      "340C",
      "340C",
      "340C",
      "340C",
      "340C",
      "340C",
      "340C",
      "340C",
      "340C",
      "340C",
      "340C",
      "340C",
      "340C",
      "340C",
      "340C",
      "340C",
      "340C",
      "340C",
      "340C",
      "340C",
      "340C",
      "339C",
      "340C",
      "339C",
      "340C",
      "339C",
      "340C",
      "340C",
      "340C",
      "340C",
      "340C",
      "340C",
      "340C",
      "340C",
      "340C",
      "340C",
      "340C",
      "340C",
      "340C",
      "340C",
      "340C",
      "340C",
      "340C",
      "340C",
      "340C",
      "340C",
      "340C",
      "340C",
      "340C",
      "340C",
      "340C",
      "339C",
      "340C",
      "340C",
      "340C",
      "340C",
      "340C",
      "340C",
      "340C",
      "340C",
      "340C",
      "340C",
      "340C",
      "340C",
      "340C",
      "340C",
      "340C",
      "340C",
      "341C",
      "340C",
      "340C",
      "340C",
      "335",
      "325",
      "315",
      "305",
      "295",
      "285",
      "265",
      "261",
      "239",
      "224",
      "220",
      "204",
      "199",
      "186",
      "180",
      "167",
      "162",
      "150",
      "144",
      "132",
      "125",
      "117",
      "111",
      "102",
      "098",
      "093",
      "090",
      "086",
      "082",
      "072",
      "065",
      "057",
      "053",
      "045",
      "041",
      "031",
      "024",
      "021",
      "015",
      "013",
      "007",
      "005"
    ],
    "swim:geom": "path",
    "swim:speeds": [
      197,
      210,
      257,
      257,
      265,
      267,
      277,
      274,
      304,
      326,
      335,
      356,
      363,
      369,
      402,
      426,
      439,
      442,
      450,
      453,
      454,
      453,
      448,
      447,
      445,
      443,
      442,
      448,
      455,
      457,
      458,
      458,
      457,
      460,
      463,
      465,
      466,
      466,
      466,
      465,
      464,
      463,
      462,
      462,
      463,
      464,
      464,
      463,
      463,
      462,
      462,
      461,
      459,
      460,
      459,
      460,
      459,
      459,
      459,
      460,
      460,
      458,
      455,
      450,
      445,
      445,
      440,
      443,
      440,
      444,
      443,
      445,
      444,
      446,
      447,
      449,
      448,
      449,
      448,
      449,
      448,
      447,
      446,
      442,
      440,
      439,
      437,
      435,
      435,
      434,
      432,
      433,
      432,
      431,
      432,
      432,
      432,
      432,
      432,
      432,
      431,
      430,
      429,
      429,
      432,
      434,
      436,
      436,
      435,
      434,
      435,
      436,
      436,
      436,
      435,
      434,
      434,
      434,
      435,
      436,
      435,
      433,
      432,
      432,
      433,
      433,
      433,
      433,
      432,
      428,
      421,
      422,
      426,
      426,
      426,
      426,
      427,
      428,
      428,
      430,
      431,
      432,
      433,
      434,
      435,
      436,
      437,
      437,
      438,
      437,
      436,
      437,
      436,
      437,
      436,
      436,
      437,
      437,
      437,
      438,
      438,
      438,
      438,
      438,
      438,
      437,
      436,
      436,
      436,
      437,
      436,
      438,
      437,
      438,
      437,
      438,
      437,
      437,
      437,
      437,
      438,
      440,
      442,
      444,
      445,
      445,
      445,
      446,
      447,
      447,
      448,
      447,
      446,
      445,
      445,
      446,
      448,
      449,
      450,
      449,
      448,
      445,
      445,
      445,
      446,
      446,
      446,
      446,
      446,
      445,
      443,
      446,
      443,
      447,
      443,
      448,
      446,
      449,
      448,
      450,
      448,
      457,
      453,
      463,
      464,
      464,
      466,
      459,
      467,
      453,
      461,
      452,
      456,
      452,
      454,
      452,
      454,
      452,
      453,
      451,
      453,
      451,
      453,
      450,
      452,
      449,
      452,
      452,
      450,
      448,
      449,
      448,
      449,
      448,
      448,
      447,
      448,
      447,
      447,
      446,
      446,
      445,
      445,
      445,
      445,
      444,
      444,
      444,
      445,
      445,
      445,
      445,
      446,
      445,
      445,
      444,
      444,
      444,
      444,
      444,
      444,
      443,
      443,
      443,
      442,
      443,
      443,
      443,
      442,
      442,
      441,
      440,
      441,
      441,
      441,
      441,
      441,
      440,
      440,
      437,
      438,
      437,
      437,
      437,
      437,
      437,
      437,
      437,
      437,
      437,
      438,
      437,
      439,
      439,
      440,
      441,
      442,
      442,
      443,
      444,
      444,
      444,
      444,
      444,
      444,
      444,
      443,
      443,
      442,
      442,
      441,
      441,
      440,
      440,
      440,
      441,
      441,
      441,
      441,
      441,
      441,
      441,
      440,
      440,
      440,
      440,
      440,
      441,
      441,
      441,
      439,
      438,
      437,
      437,
      446,
      452,
      453,
      441,
      434,
      429,
      429,
      417,
      398,
      398,
      388,
      386,
      378,
      376,
      369,
      367,
      358,
      357,
      348,
      338,
      325,
      313,
      295,
      285,
      272,
      256,
      247,
      236,
      204,
      204,
      198,
      200,
      194,
      191,
      191,
      178,
      164,
      154,
      156,
      151
    ],
    "swim:timestamps": [
      1786121569,
      1786121591,
      1786121629,
      1786121651,
      1786121689,
      1786121711,
      1786121750,
      1786121771,
      1786121831,
      1786121891,
      1786121951,
      1786122132,
      1786122192,
      1786122252,
      1786122372,
      1786122432,
      1786122552,
      1786122612,
      1786122672,
      1786122732,
      1786122792,
      1786122853,
      1786122913,
      1786122921,
      1786122973,
      1786122981,
      1786123033,
      1786123041,
      1786123093,
      1786123101,
      1786123153,
      1786123161,
      1786123221,
      1786123273,
      1786123281,
      1786123333,
      1786123341,
      1786123393,
      1786123401,
      1786123453,
      1786123462,
      1786123513,
      1786123522,
      1786123574,
      1786123582,
      1786123634,
      1786123642,
      1786123694,
      1786123702,
      1786123754,
      1786123762,
      1786123822,
      1786123875,
      1786123882,
      1786123942,
      1786123995,
      1786124002,
      1786124062,
      1786124115,
      1786124175,
      1786124183,
      1786124243,
      1786124303,
      1786124363,
      1786124416,
      1786124423,
      1786124476,
      1786124483,
      1786124536,
      1786124603,
      1786124656,
      1786124663,
      1786124716,
      1786124776,
      1786124836,
      1786124843,
      1786124896,
      1786124903,
      1786124957,
      1786124964,
      1786125024,
      1786125077,
      1786125084,
      1786125144,
      1786125197,
      1786125204,
      1786125264,
      1786125317,
      1786125324,
      1786125384,
      1786125437,
      1786125444,
      1786125504,
      1786125558,
      1786125564,
      1786125624,
      1786125678,
      1786125685,
      1786125738,
      1786125745,
      1786125798,
      1786125858,
      1786125918,
      1786125978,
      1786126038,
      1786126098,
      1786126158,
      1786126219,
      1786126279,
      1786126339,
      1786126399,
      1786126459,
      1786126519,
      1786126579,
      1786126639,
      1786126699,
      1786126759,
      1786126820,
      1786126880,
      1786126940,
      1786127000,
      1786127060,
      1786127120,
      1786127180,
      1786127240,
      1786127300,
      1786127360,
      1786127420,
      1786127480,
      1786127541,
      1786127601,
      1786127661,
      1786127721,
      1786127781,
      1786127841,
      1786127901,
      1786127961,
      1786128021,
      1786128081,
      1786128141,
      1786128201,
      1786128262,
      1786128322,
      1786128382,
      1786128442,
      1786128502,
      1786128562,
      1786128622,
      1786128672,
      1786128682,
      1786128732,
      1786128742,
      1786128792,
      1786128802,
      1786128852,
      1786128862,
      1786128923,
      1786128972,
      1786128983,
      1786129033,
      1786129043,
      1786129093,
      1786129103,
      1786129153,
      1786129163,
      1786129273,
      1786129283,
      1786129333,
      1786129343,
      1786129393,
      1786129403,
      1786129453,
      1786129463,
      1786129513,
      1786129523,
      1786129573,
      1786129583,
      1786129644,
      1786129693,
      1786129704,
      1786129754,
      1786129814,
      1786129874,
      1786129934,
      1786129994,
      1786130054,
      1786130114,
      1786130174,
      1786130234,
      1786130294,
      1786130354,
      1786130414,
      1786130475,
      1786130535,
      1786130595,
      1786130655,
      1786130715,
      1786130775,
      1786130835,
      1786130895,
      1786130955,
      1786131075,
      1786131135,
      1786131195,
      1786131256,
      1786131316,
      1786131376,
      1786131436,
      1786131496,
      1786131556,
      1786131627,
      1786131676,
      1786131687,
      1786131736,
      1786131747,
      1786131796,
      1786131807,
      1786131856,
      1786131868,
      1786131916,
      1786131928,
      1786131977,
      1786131988,
      1786132037,
      1786132048,
      1786132097,
      1786132108,
      1786132157,
      1786132168,
      1786132217,
      1786132228,
      1786132277,
      1786132288,
      1786132337,
      1786132348,
      1786132397,
      1786132408,
      1786132457,
      1786132468,
      1786132517,
      1786132528,
      1786132577,
      1786132588,
      1786132637,
      1786132649,
      1786132698,
      1786132709,
      1786132769,
      1786132829,
      1786132878,
      1786132889,
      1786132938,
      1786132949,
      1786132998,
      1786133009,
      1786133058,
      1786133069,
      1786133118,
      1786133129,
      1786133178,
      1786133189,
      1786133238,
      1786133298,
      1786133358,
      1786133370,
      1786133418,
      1786133479,
      1786133550,
      1786133599,
      1786133610,
      1786133659,
      1786133670,
      1786133754,
      1786133814,
      1786133874,
      1786133934,
      1786133994,
      1786134054,
      1786134115,
      1786134175,
      1786134235,
      1786134295,
      1786134355,
      1786134415,
      1786134475,
      1786134535,
      1786134595,
      1786134655,
      1786134715,
      1786134775,
      1786134835,
      1786134896,
      1786134956,
      1786135016,
      1786135076,
      1786135196,
      1786135256,
      1786135282,
      1786135316,
      1786135342,
      1786135376,
      1786135402,
      1786135436,
      1786135462,
      1786135496,
      1786135522,
      1786135556,
      1786135583,
      1786135617,
      1786135643,
      1786135677,
      1786135703,
      1786135737,
      1786135763,
      1786135797,
      1786135823,
      1786135857,
      1786135883,
      1786135917,
      1786135943,
      1786135977,
      1786136003,
      1786136037,
      1786136063,
      1786136097,
      1786136123,
      1786136157,
      1786136183,
      1786136217,
      1786136243,
      1786136277,
      1786136304,
      1786136337,
      1786136364,
      1786136398,
      1786136424,
      1786136458,
      1786136484,
      1786136518,
      1786136544,
      1786136578,
      1786136604,
      1786136638,
      1786136664,
      1786136698,
      1786136724,
      1786136784,
      1786136844,
      1786136904,
      1786136965,
      1786137025,
      1786137085,
      1786137145,
      1786137205,
      1786137265,
      1786137325,
      1786137385,
      1786137445,
      1786137505,
      1786137511,
      1786137572,
      1786137625,
      1786137631,
      1786137686,
      1786137697,
      1786137746,
      1786137757,
      1786137806,
      1786137817,
      1786137866,
      1786137877,
      1786137926,
      1786137943,
      1786137986,
      1786137998,
      1786138046,
      1786138058,
      1786138106,
      1786138118,
      1786138166,
      1786138178,
      1786138238,
      1786138297,
      1786138346,
      1786138358,
      1786138407,
      1786138418,
      1786138478,
      1786138527,
      1786138538,
      1786138587,
      1786138598,
      1786138647,
      1786138658
    ],
    "wof:geomhash": "65047cb5636376fc777b25b86d1892ad",
    "wof:id": 2047872057,
    "wof:repo": "sfomuseum-data-flights-2026-08"
  },
  "bbox": [
    -122.33333333333333,
    35.112500000000004,
    -80.97083333333333,
    39.30611111111111
  ],
  "geometry": {"type":"LineString","coordinates":[[-80.97083333333333,35.15555555555555],[-80.9925,35.14861111111111],[-81.04444444444444,35.132222222222225],[-81.07194444444444,35.12305555555555],[-81.12888888888888,35.112500000000004],[-81.16111111111111,35.11805555555556],[-81.2225,35.125],[-81.25361111111111,35.13138888888889],[-81.35194444444444,35.14555555555555],[-81.46222222222222,35.16138888888889],[-81.57333333333332,35.177499999999995],[-81.90666666666667,35.180277777777775],[-82.02972222222222,35.177499999999995],[-82.15694444444445,35.17444444444444],[-82.41166666666668,35.220555555555556],[-82.55,35.253055555555555],[-82.83638888888889,35.319722222222225],[-82.98305555555555,35.353611111111114],[-83.1325,35.38805555555555],[-83.2961111111111,35.425],[-83.44694444444445,35.45916666666667],[-83.59638888888888,35.49277777777778],[-83.74194444444444,35.525277777777774],[-83.77055555555556,35.531666666666666],[-83.88138888888888,35.56944444444445],[-83.90916666666668,35.57638888888889],[-84.02,35.62],[-84.04833333333333,35.63055555555555],[-84.15611111111112,35.67833333333333],[-84.18555555555555,35.69222222222222],[-84.29194444444444,35.742222222222225],[-84.31888888888888,35.755],[-84.45472222222223,35.818333333333335],[-84.56194444444444,35.867777777777775],[-84.59222222222222,35.88166666666667],[-84.70111111111112,35.93222222222222],[-84.73305555555555,35.94694444444444],[-84.83666666666666,35.995555555555555],[-84.87055555555555,36.01166666666666],[-84.96888888888888,36.05888888888889],[-84.99722222222222,36.072500000000005],[-85.10916666666667,36.118611111111115],[-85.13611111111112,36.1275],[-85.25277777777778,36.16611111111111],[-85.28388888888888,36.17638888888889],[-85.4025,36.21555555555556],[-85.43277777777779,36.22555555555556],[-85.55,36.263888888888886],[-85.58,36.27361111111111],[-85.69527777777778,36.311388888888885],[-85.72555555555556,36.321111111111115],[-85.86388888888888,36.365833333333335],[-85.98777777777778,36.40555555555555],[-86.01166666666667,36.413333333333334],[-86.15694444444445,36.46],[-86.28361111111111,36.500277777777775],[-86.30305555555556,36.506388888888885],[-86.44972222222222,36.55333333333333],[-86.57916666666667,36.59527777777778],[-86.73055555555555,36.64138888888889],[-86.77305555555556,36.65472222222222],[-86.91694444444445,36.69972222222222],[-87.06194444444444,36.745],[-87.20472222222223,36.78916666666667],[-87.31333333333333,36.822500000000005],[-87.34666666666666,36.83277777777778],[-87.4575,36.86694444444444],[-87.48916666666666,36.87638888888889],[-87.60194444444444,36.91083333333333],[-87.77777777777777,36.96416666666667],[-87.89,36.99777777777778],[-87.9225,37.0075],[-88.03555555555555,37.04138888888889],[-88.17944444444444,37.08444444444444],[-88.32916666666667,37.12888888888889],[-88.3586111111111,37.13777777777778],[-88.47583333333334,37.17222222222222],[-88.50416666666666,37.18055555555555],[-88.62277777777777,37.21555555555556],[-88.65,37.223333333333336],[-88.79472222222222,37.26555555555556],[-88.91194444444444,37.29972222222222],[-88.94194444444445,37.30833333333333],[-89.085,37.349722222222226],[-89.19944444444445,37.382777777777775],[-89.2275,37.39083333333333],[-89.36972222222222,37.43138888888889],[-89.48333333333333,37.46361111111111],[-89.51027777777777,37.47138888888889],[-89.65333333333334,37.511944444444445],[-89.76805555555555,37.54416666666666],[-89.7911111111111,37.550555555555555],[-89.93416666666667,37.590833333333336],[-90.04972222222221,37.62305555555555],[-90.0786111111111,37.630833333333335],[-90.21972222222223,37.669999999999995],[-90.33388888888888,37.70722222222223],[-90.36305555555555,37.716944444444444],[-90.47277777777778,37.75361111111111],[-90.505,37.76416666666667],[-90.61305555555555,37.79972222222222],[-90.75111111111111,37.84527777777778],[-90.8913888888889,37.89138888888889],[-91.03111111111112,37.93694444444444],[-91.17805555555556,37.984722222222224],[-91.31944444444444,38.030277777777776],[-91.46166666666667,38.07638888888889],[-91.60583333333332,38.1225],[-91.74694444444445,38.17027777777778],[-91.88361111111112,38.223888888888894],[-92.02166666666666,38.277499999999996],[-92.15861111111111,38.330555555555556],[-92.29861111111111,38.38444444444444],[-92.43111111111112,38.43555555555555],[-92.56722222222221,38.48722222222222],[-92.7038888888889,38.53944444444444],[-92.84416666666667,38.5925],[-92.9825,38.64472222222222],[-93.12166666666666,38.696666666666665],[-93.2625,38.74944444444444],[-93.40027777777779,38.80083333333333],[-93.53888888888889,38.852222222222224],[-93.67722222222223,38.903055555555554],[-93.81694444444445,38.95416666666667],[-93.98583333333333,39.01583333333333],[-94.12388888888889,39.06638888888889],[-94.26416666666667,39.11666666666667],[-94.40444444444445,39.16722222222222],[-94.54583333333333,39.217777777777776],[-94.68416666666667,39.263888888888886],[-94.83055555555555,39.28666666666666],[-94.98111111111112,39.28972222222222],[-95.13361111111112,39.29222222222222],[-95.29027777777777,39.29472222222222],[-95.4388888888889,39.29666666666667],[-95.57916666666667,39.29833333333333],[-95.73333333333333,39.3],[-95.88583333333334,39.30166666666666],[-96.03944444444444,39.30277777777778],[-96.21083333333334,39.303888888888885],[-96.36777777777777,39.30472222222222],[-96.5225,39.30555555555555],[-96.65805555555556,39.30583333333333],[-96.81555555555555,39.30611111111111],[-96.97083333333333,39.30583333333333],[-97.12888888888888,39.30583333333333],[-97.28527777777778,39.305277777777775],[-97.44083333333333,39.30472222222222],[-97.5775,39.303888888888885],[-97.615,39.303888888888885],[-97.7388888888889,39.30305555555555],[-97.76472222222222,39.30277777777778],[-97.89555555555556,39.301944444444445],[-97.91000000000001,39.30166666666666],[-98.05138888888888,39.30027777777777],[-98.06527777777778,39.30027777777777],[-98.24194444444444,39.29833333333333],[-98.36361111111111,39.29694444444444],[-98.39527777777778,39.296388888888885],[-98.52027777777778,39.29472222222222],[-98.5586111111111,39.29416666666666],[-98.66805555555555,39.29277777777778],[-98.69388888888889,39.2925],[-98.82333333333332,39.290277777777774],[-98.85055555555554,39.29],[-99.14611111111111,39.28472222222222],[-99.17277777777778,39.284166666666664],[-99.30222222222221,39.281666666666666],[-99.32722222222222,39.28111111111111],[-99.46083333333334,39.27833333333333],[-99.48333333333333,39.27777777777778],[-99.61694444444444,39.27472222222222],[-99.63416666666667,39.274166666666666],[-99.77472222222222,39.270833333333336],[-99.7911111111111,39.27055555555555],[-99.93083333333334,39.26694444444444],[-99.94388888888889,39.266666666666666],[-100.10194444444444,39.26222222222222],[-100.24444444444444,39.255833333333335],[-100.25861111111111,39.254444444444445],[-100.40111111111112,39.23444444444444],[-100.55611111111111,39.213055555555556],[-100.71166666666667,39.191111111111105],[-100.87055555555555,39.16833333333333],[-101.0275,39.14555555555555],[-101.1825,39.12305555555555],[-101.34027777777777,39.1],[-101.49583333333334,39.07666666666667],[-101.65444444444445,39.05277777777778],[-101.82055555555556,39.02777777777778],[-101.97666666666667,39.00472222222222],[-102.13472222222222,38.99888888888889],[-102.29166666666667,38.996944444444445],[-102.45138888888889,38.995],[-102.60944444444443,38.99277777777778],[-102.7675,38.99027777777778],[-102.92444444444445,38.987500000000004],[-103.085,38.98444444444444],[-103.24472222222222,38.981388888888894],[-103.405,38.97805555555556],[-103.56388888888888,38.974444444444444],[-103.88166666666666,38.96666666666667],[-104.03861111111111,38.962500000000006],[-104.19916666666667,38.95805555555556],[-104.36,38.95333333333333],[-104.52027777777778,38.948611111111106],[-104.67805555555556,38.94194444444444],[-104.83777777777777,38.931666666666665],[-104.99777777777778,38.921388888888885],[-105.155,38.91083333333333],[-105.31361111111111,38.897777777777776],[-105.4725,38.88916666666667],[-105.4725,38.888333333333335],[-105.63305555555554,38.87777777777778],[-105.63111111111111,38.87583333333333],[-105.79194444444444,38.86611111111111],[-105.79138888888889,38.86361111111111],[-105.95083333333334,38.85444444444445],[-105.95083333333334,38.85138888888889],[-106.11083333333333,38.8425],[-106.10972222222222,38.84138888888889],[-106.26611111111112,38.79805555555556],[-106.26,38.800555555555555],[-106.35111111111111,38.72],[-106.36972222222222,38.70166666666667],[-106.45361111111112,38.615],[-106.46916666666667,38.598888888888894],[-106.58166666666666,38.53916666666667],[-106.6061111111111,38.52972222222222],[-106.74166666666667,38.535],[-106.76555555555555,38.532777777777774],[-106.90305555555557,38.54361111111111],[-106.92472222222223,38.543055555555554],[-107.065,38.55222222222222],[-107.08388888888888,38.551944444444445],[-107.2425,38.56111111111111],[-107.24444444444444,38.559999999999995],[-107.40111111111112,38.56916666666667],[-107.40222222222222,38.56805555555556],[-107.5625,38.577222222222225],[-107.56361111111111,38.575833333333335],[-107.72194444444445,38.584722222222226],[-107.72361111111111,38.58444444444444],[-107.87972222222221,38.592222222222226],[-107.88305555555554,38.59111111111111],[-108.0411111111111,38.599444444444444],[-108.04194444444444,38.59916666666667],[-108.20111111111112,38.605000000000004],[-108.35944444444443,38.61194444444445],[-108.51638888888888,38.61972222222222],[-108.51888888888888,38.61888888888889],[-108.67500000000001,38.626111111111115],[-108.70527777777778,38.62722222222222],[-108.83333333333333,38.632222222222225],[-108.86749999999999,38.63333333333333],[-108.99305555555556,38.63805555555555],[-109.02583333333334,38.63944444444444],[-109.15277777777779,38.64388888888889],[-109.18527777777778,38.644999999999996],[-109.31,38.649166666666666],[-109.3125,38.649166666666666],[-109.46888888888888,38.654444444444444],[-109.6261111111111,38.65083333333333],[-109.785,38.64555555555555],[-109.78472222222221,38.64555555555555],[-109.94194444444445,38.64],[-110.10055555555554,38.6325],[-110.25722222222223,38.624722222222225],[-110.41444444444446,38.61694444444444],[-110.41694444444445,38.61694444444444],[-110.57388888888889,38.60888888888889],[-110.57388888888889,38.60888888888889],[-110.79527777777777,38.597500000000004],[-110.9525,38.58888888888889],[-111.11861111111111,38.57972222222222],[-111.2775,38.57055555555556],[-111.43361111111112,38.561388888888885],[-111.58888888888889,38.55222222222222],[-111.74555555555555,38.5425],[-111.90166666666667,38.532777777777774],[-112.05833333333334,38.52305555555555],[-112.21277777777777,38.51277777777778],[-112.36833333333333,38.5025],[-112.52583333333334,38.49194444444444],[-112.68083333333334,38.48111111111111],[-112.83583333333333,38.47027777777778],[-112.99222222222222,38.46555555555556],[-113.14694444444446,38.46944444444445],[-113.30305555555556,38.473055555555554],[-113.45833333333334,38.476111111111116],[-113.61333333333333,38.47416666666667],[-113.79888888888888,38.473333333333336],[-113.95444444444445,38.47361111111111],[-114.11166666666666,38.473888888888894],[-114.26722222222222,38.475],[-114.57722222222222,38.45277777777778],[-114.73361111111112,38.44777777777777],[-114.79888888888888,38.45],[-114.88833333333334,38.442499999999995],[-114.95361111111112,38.44611111111111],[-115.04277777777777,38.43722222222222],[-115.10805555555555,38.44027777777777],[-115.19527777777778,38.433055555555555],[-115.26194444444444,38.43555555555555],[-115.34833333333333,38.428888888888885],[-115.41527777777779,38.42861111111111],[-115.50638888888889,38.42111111111111],[-115.57027777777778,38.41916666666666],[-115.65805555555556,38.399166666666666],[-115.7225,38.39666666666667],[-115.81194444444444,38.37638888888889],[-115.86694444444444,38.36833333333333],[-115.96388888888889,38.353611111111114],[-116.0261111111111,38.344166666666666],[-116.11861111111111,38.33027777777778],[-116.17944444444444,38.32083333333334],[-116.2725,38.306666666666665],[-116.33361111111111,38.29722222222222],[-116.42500000000001,38.28333333333333],[-116.48944444444444,38.27333333333333],[-116.58138888888888,38.25888888888889],[-116.64277777777778,38.24944444444444],[-116.73472222222222,38.235],[-116.79666666666667,38.225],[-116.8875,38.21055555555556],[-116.95166666666667,38.20055555555556],[-117.0411111111111,38.18611111111111],[-117.10249999999999,38.17638888888889],[-117.1875,38.1625],[-117.24305555555556,38.15361111111111],[-117.33,38.13944444444444],[-117.39472222222223,38.12888888888889],[-117.48333333333333,38.11416666666667],[-117.54527777777777,38.10416666666667],[-117.63416666666667,38.089444444444446],[-117.69722222222222,38.07888888888889],[-117.78722222222223,38.06388888888888],[-117.84861111111111,38.05361111111111],[-117.9388888888889,38.038333333333334],[-118.00055555555555,38.028055555555554],[-118.09027777777777,38.01277777777778],[-118.15222222222222,38.00222222222222],[-118.23972222222223,37.98722222222222],[-118.30277777777778,37.97638888888889],[-118.39250000000001,37.96083333333333],[-118.45611111111111,37.95388888888889],[-118.60972222222222,37.948055555555555],[-118.76555555555555,37.94194444444444],[-118.92027777777778,37.9375],[-119.0761111111111,37.93138888888889],[-119.2238888888889,37.90972222222222],[-119.37277777777777,37.88444444444444],[-119.52416666666666,37.85777777777778],[-119.67527777777778,37.83111111111111],[-119.82722222222222,37.80416666666667],[-119.98527777777778,37.77583333333333],[-120.13972222222223,37.74777777777778],[-120.29166666666667,37.72027777777778],[-120.43944444444445,37.695277777777775],[-120.46666666666667,37.7],[-120.61666666666666,37.666666666666664],[-120.7375,37.66027777777778],[-120.76666666666667,37.65],[-120.87583333333333,37.64388888888889],[-120.91666666666667,37.63333333333333],[-121.00833333333334,37.6275],[-121.05,37.61666666666667],[-121.1388888888889,37.609722222222224],[-121.18333333333334,37.6],[-121.26416666666667,37.59305555555556],[-121.3,37.583333333333336],[-121.38833333333334,37.578611111111115],[-121.43333333333334,37.56666666666667],[-121.50555555555556,37.56472222222222],[-121.53333333333333,37.56666666666667],[-121.615,37.55222222222222],[-121.65,37.55],[-121.71166666666667,37.53055555555555],[-121.73333333333333,37.516666666666666],[-121.80027777777778,37.50888888888889],[-121.81666666666666,37.5],[-121.9,37.5],[-121.98333333333333,37.5],[-122.03166666666667,37.5],[-122.05,37.5],[-122.1,37.505833333333335],[-122.11666666666666,37.516666666666666],[-122.18333333333334,37.53333333333333],[-122.21888888888888,37.555277777777775],[-122.23333333333333,37.56666666666667],[-122.27361111111111,37.57833333333333],[-122.28333333333333,37.583333333333336],[-122.31972222222223,37.59777777777778],[-122.33333333333333,37.6]]}
}
