{
  "id": 2047953351,
  "type": "Feature",
  "properties": {
    "geom:area": 0,
    "geom:bbox": "-122.861430,37.483930,-121.721720,38.403260",
    "geom:latitude": 37.746532197799105,
    "geom:longitude": -122.28128350039202,
    "src:alt_label": "swim-approach",
    "src:geom": "swim",
    "swim:elevations": [
      7238,
      6113,
      5092,
      4912,
      4752,
      4020,
      3918,
      3685,
      3659,
      3557,
      3358,
      3353,
      3353,
      3353,
      3353,
      3353,
      3353,
      3353,
      3353,
      3353,
      3353,
      3353,
      3353,
      3353,
      3353,
      3328,
      3113,
      3077,
      3050,
      2985,
      2970,
      2893,
      2765,
      2458,
      2409,
      2314,
      2116,
      1947,
      1886,
      1680,
      1558,
      1381,
      1323,
      1099,
      861,
      803,
      709,
      613,
      492,
      335,
      201,
      95,
      36,
      21
    ],
    "swim:geom": "approach",
    "swim:timestamps": [
      1786624801,
      1786624923,
      1786625034,
      1786625054,
      1786625072,
      1786625151,
      1786625162,
      1786625215,
      1786625223,
      1786625275,
      1786625336,
      1786625358,
      1786625384,
      1786625413,
      1786625437,
      1786625467,
      1786625510,
      1786625516,
      1786625539,
      1786625601,
      1786625616,
      1786625666,
      1786625672,
      1786625697,
      1786625713,
      1786625745,
      1786625817,
      1786625834,
      1786625852,
      1786625887,
      1786625890,
      1786625927,
      1786625949,
      1786625996,
      1786626000,
      1786626012,
      1786626033,
      1786626064,
      1786626075,
      1786626118,
      1786626135,
      1786626168,
      1786626181,
      1786626222,
      1786626264,
      1786626276,
      1786626297,
      1786626311,
      1786626338,
      1786626376,
      1786626409,
      1786626432,
      1786626445,
      1786626452
    ],
    "wof:geomhash": "bead2b37838b87565bceb19230b4d457",
    "wof:id": 2047953351,
    "wof:repo": "sfomuseum-data-flights-2026-08"
  },
  "bbox": [
    -122.86143,
    37.48393,
    -121.72172,
    38.40326
  ],
  "geometry": {"type":"LineString","coordinates":[[-122.86143,38.40326],[-122.76207,38.20556],[-122.70954,38.02515],[-122.70025,37.99292],[-122.69244,37.96569],[-122.62824,37.85657],[-122.61369,37.8428],[-122.54997,37.78323],[-122.5419,37.77557],[-122.48836,37.72529],[-122.40316,37.70022],[-122.37215,37.69351],[-122.33531,37.68577],[-122.29453,37.67705],[-122.26067,37.66981],[-122.21949,37.66137],[-122.15858,37.64851],[-122.15051,37.64683],[-122.11853,37.64002],[-122.03056,37.62171],[-122.00883,37.61729],[-121.93847,37.6033],[-121.93019,37.60164],[-121.89447,37.59456],[-121.87196,37.59017],[-121.82659,37.59051],[-121.7284,37.59213],[-121.72172,37.57437],[-121.72581,37.55581],[-121.7364,37.51927],[-121.73732,37.51618],[-121.76599,37.48717],[-121.79607,37.48393],[-121.85932,37.49001],[-121.86468,37.49028],[-121.88198,37.49116],[-121.90955,37.49206],[-121.94939,37.49248],[-121.96479,37.493],[-122.01909,37.50479],[-122.03926,37.5112],[-122.07747,37.52371],[-122.09251,37.52874],[-122.13903,37.54389],[-122.18544,37.55883],[-122.19887,37.56295],[-122.22129,37.57015],[-122.23638,37.57516],[-122.26325,37.58368],[-122.29529,37.59343],[-122.3225,37.60108],[-122.34207,37.60718],[-122.35192,37.61141],[-122.35712,37.61338]]}
}
