{
  "id": 2047931815,
  "type": "Feature",
  "properties": {
    "geom:area": 0,
    "geom:bbox": "-122.530278,34.197778,-118.359722,37.663333",
    "geom:latitude": 35.8039844350432,
    "geom:longitude": -120.58964515582585,
    "src:alt_label": "swim-path",
    "src:geom": "swim",
    "swim:altitudes": [
      "009",
      "036",
      "061",
      "094",
      "113",
      "137",
      "141",
      "165",
      "194",
      "217",
      "218",
      "238",
      "251",
      "251",
      "268",
      "284",
      "290C",
      "290C",
      "290C",
      "290C",
      "290C",
      "290C",
      "290C",
      "290C",
      "290C",
      "290C",
      "290C",
      "290C",
      "290C",
      "290C",
      "290C",
      "290C",
      "290",
      "282",
      "273",
      "271",
      "261",
      "251",
      "243",
      "241",
      "233",
      "231",
      "221",
      "209",
      "204",
      "178",
      "157",
      "134",
      "120",
      "110",
      "105",
      "090",
      "090",
      "090",
      "075",
      "071",
      "070",
      "070",
      "070",
      "070",
      "062",
      "058",
      "049",
      "046",
      "039",
      "037",
      "030",
      "022",
      "019",
      "014",
      "012",
      "007"
    ],
    "swim:geom": "path",
    "swim:speeds": [
      147,
      192,
      260,
      281,
      336,
      329,
      356,
      378,
      385,
      391,
      397,
      411,
      428,
      439,
      453,
      460,
      464,
      468,
      469,
      470,
      481,
      477,
      476,
      473,
      473,
      474,
      474,
      474,
      473,
      473,
      473,
      473,
      473,
      469,
      465,
      462,
      450,
      444,
      440,
      437,
      430,
      429,
      427,
      418,
      414,
      399,
      386,
      374,
      363,
      363,
      353,
      295,
      282,
      286,
      285,
      280,
      269,
      244,
      236,
      231,
      231,
      226,
      215,
      204,
      198,
      190,
      174,
      157,
      154,
      151,
      145,
      147
    ],
    "swim:timestamps": [
      1786491166,
      1786491226,
      1786491286,
      1786491346,
      1786491406,
      1786491459,
      1786491466,
      1786491526,
      1786491586,
      1786491640,
      1786491647,
      1786491707,
      1786491760,
      1786491767,
      1786491827,
      1786491887,
      1786491940,
      1786492000,
      1786492007,
      1786492067,
      1786492120,
      1786492180,
      1786492240,
      1786492247,
      1786492307,
      1786492367,
      1786492421,
      1786492428,
      1786492488,
      1786492541,
      1786492601,
      1786492608,
      1786492668,
      1786492728,
      1786492781,
      1786492788,
      1786492848,
      1786492908,
      1786492962,
      1786492968,
      1786493022,
      1786493028,
      1786493089,
      1786493142,
      1786493149,
      1786493209,
      1786493262,
      1786493322,
      1786493356,
      1786493382,
      1786493399,
      1786493502,
      1786493521,
      1786493562,
      1786493623,
      1786493641,
      1786493683,
      1786493701,
      1786493743,
      1786493761,
      1786493803,
      1786493822,
      1786493863,
      1786493882,
      1786493923,
      1786493941,
      1786493983,
      1786494043,
      1786494061,
      1786494103,
      1786494121,
      1786494163
    ],
    "wof:geomhash": "7fef6bcdfc8e33a0d7cdbbf4edff0a4a",
    "wof:id": 2047931815,
    "wof:repo": "sfomuseum-data-flights-2026-08"
  },
  "bbox": [
    -122.53027777777778,
    34.19777777777777,
    -118.35972222222222,
    37.663333333333334
  ],
  "geometry": {"type":"LineString","coordinates":[[-122.38694444444445,37.626666666666665],[-122.44611111111111,37.64944444444444],[-122.52583333333334,37.663333333333334],[-122.53027777777778,37.593611111111116],[-122.4863888888889,37.513333333333335],[-122.43222222222222,37.450833333333335],[-122.4088888888889,37.43805555555555],[-122.32055555555556,37.361666666666665],[-122.22666666666667,37.283055555555556],[-122.13416666666667,37.20333333333333],[-122.12916666666666,37.20305555555556],[-122.03138888888888,37.12138888888889],[-121.93388888888889,37.03194444444444],[-121.92750000000001,37.034166666666664],[-121.81833333333333,36.94222222222222],[-121.70833333333334,36.849722222222226],[-121.60138888888888,36.753055555555555],[-121.48944444444444,36.658055555555556],[-121.48138888888889,36.656666666666666],[-121.36944444444444,36.56111111111111],[-121.26472222222222,36.47138888888889],[-121.15083333333334,36.37222222222222],[-121.04527777777777,36.26916666666666],[-121.04333333333334,36.26722222222222],[-120.93916666666667,36.16555555555556],[-120.83583333333333,36.064166666666665],[-120.73527777777778,35.965],[-120.73194444444445,35.961666666666666],[-120.62916666666666,35.86],[-120.52805555555555,35.76],[-120.42611111111111,35.65861111111111],[-120.42444444444445,35.65694444444444],[-120.32888888888888,35.549166666666665],[-120.24777777777778,35.430277777777775],[-120.1725,35.34861111111111],[-120.15222222222222,35.3275],[-120.05694444444444,35.2275],[-119.965,35.13],[-119.89416666666668,35.055277777777775],[-119.87305555555555,35.033055555555556],[-119.80583333333333,34.961111111111116],[-119.78444444444445,34.93888888888888],[-119.69833333333334,34.84722222222222],[-119.63138888888888,34.775555555555556],[-119.61277777777777,34.755833333333335],[-119.53083333333333,34.66777777777777],[-119.45777777777778,34.589444444444446],[-119.38166666666666,34.507777777777775],[-119.33333333333333,34.46666666666667],[-119.30055555555555,34.433055555555555],[-119.26666666666667,34.416666666666664],[-119.09083333333332,34.393055555555556],[-119.06666666666666,34.38333333333333],[-118.99694444444445,34.37694444444445],[-118.905,34.359722222222224],[-118.88333333333334,34.35],[-118.8261111111111,34.31888888888889],[-118.8,34.31666666666667],[-118.76,34.282777777777774],[-118.75,34.266666666666666],[-118.69638888888889,34.24777777777778],[-118.68333333333334,34.233333333333334],[-118.63416666666667,34.21333333333334],[-118.61666666666666,34.2],[-118.57111111111111,34.20055555555556],[-118.55,34.2],[-118.51055555555556,34.19972222222222],[-118.45833333333334,34.19916666666666],[-118.45,34.2],[-118.40777777777778,34.19833333333333],[-118.4,34.2],[-118.35972222222222,34.19777777777777]]}
}
