{
  "id": 2047977593,
  "type": "Feature",
  "properties": {
    "geom:area": 0,
    "geom:bbox": "-122.752770,37.396710,-122.098120,38.381250",
    "geom:latitude": 37.785263233669134,
    "geom:longitude": -122.45683359909076,
    "src:alt_label": "swim-approach",
    "src:geom": "swim",
    "swim:elevations": [
      7590,
      7498,
      7022,
      6761,
      6508,
      6247,
      5912,
      5711,
      5502,
      5141,
      4874,
      4564,
      4437,
      4235,
      3948,
      3615,
      3413,
      3357,
      3353,
      3353,
      3353,
      3353,
      3337,
      3292,
      2894,
      2695,
      2441,
      2237,
      2161,
      2134,
      1958,
      1837,
      1717,
      1613,
      1458,
      1294,
      1221,
      1219,
      1219,
      1219,
      1142,
      948,
      881,
      731,
      573,
      456,
      334,
      304,
      196,
      149,
      96,
      110
    ],
    "swim:geom": "approach",
    "swim:timestamps": [
      1786783018,
      1786783028,
      1786783076,
      1786783104,
      1786783132,
      1786783163,
      1786783198,
      1786783218,
      1786783242,
      1786783279,
      1786783310,
      1786783345,
      1786783361,
      1786783404,
      1786783433,
      1786783465,
      1786783489,
      1786783502,
      1786783539,
      1786783569,
      1786783608,
      1786783629,
      1786783646,
      1786783652,
      1786783708,
      1786783735,
      1786783765,
      1786783796,
      1786783807,
      1786783819,
      1786783857,
      1786783875,
      1786783904,
      1786783936,
      1786783959,
      1786783986,
      1786784002,
      1786784032,
      1786784064,
      1786784076,
      1786784103,
      1786784138,
      1786784175,
      1786784209,
      1786784242,
      1786784272,
      1786784308,
      1786784320,
      1786784350,
      1786784367,
      1786784383,
      1786784414
    ],
    "wof:geomhash": "bb88f20adc57434a608b9ed2bfccd76a",
    "wof:id": 2047977593,
    "wof:repo": "sfomuseum-data-flights-2026-08"
  },
  "bbox": [
    -122.75277,
    37.39671,
    -122.09812,
    38.38125
  ],
  "geometry": {"type":"LineString","coordinates":[[-122.52117,38.38125],[-122.53869,38.37006],[-122.62471,38.31542],[-122.6728,38.28481],[-122.72034,38.25421],[-122.75277,38.20898],[-122.74563,38.14879],[-122.73596,38.11544],[-122.72429,38.0755],[-122.70703,38.01604],[-122.69294,37.96724],[-122.67579,37.91214],[-122.66094,37.88949],[-122.60879,37.83866],[-122.57435,37.80609],[-122.53656,37.77032],[-122.50867,37.74387],[-122.49396,37.72997],[-122.45588,37.69428],[-122.42755,37.66759],[-122.39156,37.63365],[-122.37267,37.61585],[-122.35971,37.59924],[-122.35604,37.59302],[-122.32118,37.53835],[-122.31015,37.50991],[-122.31832,37.47805],[-122.32799,37.44651],[-122.33144,37.4354],[-122.33513,37.42332],[-122.30739,37.39671],[-122.2837,37.40108],[-122.24794,37.41108],[-122.21133,37.42142],[-122.18624,37.42804],[-122.15661,37.43563],[-122.13955,37.43996],[-122.10822,37.45004],[-122.09812,37.4767],[-122.10141,37.48746],[-122.11701,37.50819],[-122.151,37.52439],[-122.18752,37.53986],[-122.21881,37.55306],[-122.24841,37.56553],[-122.2714,37.57513],[-122.29474,37.58495],[-122.3028,37.58837],[-122.32139,37.59617],[-122.3324,37.60089],[-122.34214,37.60495],[-122.36138,37.61337]]}
}
