{
  "id": 2032059785,
  "type": "Feature",
  "properties": {
    "geom:area": 0,
    "geom:bbox": "-122.395833,32.633333,-97.050000,38.384722",
    "geom:latitude": 36.672448030032335,
    "geom:longitude": -109.37265282912199,
    "src:alt_label": "swim-path",
    "src:geom": "swim",
    "swim:altitudes": [
      "010",
      "056",
      "075",
      "092",
      "106",
      "120",
      "130",
      "142",
      "163",
      "173",
      "181",
      "201",
      "209",
      "217",
      "224",
      "229",
      "235",
      "240",
      "244",
      "246",
      "251",
      "254",
      "258",
      "266",
      "270",
      "274",
      "283",
      "285",
      "290",
      "292",
      "297",
      "300",
      "304",
      "306",
      "310",
      "313",
      "320",
      "323",
      "325",
      "328C",
      "330C",
      "330C",
      "330C",
      "330C",
      "330C",
      "330C",
      "330C",
      "330C",
      "330C",
      "330C",
      "330C",
      "330C",
      "330C",
      "330C",
      "330C",
      "330C",
      "330C",
      "330C",
      "330C",
      "330C",
      "330C",
      "330C",
      "330C",
      "330C",
      "330C",
      "330C",
      "330C",
      "330C",
      "330C",
      "330C",
      "330C",
      "330C",
      "330C",
      "330C",
      "330C",
      "330C",
      "330C",
      "330C",
      "330C",
      "330C",
      "330C",
      "330C",
      "330C",
      "330C",
      "330C",
      "330C",
      "330C",
      "330C",
      "330C",
      "330C",
      "331C",
      "331C",
      "330C",
      "330C",
      "330C",
      "330C",
      "330C",
      "330C",
      "330C",
      "330C",
      "330C",
      "330C",
      "330C",
      "330C",
      "330C",
      "330C",
      "330C",
      "330C",
      "330C",
      "330C",
      "330C",
      "330C",
      "330C",
      "330C",
      "330C",
      "330C",
      "330C",
      "330C",
      "330C",
      "330C",
      "330C",
      "330C",
      "330C",
      "330C",
      "330C",
      "330C",
      "330C",
      "330C",
      "330C",
      "331C",
      "330C",
      "330C",
      "330C",
      "330C",
      "330C",
      "330C",
      "331C",
      "330C",
      "330C",
      "330C",
      "330C",
      "330C",
      "330C",
      "330C",
      "330C",
      "330C",
      "330C",
      "330C",
      "330C",
      "330C",
      "330C",
      "330C",
      "330C",
      "330C",
      "330C",
      "330C",
      "330C",
      "330C",
      "330C",
      "330C",
      "330C",
      "330C",
      "330C",
      "330",
      "323",
      "313",
      "304",
      "284",
      "274",
      "265",
      "235",
      "224",
      "214",
      "208",
      "195",
      "188",
      "177",
      "172",
      "159",
      "157",
      "143",
      "132",
      "120",
      "120",
      "120",
      "120",
      "117",
      "106",
      "100",
      "089",
      "084",
      "061",
      "048",
      "044",
      "035",
      "030",
      "030",
      "030",
      "030",
      "030",
      "026",
      "023",
      "019",
      "015",
      "012",
      "008"
    ],
    "swim:geom": "path",
    "swim:speeds": [
      162,
      264,
      280,
      292,
      313,
      394,
      416,
      423,
      438,
      447,
      454,
      463,
      466,
      468,
      471,
      477,
      483,
      487,
      486,
      490,
      494,
      491,
      493,
      493,
      491,
      493,
      489,
      487,
      489,
      487,
      488,
      486,
      487,
      487,
      488,
      487,
      488,
      488,
      488,
      489,
      490,
      490,
      490,
      490,
      489,
      489,
      489,
      489,
      488,
      487,
      487,
      483,
      484,
      484,
      485,
      486,
      486,
      486,
      486,
      486,
      486,
      485,
      486,
      486,
      485,
      485,
      485,
      484,
      482,
      481,
      481,
      482,
      483,
      484,
      485,
      485,
      486,
      486,
      487,
      487,
      487,
      488,
      489,
      490,
      491,
      490,
      490,
      491,
      493,
      494,
      497,
      498,
      498,
      499,
      496,
      494,
      492,
      493,
      492,
      492,
      492,
      492,
      492,
      492,
      492,
      493,
      493,
      493,
      494,
      495,
      495,
      496,
      496,
      497,
      497,
      497,
      497,
      497,
      497,
      498,
      498,
      500,
      500,
      501,
      502,
      503,
      502,
      504,
      506,
      509,
      510,
      512,
      511,
      508,
      508,
      508,
      509,
      508,
      508,
      508,
      508,
      508,
      508,
      507,
      507,
      507,
      506,
      506,
      506,
      507,
      510,
      510,
      512,
      514,
      516,
      515,
      516,
      516,
      516,
      515,
      515,
      513,
      513,
      512,
      511,
      511,
      512,
      493,
      487,
      478,
      456,
      452,
      443,
      431,
      435,
      434,
      422,
      396,
      371,
      373,
      362,
      346,
      314,
      309,
      311,
      296,
      280,
      261,
      264,
      254,
      256,
      236,
      225,
      228,
      220,
      211,
      200,
      198,
      188,
      191,
      164,
      163,
      144,
      144,
      141,
      142
    ],
    "swim:timestamps": [
      1785571038,
      1785571218,
      1785571278,
      1785571338,
      1785571398,
      1785571518,
      1785571578,
      1785571638,
      1785571758,
      1785571818,
      1785571878,
      1785571998,
      1785572058,
      1785572118,
      1785572178,
      1785572239,
      1785572299,
      1785572359,
      1785572394,
      1785572419,
      1785572454,
      1785572479,
      1785572514,
      1785572574,
      1785572599,
      1785572634,
      1785572694,
      1785572719,
      1785572754,
      1785572779,
      1785572814,
      1785572839,
      1785572874,
      1785572899,
      1785572934,
      1785572959,
      1785573019,
      1785573054,
      1785573079,
      1785573114,
      1785573174,
      1785573199,
      1785573234,
      1785573294,
      1785573319,
      1785573354,
      1785573379,
      1785573415,
      1785573475,
      1785573499,
      1785573535,
      1785573835,
      1785573895,
      1785573955,
      1785574015,
      1785574075,
      1785574195,
      1785574255,
      1785574315,
      1785574375,
      1785574435,
      1785574495,
      1785574555,
      1785574615,
      1785574675,
      1785574735,
      1785574790,
      1785574850,
      1785574971,
      1785575031,
      1785575151,
      1785575211,
      1785575271,
      1785575331,
      1785575391,
      1785575455,
      1785575511,
      1785575571,
      1785575636,
      1785575751,
      1785575811,
      1785575871,
      1785575931,
      1785575991,
      1785576111,
      1785576171,
      1785576231,
      1785576291,
      1785576351,
      1785576411,
      1785576471,
      1785576531,
      1785576591,
      1785576606,
      1785576664,
      1785576724,
      1785576771,
      1785576785,
      1785576831,
      1785576891,
      1785576904,
      1785576951,
      1785576966,
      1785577011,
      1785577026,
      1785577071,
      1785577087,
      1785577132,
      1785577144,
      1785577192,
      1785577204,
      1785577252,
      1785577264,
      1785577312,
      1785577324,
      1785577372,
      1785577384,
      1785577432,
      1785577444,
      1785577492,
      1785577506,
      1785577612,
      1785577626,
      1785577686,
      1785577747,
      1785577867,
      1785577927,
      1785577984,
      1785578045,
      1785578104,
      1785578167,
      1785578224,
      1785578346,
      1785578458,
      1785578518,
      1785578578,
      1785578638,
      1785578647,
      1785578705,
      1785578765,
      1785578818,
      1785578825,
      1785578878,
      1785578886,
      1785578938,
      1785578946,
      1785578998,
      1785579005,
      1785579067,
      1785579127,
      1785579178,
      1785579185,
      1785579238,
      1785579305,
      1785579359,
      1785579366,
      1785579419,
      1785579427,
      1785579485,
      1785579539,
      1785579548,
      1785579599,
      1785579605,
      1785579667,
      1785579719,
      1785579779,
      1785579839,
      1785579959,
      1785580019,
      1785580079,
      1785580259,
      1785580319,
      1785580379,
      1785580418,
      1785580478,
      1785580499,
      1785580526,
      1785580559,
      1785580604,
      1785580619,
      1785580679,
      1785580739,
      1785580799,
      1785580832,
      1785580860,
      1785580892,
      1785580920,
      1785580958,
      1785580980,
      1785581024,
      1785581040,
      1785581138,
      1785581198,
      1785581220,
      1785581252,
      1785581280,
      1785581312,
      1785581340,
      1785581378,
      1785581400,
      1785581432,
      1785581460,
      1785581492,
      1785581520,
      1785581546,
      1785581580
    ],
    "wof:geomhash": "ceb67c52aeee61afce3eee9dc0bd4964",
    "wof:id": 2032059785,
    "wof:repo": "sfomuseum-data-flights-2026-08"
  },
  "bbox": [
    -122.39583333333334,
    32.63333333333333,
    -97.05,
    38.38472222222222
  ],
  "geometry": {"coordinates":[[-122.39583333333334,37.6275],[-122.36388888888888,37.800555555555555],[-122.38555555555556,37.876111111111115],[-122.35027777777778,37.946666666666665],[-122.24722222222222,37.967777777777776],[-121.9925,37.98916666666667],[-121.84666666666666,37.99],[-121.69666666666667,37.998333333333335],[-121.39444444444445,38.02388888888889],[-121.24027777777778,38.03666666666666],[-121.08,38.04972222222222],[-120.75694444444444,38.07555555555556],[-120.59138888888889,38.08833333333334],[-120.42750000000001,38.100833333333334],[-120.2625,38.113055555555555],[-120.095,38.125277777777775],[-119.92527777777778,38.1375],[-119.75138888888888,38.14972222222222],[-119.64194444444445,38.15611111111111],[-119.57916666666667,38.16138888888889],[-119.46805555555555,38.1675],[-119.39805555555556,38.17361111111111],[-119.29722222222222,38.17972222222222],[-119.12333333333332,38.189722222222215],[-119.05444444444444,38.19583333333333],[-118.95222222222222,38.20111111111111],[-118.7825,38.211666666666666],[-118.71583333333334,38.21666666666667],[-118.61166666666666,38.22277777777778],[-118.54472222222222,38.22694444444445],[-118.44361111111111,38.23277777777778],[-118.37388888888889,38.23694444444445],[-118.27027777777778,38.24277777777778],[-118.2025,38.24666666666667],[-118.1,38.25222222222222],[-118.02916666666667,38.25611111111111],[-117.85583333333332,38.26555555555556],[-117.755,38.270833333333336],[-117.68194444444445,38.27444444444444],[-117.58,38.27972222222222],[-117.40527777777778,38.28861111111111],[-117.34388888888888,38.291666666666664],[-117.22888888888889,38.29722222222222],[-117.05333333333333,38.30555555555555],[-116.98055555555555,38.30888888888889],[-116.87833333333333,38.31361111111111],[-116.80666666666666,38.31666666666667],[-116.70555555555556,38.321111111111115],[-116.53138888888888,38.328611111111115],[-116.46222222222222,38.33166666666667],[-116.36055555555555,38.33555555555556],[-115.5038888888889,38.36694444444444],[-115.33361111111111,38.3725],[-115.18055555555556,38.3775],[-115.00972222222222,38.3825],[-114.83888888888889,38.38472222222222],[-114.50083333333333,38.32972222222222],[-114.33416666666666,38.29972222222222],[-114.16666666666667,38.26916666666666],[-113.99888888888889,38.23861111111111],[-113.83305555555555,38.20777777777778],[-113.665,38.17638888888889],[-113.49944444444445,38.14527777777778],[-113.33166666666666,38.11333333333334],[-113.16611111111112,38.081944444444446],[-112.99861111111112,38.04944444444444],[-112.83222222222221,38.01722222222222],[-112.66583333333334,37.98444444444444],[-112.33722222222222,37.919444444444444],[-112.20555555555556,37.893055555555556],[-111.8775,37.82638888888889],[-111.71083333333334,37.79222222222222],[-111.54805555555555,37.75861111111111],[-111.38166666666666,37.72416666666667],[-111.21833333333333,37.689722222222215],[-111.02194444444444,37.64833333333333],[-110.88805555555557,37.61972222222222],[-110.72500000000001,37.584722222222226],[-110.52555555555556,37.541666666666664],[-110.22638888888889,37.476111111111116],[-110.06333333333333,37.44],[-109.89666666666668,37.403055555555554],[-109.7325,37.36611111111111],[-109.56611111111111,37.328611111111115],[-109.23777777777778,37.25333333333333],[-109.07222222222222,37.21527777777778],[-108.90972222222223,37.177499999999995],[-108.74361111111111,37.13861111111111],[-108.57694444444444,37.099444444444444],[-108.41305555555556,37.06055555555555],[-108.24388888888889,37.02027777777778],[-108.07888888888888,36.980555555555554],[-107.91416666666667,36.940555555555555],[-107.87888888888888,36.93194444444444],[-107.71611111111112,36.89222222222222],[-107.55166666666666,36.85194444444445],[-107.42277777777778,36.82],[-107.39055555555557,36.81222222222222],[-107.26138888888889,36.78],[-107.0961111111111,36.73861111111111],[-107.06444444444445,36.730555555555554],[-106.93416666666667,36.69777777777777],[-106.9025,36.689722222222215],[-106.77083333333333,36.656388888888884],[-106.73777777777778,36.64805555555556],[-106.60833333333333,36.615],[-106.5761111111111,36.60666666666667],[-106.44333333333334,36.572500000000005],[-106.40361111111112,36.5625],[-106.27583333333334,36.529444444444444],[-106.23833333333333,36.519444444444446],[-106.1086111111111,36.48583333333333],[-106.07138888888889,36.476111111111116],[-105.94361111111111,36.442499999999995],[-105.91888888888889,36.43611111111111],[-105.79027777777777,36.40222222222222],[-105.75138888888888,36.39194444444444],[-105.62555555555555,36.35861111111111],[-105.58749999999999,36.348333333333336],[-105.46333333333334,36.31527777777777],[-105.42,36.30361111111111],[-105.13583333333334,36.22694444444445],[-105.125,36.22416666666667],[-104.96222222222222,36.17972222222222],[-104.79666666666667,36.13444444444444],[-104.46916666666667,36.04388888888889],[-104.30666666666666,35.99861111111111],[-104.14055555555557,35.952222222222225],[-103.97527777777778,35.90555555555555],[-103.81027777777777,35.85861111111111],[-103.64750000000001,35.80555555555555],[-103.48611111111111,35.74611111111111],[-103.16777777777779,35.628055555555555],[-102.87416666666665,35.518055555555556],[-102.715,35.45805555555556],[-102.5586111111111,35.39861111111111],[-102.4025,35.33916666666667],[-102.37166666666666,35.3275],[-102.21611111111112,35.26777777777777],[-102.06083333333333,35.20777777777778],[-101.93694444444445,35.16],[-101.91111111111111,35.15],[-101.75416666666666,35.08888888888889],[-101.75666666666666,35.09],[-101.60249999999999,35.02972222222222],[-101.60805555555555,35.031666666666666],[-101.45111111111112,34.97027777777778],[-101.45138888888889,34.97027777777778],[-101.29694444444445,34.909444444444446],[-101.14305555555556,34.84861111111111],[-100.98861111111111,34.78722222222222],[-100.98611111111111,34.78611111111111],[-100.83305555555555,34.724722222222226],[-100.67472222222223,34.66138888888889],[-100.51916666666666,34.59861111111111],[-100.51638888888888,34.597500000000004],[-100.36361111111111,34.535555555555554],[-100.36083333333333,34.53444444444444],[-100.2063888888889,34.47138888888889],[-100.05222222222221,34.40861111111111],[-100.05,34.4075],[-99.91722222222222,34.35305555555556],[-99.89694444444446,34.344722222222224],[-99.74416666666667,34.281666666666666],[-99.60972222222222,34.225833333333334],[-99.45694444444445,34.16222222222222],[-99.30333333333333,34.09777777777778],[-99.00111111111111,33.970555555555556],[-98.85805555555555,33.91],[-98.7175,33.85],[-98.30805555555555,33.67444444444444],[-98.15583333333333,33.608333333333334],[-98.0286111111111,33.55305555555555],[-97.93333333333334,33.516666666666666],[-97.81666666666666,33.45],[-97.7725,33.44138888888889],[-97.71666666666667,33.416666666666664],[-97.65194444444445,33.38777777777778],[-97.58333333333333,33.333333333333336],[-97.56138888888889,33.315555555555555],[-97.47666666666667,33.24388888888889],[-97.39444444444445,33.17333333333333],[-97.32,33.109722222222224],[-97.28333333333333,33.083333333333336],[-97.24805555555555,33.04805555555556],[-97.21666666666667,33.016666666666666],[-97.18083333333334,32.99027777777778],[-97.16666666666667,32.95],[-97.16722222222222,32.91833333333333],[-97.16666666666667,32.86666666666667],[-97.16305555555556,32.84805555555556],[-97.16666666666667,32.733333333333334],[-97.16666666666667,32.68333333333333],[-97.1588888888889,32.65861111111111],[-97.11666666666666,32.63333333333333],[-97.09777777777778,32.64222222222222],[-97.06666666666666,32.666666666666664],[-97.06277777777777,32.68805555555555],[-97.05,32.71666666666667],[-97.05555555555556,32.74027777777778],[-97.05,32.766666666666666],[-97.05527777777777,32.78583333333333],[-97.05,32.81666666666667],[-97.05499999999999,32.82666666666667],[-97.05,32.85],[-97.05499999999999,32.86527777777778]],"type":"LineString"}
}
