{
  "id": 2047917657,
  "type": "Feature",
  "properties": {
    "geom:area": 0,
    "geom:bbox": "-159.333333,21.233333,-122.419444,37.663333",
    "geom:latitude": 29.926302794862615,
    "geom:longitude": -141.3317255391125,
    "src:alt_label": "swim-path",
    "src:geom": "swim",
    "swim:altitudes": [
      "014",
      "036",
      "047",
      "069",
      "094",
      "108",
      "119",
      "137",
      "152",
      "170",
      "184",
      "188C",
      "200",
      "202C",
      "215C",
      "228C",
      "237",
      "239C",
      "248",
      "260",
      "271",
      "272C",
      "281C",
      "289C",
      "299",
      "301C",
      "313",
      "315C",
      "325",
      "337",
      "338C",
      "350",
      "350C",
      "350",
      "350C",
      "350",
      "350C",
      "350",
      "350C",
      "350C",
      "350C",
      "350",
      "350",
      "350",
      "350",
      "350",
      "350",
      "350",
      "350",
      "350",
      "350",
      "350",
      "350",
      "350",
      "350",
      "350",
      "350",
      "350",
      "350",
      "350",
      "350",
      "350",
      "350",
      "350",
      "350",
      "350",
      "350",
      "350",
      "350",
      "350",
      "350",
      "350",
      "350",
      "350T",
      "350T",
      "350T",
      "350T",
      "350T",
      "325T",
      "300T",
      "280T",
      "277T",
      "254T",
      "230T",
      "204T",
      "178T",
      "155T",
      "132T",
      "107T",
      "080T",
      "066T",
      "055T",
      "050T",
      "038T",
      "027T",
      "018T",
      "010T",
      "004",
      "001"
    ],
    "swim:geom": "path",
    "swim:speeds": [
      182,
      187,
      251,
      271,
      273,
      305,
      349,
      362,
      375,
      385,
      397,
      400,
      410,
      410,
      420,
      430,
      439,
      440,
      450,
      457,
      464,
      470,
      480,
      480,
      483,
      490,
      482,
      480,
      476,
      469,
      470,
      460,
      455,
      460,
      454,
      450,
      455,
      460,
      457,
      459,
      461,
      450,
      450,
      450,
      450,
      450,
      450,
      450,
      460,
      460,
      450,
      450,
      450,
      450,
      450,
      450,
      450,
      450,
      450,
      460,
      450,
      450,
      450,
      450,
      450,
      450,
      450,
      450,
      450,
      450,
      450,
      450,
      450,
      450,
      450,
      460,
      460,
      460,
      450,
      450,
      420,
      420,
      420,
      410,
      400,
      380,
      370,
      350,
      340,
      290,
      290,
      270,
      230,
      210,
      190,
      170,
      150,
      150,
      80
    ],
    "swim:timestamps": [
      1786389756,
      1786389816,
      1786389876,
      1786389936,
      1786389996,
      1786390056,
      1786390116,
      1786390176,
      1786390236,
      1786390296,
      1786390357,
      1786390375,
      1786390429,
      1786390435,
      1786390496,
      1786390555,
      1786390609,
      1786390616,
      1786390669,
      1786390729,
      1786390789,
      1786390796,
      1786390856,
      1786390916,
      1786390969,
      1786390976,
      1786391030,
      1786391036,
      1786391090,
      1786391150,
      1786391156,
      1786391216,
      1786391270,
      1786391336,
      1786391390,
      1786391457,
      1786391510,
      1786391516,
      1786391570,
      1786391630,
      1786391690,
      1786403844,
      1786403904,
      1786403925,
      1786403985,
      1786404045,
      1786404105,
      1786404165,
      1786404225,
      1786404286,
      1786404346,
      1786404406,
      1786404466,
      1786404526,
      1786404586,
      1786404646,
      1786404707,
      1786404767,
      1786404827,
      1786404887,
      1786404947,
      1786405007,
      1786405067,
      1786405127,
      1786405248,
      1786405308,
      1786405368,
      1786405428,
      1786405488,
      1786405549,
      1786405609,
      1786405669,
      1786405729,
      1786405789,
      1786405850,
      1786405910,
      1786405970,
      1786406030,
      1786406090,
      1786406150,
      1786406210,
      1786406271,
      1786406331,
      1786406391,
      1786406451,
      1786406511,
      1786406571,
      1786406631,
      1786406692,
      1786406812,
      1786406872,
      1786406932,
      1786406993,
      1786407052,
      1786407113,
      1786407173,
      1786407233,
      1786407281,
      1786407349
    ],
    "wof:geomhash": "9992fb5d820a1321df0bdfaa4cc9e260",
    "wof:id": 2047917657,
    "wof:repo": "sfomuseum-data-flights-2026-08"
  },
  "bbox": [
    -159.33333333333334,
    21.233333333333334,
    -122.41944444444445,
    37.663333333333334
  ],
  "geometry": {"type":"LineString","coordinates":[[-122.41944444444445,37.6375],[-122.4775,37.663333333333334],[-122.55444444444444,37.661944444444444],[-122.64527777777778,37.638333333333335],[-122.73861111111111,37.61472222222223],[-122.83638888888889,37.58972222222222],[-122.94944444444445,37.56166666666666],[-123.07083333333333,37.53],[-123.19500000000001,37.498333333333335],[-123.325,37.46472222222223],[-123.45555555555556,37.43055555555555],[-123.5,37.416666666666664],[-123.61972222222222,37.3875],[-123.63333333333334,37.36666666666667],[-123.76666666666667,37.333333333333336],[-123.91666666666667,37.3],[-124.04638888888888,37.275],[-124.06666666666666,37.266666666666666],[-124.19361111111111,37.23555555555556],[-124.34666666666666,37.19444444444444],[-124.50111111111111,37.15277777777778],[-124.51666666666667,37.13333333333333],[-124.66666666666667,37.1],[-124.83333333333333,37.05],[-124.97361111111111,37.02305555555555],[-125,37.016666666666666],[-125.13222222222221,36.97916666666667],[-125.15,36.96666666666667],[-125.28722222222223,36.93611111111111],[-125.43944444444445,36.89333333333333],[-125.45,36.88333333333333],[-125.6,36.833333333333336],[-125.73666666666666,36.809999999999995],[-125.9,36.75],[-126.03222222222222,36.725],[-126.2,36.666666666666664],[-126.3275,36.63972222222222],[-126.35,36.61666666666667],[-126.47694444444444,36.596111111111114],[-126.6261111111111,36.552499999999995],[-126.77527777777777,36.50861111111111],[-153.9,24.5],[-154.01666666666668,24.416666666666668],[-154.06666666666666,24.4],[-154.18333333333334,24.333333333333332],[-154.28333333333333,24.25],[-154.4,24.183333333333334],[-154.51666666666668,24.1],[-154.61666666666667,24.033333333333335],[-154.73333333333332,23.95],[-154.85,23.883333333333333],[-154.95,23.8],[-155.06666666666666,23.733333333333334],[-155.18333333333334,23.65],[-155.28333333333333,23.566666666666666],[-155.4,23.5],[-155.5,23.416666666666668],[-155.61666666666667,23.35],[-155.73333333333332,23.266666666666666],[-155.83333333333334,23.183333333333334],[-155.95,23.116666666666667],[-156.05,23.033333333333335],[-156.16666666666666,22.966666666666665],[-156.26666666666668,22.883333333333333],[-156.48333333333332,22.733333333333334],[-156.6,22.65],[-156.7,22.583333333333332],[-156.81666666666666,22.5],[-156.91666666666666,22.416666666666668],[-157.03333333333333,22.35],[-157.13333333333333,22.266666666666666],[-157.25,22.183333333333334],[-157.35,22.116666666666667],[-157.46666666666667,22.033333333333335],[-157.56666666666666,21.966666666666665],[-157.66666666666666,21.883333333333333],[-157.78333333333333,21.8],[-157.88333333333333,21.716666666666665],[-158,21.65],[-158.1,21.566666666666666],[-158.2,21.5],[-158.3,21.416666666666668],[-158.4,21.35],[-158.5,21.283333333333335],[-158.6,21.233333333333334],[-158.7,21.283333333333335],[-158.78333333333333,21.35],[-158.86666666666667,21.416666666666668],[-158.93333333333334,21.483333333333334],[-159.06666666666666,21.6],[-159.13333333333333,21.65],[-159.2,21.7],[-159.25,21.733333333333334],[-159.31666666666666,21.766666666666666],[-159.33333333333334,21.816666666666666],[-159.33333333333334,21.866666666666667],[-159.33333333333334,21.916666666666668],[-159.33333333333334,21.95],[-159.33333333333334,21.983333333333334]]}
}
