{
  "id": 2032130841,
  "type": "Feature",
  "properties": {
    "geom:area": 0,
    "geom:bbox": "-157.866667,21.183333,-122.116667,37.611389",
    "geom:latitude": 29.632019504783447,
    "geom:longitude": -139.97145444728335,
    "src:alt_label": "swim-path",
    "src:geom": "swim",
    "swim:altitudes": [
      "023C",
      "040C",
      "064C",
      "086C",
      "106C",
      "116C",
      "129C",
      "144C",
      "160C",
      "175C",
      "186C",
      "200C",
      "213C",
      "226C",
      "237C",
      "248C",
      "258C",
      "266C",
      "275C",
      "286C",
      "298C",
      "308C",
      "317C",
      "325C",
      "330C",
      "330C",
      "330C",
      "330C",
      "330C",
      "330C",
      "330C",
      "333C",
      "340C",
      "347C",
      "350",
      "350",
      "350",
      "350",
      "350",
      "350",
      "350",
      "350",
      "350",
      "350C",
      "350C",
      "350C",
      "350C",
      "350C",
      "350",
      "350",
      "350",
      "350",
      "350",
      "350",
      "350",
      "350",
      "350",
      "350",
      "350",
      "350",
      "350",
      "350",
      "350",
      "350",
      "350",
      "346C",
      "331",
      "322C",
      "311",
      "305C",
      "277",
      "269C",
      "255",
      "235C",
      "219",
      "202C",
      "186C",
      "169",
      "147",
      "140",
      "132",
      "125",
      "122",
      "115",
      "108",
      "101",
      "099C",
      "100",
      "100C",
      "100",
      "100C",
      "097",
      "094",
      "091",
      "086",
      "081",
      "079",
      "080",
      "074",
      "070",
      "069",
      "065",
      "058",
      "052",
      "047",
      "041",
      "040",
      "035",
      "028",
      "023",
      "019",
      "013",
      "010",
      "006",
      "002"
    ],
    "swim:geom": "path",
    "swim:speeds": [
      210,
      250,
      260,
      280,
      290,
      340,
      380,
      400,
      420,
      430,
      440,
      440,
      460,
      460,
      470,
      480,
      480,
      490,
      500,
      500,
      490,
      490,
      490,
      490,
      500,
      500,
      500,
      490,
      490,
      490,
      490,
      480,
      490,
      490,
      490,
      490,
      480,
      480,
      480,
      480,
      480,
      480,
      480,
      473,
      473,
      472,
      472,
      474,
      475,
      480,
      476,
      480,
      476,
      480,
      477,
      480,
      478,
      480,
      478,
      480,
      479,
      480,
      480,
      490,
      480,
      480,
      481,
      490,
      480,
      480,
      447,
      450,
      434,
      420,
      401,
      390,
      370,
      365,
      351,
      348,
      348,
      331,
      327,
      315,
      316,
      309,
      304,
      301,
      303,
      307,
      304,
      285,
      272,
      258,
      261,
      255,
      253,
      250,
      252,
      244,
      251,
      250,
      250,
      246,
      243,
      230,
      223,
      203,
      205,
      202,
      195,
      167,
      150,
      146,
      147
    ],
    "swim:timestamps": [
      1786008249,
      1786008310,
      1786008370,
      1786008430,
      1786008490,
      1786008550,
      1786008611,
      1786008670,
      1786008731,
      1786008791,
      1786008851,
      1786008911,
      1786008971,
      1786009031,
      1786009092,
      1786009152,
      1786009212,
      1786009272,
      1786009333,
      1786009393,
      1786009453,
      1786009513,
      1786009573,
      1786009633,
      1786009693,
      1786009754,
      1786009814,
      1786009874,
      1786009934,
      1786009994,
      1786010054,
      1786010115,
      1786010175,
      1786010235,
      1786010295,
      1786010355,
      1786010415,
      1786010475,
      1786010536,
      1786010596,
      1786010656,
      1786010716,
      1786010777,
      1786022371,
      1786022431,
      1786022491,
      1786022551,
      1786022611,
      1786022671,
      1786022689,
      1786022731,
      1786022749,
      1786022791,
      1786022809,
      1786022851,
      1786022869,
      1786022911,
      1786022930,
      1786022971,
      1786022989,
      1786023032,
      1786023050,
      1786023092,
      1786023110,
      1786023152,
      1786023170,
      1786023212,
      1786023231,
      1786023272,
      1786023290,
      1786023392,
      1786023410,
      1786023476,
      1786023530,
      1786023596,
      1786023650,
      1786023711,
      1786023776,
      1786023843,
      1786023867,
      1786023896,
      1786023933,
      1786023956,
      1786023987,
      1786024016,
      1786024048,
      1786024077,
      1786024107,
      1786024137,
      1786024168,
      1786024197,
      1786024227,
      1786024257,
      1786024288,
      1786024317,
      1786024348,
      1786024377,
      1786024402,
      1786024437,
      1786024468,
      1786024497,
      1786024522,
      1786024557,
      1786024587,
      1786024617,
      1786024648,
      1786024677,
      1786024708,
      1786024737,
      1786024768,
      1786024797,
      1786024828,
      1786024857,
      1786024888,
      1786024917
    ],
    "wof:geomhash": "123747e903cf326de1647be5d2077008",
    "wof:id": 2032130841,
    "wof:repo": "sfomuseum-data-flights-2026-08"
  },
  "bbox": [
    -157.86666666666667,
    21.183333333333334,
    -122.11666666666666,
    37.61138888888889
  ],
  "geometry": {"type":"LineString","coordinates":[[-157.86666666666667,21.25],[-157.85,21.2],[-157.76666666666668,21.183333333333334],[-157.68333333333334,21.183333333333334],[-157.6,21.216666666666665],[-157.51666666666668,21.25],[-157.4,21.283333333333335],[-157.3,21.333333333333332],[-157.18333333333334,21.366666666666667],[-157.06666666666666,21.416666666666668],[-156.95,21.466666666666665],[-156.83333333333334,21.533333333333335],[-156.71666666666667,21.6],[-156.61666666666667,21.683333333333334],[-156.5,21.75],[-156.38333333333333,21.833333333333332],[-156.26666666666668,21.916666666666668],[-156.15,22],[-156.03333333333333,22.066666666666666],[-155.9,22.15],[-155.78333333333333,22.233333333333334],[-155.66666666666666,22.316666666666666],[-155.55,22.4],[-155.43333333333334,22.483333333333334],[-155.3,22.566666666666666],[-155.18333333333334,22.633333333333333],[-155.06666666666666,22.716666666666665],[-154.93333333333334,22.8],[-154.81666666666666,22.883333333333333],[-154.7,22.966666666666665],[-154.58333333333334,23.033333333333335],[-154.45,23.116666666666667],[-154.33333333333334,23.183333333333334],[-154.2,23.266666666666666],[-154.08333333333334,23.333333333333332],[-153.96666666666667,23.416666666666668],[-153.83333333333334,23.483333333333334],[-153.71666666666667,23.566666666666666],[-153.6,23.633333333333333],[-153.46666666666667,23.7],[-153.35,23.783333333333335],[-153.23333333333332,23.85],[-153.1,23.916666666666668],[-126.54083333333332,35.60305555555556],[-126.38722222222223,35.6475],[-126.23555555555555,35.691111111111105],[-126.08444444444444,35.73888888888889],[-125.94583333333334,35.80444444444444],[-125.80611111111111,35.87388888888889],[-125.76666666666667,35.9],[-125.66777777777779,35.94194444444444],[-125.61666666666666,35.96666666666667],[-125.52583333333334,36.01111111111111],[-125.48333333333333,36.05],[-125.38527777777779,36.07944444444445],[-125.35,36.1],[-125.245,36.14722222222222],[-125.2,36.166666666666664],[-125.10333333333332,36.21555555555556],[-125.05,36.233333333333334],[-124.96194444444444,36.28333333333333],[-124.9,36.3],[-124.81861111111111,36.35194444444445],[-124.75,36.36666666666667],[-124.67833333333334,36.41861111111111],[-124.61666666666666,36.43333333333333],[-124.53583333333333,36.486111111111114],[-124.46666666666667,36.5],[-124.39055555555557,36.55472222222222],[-124.33333333333333,36.56666666666667],[-124.11972222222222,36.68194444444444],[-124.06666666666666,36.7],[-123.9625,36.755],[-123.81666666666666,36.81666666666667],[-123.69250000000001,36.88],[-123.56666666666666,36.916666666666664],[-123.46666666666667,36.983333333333334],[-123.35416666666666,37.03527777777778],[-123.21666666666667,37.1],[-123.16666666666667,37.11666666666667],[-123.11888888888888,37.14222222222222],[-123.05,37.166666666666664],[-123.01916666666666,37.18722222222222],[-122.96666666666667,37.21666666666667],[-122.92472222222223,37.230000000000004],[-122.86666666666666,37.25],[-122.825,37.244166666666665],[-122.76666666666667,37.233333333333334],[-122.72083333333333,37.2325],[-122.66666666666667,37.233333333333334],[-122.61666666666666,37.24666666666667],[-122.56666666666666,37.25],[-122.52111111111111,37.260555555555555],[-122.46666666666667,37.266666666666666],[-122.43333333333334,37.27333333333333],[-122.38333333333334,37.28333333333333],[-122.34694444444445,37.28611111111111],[-122.3,37.3],[-122.26083333333334,37.29861111111111],[-122.21666666666667,37.3],[-122.1875,37.32777777777778],[-122.16666666666667,37.35],[-122.1538888888889,37.39194444444444],[-122.13333333333334,37.43333333333333],[-122.12083333333332,37.45416666666667],[-122.11666666666666,37.483333333333334],[-122.13944444444445,37.51166666666666],[-122.16666666666667,37.53333333333333],[-122.19472222222223,37.544999999999995],[-122.23333333333333,37.56666666666667],[-122.25555555555556,37.57083333333334],[-122.28333333333333,37.583333333333336],[-122.30666666666666,37.592222222222226],[-122.33333333333333,37.6],[-122.35166666666666,37.61138888888889]]}
}
