{
  "id": 2032116127,
  "type": "Feature",
  "properties": {
    "geom:area": 0,
    "geom:bbox": "-122.341944,33.394444,-112.061389,37.604722",
    "geom:latitude": 34.86588641827831,
    "geom:longitude": -117.60768254570004,
    "src:alt_label": "swim-path",
    "src:geom": "swim",
    "swim:altitudes": [
      "028",
      "077",
      "099",
      "135",
      "172",
      "192",
      "223",
      "226",
      "232",
      "243",
      "246",
      "261",
      "265",
      "279",
      "290",
      "303",
      "304",
      "320",
      "334",
      "334",
      "340",
      "340",
      "340",
      "340",
      "340",
      "351",
      "367",
      "374",
      "380C",
      "380C",
      "380C",
      "380C",
      "380C",
      "380C",
      "380C",
      "380C",
      "380C",
      "380C",
      "380C",
      "380C",
      "380C",
      "380C",
      "380C",
      "380C",
      "380C",
      "380C",
      "380C",
      "380C",
      "380C",
      "380C",
      "380C",
      "380C",
      "380C",
      "380C",
      "380C",
      "380C",
      "380C",
      "380C",
      "380C",
      "380C",
      "380C",
      "380C",
      "380C",
      "380C",
      "380C",
      "380C",
      "380C",
      "380C",
      "380C",
      "380C",
      "380C",
      "380C",
      "380",
      "380",
      "379",
      "362",
      "333",
      "306",
      "284",
      "262",
      "240",
      "229",
      "219",
      "209",
      "199",
      "189",
      "179",
      "169",
      "158",
      "149",
      "138",
      "130",
      "120",
      "101",
      "095",
      "088",
      "076",
      "067",
      "063",
      "054",
      "051",
      "042",
      "039",
      "027",
      "017",
      "011",
      "009",
      "003"
    ],
    "swim:geom": "path",
    "swim:speeds": [
      180,
      276,
      294,
      351,
      379,
      382,
      376,
      372,
      416,
      437,
      439,
      443,
      443,
      451,
      462,
      468,
      468,
      468,
      462,
      462,
      462,
      461,
      462,
      460,
      461,
      457,
      441,
      437,
      438,
      439,
      438,
      438,
      437,
      436,
      436,
      437,
      438,
      439,
      440,
      440,
      438,
      436,
      434,
      434,
      435,
      436,
      436,
      438,
      440,
      441,
      442,
      441,
      442,
      441,
      441,
      440,
      440,
      439,
      438,
      438,
      437,
      437,
      436,
      436,
      436,
      435,
      435,
      435,
      435,
      435,
      435,
      435,
      435,
      435,
      434,
      430,
      431,
      444,
      440,
      428,
      417,
      408,
      407,
      397,
      396,
      386,
      385,
      376,
      379,
      372,
      371,
      361,
      362,
      354,
      305,
      289,
      266,
      254,
      247,
      246,
      237,
      240,
      235,
      214,
      200,
      172,
      148,
      147
    ],
    "swim:timestamps": [
      1785956284,
      1785956417,
      1785956457,
      1785956585,
      1785956657,
      1785956705,
      1785956765,
      1785956777,
      1785956837,
      1785956885,
      1785956897,
      1785956945,
      1785956957,
      1785957017,
      1785957065,
      1785957126,
      1785957138,
      1785957186,
      1785957246,
      1785957258,
      1785957318,
      1785957366,
      1785957378,
      1785957426,
      1785957438,
      1785957486,
      1785957546,
      1785957606,
      1785957666,
      1785957726,
      1785957787,
      1785957847,
      1785957907,
      1785957967,
      1785958087,
      1785958147,
      1785958207,
      1785958267,
      1785958327,
      1785958448,
      1785958508,
      1785958568,
      1785958688,
      1785958748,
      1785958808,
      1785958868,
      1785958928,
      1785958988,
      1785959048,
      1785959103,
      1785959169,
      1785959223,
      1785959229,
      1785959283,
      1785959289,
      1785959343,
      1785959349,
      1785959409,
      1785959463,
      1785959469,
      1785959529,
      1785959589,
      1785959649,
      1785959704,
      1785959764,
      1785959824,
      1785959830,
      1785959884,
      1785959890,
      1785959944,
      1785960010,
      1785960064,
      1785960184,
      1785960250,
      1785960310,
      1785960364,
      1785960425,
      1785960485,
      1785960545,
      1785960605,
      1785960665,
      1785960683,
      1785960725,
      1785960743,
      1785960785,
      1785960803,
      1785960845,
      1785960863,
      1785960905,
      1785960923,
      1785960965,
      1785960984,
      1785961025,
      1785961085,
      1785961146,
      1785961164,
      1785961223,
      1785961266,
      1785961284,
      1785961326,
      1785961343,
      1785961386,
      1785961404,
      1785961463,
      1785961524,
      1785961566,
      1785961584,
      1785961626
    ],
    "wof:geomhash": "6c3d506fa9af7f2a01201460e4b3f45c",
    "wof:id": 2032116127,
    "wof:repo": "sfomuseum-data-flights-2026-08"
  },
  "bbox": [
    -122.34194444444444,
    33.394444444444446,
    -112.06138888888889,
    37.60472222222222
  ],
  "geometry": {"type":"LineString","coordinates":[[-112.06138888888889,33.426944444444445],[-112.22222222222223,33.394444444444446],[-112.3,33.4],[-112.52444444444444,33.43833333333333],[-112.67666666666668,33.45111111111111],[-112.77888888888889,33.4525],[-112.9038888888889,33.47222222222222],[-112.92722222222223,33.47638888888889],[-113.05611111111111,33.500277777777775],[-113.17027777777778,33.52166666666667],[-113.19722222222222,33.526666666666664],[-113.31333333333333,33.54805555555556],[-113.34083333333332,33.55305555555555],[-113.48777777777778,33.57972222222222],[-113.62416666666665,33.60527777777778],[-113.7761111111111,33.63361111111111],[-113.7911111111111,33.63638888888889],[-113.92833333333334,33.66138888888889],[-114.075,33.69444444444444],[-114.08916666666666,33.698055555555555],[-114.23916666666666,33.736111111111114],[-114.36916666666666,33.76833333333333],[-114.38166666666666,33.771388888888886],[-114.51555555555555,33.805277777777775],[-114.52777777777777,33.80833333333333],[-114.6613888888889,33.84166666666667],[-114.80194444444444,33.876666666666665],[-114.9413888888889,33.91111111111111],[-115.08111111111111,33.945277777777775],[-115.22194444444445,33.97944444444445],[-115.3611111111111,34.01305555555555],[-115.50111111111111,34.04694444444444],[-115.64083333333333,34.08027777777778],[-115.78,34.11333333333334],[-116.07638888888889,34.18333333333333],[-116.21805555555555,34.21638888888889],[-116.35888888888888,34.24916666666667],[-116.5025,34.2825],[-116.64500000000001,34.31527777777777],[-116.92944444444444,34.38027777777778],[-117.07027777777778,34.411944444444444],[-117.21305555555556,34.443888888888885],[-117.49583333333334,34.50694444444444],[-117.63666666666667,34.53805555555555],[-117.78083333333333,34.569722222222225],[-117.92361111111111,34.600833333333334],[-118.0375,34.626111111111115],[-118.16944444444445,34.681666666666665],[-118.30111111111111,34.743611111111115],[-118.42750000000001,34.80416666666667],[-118.56472222222222,34.86833333333333],[-118.69305555555556,34.928888888888885],[-118.6888888888889,34.926944444444445],[-118.82222222222222,34.98916666666667],[-118.84444444444443,34.99944444444444],[-118.95027777777779,35.04833333333333],[-118.97416666666666,35.059444444444445],[-119.10277777777777,35.119166666666665],[-119.20861111111111,35.16777777777777],[-119.23194444444445,35.17861111111111],[-119.36,35.237500000000004],[-119.48972222222223,35.29722222222222],[-119.61861111111111,35.355555555555554],[-119.72527777777778,35.40416666666667],[-119.85416666666666,35.462500000000006],[-119.98138888888889,35.52027777777778],[-120.005,35.530833333333334],[-120.11027777777777,35.57805555555556],[-120.13361111111112,35.58861111111111],[-120.23805555555556,35.63527777777778],[-120.39111111111112,35.70055555555556],[-120.50111111111111,35.74277777777778],[-120.76916666666666,35.844722222222224],[-120.92527777777778,35.903888888888886],[-121.05944444444444,35.95444444444445],[-121.17083333333333,35.99611111111111],[-121.30444444444444,36.045833333333334],[-121.41166666666668,36.12972222222222],[-121.49277777777777,36.23277777777778],[-121.57194444444444,36.333333333333336],[-121.64916666666667,36.43138888888889],[-121.68333333333334,36.483333333333334],[-121.72444444444444,36.52722222222222],[-121.76666666666667,36.56666666666667],[-121.79666666666667,36.61888888888889],[-121.83333333333333,36.666666666666664],[-121.86861111111111,36.709722222222226],[-121.9,36.75],[-121.91305555555556,36.80916666666666],[-121.93333333333334,36.86666666666667],[-121.94194444444445,36.9125],[-121.95,36.95],[-121.97416666666666,37.005833333333335],[-122.01222222222222,37.10305555555556],[-122.0436111111111,37.18416666666666],[-122.06666666666666,37.21666666666667],[-122.08333333333333,37.3],[-122.10694444444444,37.343333333333334],[-122.11666666666666,37.36666666666667],[-122.13,37.408055555555556],[-122.13333333333334,37.43333333333333],[-122.15194444444445,37.471944444444446],[-122.16666666666667,37.483333333333334],[-122.2,37.55],[-122.26666666666667,37.56666666666667],[-122.29722222222222,37.586111111111116],[-122.31666666666666,37.583333333333336],[-122.34194444444444,37.60472222222222]]}
}
