{
  "id": 2047966711,
  "type": "Feature",
  "properties": {
    "geom:area": 0,
    "geom:bbox": "-122.349050,37.476520,-121.303210,37.610150",
    "geom:latitude": 37.53676340277536,
    "geom:longitude": -121.83275751216225,
    "src:alt_label": "swim-approach",
    "src:geom": "swim",
    "swim:elevations": [
      4350,
      4085,
      4014,
      3919,
      3837,
      3803,
      3710,
      3522,
      3305,
      3229,
      3022,
      2744,
      2512,
      2440,
      2239,
      1984,
      1917,
      1716,
      1618,
      1403,
      1228,
      1052,
      939,
      751,
      669,
      489,
      355,
      235,
      142,
      64
    ],
    "swim:geom": "approach",
    "swim:timestamps": [
      1786744227,
      1786744258,
      1786744283,
      1786744307,
      1786744334,
      1786744346,
      1786744361,
      1786744385,
      1786744435,
      1786744453,
      1786744488,
      1786744521,
      1786744557,
      1786744569,
      1786744605,
      1786744648,
      1786744665,
      1786744697,
      1786744714,
      1786744754,
      1786744791,
      1786744829,
      1786744848,
      1786744881,
      1786744900,
      1786744933,
      1786744972,
      1786745002,
      1786745029,
      1786745050
    ],
    "wof:geomhash": "f806d2285169582d7b4a6d76de61627a",
    "wof:id": 2047966711,
    "wof:repo": "sfomuseum-data-flights-2026-08"
  },
  "bbox": [
    -122.34905,
    37.47652,
    -121.30321,
    37.61015
  ],
  "geometry": {"type":"LineString","coordinates":[[-121.30321,37.58753],[-121.36238,37.58108],[-121.41074,37.57554],[-121.45273,37.57066],[-121.49754,37.56548],[-121.51676,37.56323],[-121.54042,37.56053],[-121.57844,37.55617],[-121.65432,37.54352],[-121.67957,37.5374],[-121.72773,37.52593],[-121.7734,37.5151],[-121.81422,37.49279],[-121.82646,37.48389],[-121.87439,37.47652],[-121.93321,37.48343],[-121.95682,37.48638],[-121.99903,37.49158],[-122.022,37.49437],[-122.0735,37.50071],[-122.11923,37.51353],[-122.16241,37.53151],[-122.18406,37.54076],[-122.2201,37.55587],[-122.23769,37.56329],[-122.2663,37.57536],[-122.29455,37.58721],[-122.31586,37.59614],[-122.33434,37.604],[-122.34905,37.61015]]}
}
