{
  "id": 2032077757,
  "type": "Feature",
  "properties": {
    "geom:area": 0,
    "geom:bbox": "-122.400000,30.006111,-93.230278,44.951111",
    "geom:latitude": 40.891202523249724,
    "geom:longitude": -103.89221269454849,
    "src:alt_label": "swim-path",
    "src:geom": "swim",
    "swim:altitudes": [
      "007",
      "029",
      "042",
      "058",
      "082",
      "133",
      "145",
      "197",
      "213",
      "226",
      "239",
      "251",
      "261",
      "271",
      "282",
      "302",
      "313",
      "322",
      "330",
      "330",
      "330",
      "330",
      "330",
      "330",
      "330",
      "331",
      "338",
      "349C",
      "350C",
      "350C",
      "350C",
      "350C",
      "350C",
      "350C",
      "350C",
      "350C",
      "350C",
      "350C",
      "350C",
      "350C",
      "350C",
      "349C",
      "349C",
      "349C",
      "350C",
      "350C",
      "350C",
      "350C",
      "350C",
      "350C",
      "350C",
      "350C",
      "350C",
      "350C",
      "350C",
      "350C",
      "350C",
      "350C",
      "350C",
      "350C",
      "350C",
      "350C",
      "350C",
      "350C",
      "350C",
      "350C",
      "350C",
      "350C",
      "350C",
      "350C",
      "350C",
      "350C",
      "350C",
      "350C",
      "350C",
      "350C",
      "350C",
      "350C",
      "350C",
      "350C",
      "350C",
      "350C",
      "350C",
      "350C",
      "349C",
      "350C",
      "350C",
      "350C",
      "350C",
      "350C",
      "350C",
      "350C",
      "350C",
      "350C",
      "349C",
      "350C",
      "350C",
      "350C",
      "350C",
      "349C",
      "350C",
      "350C",
      "350C",
      "350C",
      "349C",
      "350C",
      "350C",
      "350C",
      "350C",
      "350C",
      "350C",
      "350C",
      "350C",
      "349C",
      "349C",
      "350C",
      "350C",
      "350C",
      "350C",
      "350C",
      "350C",
      "350C",
      "350C",
      "350C",
      "350C",
      "350C",
      "350C",
      "349C",
      "350C",
      "350C",
      "350C",
      "350C",
      "350C",
      "350C",
      "350C",
      "350C",
      "350C",
      "350C",
      "350C",
      "349C",
      "349C",
      "349C",
      "350C",
      "350C",
      "350C",
      "350C",
      "350C",
      "350C",
      "350C",
      "350C",
      "350C",
      "350C",
      "350C",
      "350C",
      "349C",
      "350C",
      "350C",
      "344",
      "324",
      "315",
      "310",
      "310",
      "310",
      "310",
      "310",
      "310",
      "310",
      "300",
      "290",
      "273",
      "235",
      "215",
      "192",
      "170",
      "152",
      "134",
      "116",
      "113",
      "104",
      "101",
      "089",
      "087",
      "075",
      "072",
      "066",
      "062",
      "059",
      "051",
      "050",
      "049",
      "048",
      "042",
      "040",
      "032",
      "026",
      "017",
      "012",
      "015",
      "026",
      "039",
      "069",
      "097",
      "120",
      "149",
      "172",
      "192",
      "211",
      "228",
      "243",
      "273",
      "280",
      "280",
      "309",
      "322",
      "335",
      "343",
      "344",
      "349",
      "354",
      "358C",
      "360C",
      "360C",
      "360C",
      "360C",
      "360C",
      "360C",
      "360C",
      "360C",
      "360C",
      "360C",
      "360C",
      "359C",
      "360C",
      "360C",
      "360C",
      "360C",
      "360C",
      "360C",
      "360C",
      "360C",
      "360C",
      "360C",
      "360C",
      "360C",
      "360C",
      "360C",
      "360C",
      "360C",
      "360C",
      "360C",
      "360C",
      "360C",
      "360C",
      "360C",
      "360C",
      "360C",
      "360C",
      "360C",
      "360C",
      "360C",
      "360C",
      "360C",
      "360C",
      "360C",
      "360C",
      "360C",
      "360C",
      "360C",
      "360C",
      "360C",
      "360C",
      "360C",
      "360C",
      "360C",
      "360C",
      "360C",
      "360C",
      "360C",
      "360C",
      "360C",
      "360C",
      "360C",
      "360C",
      "360C",
      "360C",
      "360C",
      "360C",
      "360C",
      "360C",
      "360C",
      "360C",
      "360C",
      "360C",
      "360C",
      "360C",
      "360C",
      "360C",
      "360C",
      "360C",
      "360C",
      "360C",
      "360C",
      "360C",
      "360C",
      "360C",
      "360C",
      "360C",
      "359C",
      "360C",
      "360C",
      "360C",
      "360C",
      "353",
      "343",
      "330C",
      "330C",
      "330C",
      "330C",
      "330C",
      "330C",
      "330C",
      "330C",
      "330C",
      "330C",
      "330C",
      "330C",
      "330C",
      "330C",
      "330C",
      "330",
      "324",
      "320",
      "315",
      "311",
      "301",
      "287",
      "277",
      "269",
      "255",
      "247",
      "234",
      "225",
      "217",
      "203",
      "189",
      "180",
      "153",
      "145",
      "139",
      "132",
      "125",
      "119",
      "111",
      "106",
      "094",
      "090",
      "079",
      "066",
      "059",
      "060",
      "059",
      "052",
      "048",
      "040",
      "035",
      "028",
      "026",
      "020",
      "019",
      "014",
      "012",
      "007",
      "004"
    ],
    "swim:geom": "path",
    "swim:speeds": [
      171,
      166,
      199,
      270,
      285,
      311,
      349,
      407,
      414,
      427,
      441,
      449,
      464,
      474,
      484,
      495,
      499,
      501,
      499,
      499,
      499,
      498,
      499,
      498,
      499,
      498,
      499,
      498,
      495,
      495,
      498,
      497,
      494,
      496,
      496,
      497,
      496,
      497,
      496,
      497,
      496,
      496,
      496,
      496,
      495,
      495,
      495,
      496,
      495,
      495,
      495,
      495,
      496,
      496,
      496,
      496,
      496,
      496,
      496,
      496,
      496,
      497,
      497,
      498,
      498,
      498,
      498,
      498,
      498,
      498,
      498,
      498,
      498,
      498,
      498,
      499,
      500,
      500,
      501,
      501,
      502,
      502,
      503,
      504,
      504,
      505,
      505,
      505,
      505,
      505,
      505,
      505,
      504,
      504,
      503,
      503,
      503,
      504,
      506,
      506,
      505,
      505,
      503,
      502,
      501,
      501,
      502,
      502,
      501,
      499,
      498,
      497,
      496,
      492,
      493,
      496,
      497,
      496,
      497,
      496,
      497,
      496,
      496,
      496,
      494,
      494,
      493,
      493,
      492,
      491,
      491,
      491,
      491,
      491,
      491,
      490,
      490,
      490,
      489,
      488,
      488,
      487,
      487,
      486,
      487,
      487,
      487,
      486,
      486,
      486,
      485,
      482,
      482,
      480,
      479,
      480,
      480,
      479,
      460,
      450,
      461,
      480,
      480,
      480,
      480,
      479,
      480,
      478,
      470,
      457,
      414,
      413,
      396,
      381,
      366,
      350,
      335,
      329,
      324,
      304,
      297,
      291,
      281,
      277,
      259,
      253,
      255,
      234,
      231,
      233,
      228,
      220,
      197,
      178,
      164,
      137,
      138,
      152,
      162,
      250,
      276,
      295,
      336,
      336,
      346,
      361,
      379,
      390,
      402,
      418,
      445,
      450,
      446,
      456,
      457,
      467,
      470,
      482,
      494,
      477,
      479,
      483,
      482,
      483,
      484,
      484,
      484,
      484,
      484,
      484,
      484,
      484,
      484,
      484,
      484,
      485,
      485,
      488,
      486,
      488,
      488,
      490,
      491,
      491,
      492,
      491,
      491,
      489,
      488,
      488,
      487,
      487,
      487,
      487,
      487,
      488,
      489,
      489,
      489,
      488,
      488,
      487,
      486,
      485,
      484,
      483,
      482,
      480,
      480,
      479,
      479,
      478,
      477,
      475,
      475,
      475,
      474,
      474,
      477,
      474,
      474,
      475,
      475,
      475,
      474,
      475,
      475,
      475,
      475,
      476,
      476,
      476,
      476,
      476,
      477,
      477,
      477,
      478,
      478,
      478,
      477,
      476,
      476,
      474,
      473,
      473,
      472,
      470,
      469,
      470,
      471,
      471,
      467,
      466,
      465,
      453,
      453,
      451,
      451,
      451,
      451,
      451,
      451,
      451,
      451,
      451,
      451,
      451,
      450,
      450,
      449,
      449,
      449,
      449,
      487,
      492,
      487,
      477,
      468,
      460,
      451,
      453,
      445,
      433,
      420,
      417,
      380,
      359,
      352,
      335,
      324,
      322,
      320,
      315,
      301,
      304,
      284,
      282,
      252,
      220,
      223,
      212,
      209,
      207,
      208,
      199,
      192,
      194,
      180,
      144,
      146,
      148,
      145
    ],
    "swim:timestamps": [
      1785686518,
      1785686578,
      1785686650,
      1785686710,
      1785686753,
      1785686890,
      1785686950,
      1785687131,
      1785687191,
      1785687251,
      1785687311,
      1785687371,
      1785687431,
      1785687491,
      1785687551,
      1785687671,
      1785687731,
      1785687770,
      1785687830,
      1785687852,
      1785687890,
      1785687912,
      1785687950,
      1785687972,
      1785688010,
      1785688032,
      1785688070,
      1785688130,
      1785688190,
      1785688212,
      1785688250,
      1785688310,
      1785688332,
      1785688370,
      1785688431,
      1785688503,
      1785688512,
      1785688563,
      1785688573,
      1785688623,
      1785688633,
      1785688693,
      1785688743,
      1785688753,
      1785688803,
      1785688813,
      1785688873,
      1785688935,
      1785688995,
      1785689055,
      1785689115,
      1785689176,
      1785689236,
      1785689296,
      1785689356,
      1785689416,
      1785689476,
      1785689536,
      1785689596,
      1785689656,
      1785689716,
      1785689776,
      1785689836,
      1785689957,
      1785690017,
      1785690077,
      1785690197,
      1785690317,
      1785690377,
      1785690437,
      1785690497,
      1785690557,
      1785690678,
      1785690738,
      1785690810,
      1785690870,
      1785690930,
      1785690990,
      1785691050,
      1785691110,
      1785691170,
      1785691230,
      1785691290,
      1785691351,
      1785691411,
      1785691471,
      1785691531,
      1785691591,
      1785691651,
      1785691771,
      1785691831,
      1785691891,
      1785691951,
      1785692011,
      1785692071,
      1785692132,
      1785692192,
      1785692252,
      1785692367,
      1785692487,
      1785692552,
      1785692607,
      1785692667,
      1785692727,
      1785692787,
      1785692973,
      1785693028,
      1785693088,
      1785693153,
      1785693273,
      1785693333,
      1785693393,
      1785693448,
      1785693492,
      1785693553,
      1785693573,
      1785693634,
      1785693673,
      1785693689,
      1785693733,
      1785693754,
      1785693793,
      1785693809,
      1785693826,
      1785693886,
      1785693913,
      1785693929,
      1785693973,
      1785694033,
      1785694049,
      1785694109,
      1785694153,
      1785694169,
      1785694213,
      1785694274,
      1785694334,
      1785694349,
      1785694394,
      1785694410,
      1785694454,
      1785694470,
      1785694514,
      1785694530,
      1785694574,
      1785694590,
      1785694634,
      1785694694,
      1785694754,
      1785694934,
      1785694995,
      1785695055,
      1785695235,
      1785695295,
      1785695355,
      1785695415,
      1785695475,
      1785695535,
      1785695595,
      1785695716,
      1785695776,
      1785695836,
      1785695896,
      1785695956,
      1785696016,
      1785696076,
      1785696136,
      1785696196,
      1785696256,
      1785696316,
      1785696376,
      1785696497,
      1785696557,
      1785696629,
      1785696689,
      1785696749,
      1785696809,
      1785696869,
      1785696880,
      1785696929,
      1785696940,
      1785696989,
      1785697000,
      1785697049,
      1785697060,
      1785697109,
      1785697120,
      1785697170,
      1785697230,
      1785697240,
      1785697290,
      1785697300,
      1785697350,
      1785697360,
      1785697420,
      1785697470,
      1785697540,
      1785697590,
      1785711047,
      1785711085,
      1785711145,
      1785711205,
      1785711265,
      1785711325,
      1785711385,
      1785711445,
      1785711505,
      1785711566,
      1785711626,
      1785711686,
      1785711806,
      1785711926,
      1785711986,
      1785712106,
      1785712166,
      1785712227,
      1785712287,
      1785712301,
      1785712347,
      1785712407,
      1785712422,
      1785712527,
      1785712602,
      1785712647,
      1785712662,
      1785712707,
      1785712722,
      1785712782,
      1785712827,
      1785712842,
      1785712887,
      1785712902,
      1785712962,
      1785713008,
      1785713023,
      1785713068,
      1785713083,
      1785713128,
      1785713143,
      1785713188,
      1785713203,
      1785713248,
      1785713308,
      1785713323,
      1785713368,
      1785713383,
      1785713428,
      1785713443,
      1785713503,
      1785713548,
      1785713563,
      1785713608,
      1785713623,
      1785713669,
      1785713683,
      1785713729,
      1785713744,
      1785713804,
      1785713849,
      1785713864,
      1785713909,
      1785713924,
      1785713969,
      1785713984,
      1785714029,
      1785714044,
      1785714104,
      1785714164,
      1785714284,
      1785714344,
      1785714404,
      1785714465,
      1785714585,
      1785714645,
      1785714765,
      1785714825,
      1785714885,
      1785714945,
      1785715005,
      1785715018,
      1785715065,
      1785715126,
      1785715138,
      1785715198,
      1785715258,
      1785715306,
      1785715366,
      1785715379,
      1785715426,
      1785715439,
      1785715486,
      1785715559,
      1785715606,
      1785715619,
      1785715666,
      1785715739,
      1785715787,
      1785715799,
      1785715859,
      1785715919,
      1785715979,
      1785716040,
      1785716100,
      1785716160,
      1785716220,
      1785716280,
      1785716340,
      1785716400,
      1785716532,
      1785716592,
      1785716652,
      1785716712,
      1785716773,
      1785716893,
      1785716953,
      1785717040,
      1785717073,
      1785717100,
      1785717133,
      1785717220,
      1785717253,
      1785717280,
      1785717313,
      1785717340,
      1785717373,
      1785717401,
      1785717433,
      1785717461,
      1785717493,
      1785717521,
      1785717554,
      1785717581,
      1785717614,
      1785717641,
      1785717674,
      1785717734,
      1785717761,
      1785717794,
      1785717821,
      1785717854,
      1785717881,
      1785717905,
      1785717941,
      1785717974,
      1785718001,
      1785718038,
      1785718062,
      1785718154,
      1785718182,
      1785718215,
      1785718242,
      1785718275,
      1785718302,
      1785718335,
      1785718362,
      1785718401,
      1785718422,
      1785718482,
      1785718542,
      1785718602,
      1785718635,
      1785718662,
      1785718696,
      1785718723,
      1785718756,
      1785718783,
      1785718816,
      1785718843,
      1785718876,
      1785718903,
      1785718936,
      1785718963,
      1785718996,
      1785719023
    ],
    "wof:geomhash": "d397b762d03deb8847703cb96d6716cc",
    "wof:id": 2032077757,
    "wof:repo": "sfomuseum-data-flights-2026-08"
  },
  "bbox": [
    -122.4,
    30.00611111111111,
    -93.23027777777779,
    44.95111111111111
  ],
  "geometry": {"coordinates":[[-122.4,37.63333333333333],[-122.38333333333334,37.666666666666664],[-122.31611111111111,37.68194444444444],[-122.23611111111111,37.71083333333333],[-122.18333333333334,37.766666666666666],[-122.1588888888889,37.924166666666665],[-122.08111111111111,37.9925],[-121.79555555555555,38.23694444444445],[-121.69527777777778,38.32222222222222],[-121.59194444444444,38.41],[-121.47361111111111,38.49166666666667],[-121.34694444444445,38.56916666666667],[-121.23472222222222,38.6375],[-121.10055555555554,38.71888888888889],[-120.96305555555556,38.80166666666666],[-120.68361111111112,38.969166666666666],[-120.54222222222222,39.05333333333333],[-120.4325,39.117777777777775],[-120.28999999999999,39.19944444444444],[-120.2575,39.22166666666667],[-120.14888888888889,39.28444444444444],[-120.11416666666666,39.30583333333333],[-120.03472222222221,39.352222222222224],[-119.97472222222223,39.38722222222222],[-119.89111111111112,39.43444444444444],[-119.83333333333333,39.46944444444445],[-119.74861111111112,39.51888888888889],[-119.60499999999999,39.60055555555556],[-119.46333333333334,39.683055555555555],[-119.40277777777779,39.718333333333334],[-119.29055555555556,39.782222222222224],[-119.14444444444445,39.86555555555556],[-119.11472222222221,39.8825],[-118.99555555555555,39.94361111111111],[-118.84194444444444,40.01555555555556],[-118.71805555555555,40.068333333333335],[-118.65055555555556,40.096944444444446],[-118.49666666666667,40.16222222222222],[-118.49277777777777,40.163888888888884],[-118.33694444444444,40.22972222222222],[-118.33416666666666,40.23083333333334],[-118.17555555555556,40.29722222222222],[-118.02194444444444,40.363055555555555],[-118.01833333333333,40.36472222222223],[-117.86611111111111,40.43083333333333],[-117.86333333333333,40.43194444444444],[-117.70583333333333,40.5],[-117.55111111111111,40.56638888888889],[-117.3913888888889,40.63472222222222],[-117.2325,40.702222222222225],[-117.07249999999999,40.76972222222222],[-116.91361111111112,40.836666666666666],[-116.75277777777778,40.903888888888886],[-116.5925,40.970555555555556],[-116.43,41.03777777777778],[-116.27194444444444,41.10277777777778],[-116.11,41.16916666666666],[-115.95,41.23416666666667],[-115.78805555555556,41.3],[-115.62666666666667,41.365],[-115.465,41.42944444444444],[-115.30111111111111,41.49472222222222],[-115.13944444444445,41.55888888888889],[-114.81166666666667,41.687777777777775],[-114.64805555555556,41.75138888888889],[-114.48305555555555,41.815],[-114.1413888888889,41.94638888888888],[-113.81805555555555,42.08388888888889],[-113.66000000000001,42.156666666666666],[-113.50027777777778,42.22944444444445],[-113.34138888888889,42.30138888888889],[-113.1825,42.37305555555555],[-112.8611111111111,42.516666666666666],[-112.70166666666667,42.587500000000006],[-112.5375,42.66],[-112.34555555555555,42.744166666666665],[-112.18138888888889,42.81583333333333],[-112.01916666666666,42.88583333333333],[-111.85277777777777,42.95777777777778],[-111.69083333333333,43.02722222222222],[-111.52527777777777,43.09777777777778],[-111.3586111111111,43.16861111111111],[-111.20111111111112,43.22833333333333],[-111.02,43.2725],[-110.83722222222222,43.314166666666665],[-110.65666666666667,43.355000000000004],[-110.46916666666667,43.39694444444444],[-110.28277777777778,43.43805555555555],[-110.09916666666666,43.478611111111114],[-109.7063888888889,43.57333333333334],[-109.52555555555556,43.617777777777775],[-109.34277777777777,43.66277777777778],[-109.15833333333335,43.70722222222223],[-108.97666666666667,43.75111111111111],[-108.7936111111111,43.79472222222222],[-108.61305555555555,43.837500000000006],[-108.42916666666667,43.880833333333335],[-108.24361111111111,43.92388888888889],[-107.91250000000001,44.000277777777775],[-107.54055555555556,44.08444444444444],[-107.32027777777778,44.13361111111111],[-107.1713888888889,44.166666666666664],[-106.95166666666667,44.215],[-106.76527777777778,44.25527777777778],[-106.58222222222221,44.29472222222222],[-106.00527777777778,44.41694444444444],[-105.85694444444444,44.44361111111111],[-105.66222222222223,44.45583333333334],[-105.42666666666668,44.46361111111111],[-105.04083333333332,44.47527777777778],[-104.84694444444445,44.48083333333334],[-104.65527777777778,44.48555555555556],[-104.50055555555555,44.489444444444445],[-104.36777777777777,44.4925],[-104.15527777777778,44.496944444444445],[-104.11555555555555,44.49777777777778],[-103.92083333333333,44.49916666666667],[-103.76611111111112,44.49722222222222],[-103.72833333333334,44.496944444444445],[-103.57583333333334,44.49472222222222],[-103.535,44.494166666666665],[-103.3825,44.49166666666667],[-103.34583333333333,44.49111111111111],[-103.3425,44.49111111111111],[-103.11388888888888,44.48722222222222],[-103.00333333333333,44.485],[-102.96416666666667,44.48416666666667],[-102.81333333333333,44.48111111111111],[-102.62444444444444,44.477222222222224],[-102.58222222222221,44.476111111111116],[-102.3913888888889,44.47166666666667],[-102.2388888888889,44.467777777777776],[-102.20333333333333,44.46666666666667],[-102.05277777777778,44.46277777777778],[-101.86416666666666,44.45722222222223],[-101.67305555555556,44.45166666666667],[-101.63305555555554,44.45027777777778],[-101.48222222222222,44.445277777777775],[-101.44472222222223,44.44416666666666],[-101.29527777777777,44.439166666666665],[-101.25861111111111,44.437777777777775],[-101.10666666666665,44.43277777777777],[-101.06944444444444,44.43138888888889],[-100.92111111111112,44.42583333333333],[-100.88194444444444,44.42444444444444],[-100.73305555555555,44.41861111111111],[-100.54472222222222,44.41111111111111],[-100.35944444444443,44.403055555555554],[-99.80027777777778,44.40972222222222],[-99.61083333333333,44.41722222222222],[-99.42472222222223,44.42388888888889],[-98.86777777777777,44.442499999999995],[-98.68194444444445,44.44833333333333],[-98.49666666666667,44.453611111111115],[-98.28083333333333,44.45944444444445],[-98.09555555555555,44.464444444444446],[-97.90722222222223,44.46888888888889],[-97.72416666666666,44.473055555555554],[-97.36416666666666,44.480000000000004],[-97.19055555555556,44.48305555555556],[-97.01305555555555,44.48583333333333],[-96.8275,44.48861111111111],[-96.64111111111112,44.49111111111111],[-96.48944444444444,44.49277777777778],[-96.3,44.49472222222222],[-96.11277777777777,44.49611111111111],[-95.92444444444445,44.48972222222222],[-95.7375,44.48222222222223],[-95.55444444444444,44.474444444444444],[-95.3761111111111,44.46638888888889],[-95.05027777777778,44.48916666666667],[-94.89833333333334,44.52444444444444],[-94.7213888888889,44.56527777777777],[-94.56,44.602222222222224],[-94.42500000000001,44.632777777777775],[-94.29416666666667,44.66222222222222],[-94.16972222222223,44.69027777777777],[-94.15,44.7],[-94.07333333333332,44.71194444444445],[-94.03333333333333,44.71666666666667],[-93.93861111111111,44.742222222222225],[-93.91666666666667,44.75],[-93.84888888888888,44.785],[-93.83333333333333,44.8],[-93.77944444444444,44.83888888888889],[-93.76666666666667,44.85],[-93.71194444444444,44.89138888888889],[-93.64583333333334,44.936388888888885],[-93.63333333333334,44.93333333333333],[-93.55944444444444,44.95111111111111],[-93.55,44.95],[-93.48916666666666,44.94944444444444],[-93.46666666666667,44.95],[-93.38333333333334,44.95],[-93.34833333333333,44.936388888888885],[-93.28333333333333,44.916666666666664],[-93.25638888888889,44.8975],[-93.23333333333333,44.86666666666667],[-93.23027777777779,44.83861111111111],[-93.25833333333334,44.78472222222222],[-93.31777777777778,44.72694444444445],[-93.38416666666667,44.66138888888889],[-93.45916666666668,44.58583333333333],[-93.53388888888888,44.51111111111111],[-93.6125,44.43277777777777],[-93.68388888888889,44.34722222222222],[-93.75777777777778,44.255833333333335],[-93.8325,44.1625],[-93.90944444444445,44.06638888888889],[-94.06861111111111,43.86611111111111],[-94.23277777777778,43.6575],[-94.32694444444444,43.536944444444444],[-94.4925,43.32027777777778],[-94.54694444444445,43.2],[-94.59055555555555,43.07611111111112],[-94.63444444444445,42.950833333333335],[-94.63583333333334,42.927499999999995],[-94.67944444444444,42.82027777777778],[-94.72083333333333,42.69944444444444],[-94.72611111111111,42.66555555555556],[-94.80972222222222,42.44083333333333],[-94.86611111111111,42.27388888888889],[-94.89861111111112,42.17944444444444],[-94.91027777777778,42.14333333333333],[-94.94333333333334,42.04722222222222],[-94.95333333333333,42.01222222222222],[-94.99722222222222,41.882222222222225],[-95.03083333333333,41.78638888888889],[-95.04083333333332,41.75194444444445],[-95.07444444444444,41.65472222222222],[-95.08333333333333,41.62222222222222],[-95.12777777777777,41.492222222222225],[-95.16111111111111,41.39416666666666],[-95.16861111111112,41.36416666666667],[-95.20444444444445,41.261944444444445],[-95.22166666666666,41.21],[-95.24833333333333,41.12833333333333],[-95.25694444444444,41.102222222222224],[-95.29138888888889,40.99638888888889],[-95.30027777777778,40.969166666666666],[-95.335,40.86222222222222],[-95.37833333333333,40.728611111111114],[-95.38611111111112,40.70444444444445],[-95.4213888888889,40.59527777777778],[-95.42916666666667,40.57055555555556],[-95.46444444444445,40.46194444444445],[-95.48,40.413333333333334],[-95.52166666666666,40.282222222222224],[-95.54833333333333,40.198611111111106],[-95.56361111111111,40.15138888888889],[-95.58999999999999,40.06777777777778],[-95.60499999999999,40.02027777777778],[-95.63111111111111,39.93694444444444],[-95.64666666666668,39.88861111111111],[-95.67333333333333,39.80416666666667],[-95.68777777777778,39.757222222222225],[-95.72944444444444,39.625],[-95.75583333333333,39.53944444444444],[-95.77,39.49444444444445],[-95.79694444444445,39.407222222222224],[-95.81083333333333,39.36277777777778],[-95.83777777777777,39.27638888888889],[-95.85027777777778,39.23527777777778],[-95.87805555555555,39.14555555555555],[-95.89055555555557,39.105000000000004],[-95.93055555555556,38.974444444444444],[-95.96972222222223,38.84666666666667],[-96.04888888888888,38.586666666666666],[-96.08777777777777,38.45805555555556],[-96.12666666666667,38.328611111111115],[-96.15194444444445,38.19833333333333],[-96.19166666666668,37.937777777777775],[-96.21138888888889,37.80583333333333],[-96.2525,37.530277777777776],[-96.27166666666666,37.401111111111106],[-96.2911111111111,37.269444444444446],[-96.31055555555555,37.138888888888886],[-96.33,37.006388888888885],[-96.33361111111111,36.981944444444444],[-96.34916666666666,36.87555555555556],[-96.36805555555554,36.74583333333334],[-96.37222222222222,36.717777777777776],[-96.38722222222223,36.61361111111111],[-96.40972222222223,36.45888888888889],[-96.42527777777778,36.352222222222224],[-96.44416666666667,36.221111111111114],[-96.44777777777779,36.19583333333333],[-96.46277777777777,36.09],[-96.46666666666667,36.064166666666665],[-96.47972222222222,35.971944444444446],[-96.5025,35.81361111111111],[-96.51722222222222,35.70805555555556],[-96.5213888888889,35.67972222222222],[-96.5363888888889,35.574444444444445],[-96.55888888888889,35.414722222222224],[-96.5736111111111,35.31027777777778],[-96.5775,35.283055555555556],[-96.5961111111111,35.14833333333333],[-96.61472222222221,35.01555555555556],[-96.63333333333334,34.88444444444444],[-96.65138888888889,34.7525],[-96.67,34.61972222222222],[-96.68805555555556,34.48833333333334],[-96.70583333333333,34.358333333333334],[-96.72416666666666,34.225833333333334],[-96.74166666666667,34.095555555555556],[-96.75972222222222,33.96527777777778],[-96.79833333333333,33.67972222222222],[-96.81583333333333,33.551111111111105],[-96.83333333333333,33.42027777777778],[-96.85055555555554,33.290277777777774],[-96.85888888888888,33.15972222222222],[-96.80472222222222,32.900277777777774],[-96.7775,32.772777777777776],[-96.74027777777778,32.59805555555556],[-96.72888888888889,32.54388888888889],[-96.71333333333334,32.474722222222226],[-96.69777777777779,32.39555555555555],[-96.6575,32.20472222222222],[-96.64555555555556,32.14805555555556],[-96.63138888888888,32.080000000000005],[-96.61972222222222,32.024166666666666],[-96.60583333333332,31.95722222222222],[-96.595,31.90694444444444],[-96.57972222222222,31.83277777777778],[-96.56944444444444,31.783055555555556],[-96.55416666666666,31.70888888888889],[-96.54722222222222,31.676944444444445],[-96.52777777777777,31.585555555555555],[-96.51361111111112,31.535833333333336],[-96.49333333333334,31.462777777777777],[-96.47944444444444,31.413055555555555],[-96.45944444444444,31.34111111111111],[-96.44611111111111,31.29277777777778],[-96.39583333333334,31.169722222222223],[-96.34222222222222,31.100555555555555],[-96.30722222222222,31.055833333333332],[-96.27277777777778,31.011388888888888],[-96.2213888888889,30.945555555555554],[-96.18916666666667,30.904166666666665],[-96.14333333333335,30.844444444444445],[-96.10805555555555,30.799444444444447],[-96.07666666666667,30.75861111111111],[-96.02388888888889,30.69],[-95.97444444444444,30.622222222222224],[-95.94583333333334,30.58861111111111],[-95.83666666666666,30.456666666666667],[-95.79694444444445,30.41638888888889],[-95.76194444444444,30.380833333333335],[-95.72583333333334,30.343888888888888],[-95.69416666666667,30.31138888888889],[-95.66027777777778,30.27611111111111],[-95.62194444444444,30.23638888888889],[-95.595,30.208333333333332],[-95.55361111111111,30.16333333333333],[-95.53333333333333,30.144166666666667],[-95.46611111111112,30.092777777777776],[-95.37472222222222,30.092777777777776],[-95.28944444444444,30.092777777777776],[-95.24805555555555,30.091666666666665],[-95.21777777777778,30.092777777777776],[-95.17777777777778,30.093333333333334],[-95.15083333333334,30.08972222222222],[-95.12333333333332,30.06527777777778],[-95.12055555555555,30.043055555555558],[-95.13944444444445,30.014166666666668],[-95.16333333333334,30.0075],[-95.20055555555555,30.00722222222222],[-95.22277777777778,30.00722222222222],[-95.25361111111111,30.008055555555554],[-95.26972222222223,30.00722222222222],[-95.29972222222221,30.00611111111111],[-95.31694444444445,30.006944444444443]],"type":"LineString"}
}
