{
  "id": 2047888205,
  "type": "Feature",
  "properties": {
    "geom:area": 0,
    "geom:bbox": "-122.397450,37.624720,-121.243250,37.965930",
    "geom:latitude": 37.83238894064369,
    "geom:longitude": -121.84377010899183,
    "src:alt_label": "swim-takeoff",
    "src:geom": "swim",
    "swim:elevations": [
      122,
      297,
      479,
      1160,
      1160,
      1479,
      1923,
      2128,
      2248,
      2368,
      2832,
      3226,
      3262,
      3419,
      3674,
      4086,
      4264,
      4622,
      4846,
      5151,
      5280,
      5676,
      5834
    ],
    "swim:geom": "takeoff",
    "swim:timestamps": [
      1786185231,
      1786185249,
      1786185272,
      1786185358,
      1786185361,
      1786185401,
      1786185439,
      1786185460,
      1786185473,
      1786185484,
      1786185535,
      1786185586,
      1786185605,
      1786185656,
      1786185681,
      1786185717,
      1786185736,
      1786185778,
      1786185802,
      1786185833,
      1786185849,
      1786185896,
      1786185915
    ],
    "wof:geomhash": "e8f86ca133daca8f041072cb38430398",
    "wof:id": 2047888205,
    "wof:repo": "sfomuseum-data-flights-2026-08"
  },
  "bbox": [
    -122.39745,
    37.62472,
    -121.24325,
    37.96593
  ],
  "geometry": {"type":"LineString","coordinates":[[-122.38378,37.62472],[-122.39745,37.63306],[-122.39488,37.65123],[-122.2906,37.69168],[-122.28625,37.69319],[-122.22641,37.71353],[-122.17241,37.73864],[-122.1433,37.75392],[-122.12555,37.76345],[-122.11043,37.77153],[-122.03771,37.80892],[-121.95521,37.83613],[-121.91789,37.84243],[-121.81421,37.8611],[-121.75853,37.87152],[-121.68151,37.88595],[-121.64096,37.89348],[-121.55058,37.91011],[-121.49908,37.91953],[-121.42851,37.93237],[-121.39281,37.93885],[-121.28585,37.95828],[-121.24325,37.96593]]}
}
