{
  "id": 2032106567,
  "type": "Feature",
  "properties": {
    "geom:area": 0,
    "geom:bbox": "-123.507080,37.079810,-122.389030,37.659730",
    "geom:latitude": 37.398831624178094,
    "geom:longitude": -122.95247199905785,
    "src:alt_label": "swim-takeoff",
    "src:geom": "swim",
    "swim:elevations": [
      152,
      487,
      955,
      1007,
      1262,
      1585,
      1743,
      2273,
      2517,
      3024,
      3110,
      3137,
      3177,
      3237,
      3774,
      3858,
      4196,
      4514,
      4743,
      5008,
      5214,
      5550,
      5691,
      6066
    ],
    "swim:geom": "takeoff",
    "swim:timestamps": [
      1785863078,
      1785863113,
      1785863158,
      1785863166,
      1785863209,
      1785863245,
      1785863260,
      1785863301,
      1785863320,
      1785863367,
      1785863381,
      1785863411,
      1785863431,
      1785863440,
      1785863496,
      1785863508,
      1785863548,
      1785863587,
      1785863617,
      1785863652,
      1785863681,
      1785863724,
      1785863744,
      1785863787
    ],
    "wof:geomhash": "4011fe0964c7a904c83b7bcaf5d903f5",
    "wof:id": 2032106567,
    "wof:repo": "sfomuseum-data-flights-2026-08"
  },
  "bbox": [
    -123.50708,
    37.07981,
    -122.38903,
    37.65973
  ],
  "geometry": {"type":"LineString","coordinates":[[-122.38903,37.6245],[-122.42092,37.63722],[-122.46413,37.65532],[-122.47252,37.65888],[-122.52612,37.65973],[-122.56904,37.6329],[-122.58795,37.62069],[-122.64067,37.58667],[-122.66466,37.57138],[-122.72812,37.53174],[-122.74757,37.5206],[-122.79619,37.49263],[-122.83016,37.4727],[-122.8455,37.46387],[-122.94817,37.40618],[-122.97072,37.39341],[-123.04355,37.35071],[-123.1181,37.30759],[-123.17465,37.27471],[-123.24244,37.2351],[-123.29825,37.2024],[-123.38287,37.15278],[-123.42245,37.12953],[-123.50708,37.07981]]}
}
