{
  "id": 2048096901,
  "type": "Feature",
  "properties": {
    "geom:area": 0,
    "geom:bbox": "-122.563310,36.743550,-122.372080,37.671030",
    "geom:latitude": 37.25118074865474,
    "geom:longitude": -122.51661016696337,
    "src:alt_label": "swim-takeoff",
    "src:geom": "swim",
    "swim:elevations": [
      183,
      244,
      729,
      835,
      1249,
      1730,
      2025,
      2627,
      2987,
      3240,
      3383,
      3896,
      4202,
      4467,
      4716,
      5240,
      5390,
      5849,
      5985,
      6376,
      6551,
      7043,
      7135,
      7487,
      7649,
      7925,
      8061
    ],
    "swim:geom": "takeoff",
    "swim:timestamps": [
      1787322208,
      1787322212,
      1787322267,
      1787322288,
      1787322316,
      1787322344,
      1787322368,
      1787322413,
      1787322438,
      1787322470,
      1787322493,
      1787322533,
      1787322555,
      1787322578,
      1787322602,
      1787322647,
      1787322660,
      1787322708,
      1787322722,
      1787322763,
      1787322782,
      1787322837,
      1787322851,
      1787322888,
      1787322913,
      1787322952,
      1787322971
    ],
    "wof:geomhash": "3a054fc1839c1ee684aca7347768fdbf",
    "wof:id": 2048096901,
    "wof:repo": "sfomuseum-data-flights-2026-08"
  },
  "bbox": [
    -122.56331,
    36.74355,
    -122.37208,
    37.67103
  ],
  "geometry": {"type":"LineString","coordinates":[[-122.38522,37.623],[-122.38894,37.62469],[-122.43727,37.64486],[-122.46136,37.6546],[-122.4972,37.67103],[-122.53402,37.66591],[-122.54589,37.64129],[-122.54832,37.58832],[-122.55111,37.5575],[-122.55305,37.51642],[-122.55364,37.48497],[-122.55444,37.4273],[-122.55502,37.39363],[-122.55578,37.35926],[-122.55655,37.32397],[-122.55823,37.25436],[-122.55876,37.23292],[-122.56047,37.15675],[-122.56101,37.13511],[-122.56258,37.06728],[-122.56331,37.03657],[-122.52128,36.95005],[-122.50624,36.9294],[-122.46566,36.87265],[-122.43819,36.8348],[-122.39447,36.77406],[-122.37208,36.74355]]}
}
