{
  "id": 2048041599,
  "type": "Feature",
  "properties": {
    "geom:area": 0,
    "geom:bbox": "-122.524070,36.722120,-121.557960,37.666630",
    "geom:latitude": 37.21436854876559,
    "geom:longitude": -122.11441474779227,
    "src:alt_label": "swim-takeoff",
    "src:geom": "swim",
    "swim:elevations": [
      152,
      270,
      516,
      733,
      931,
      1137,
      1361,
      1630,
      2265,
      2607,
      3060,
      3462,
      3578,
      3935,
      4559,
      4648,
      5110,
      5508,
      5662,
      5904,
      6067,
      6611,
      6682,
      7010,
      7010,
      7010,
      7010,
      7010,
      7010,
      7010,
      7010,
      7010,
      7010,
      7010
    ],
    "swim:geom": "takeoff",
    "swim:timestamps": [
      1786994698,
      1786994708,
      1786994733,
      1786994752,
      1786994769,
      1786994793,
      1786994827,
      1786994856,
      1786994894,
      1786994915,
      1786994946,
      1786994992,
      1786995010,
      1786995038,
      1786995086,
      1786995093,
      1786995140,
      1786995174,
      1786995189,
      1786995206,
      1786995218,
      1786995263,
      1786995271,
      1786995311,
      1786995334,
      1786995349,
      1786995383,
      1786995415,
      1786995435,
      1786995459,
      1786995491,
      1786995502,
      1786995527,
      1786995565
    ],
    "wof:geomhash": "f258df0190ea3a4f69ae11f6dfa87d75",
    "wof:id": 2048041599,
    "wof:repo": "sfomuseum-data-flights-2026-08"
  },
  "bbox": [
    -122.52407,
    36.72212,
    -121.55796,
    37.66663
  ],
  "geometry": {"type":"LineString","coordinates":[[-122.381,37.62131],[-122.38825,37.62449],[-122.40732,37.63249],[-122.42211,37.63909],[-122.43489,37.64489],[-122.45546,37.6537],[-122.4907,37.66663],[-122.52407,37.65396],[-122.51929,37.60859],[-122.50701,37.58356],[-122.49257,37.54463],[-122.46567,37.48263],[-122.43979,37.46123],[-122.39835,37.42725],[-122.32676,37.36752],[-122.31586,37.35843],[-122.24331,37.29816],[-122.19052,37.25428],[-122.16674,37.23451],[-122.13888,37.21126],[-122.12024,37.19576],[-122.04977,37.13683],[-122.03686,37.12604],[-121.97522,37.07435],[-121.94084,37.04543],[-121.91857,37.02672],[-121.86524,36.98188],[-121.81008,36.93523],[-121.77677,36.90722],[-121.73655,36.87335],[-121.68223,36.82745],[-121.66332,36.81146],[-121.62133,36.77602],[-121.55796,36.72212]]}
}
