{
  "id": 2047878787,
  "type": "Feature",
  "properties": {
    "geom:area": 0,
    "geom:bbox": "-122.566667,35.998056,-114.928056,37.666667",
    "geom:latitude": 36.95026934214354,
    "geom:longitude": -118.6821437114825,
    "src:alt_label": "swim-path",
    "src:geom": "swim",
    "swim:altitudes": [
      "006",
      "012",
      "015",
      "032",
      "045",
      "065",
      "071",
      "095",
      "109",
      "119",
      "128",
      "145",
      "162",
      "174",
      "188",
      "199",
      "206",
      "215",
      "223",
      "230",
      "238",
      "244",
      "260",
      "271",
      "279",
      "289",
      "290",
      "297",
      "302",
      "311",
      "330C",
      "330C",
      "329",
      "319",
      "310C",
      "310C",
      "310C",
      "309C",
      "310",
      "302",
      "293",
      "284",
      "273",
      "263",
      "254",
      "244",
      "234",
      "224",
      "221",
      "219",
      "214",
      "205",
      "197",
      "192",
      "187",
      "180",
      "173",
      "165",
      "159",
      "151",
      "144",
      "136",
      "130",
      "122",
      "117",
      "110",
      "105",
      "097",
      "092",
      "086",
      "080",
      "072",
      "070",
      "070",
      "070",
      "064",
      "058",
      "048",
      "042",
      "037",
      "029",
      "026",
      "021"
    ],
    "swim:geom": "path",
    "swim:speeds": [
      152,
      155,
      162,
      214,
      262,
      294,
      291,
      293,
      325,
      379,
      410,
      419,
      427,
      439,
      444,
      453,
      457,
      465,
      475,
      484,
      485,
      492,
      497,
      495,
      495,
      494,
      495,
      495,
      496,
      498,
      492,
      486,
      486,
      485,
      489,
      493,
      494,
      494,
      494,
      488,
      487,
      480,
      479,
      472,
      457,
      449,
      444,
      407,
      396,
      394,
      398,
      394,
      388,
      359,
      365,
      364,
      364,
      352,
      350,
      346,
      348,
      340,
      336,
      318,
      313,
      294,
      297,
      298,
      292,
      273,
      276,
      271,
      264,
      216,
      204,
      197,
      200,
      187,
      187,
      185,
      146,
      149,
      135
    ],
    "swim:timestamps": [
      1786165352,
      1786165364,
      1786165379,
      1786165439,
      1786165484,
      1786165544,
      1786165559,
      1786165619,
      1786165680,
      1786165740,
      1786165800,
      1786165860,
      1786165920,
      1786165980,
      1786166040,
      1786166100,
      1786166160,
      1786166220,
      1786166280,
      1786166340,
      1786166402,
      1786166460,
      1786166582,
      1786166640,
      1786166700,
      1786166760,
      1786166820,
      1786166880,
      1786166941,
      1786167001,
      1786167121,
      1786167181,
      1786167241,
      1786167301,
      1786167361,
      1786167421,
      1786167481,
      1786167541,
      1786167601,
      1786167661,
      1786167721,
      1786167781,
      1786167841,
      1786167901,
      1786167961,
      1786168021,
      1786168083,
      1786168143,
      1786168163,
      1786168175,
      1786168203,
      1786168235,
      1786168263,
      1786168295,
      1786168324,
      1786168355,
      1786168384,
      1786168416,
      1786168444,
      1786168476,
      1786168504,
      1786168536,
      1786168564,
      1786168596,
      1786168624,
      1786168656,
      1786168684,
      1786168716,
      1786168744,
      1786168776,
      1786168804,
      1786168836,
      1786168864,
      1786168896,
      1786168924,
      1786168957,
      1786168984,
      1786169017,
      1786169044,
      1786169077,
      1786169137,
      1786169164,
      1786169224
    ],
    "wof:geomhash": "69fe2ffd658bca0e26aab5e92542fdce",
    "wof:id": 2047878787,
    "wof:repo": "sfomuseum-data-flights-2026-08"
  },
  "bbox": [
    -122.56666666666666,
    35.99805555555556,
    -114.92805555555556,
    37.666666666666664
  ],
  "geometry": {"type":"LineString","coordinates":[[-122.38333333333334,37.61666666666667],[-122.4,37.63333333333333],[-122.40722222222223,37.632222222222225],[-122.46916666666667,37.65833333333333],[-122.53333333333333,37.666666666666664],[-122.56666666666666,37.61666666666667],[-122.56277777777777,37.59583333333334],[-122.50583333333333,37.528888888888886],[-122.43305555555555,37.46666666666667],[-122.32805555555555,37.41],[-122.19166666666668,37.38305555555556],[-122.05111111111111,37.35416666666667],[-121.9038888888889,37.325],[-121.77194444444444,37.29833333333333],[-121.6211111111111,37.2675],[-121.46805555555555,37.236111111111114],[-121.31361111111111,37.20444444444445],[-121.15583333333333,37.17194444444444],[-120.99694444444445,37.138333333333335],[-120.83416666666666,37.10416666666667],[-120.65444444444445,37.06444444444444],[-120.50194444444445,37.03333333333333],[-120.14888888888889,36.96888888888889],[-119.97805555555556,37.00416666666667],[-119.81027777777777,37.04083333333333],[-119.64444444444445,37.07777777777778],[-119.4786111111111,37.11416666666667],[-119.31361111111111,37.15],[-119.1463888888889,37.18611111111111],[-118.97722222222222,37.22222222222222],[-118.64194444444445,37.25694444444444],[-118.47416666666666,37.24388888888889],[-118.30583333333333,37.230000000000004],[-118.13611111111112,37.21555555555556],[-117.96916666666667,37.20111111111111],[-117.79583333333333,37.18555555555555],[-117.62777777777777,37.17055555555555],[-117.4575,37.155277777777776],[-117.28583333333333,37.13972222222222],[-117.11749999999999,37.12388888888889],[-116.95027777777779,37.10638888888889],[-116.81861111111111,37.03138888888889],[-116.72305555555556,36.921388888888885],[-116.63027777777778,36.81583333333333],[-116.54055555555556,36.71027777777778],[-116.44055555555556,36.615833333333335],[-116.32722222222222,36.535555555555554],[-116.21666666666667,36.456944444444446],[-116.18111111111112,36.43055555555555],[-116.16083333333334,36.41694444444444],[-116.11388888888888,36.38388888888889],[-116.05694444444444,36.341944444444444],[-116.01222222222222,36.31111111111111],[-115.96222222222222,36.27472222222222],[-115.91888888888889,36.245],[-115.86472222222221,36.20916666666667],[-115.82055555555556,36.183611111111105],[-115.76583333333333,36.14944444444444],[-115.72027777777778,36.13],[-115.65694444444445,36.111666666666665],[-115.60972222222222,36.09638888888889],[-115.5475,36.075833333333335],[-115.50222222222222,36.062777777777775],[-115.44250000000001,36.04472222222222],[-115.40027777777779,36.03111111111111],[-115.34444444444443,36.016666666666666],[-115.3025,36.01444444444444],[-115.24361111111111,36.01138888888889],[-115.2025,36.00944444444445],[-115.14805555555556,36.00694444444444],[-115.10888888888888,36.00472222222222],[-115.05222222222221,36.0025],[-115.01138888888889,35.999722222222225],[-114.96972222222223,35.99805555555556],[-114.93861111111111,36.00333333333333],[-114.92805555555556,36.029444444444444],[-114.93138888888889,36.053888888888885],[-114.95444444444445,36.07194444444445],[-114.98222222222222,36.07361111111111],[-115.01944444444445,36.073888888888895],[-115.07444444444444,36.07416666666667],[-115.09555555555555,36.07361111111111],[-115.14166666666668,36.07361111111111]]}
}
