{
  "id": 2032077473,
  "type": "Feature",
  "properties": {
    "geom:area": 0,
    "geom:bbox": "-122.407130,37.627720,-121.249630,38.422900",
    "geom:latitude": 38.02404684420214,
    "geom:longitude": -121.84024586177293,
    "src:alt_label": "swim-takeoff",
    "src:geom": "swim",
    "swim:elevations": [
      183,
      436,
      996,
      1174,
      1383,
      1656,
      1904,
      2246,
      2521,
      2835,
      2968,
      3237,
      3359,
      3541,
      3569,
      3675,
      3797,
      3874,
      4155,
      4193,
      4468,
      5034,
      5342,
      5580,
      5765,
      5793,
      5860,
      6091,
      6180
    ],
    "swim:geom": "takeoff",
    "swim:timestamps": [
      1785682282,
      1785682310,
      1785682372,
      1785682402,
      1785682440,
      1785682471,
      1785682494,
      1785682528,
      1785682557,
      1785682587,
      1785682604,
      1785682632,
      1785682652,
      1785682683,
      1785682688,
      1785682707,
      1785682724,
      1785682740,
      1785682794,
      1785682804,
      1785682835,
      1785682918,
      1785682967,
      1785683004,
      1785683032,
      1785683037,
      1785683053,
      1785683090,
      1785683103
    ],
    "wof:geomhash": "0bcfef726b36ba2c144aed95d07a8cab",
    "wof:id": 2032077473,
    "wof:repo": "sfomuseum-data-flights-2026-08"
  },
  "bbox": [
    -122.40713,
    37.62772,
    -121.24963,
    38.4229
  ],
  "geometry": {"coordinates":[[-122.39092,37.62772],[-122.40713,37.6469],[-122.35011,37.67507],[-122.31512,37.68626],[-122.26467,37.70247],[-122.22129,37.71775],[-122.1956,37.73979],[-122.16253,37.77541],[-122.13407,37.80626],[-122.10411,37.83981],[-122.08732,37.859],[-122.05718,37.88834],[-122.02834,37.90749],[-121.98554,37.93701],[-121.97801,37.94218],[-121.94886,37.96208],[-121.92239,37.97959],[-121.89669,37.99667],[-121.80915,38.05645],[-121.79227,38.06758],[-121.73798,38.10337],[-121.59346,38.19985],[-121.50609,38.25848],[-121.43913,38.30314],[-121.38673,38.3381],[-121.37775,38.34409],[-121.34784,38.36306],[-121.27478,38.40752],[-121.24963,38.4229]],"type":"LineString"}
}
