{
  "id": 2047995561,
  "type": "Feature",
  "properties": {
    "date:cessation_lower": "1970-01-01",
    "date:cessation_upper": "1970-01-01",
    "date:inception_lower": "2026-08-16",
    "date:inception_upper": "2026-08-16",
    "edtf:cessation": "1970-01-01T00:00:00Z",
    "edtf:inception": "2026-08-16T00:37:49-07:00",
    "flysfo:actual_timestamp": -1,
    "flysfo:airline": "AS",
    "flysfo:date": "2026-08-16",
    "flysfo:estimated_timestamp": 1786889700,
    "flysfo:event": "D",
    "flysfo:flight_number": "AS9800",
    "flysfo:gate": "B8",
    "flysfo:journey": "SFO-SEA",
    "flysfo:scheduled_timestamp": 1786889700,
    "flysfo:timestamp": 1786889700,
    "geom:area": 0,
    "geom:bbox": "-122.304268,0.000000,0.000000,47.441823",
    "geom:latitude": 23.7209115,
    "geom:longitude": -61.152134,
    "iata:airline": "AS",
    "icao:aircraft": "B38M",
    "icao:airline": "ASA",
    "lbl:latitude": 37.61799,
    "lbl:longitude": -122.370943,
    "sfomuseum:aircraft_id": 1528104575,
    "sfomuseum:airline_id": 1159283813,
    "sfomuseum:arrival_id": 102533269,
    "sfomuseum:departure_id": 102527513,
    "sfomuseum:flight_id": "20260816-D-ASA-9800",
    "sfomuseum:flight_number": [
      "ASA9800",
      "AS9800"
    ],
    "sfomuseum:placetype": "flight",
    "src:geom": "flysfo",
    "src:geom_alt": [
      "swim-takeoff"
    ],
    "swim:tail_number": "N812AK",
    "wof:belongsto": [
      1947304067,
      102527513,
      1947304261,
      102191575,
      85633793,
      102087579,
      85922583,
      554784711,
      85688637,
      1947304275,
      1947304259,
      102085387
    ],
    "wof:country": "US",
    "wof:created": 1786983650,
    "wof:geomhash": "9ab5bde7a0d94aa87c75865211500227",
    "wof:hierarchy": [
      {
        "building_id": 1947304067,
        "campus_id": 102527513,
        "concourse_id": 1947304261,
        "continent_id": 102191575,
        "country_id": 85633793,
        "county_id": 102087579,
        "custom_id": 2047995561,
        "flight_id": 2047995561,
        "locality_id": 85922583,
        "postalcode_id": 554784711,
        "region_id": 85688637,
        "venue_id": 1947304275,
        "wing_id": 1947304259
      },
      {
        "building_id": 1947304067,
        "campus_id": 102527513,
        "concourse_id": 1947304261,
        "continent_id": 102191575,
        "country_id": 85633793,
        "county_id": 102085387,
        "custom_id": 2047995561,
        "flight_id": 2047995561,
        "region_id": 85688637,
        "venue_id": 1947304275,
        "wing_id": 1947304259
      }
    ],
    "wof:id": 2047995561,
    "wof:involves": [
      1528104575,
      102533269,
      102527513,
      1159283813,
      1947304275
    ],
    "wof:lastmodified": 1786984068,
    "wof:name": "AS9800 (SFO-SEA)",
    "wof:parent_id": 1947304275,
    "wof:placetype": "custom",
    "wof:placetype_alt": [
      "flight"
    ],
    "wof:repo": "sfomuseum-data-flights-2026-08",
    "wof:superseded_by": [],
    "wof:supersedes": []
  },
  "bbox": [
    -122.304268,
    0,
    0,
    47.441823
  ],
  "geometry": {"type":"MultiPoint","coordinates":[[0,0],[-122.304268,47.441823]]}
}
