{
  "id": 2032075945,
  "type": "Feature",
  "properties": {
    "geom:area": 0,
    "geom:bbox": "-122.550833,32.673611,-115.376389,37.669444",
    "geom:latitude": 35.145835589426405,
    "geom:longitude": -119.07409628989087,
    "src:alt_label": "swim-path",
    "src:geom": "swim",
    "swim:altitudes": [
      "013",
      "023",
      "037",
      "048",
      "058",
      "071",
      "084",
      "100",
      "109",
      "119",
      "131",
      "142",
      "158",
      "169",
      "181",
      "196",
      "205",
      "214",
      "224",
      "234",
      "244",
      "253",
      "259",
      "275",
      "281",
      "290C",
      "290C",
      "290C",
      "290C",
      "290C",
      "290C",
      "290C",
      "290C",
      "290",
      "301",
      "308",
      "320",
      "325",
      "330C",
      "330C",
      "330C",
      "330C",
      "330C",
      "330C",
      "330C",
      "330C",
      "330C",
      "330C",
      "330C",
      "330C",
      "330C",
      "330C",
      "330C",
      "330C",
      "330C",
      "330C",
      "330C",
      "330C",
      "330C",
      "330C",
      "330C"
    ],
    "swim:geom": "path",
    "swim:speeds": [
      176,
      185,
      199,
      252,
      276,
      278,
      286,
      293,
      296,
      312,
      339,
      352,
      370,
      374,
      378,
      388,
      396,
      402,
      403,
      411,
      415,
      424,
      431,
      438,
      441,
      454,
      457,
      456,
      455,
      454,
      451,
      449,
      448,
      448,
      452,
      454,
      458,
      458,
      459,
      459,
      460,
      461,
      462,
      463,
      462,
      461,
      460,
      458,
      457,
      456,
      455,
      455,
      455,
      455,
      454,
      453,
      452,
      451,
      451,
      451,
      452
    ],
    "swim:timestamps": [
      1785658712,
      1785658758,
      1785658818,
      1785658878,
      1785658938,
      1785658997,
      1785659057,
      1785659118,
      1785659177,
      1785659237,
      1785659297,
      1785659358,
      1785659419,
      1785659478,
      1785659538,
      1785659599,
      1785659658,
      1785659719,
      1785659778,
      1785659838,
      1785659899,
      1785659959,
      1785660019,
      1785660138,
      1785660199,
      1785660319,
      1785660439,
      1785660499,
      1785660559,
      1785660619,
      1785660679,
      1785660739,
      1785660798,
      1785660858,
      1785660978,
      1785661038,
      1785661158,
      1785661218,
      1785661278,
      1785661338,
      1785661398,
      1785661458,
      1785661518,
      1785661699,
      1785661759,
      1785661819,
      1785661879,
      1785661939,
      1785661999,
      1785662059,
      1785662119,
      1785662179,
      1785662239,
      1785662299,
      1785662419,
      1785662479,
      1785662539,
      1785662599,
      1785662659,
      1785662719,
      1785662779
    ],
    "wof:geomhash": "96ec6b4adf8f7870b0c046999e0928be",
    "wof:id": 2032075945,
    "wof:repo": "sfomuseum-data-flights-2026-08"
  },
  "bbox": [
    -122.55083333333333,
    32.67361111111111,
    -115.37638888888888,
    37.669444444444444
  ],
  "geometry": {"coordinates":[[-122.41666666666667,37.63333333333333],[-122.44722222222222,37.64972222222222],[-122.50916666666667,37.669444444444444],[-122.55083333333333,37.62138888888889],[-122.51166666666667,37.55333333333333],[-122.47277777777778,37.48527777777778],[-122.4063888888889,37.42361111111111],[-122.31444444444445,37.371944444444445],[-122.24277777777777,37.31666666666667],[-122.16055555555556,37.25472222222222],[-122.06638888888888,37.189166666666665],[-121.97916666666667,37.11888888888889],[-121.85111111111111,37.07083333333334],[-121.74361111111111,37.02444444444444],[-121.62583333333333,36.974444444444444],[-121.49805555555555,36.92055555555555],[-121.40361111111112,36.85],[-121.2925,36.77388888888889],[-121.19555555555556,36.69972222222222],[-121.0886111111111,36.62305555555555],[-120.97333333333333,36.54416666666666],[-120.86361111111111,36.46472222222223],[-120.75305555555556,36.384166666666665],[-120.52944444444444,36.22083333333334],[-120.41527777777779,36.136944444444445],[-120.18361111111112,35.96555555555556],[-119.95055555555555,35.7925],[-119.83611111111111,35.70666666666667],[-119.72166666666666,35.62083333333334],[-119.60749999999999,35.53444444444444],[-119.49527777777777,35.44972222222222],[-119.38416666666667,35.36555555555556],[-119.27555555555556,35.283055555555556],[-119.16250000000001,35.196666666666665],[-118.93805555555556,35.02472222222222],[-118.82444444444444,34.93722222222222],[-118.60138888888888,34.76444444444444],[-118.48972222222223,34.67722222222222],[-118.37638888888888,34.58861111111111],[-118.26305555555555,34.5],[-118.15083333333334,34.41166666666666],[-118.03861111111111,34.323055555555555],[-117.92527777777778,34.23361111111111],[-117.57222222222222,33.97944444444445],[-117.44472222222223,33.905833333333334],[-117.31861111111111,33.8325],[-117.19333333333334,33.75944444444445],[-117.06888888888888,33.68694444444444],[-116.94388888888889,33.61388888888889],[-116.825,33.54388888888889],[-116.69972222222222,33.47],[-116.57694444444444,33.39722222222222],[-116.45305555555557,33.32361111111111],[-116.32777777777777,33.24888888888889],[-116.08111111111111,33.10111111111111],[-115.9588888888889,33.027499999999996],[-115.83583333333333,32.95333333333333],[-115.71555555555555,32.88027777777778],[-115.61916666666666,32.82194444444445],[-115.49694444444445,32.74722222222222],[-115.37638888888888,32.67361111111111]],"type":"LineString"}
}
