{
  "id": 2032063063,
  "type": "Feature",
  "properties": {
    "geom:area": 0,
    "geom:bbox": "-122.391860,37.625690,-121.251340,37.976820",
    "geom:latitude": 37.84797826653441,
    "geom:longitude": -121.8438567418857,
    "src:alt_label": "swim-takeoff",
    "src:geom": "swim",
    "swim:elevations": [
      183,
      718,
      872,
      1098,
      1210,
      1277,
      1378,
      1538,
      2007,
      2729,
      3161,
      3521,
      3887,
      4075,
      4453,
      4721,
      4885,
      4936,
      5155,
      5339,
      5568,
      5638,
      5736
    ],
    "swim:geom": "takeoff",
    "swim:timestamps": [
      1785595660,
      1785595715,
      1785595732,
      1785595759,
      1785595783,
      1785595792,
      1785595811,
      1785595835,
      1785595876,
      1785595946,
      1785595997,
      1785596065,
      1785596106,
      1785596131,
      1785596176,
      1785596205,
      1785596227,
      1785596236,
      1785596270,
      1785596296,
      1785596334,
      1785596343,
      1785596355
    ],
    "wof:geomhash": "07f3b06b5d6d7a614e9575a93cb33e6b",
    "wof:id": 2032063063,
    "wof:repo": "sfomuseum-data-flights-2026-08"
  },
  "bbox": [
    -122.39186,
    37.62569,
    -121.25134,
    37.97682
  ],
  "geometry": {"coordinates":[[-122.39186,37.62569],[-122.38452,37.66217],[-122.36537,37.66834],[-122.33596,37.67768],[-122.30722,37.68729],[-122.29571,37.69113],[-122.27017,37.69963],[-122.23532,37.71104],[-122.17659,37.73686],[-122.07649,37.78904],[-121.99952,37.82572],[-121.86864,37.85307],[-121.79108,37.88491],[-121.74472,37.90435],[-121.65476,37.93581],[-121.59162,37.9432],[-121.54281,37.94795],[-121.5242,37.94982],[-121.44737,37.95751],[-121.38896,37.96332],[-121.30024,37.97202],[-121.27978,37.974],[-121.25134,37.97682]],"type":"LineString"}
}
