{
  "id": 2032058829,
  "type": "Feature",
  "properties": {
    "geom:area": 0,
    "geom:bbox": "-122.352060,36.757670,-121.897980,37.609000",
    "geom:latitude": 37.229218373115465,
    "geom:longitude": -122.11715403820303,
    "src:alt_label": "swim-approach",
    "src:geom": "swim",
    "swim:elevations": [
      4581,
      4454,
      4285,
      4173,
      4054,
      3956,
      3574,
      3512,
      3199,
      3149,
      2926,
      2676,
      2554,
      2435,
      2380,
      2232,
      2184,
      2071,
      1825,
      1809,
      1868,
      1823,
      1625,
      1400,
      1376,
      1250,
      1217,
      1059,
      960,
      906,
      849,
      751,
      599,
      458,
      313,
      216,
      146,
      59
    ],
    "swim:geom": "approach",
    "swim:timestamps": [
      1785596275,
      1785596291,
      1785596321,
      1785596343,
      1785596366,
      1785596380,
      1785596427,
      1785596435,
      1785596487,
      1785596495,
      1785596534,
      1785596575,
      1785596596,
      1785596623,
      1785596656,
      1785596681,
      1785596688,
      1785596707,
      1785596752,
      1785596772,
      1785596797,
      1785596835,
      1785596873,
      1785596906,
      1785596910,
      1785596931,
      1785596949,
      1785596998,
      1785597009,
      1785597056,
      1785597076,
      1785597103,
      1785597136,
      1785597165,
      1785597205,
      1785597233,
      1785597256,
      1785597282
    ],
    "wof:geomhash": "e51475013c08330cf7cccd1192dfe83b",
    "wof:id": 2032058829,
    "wof:repo": "sfomuseum-data-flights-2026-08"
  },
  "bbox": [
    -122.35206,
    36.75767,
    -121.89798,
    37.609
  ],
  "geometry": {"coordinates":[[-121.89798,36.75767],[-121.9058,36.78449],[-121.91923,36.83257],[-121.92809,36.86436],[-121.93692,36.8954],[-121.94227,36.91423],[-121.9611,36.97267],[-121.96498,36.98252],[-122.0005,37.03908],[-122.00853,37.04563],[-122.05046,37.07898],[-122.09366,37.11358],[-122.11575,37.131],[-122.14331,37.1527],[-122.17846,37.18015],[-122.20408,37.20016],[-122.21076,37.20573],[-122.2227,37.22629],[-122.23974,37.27647],[-122.24731,37.29787],[-122.24842,37.32512],[-122.20606,37.35242],[-122.15649,37.37062],[-122.11932,37.39247],[-122.11735,37.39602],[-122.11749,37.41981],[-122.12401,37.43881],[-122.13862,37.48133],[-122.1416,37.4909],[-122.16223,37.52785],[-122.18215,37.53735],[-122.20805,37.54852],[-122.24005,37.56206],[-122.26684,37.57324],[-122.29831,37.58654],[-122.31815,37.59483],[-122.33463,37.60179],[-122.35206,37.609]],"type":"LineString"}
}
