{
  "id": 2048050231,
  "type": "Feature",
  "properties": {
    "geom:area": 0,
    "geom:bbox": "-122.360030,37.447080,-121.245820,37.614850",
    "geom:latitude": 37.53651071403556,
    "geom:longitude": -121.80880741709095,
    "src:alt_label": "swim-approach",
    "src:geom": "swim",
    "swim:elevations": [
      4640,
      4397,
      4045,
      3957,
      3607,
      3444,
      3351,
      3355,
      3351,
      3353,
      3197,
      3098,
      3048,
      3048,
      2896,
      2559,
      2427,
      2255,
      2177,
      2032,
      1943,
      1727,
      1606,
      1433,
      1199,
      1157,
      896,
      724,
      635,
      460,
      334,
      182,
      91,
      0
    ],
    "swim:geom": "approach",
    "swim:timestamps": [
      1787051937,
      1787051961,
      1787051996,
      1787052007,
      1787052044,
      1787052063,
      1787052080,
      1787052116,
      1787052123,
      1787052153,
      1787052202,
      1787052238,
      1787052256,
      1787052276,
      1787052303,
      1787052347,
      1787052379,
      1787052401,
      1787052421,
      1787052474,
      1787052491,
      1787052534,
      1787052557,
      1787052584,
      1787052623,
      1787052631,
      1787052680,
      1787052712,
      1787052729,
      1787052764,
      1787052797,
      1787052838,
      1787052861,
      1787052886
    ],
    "wof:geomhash": "a1a18fb05a42ba58b603f79edad92bb0",
    "wof:id": 2048050231,
    "wof:repo": "sfomuseum-data-flights-2026-08"
  },
  "bbox": [
    -122.36003,
    37.44708,
    -121.24582,
    37.61485
  ],
  "geometry": {"type":"LineString","coordinates":[[-121.24582,37.59475],[-121.29556,37.58815],[-121.36497,37.58019],[-121.38513,37.57796],[-121.45318,37.57043],[-121.48612,37.56666],[-121.51549,37.56321],[-121.57186,37.55665],[-121.58261,37.55543],[-121.62544,37.55907],[-121.69063,37.58565],[-121.73815,37.58291],[-121.75072,37.56603],[-121.75736,37.54487],[-121.76555,37.51638],[-121.78226,37.46955],[-121.82115,37.4549],[-121.85089,37.45304],[-121.87841,37.45137],[-121.95126,37.44708],[-121.97325,37.45237],[-122.02554,37.47353],[-122.05227,37.48494],[-122.08501,37.49881],[-122.13065,37.51802],[-122.13964,37.52182],[-122.1913,37.54365],[-122.22371,37.55742],[-122.23991,37.56422],[-122.27173,37.5776],[-122.29717,37.58833],[-122.32632,37.60058],[-122.34296,37.60757],[-122.36003,37.61485]]}
}
