{
  "id": 2048098315,
  "type": "Feature",
  "properties": {
    "geom:area": 0,
    "geom:bbox": "-123.321190,37.629220,-122.399250,38.497360",
    "geom:latitude": 38.022263192288044,
    "geom:longitude": -122.8931952381221,
    "src:alt_label": "swim-takeoff",
    "src:geom": "swim",
    "swim:elevations": [
      244,
      611,
      656,
      964,
      1040,
      1255,
      1603,
      1794,
      1977,
      2496,
      2698,
      3018,
      3183,
      3360,
      3574,
      3672,
      3830,
      4320,
      4513,
      5077,
      5370,
      5759,
      6096,
      6248,
      6401
    ],
    "swim:geom": "takeoff",
    "swim:timestamps": [
      1787314853,
      1787314881,
      1787314891,
      1787314936,
      1787314950,
      1787314997,
      1787315037,
      1787315054,
      1787315074,
      1787315124,
      1787315148,
      1787315178,
      1787315205,
      1787315233,
      1787315273,
      1787315281,
      1787315311,
      1787315352,
      1787315370,
      1787315428,
      1787315457,
      1787315503,
      1787315546,
      1787315563,
      1787315582
    ],
    "wof:geomhash": "3e7aabde176960d062d470551c0f36bb",
    "wof:id": 2048098315,
    "wof:repo": "sfomuseum-data-flights-2026-08"
  },
  "bbox": [
    -123.32119,
    37.62922,
    -122.39925,
    38.49736
  ],
  "geometry": {"type":"LineString","coordinates":[[-122.39925,37.62922],[-122.42306,37.63975],[-122.43212,37.64375],[-122.47527,37.66235],[-122.48945,37.66863],[-122.54039,37.69665],[-122.59044,37.72614],[-122.61151,37.7387],[-122.63866,37.7548],[-122.70745,37.7949],[-122.74069,37.81446],[-122.77575,37.84633],[-122.8041,37.88061],[-122.83476,37.91713],[-122.88202,37.97474],[-122.89269,37.98718],[-122.93087,38.03317],[-122.98705,38.10047],[-123.01177,38.13005],[-123.09262,38.22653],[-123.13404,38.2761],[-123.20241,38.35726],[-123.26578,38.43242],[-123.29331,38.46392],[-123.32119,38.49736]]}
}
