{
  "id": 2032118849,
  "type": "Feature",
  "properties": {
    "geom:area": 0,
    "geom:bbox": "-122.735556,37.635833,-122.009444,47.483333",
    "geom:latitude": 42.612288513653404,
    "geom:longitude": -122.25450481244708,
    "src:alt_label": "swim-path",
    "src:geom": "swim",
    "swim:altitudes": [
      "011",
      "019",
      "023",
      "046",
      "068",
      "087",
      "104",
      "116",
      "136",
      "155",
      "175",
      "191",
      "208",
      "238",
      "252",
      "267",
      "282",
      "294",
      "314",
      "324",
      "334",
      "343",
      "351",
      "358C",
      "360C",
      "360C",
      "360C",
      "360C",
      "360C",
      "360C",
      "360C",
      "360C",
      "360C",
      "360C",
      "360C",
      "360C",
      "360C",
      "360C",
      "360C",
      "360C",
      "360C",
      "360C",
      "360C",
      "360C",
      "360C",
      "360C",
      "360C",
      "360C",
      "360C",
      "360C",
      "360C",
      "360C",
      "360C",
      "360C",
      "360C",
      "360C",
      "360",
      "360",
      "360",
      "347",
      "295",
      "275",
      "255",
      "236",
      "215",
      "177",
      "154",
      "141",
      "109",
      "105",
      "100",
      "084",
      "069",
      "056",
      "046",
      "043",
      "034",
      "025",
      "020",
      "012",
      "010",
      "004"
    ],
    "swim:geom": "path",
    "swim:speeds": [
      174,
      230,
      249,
      270,
      287,
      302,
      315,
      337,
      356,
      366,
      371,
      379,
      392,
      401,
      421,
      422,
      429,
      432,
      450,
      450,
      453,
      454,
      462,
      462,
      463,
      463,
      463,
      462,
      462,
      462,
      463,
      464,
      465,
      466,
      467,
      468,
      468,
      468,
      467,
      467,
      467,
      466,
      465,
      466,
      466,
      465,
      463,
      460,
      456,
      433,
      430,
      428,
      427,
      427,
      431,
      444,
      425,
      425,
      424,
      421,
      433,
      431,
      420,
      410,
      397,
      378,
      361,
      359,
      341,
      334,
      311,
      256,
      242,
      226,
      203,
      201,
      168,
      155,
      155,
      153,
      153,
      145
    ],
    "swim:timestamps": [
      1785964306,
      1785964339,
      1785964366,
      1785964426,
      1785964486,
      1785964546,
      1785964606,
      1785964666,
      1785964726,
      1785964786,
      1785964847,
      1785964907,
      1785964967,
      1785965087,
      1785965147,
      1785965207,
      1785965267,
      1785965327,
      1785965447,
      1785965507,
      1785965567,
      1785965627,
      1785965687,
      1785965748,
      1785965808,
      1785965868,
      1785965928,
      1785966048,
      1785966108,
      1785966168,
      1785966228,
      1785966288,
      1785966348,
      1785966408,
      1785966529,
      1785966649,
      1785966709,
      1785966769,
      1785966829,
      1785966889,
      1785966949,
      1785967069,
      1785967129,
      1785967189,
      1785967249,
      1785967310,
      1785967370,
      1785967490,
      1785967610,
      1785967670,
      1785967730,
      1785967790,
      1785967850,
      1785967910,
      1785967970,
      1785968091,
      1785968211,
      1785968271,
      1785968331,
      1785968391,
      1785968511,
      1785968571,
      1785968631,
      1785968691,
      1785968751,
      1785968872,
      1785968945,
      1785968992,
      1785969112,
      1785969126,
      1785969172,
      1785969292,
      1785969352,
      1785969412,
      1785969472,
      1785969481,
      1785969541,
      1785969607,
      1785969653,
      1785969713,
      1785969721,
      1785969833
    ],
    "wof:geomhash": "7a83ecec0394177fa712a3d6f62d1fd8",
    "wof:id": 2032118849,
    "wof:repo": "sfomuseum-data-flights-2026-08"
  },
  "bbox": [
    -122.73555555555555,
    37.63583333333333,
    -122.00944444444444,
    47.483333333333334
  ],
  "geometry": {"type":"LineString","coordinates":[[-122.4038888888889,37.63583333333333],[-122.38333333333334,37.666666666666664],[-122.34777777777778,37.67166666666667],[-122.26083333333334,37.70138888888889],[-122.20805555555556,37.76138888888889],[-122.19361111111111,37.845],[-122.17333333333333,37.92833333333333],[-122.16416666666667,38.02305555555555],[-122.14833333333334,38.12138888888889],[-122.13083333333333,38.22638888888889],[-122.10722222222222,38.32666666666667],[-122.10722222222222,38.43277777777777],[-122.12722222222222,38.54361111111111],[-122.13805555555557,38.76694444444444],[-122.15111111111112,38.88861111111111],[-122.15416666666667,39.00388888888889],[-122.16388888888889,39.124722222222225],[-122.1763888888889,39.25055555555556],[-122.19222222222223,39.49277777777778],[-122.20222222222222,39.618611111111115],[-122.21000000000001,39.74444444444445],[-122.21944444444445,39.870555555555555],[-122.22916666666667,39.9975],[-122.23472222222222,40.12305555555555],[-122.22472222222223,40.2725],[-122.21611111111112,40.39861111111111],[-122.20722222222223,40.52833333333333],[-122.18944444444445,40.78361111111111],[-122.18027777777779,40.91277777777778],[-122.17083333333333,41.04111111111111],[-122.16250000000001,41.16888888888889],[-122.15361111111112,41.2975],[-122.14444444444445,41.43055555555555],[-122.13666666666667,41.538333333333334],[-122.11805555555554,41.79722222222222],[-122.09916666666666,42.06444444444444],[-122.08944444444444,42.19777777777777],[-122.08,42.32833333333333],[-122.07055555555556,42.4575],[-122.0611111111111,42.58861111111111],[-122.05166666666666,42.717222222222226],[-122.03222222222222,42.97638888888889],[-122.0225,43.10666666666667],[-122.01305555555555,43.23583333333333],[-122.00944444444444,43.36944444444445],[-122.03805555555556,43.49722222222222],[-122.06805555555555,43.62305555555555],[-122.12805555555555,43.87416666666667],[-122.18777777777778,44.123333333333335],[-122.21666666666667,44.24166666666667],[-122.24472222222222,44.35805555555556],[-122.27305555555556,44.47361111111111],[-122.30138888888888,44.589444444444446],[-122.33027777777778,44.70722222222223],[-122.35194444444444,44.82277777777778],[-122.20833333333334,45.04666666666667],[-122.31888888888888,45.269444444444446],[-122.38027777777778,45.378055555555555],[-122.44111111111111,45.485],[-122.50277777777778,45.59305555555556],[-122.60888888888888,45.8175],[-122.63777777777779,45.934999999999995],[-122.66611111111112,46.049166666666665],[-122.69111111111111,46.1625],[-122.715,46.28388888888889],[-122.72833333333334,46.49611111111111],[-122.73444444444445,46.623333333333335],[-122.73555555555555,46.69611111111111],[-122.64166666666668,46.86361111111111],[-122.61527777777778,46.88166666666667],[-122.55166666666666,46.927499999999995],[-122.41583333333334,47.04472222222222],[-122.36749999999999,47.1025],[-122.33388888888888,47.16138888888889],[-122.31972222222223,47.218333333333334],[-122.32111111111111,47.23111111111111],[-122.32055555555556,47.28],[-122.32,47.328611111111115],[-122.31888888888888,47.35722222222223],[-122.31833333333333,47.39944444444444],[-122.31861111111111,47.40833333333333],[-122.31777777777778,47.483333333333334]]}
}
