{
  "id": 2047879551,
  "type": "Feature",
  "properties": {
    "geom:area": 0,
    "geom:bbox": "-122.550000,33.950000,-118.157778,37.666667",
    "geom:latitude": 35.693507431272096,
    "geom:longitude": -120.31632410658358,
    "src:alt_label": "swim-path",
    "src:geom": "swim",
    "swim:altitudes": [
      "015",
      "018",
      "035",
      "041",
      "051",
      "060",
      "087",
      "114",
      "137",
      "173",
      "201",
      "225",
      "229",
      "247",
      "252",
      "272",
      "287",
      "314",
      "336",
      "349C",
      "350C",
      "350C",
      "350C",
      "350C",
      "350C",
      "350C",
      "350C",
      "350C",
      "350C",
      "350C",
      "350C",
      "350C",
      "350C",
      "350C",
      "350C",
      "350C",
      "346",
      "336",
      "327",
      "302",
      "292",
      "292",
      "282",
      "271",
      "261",
      "251",
      "233",
      "210",
      "200",
      "191",
      "184",
      "171",
      "163",
      "150",
      "143",
      "133",
      "130",
      "123",
      "119",
      "113",
      "109",
      "101",
      "095",
      "086",
      "081",
      "073",
      "070",
      "066",
      "062",
      "058",
      "057",
      "049",
      "044",
      "040",
      "035",
      "032",
      "029",
      "025",
      "022",
      "022",
      "019",
      "014",
      "011",
      "007",
      "004",
      "001"
    ],
    "swim:geom": "path",
    "swim:speeds": [
      156,
      191,
      208,
      232,
      272,
      280,
      285,
      324,
      338,
      340,
      346,
      364,
      385,
      390,
      406,
      419,
      425,
      439,
      432,
      432,
      430,
      429,
      437,
      428,
      427,
      426,
      426,
      425,
      424,
      423,
      421,
      419,
      415,
      412,
      410,
      409,
      409,
      422,
      420,
      428,
      435,
      435,
      435,
      432,
      428,
      421,
      401,
      385,
      372,
      373,
      372,
      373,
      372,
      362,
      351,
      343,
      319,
      303,
      285,
      266,
      254,
      244,
      236,
      239,
      234,
      237,
      238,
      237,
      239,
      235,
      221,
      223,
      233,
      229,
      225,
      201,
      188,
      186,
      178,
      182,
      180,
      151,
      138,
      139,
      131,
      131
    ],
    "swim:timestamps": [
      1786127459,
      1786127471,
      1786127519,
      1786127532,
      1786127579,
      1786127591,
      1786127639,
      1786127699,
      1786127754,
      1786127814,
      1786127874,
      1786127934,
      1786127940,
      1786127994,
      1786128000,
      1786128060,
      1786128114,
      1786128180,
      1786128240,
      1786128295,
      1786128355,
      1786128415,
      1786128475,
      1786128535,
      1786128595,
      1786128655,
      1786128661,
      1786128721,
      1786128781,
      1786128841,
      1786128901,
      1786128961,
      1786129016,
      1786129076,
      1786129136,
      1786129196,
      1786129256,
      1786129322,
      1786129382,
      1786129442,
      1786129496,
      1786129502,
      1786129562,
      1786129622,
      1786129677,
      1786129737,
      1786129797,
      1786129857,
      1786129888,
      1786129917,
      1786129939,
      1786129977,
      1786129998,
      1786130037,
      1786130058,
      1786130097,
      1786130119,
      1786130157,
      1786130177,
      1786130217,
      1786130239,
      1786130277,
      1786130299,
      1786130338,
      1786130359,
      1786130398,
      1786130419,
      1786130458,
      1786130479,
      1786130518,
      1786130539,
      1786130578,
      1786130599,
      1786130638,
      1786130659,
      1786130698,
      1786130719,
      1786130758,
      1786130779,
      1786130818,
      1786130839,
      1786130878,
      1786130899,
      1786130938,
      1786130959,
      1786130998
    ],
    "wof:geomhash": "9f9e14a0c15649b85956a4e713515539",
    "wof:id": 2047879551,
    "wof:repo": "sfomuseum-data-flights-2026-08"
  },
  "bbox": [
    -122.55,
    33.95,
    -118.15777777777778,
    37.666666666666664
  ],
  "geometry": {"type":"LineString","coordinates":[[-122.40722222222223,37.63333333333333],[-122.41666666666667,37.63333333333333],[-122.46833333333333,37.659166666666664],[-122.48333333333333,37.666666666666664],[-122.5425,37.64611111111111],[-122.55,37.63333333333333],[-122.51722222222222,37.57027777777778],[-122.4738888888889,37.49444444444445],[-122.41388888888889,37.44166666666666],[-122.32694444444444,37.37638888888889],[-122.23583333333333,37.30972222222222],[-122.14250000000001,37.23777777777778],[-122.11388888888888,37.223888888888894],[-122.03861111111111,37.16305555555555],[-122.01,37.14666666666667],[-121.90277777777779,37.066944444444445],[-121.82305555555556,37.003055555555555],[-121.68222222222222,36.901666666666664],[-121.5736111111111,36.82027777777778],[-121.49277777777777,36.756388888888885],[-121.3863888888889,36.67305555555555],[-121.27888888888889,36.59305555555556],[-121.1563888888889,36.50388888888889],[-121.06055555555555,36.43055555555555],[-120.94833333333334,36.3525],[-120.8386111111111,36.27583333333333],[-120.81333333333333,36.25833333333333],[-120.7025,36.18055555555555],[-120.59222222222222,36.10333333333333],[-120.48388888888888,36.026944444444446],[-120.37472222222222,35.94972222222222],[-120.26861111111111,35.87138888888889],[-120.2063888888889,35.79694444444444],[-120.13305555555554,35.69972222222222],[-120.06888888888888,35.598888888888894],[-120.0675,35.483333333333334],[-120.06611111111111,35.36833333333333],[-119.97027777777778,35.29361111111111],[-119.8561111111111,35.23583333333333],[-119.80472222222222,35.12972222222222],[-119.6875,35.061388888888885],[-119.68388888888889,35.05916666666666],[-119.57166666666666,34.98222222222223],[-119.46416666666667,34.900555555555556],[-119.38111111111111,34.808611111111105],[-119.2975,34.71472222222223],[-119.21777777777778,34.62305555555555],[-119.13277777777778,34.52472222222222],[-119.1,34.483333333333334],[-119.05916666666667,34.44222222222222],[-119.03333333333333,34.416666666666664],[-118.98611111111111,34.3575],[-118.96666666666667,34.333333333333336],[-118.91277777777778,34.27638888888889],[-118.88333333333334,34.25],[-118.84222222222222,34.19944444444444],[-118.81666666666666,34.18333333333333],[-118.77666666666667,34.13388888888889],[-118.75,34.11666666666667],[-118.71444444444445,34.07666666666667],[-118.7,34.06666666666667],[-118.65416666666667,34.02972222222222],[-118.63333333333334,34.03333333333333],[-118.57638888888889,34.021388888888886],[-118.55,34.016666666666666],[-118.49805555555555,34.013888888888886],[-118.46666666666667,34.016666666666666],[-118.41944444444445,34.01638888888889],[-118.4,34.016666666666666],[-118.34055555555555,34.02916666666667],[-118.31666666666666,34.03333333333333],[-118.28194444444445,34.03472222222222],[-118.23333333333333,34.03333333333333],[-118.205,34.043055555555554],[-118.16666666666667,34.05],[-118.15777777777778,34.01888888888889],[-118.18333333333334,34],[-118.20666666666666,33.988055555555555],[-118.23333333333333,33.96666666666667],[-118.27111111111111,33.96555555555556],[-118.28333333333333,33.96666666666667],[-118.3261111111111,33.959722222222226],[-118.33333333333333,33.95],[-118.37027777777777,33.95527777777778],[-118.38333333333334,33.95],[-118.41277777777778,33.950833333333335]]}
}
