{
  "id": 2032072635,
  "type": "Feature",
  "properties": {
    "geom:area": 0,
    "geom:bbox": "-122.446690,36.727480,-121.882070,37.612930",
    "geom:latitude": 37.243469726809366,
    "geom:longitude": -122.18292166292085,
    "src:alt_label": "swim-approach",
    "src:geom": "swim",
    "swim:elevations": [
      5295,
      4834,
      4678,
      4588,
      4037,
      3565,
      3351,
      3129,
      3052,
      3048,
      3048,
      3075,
      3048,
      3048,
      3020,
      2936,
      2780,
      2654,
      2512,
      2409,
      2251,
      2103,
      2025,
      1905,
      1830,
      1829,
      1829,
      1829,
      1829,
      1829,
      1826,
      1728,
      1617,
      1579,
      1342,
      1234,
      1192,
      1154,
      1069,
      905,
      854,
      685,
      584,
      463,
      337,
      211,
      87,
      0
    ],
    "swim:geom": "approach",
    "swim:timestamps": [
      1785707812,
      1785707863,
      1785707883,
      1785707893,
      1785707968,
      1785708028,
      1785708056,
      1785708085,
      1785708097,
      1785708130,
      1785708160,
      1785708183,
      1785708235,
      1785708244,
      1785708277,
      1785708296,
      1785708327,
      1785708350,
      1785708381,
      1785708396,
      1785708427,
      1785708452,
      1785708467,
      1785708493,
      1785708515,
      1785708558,
      1785708571,
      1785708601,
      1785708658,
      1785708668,
      1785708712,
      1785708731,
      1785708746,
      1785708756,
      1785708801,
      1785708816,
      1785708855,
      1785708861,
      1785708876,
      1785708925,
      1785708940,
      1785708982,
      1785709010,
      1785709043,
      1785709078,
      1785709108,
      1785709137,
      1785709158
    ],
    "wof:geomhash": "82253d409d3a30a8824cf91c0f996c9b",
    "wof:id": 2032072635,
    "wof:repo": "sfomuseum-data-flights-2026-08"
  },
  "bbox": [
    -122.44669,
    36.72748,
    -121.88207,
    37.61293
  ],
  "geometry": {"coordinates":[[-121.88207,36.72748],[-121.9127,36.80831],[-121.92198,36.84103],[-121.92629,36.85628],[-121.95948,36.96786],[-121.99048,37.04825],[-122.02116,37.07682],[-122.06617,37.09186],[-122.08522,37.09815],[-122.1371,37.11553],[-122.1839,37.13102],[-122.22054,37.14316],[-122.30086,37.16987],[-122.31456,37.17446],[-122.36175,37.19013],[-122.38706,37.19855],[-122.42834,37.21237],[-122.44669,37.23231],[-122.44504,37.26597],[-122.43599,37.28092],[-122.41767,37.31106],[-122.40259,37.33617],[-122.39364,37.35121],[-122.37832,37.37681],[-122.36498,37.39912],[-122.3347,37.43816],[-122.31719,37.44107],[-122.2772,37.42871],[-122.20293,37.40176],[-122.19068,37.39734],[-122.13864,37.38088],[-122.11954,37.38793],[-122.1127,37.40141],[-122.10997,37.40974],[-122.09682,37.4508],[-122.09263,37.46414],[-122.1114,37.49469],[-122.11535,37.49899],[-122.12551,37.51006],[-122.17097,37.53291],[-122.18393,37.53838],[-122.2194,37.55339],[-122.24233,37.56282],[-122.26842,37.5737],[-122.29864,37.58641],[-122.3228,37.59677],[-122.34598,37.60647],[-122.3604,37.61293]],"type":"LineString"}
}
