{
  "id": 2032090475,
  "type": "Feature",
  "properties": {
    "date:cessation_lower": "2026-08-04",
    "date:cessation_upper": "2026-08-04",
    "date:inception_lower": "2026-08-03",
    "date:inception_upper": "2026-08-03",
    "edtf:cessation": "2026-08-04T06:33:44Z",
    "edtf:inception": "2026-08-03T19:19:00Z",
    "flysfo:actual_timestamp": -1,
    "flysfo:airline": "MU",
    "flysfo:date": "2026-08-03",
    "flysfo:estimated_timestamp": 1785785040,
    "flysfo:event": "D",
    "flysfo:flight_number": "MU590",
    "flysfo:gate": "A6",
    "flysfo:journey": "SFO-PVG",
    "flysfo:scheduled_timestamp": 1785783600,
    "flysfo:timestamp": 1785785040,
    "geom:area": 0,
    "geom:bbox": "-122.370943,31.145312,121.799307,37.617990",
    "geom:latitude": 34.381651,
    "geom:longitude": -0.285817999999999,
    "iata:airline": "MU",
    "icao:aircraft": "B77W",
    "icao:airline": "CES",
    "lbl:latitude": 37.612674,
    "lbl:longitude": -122.389174,
    "sfomuseum:aircraft_id": 1159289993,
    "sfomuseum:airline_id": 1159284157,
    "sfomuseum:arrival_id": 102550331,
    "sfomuseum:departure_id": 102527513,
    "sfomuseum:flight_id": "20260803-D-CES-590",
    "sfomuseum:flight_number": [
      "CES590",
      "MU590"
    ],
    "sfomuseum:placetype": "flight",
    "src:geom": "flysfo",
    "src:geom_alt": [
      "swim-path",
      "swim-takeoff"
    ],
    "swim:tail_number": "B2002",
    "wof:belongsto": [
      1947304067,
      102527513,
      1947304073,
      102191575,
      85633793,
      102087579,
      85922583,
      554784711,
      85688637,
      1947304085,
      1947304069,
      102085387
    ],
    "wof:concordances": {
      "swim:flight_ref": "153624098"
    },
    "wof:country": "US",
    "wof:created": 1785860023,
    "wof:geomhash": "014430cde1a85b033fb3b4a447168595",
    "wof:hierarchy": [
      {
        "building_id": 1947304067,
        "campus_id": 102527513,
        "concourse_id": 1947304073,
        "continent_id": 102191575,
        "country_id": 85633793,
        "county_id": 102087579,
        "custom_id": 2032090475,
        "flight_id": 2032090475,
        "locality_id": 85922583,
        "postalcode_id": 554784711,
        "region_id": 85688637,
        "venue_id": 1947304085,
        "wing_id": 1947304069
      },
      {
        "building_id": 1947304067,
        "campus_id": 102527513,
        "concourse_id": 1947304073,
        "continent_id": 102191575,
        "country_id": 85633793,
        "county_id": 102085387,
        "custom_id": 2032090475,
        "flight_id": 2032090475,
        "region_id": 85688637,
        "venue_id": 1947304085,
        "wing_id": 1947304069
      }
    ],
    "wof:id": 2032090475,
    "wof:involves": [
      1159289993,
      102550331,
      102527513,
      1159284157,
      1947304085
    ],
    "wof:lastmodified": 1785860427,
    "wof:name": "MU590 (SFO-PVG)",
    "wof:parent_id": 1947304085,
    "wof:placetype": "custom",
    "wof:placetype_alt": [
      "flight"
    ],
    "wof:repo": "sfomuseum-data-flights-2026-08",
    "wof:superseded_by": [],
    "wof:supersedes": []
  },
  "bbox": [
    -122.370943,
    31.145312,
    121.799307,
    37.61799
  ],
  "geometry": {"type":"MultiPoint","coordinates":[[-122.370943,37.61799],[121.799307,31.145312]]}
}
