{
  "id": 2048065799,
  "type": "Feature",
  "properties": {
    "geom:area": 0,
    "geom:bbox": "-122.409740,37.630630,-121.286050,37.991380",
    "geom:latitude": 37.93454115718888,
    "geom:longitude": -121.96089018602548,
    "src:alt_label": "swim-takeoff",
    "src:geom": "swim",
    "swim:elevations": [
      307,
      549,
      673,
      798,
      1055,
      1343,
      1743,
      2023,
      2303,
      2591,
      2824,
      3119,
      3260,
      3323,
      3469,
      3601,
      3783,
      4059,
      4322,
      4384,
      4547,
      4834,
      5001,
      5230,
      5373,
      5698,
      5748
    ],
    "swim:geom": "takeoff",
    "swim:timestamps": [
      1787203544,
      1787203577,
      1787203601,
      1787203631,
      1787203660,
      1787203687,
      1787203730,
      1787203760,
      1787203790,
      1787203825,
      1787203852,
      1787203885,
      1787203912,
      1787203928,
      1787203966,
      1787203996,
      1787204026,
      1787204065,
      1787204098,
      1787204111,
      1787204134,
      1787204177,
      1787204197,
      1787204228,
      1787204252,
      1787204298,
      1787204310
    ],
    "wof:geomhash": "6affa41614f70077e668c186a2e5146f",
    "wof:id": 2048065799,
    "wof:repo": "sfomuseum-data-flights-2026-08"
  },
  "bbox": [
    -122.40974,
    37.63063,
    -121.28605,
    37.99138
  ],
  "geometry": {"type":"LineString","coordinates":[[-122.40294,37.63063],[-122.40974,37.6568],[-122.39021,37.6757],[-122.36003,37.70141],[-122.33799,37.73375],[-122.34714,37.76586],[-122.3722,37.81747],[-122.38502,37.85588],[-122.38427,37.89707],[-122.36106,37.94107],[-122.31629,37.9543],[-122.25828,37.96593],[-122.20923,37.97592],[-122.17877,37.98207],[-122.10082,37.98871],[-122.03505,37.98895],[-121.96729,37.98938],[-121.8777,37.98993],[-121.80101,37.99035],[-121.77013,37.99047],[-121.71641,37.99069],[-121.61207,37.99099],[-121.56194,37.99113],[-121.48901,37.99131],[-121.42843,37.99135],[-121.31597,37.99138],[-121.28605,37.99134]]}
}
