{
  "id": 2032087839,
  "type": "Feature",
  "properties": {
    "geom:area": 0,
    "geom:bbox": "-122.349167,37.426944,-104.733333,39.857222",
    "geom:latitude": 38.731068265570045,
    "geom:longitude": -113.75735743811,
    "src:alt_label": "swim-path",
    "src:geom": "swim",
    "swim:altitudes": [
      "061",
      "071",
      "078",
      "087",
      "102",
      "113",
      "127",
      "136",
      "156",
      "166",
      "177",
      "193",
      "218",
      "224",
      "233",
      "241",
      "241",
      "249",
      "262",
      "278",
      "279",
      "291",
      "291",
      "300C",
      "300C",
      "300C",
      "300C",
      "300C",
      "302",
      "314",
      "320C",
      "320C",
      "320C",
      "320C",
      "320C",
      "320C",
      "320C",
      "320C",
      "320C",
      "320C",
      "320C",
      "320C",
      "320C",
      "320C",
      "320C",
      "320C",
      "320C",
      "320C",
      "320C",
      "320C",
      "320C",
      "320C",
      "320C",
      "320C",
      "320C",
      "320C",
      "320C",
      "320C",
      "320C",
      "320C",
      "320C",
      "320C",
      "320C",
      "320C",
      "320C",
      "320C",
      "320C",
      "320C",
      "320C",
      "320C",
      "320C",
      "320C",
      "320C",
      "320C",
      "320C",
      "320C",
      "320C",
      "320C",
      "320C",
      "320C",
      "320C",
      "320C",
      "320C",
      "320C",
      "320C",
      "320C",
      "320C",
      "320C",
      "320C",
      "320C",
      "320C",
      "320C",
      "320C",
      "320C",
      "320C",
      "320C",
      "320C",
      "320C",
      "320",
      "320",
      "316",
      "295",
      "272",
      "255",
      "243",
      "235",
      "223",
      "215",
      "204",
      "185",
      "176",
      "166",
      "156",
      "147",
      "140",
      "135",
      "129",
      "121",
      "112",
      "109",
      "104",
      "100",
      "100",
      "090",
      "090",
      "090",
      "090",
      "090",
      "090",
      "087",
      "083",
      "080",
      "080",
      "076",
      "071",
      "070",
      "070",
      "061",
      "044",
      "040",
      "039",
      "031",
      "027",
      "020",
      "011",
      "002"
    ],
    "swim:geom": "path",
    "swim:speeds": [
      198,
      237,
      249,
      263,
      293,
      289,
      298,
      298,
      306,
      314,
      311,
      325,
      375,
      410,
      432,
      443,
      451,
      467,
      470,
      468,
      465,
      461,
      460,
      455,
      454,
      454,
      455,
      455,
      455,
      454,
      450,
      448,
      446,
      446,
      446,
      446,
      445,
      445,
      446,
      446,
      445,
      445,
      444,
      443,
      443,
      443,
      445,
      445,
      446,
      446,
      445,
      445,
      445,
      445,
      444,
      444,
      446,
      447,
      447,
      447,
      447,
      447,
      447,
      447,
      446,
      446,
      446,
      446,
      446,
      446,
      446,
      446,
      447,
      447,
      448,
      450,
      448,
      448,
      449,
      449,
      450,
      451,
      452,
      453,
      453,
      454,
      454,
      454,
      454,
      453,
      452,
      452,
      452,
      452,
      452,
      453,
      453,
      454,
      455,
      456,
      457,
      439,
      422,
      418,
      409,
      407,
      398,
      389,
      377,
      370,
      368,
      358,
      358,
      351,
      335,
      312,
      308,
      301,
      258,
      254,
      243,
      247,
      247,
      243,
      243,
      243,
      251,
      251,
      258,
      254,
      251,
      250,
      250,
      239,
      238,
      238,
      240,
      238,
      236,
      211,
      192,
      196,
      203,
      200,
      171,
      163
    ],
    "swim:timestamps": [
      1785767505,
      1785767560,
      1785767590,
      1785767620,
      1785767679,
      1785767710,
      1785767739,
      1785767770,
      1785767831,
      1785767859,
      1785767891,
      1785767951,
      1785768071,
      1785768131,
      1785768191,
      1785768245,
      1785768251,
      1785768311,
      1785768371,
      1785768425,
      1785768431,
      1785768485,
      1785768491,
      1785768552,
      1785768612,
      1785768672,
      1785768726,
      1785768732,
      1785768786,
      1785768846,
      1785768912,
      1785768972,
      1785769026,
      1785769032,
      1785769086,
      1785769092,
      1785769146,
      1785769272,
      1785769393,
      1785769453,
      1785769573,
      1785769579,
      1785769633,
      1785769693,
      1785769699,
      1785769753,
      1785769873,
      1785769879,
      1785769933,
      1785769939,
      1785769999,
      1785770059,
      1785770120,
      1785770180,
      1785770240,
      1785770300,
      1785770360,
      1785770540,
      1785770600,
      1785770660,
      1785770720,
      1785770780,
      1785770841,
      1785770901,
      1785771021,
      1785771081,
      1785771141,
      1785771201,
      1785771261,
      1785771321,
      1785771381,
      1785771441,
      1785771501,
      1785771562,
      1785771622,
      1785771682,
      1785771802,
      1785771862,
      1785771922,
      1785772042,
      1785772102,
      1785772162,
      1785772222,
      1785772283,
      1785772343,
      1785772403,
      1785772463,
      1785772583,
      1785772643,
      1785772703,
      1785772763,
      1785772883,
      1785772944,
      1785773004,
      1785773064,
      1785773184,
      1785773244,
      1785773304,
      1785773364,
      1785773424,
      1785773544,
      1785773604,
      1785773673,
      1785773724,
      1785773752,
      1785773785,
      1785773812,
      1785773845,
      1785773872,
      1785773932,
      1785773965,
      1785773992,
      1785774025,
      1785774052,
      1785774085,
      1785774118,
      1785774145,
      1785774178,
      1785774238,
      1785774265,
      1785774292,
      1785774325,
      1785774352,
      1785774412,
      1785774445,
      1785774506,
      1785774532,
      1785774566,
      1785774592,
      1785774626,
      1785774647,
      1785774686,
      1785774706,
      1785774746,
      1785774767,
      1785774806,
      1785774827,
      1785774866,
      1785774946,
      1785774986,
      1785775001,
      1785775046,
      1785775066,
      1785775106,
      1785775166,
      1785775227
    ],
    "wof:geomhash": "07847837d0ac4471be06988f264e0cf4",
    "wof:id": 2032087839,
    "wof:repo": "sfomuseum-data-flights-2026-08"
  },
  "bbox": [
    -122.34916666666666,
    37.426944444444445,
    -104.73333333333333,
    39.85722222222223
  ],
  "geometry": {"type":"LineString","coordinates":[[-104.73333333333333,39.833333333333336],[-104.81666666666666,39.85],[-104.85416666666666,39.8425],[-104.9,39.85],[-105,39.85],[-105.05694444444444,39.84666666666667],[-105.11666666666666,39.85],[-105.16333333333334,39.848888888888894],[-105.27444444444444,39.85111111111111],[-105.33333333333333,39.85],[-105.38861111111112,39.85305555555556],[-105.50472222222223,39.85666666666667],[-105.76027777777777,39.85722222222223],[-105.90305555555557,39.844722222222224],[-106.05833333333334,39.83111111111111],[-106.21777777777778,39.81527777777777],[-106.21916666666667,39.81666666666667],[-106.38555555555556,39.801944444444445],[-106.55833333333334,39.78611111111111],[-106.72111111111111,39.76722222222222],[-106.72305555555556,39.76777777777777],[-106.88361111111112,39.74944444444444],[-106.88555555555556,39.749722222222225],[-107.045,39.731944444444444],[-107.20472222222223,39.71416666666667],[-107.36805555555554,39.69555555555555],[-107.53166666666667,39.675555555555555],[-107.53222222222222,39.67638888888889],[-107.69333333333334,39.656666666666666],[-107.85277777777777,39.63805555555555],[-108.01527777777778,39.619166666666665],[-108.1763888888889,39.599444444444444],[-108.33083333333333,39.580555555555556],[-108.33611111111111,39.57972222222222],[-108.48805555555556,39.56083333333333],[-108.49333333333334,39.56027777777778],[-108.65,39.54055555555556],[-108.97194444444445,39.49944444444444],[-109.28888888888889,39.45777777777778],[-109.44555555555556,39.43694444444444],[-109.76083333333334,39.39416666666666],[-109.76305555555555,39.39388888888889],[-109.91777777777779,39.37277777777778],[-110.07277777777777,39.35166666666667],[-110.07527777777777,39.35138888888889],[-110.22944444444444,39.33083333333334],[-110.54527777777777,39.2875],[-110.54527777777777,39.2875],[-110.70194444444445,39.26583333333333],[-110.70194444444445,39.26583333333333],[-110.85833333333333,39.24388888888889],[-111.015,39.22166666666667],[-111.17055555555557,39.19944444444444],[-111.33638888888889,39.17527777777777],[-111.49027777777778,39.15277777777778],[-111.64666666666668,39.12972222222222],[-111.80499999999999,39.10638888888889],[-112.27194444444444,39.035555555555554],[-112.42750000000001,39.01138888888889],[-112.58527777777778,38.986666666666665],[-112.74,38.962500000000006],[-112.89583333333334,38.9375],[-113.05055555555555,38.91277777777778],[-113.20694444444445,38.8875],[-113.51583333333333,38.836666666666666],[-113.67194444444445,38.81083333333333],[-113.825,38.78527777777778],[-113.98083333333334,38.75888888888889],[-114.13444444444445,38.73277777777778],[-114.28861111111111,38.70611111111111],[-114.44250000000001,38.67944444444444],[-114.59805555555555,38.65222222222222],[-114.75194444444445,38.625277777777775],[-114.93722222222223,38.592222222222226],[-115.06166666666667,38.569722222222225],[-115.21722222222222,38.541666666666664],[-115.52916666666667,38.484722222222224],[-115.68194444444445,38.45638888888889],[-115.83805555555556,38.42722222222222],[-116.1463888888889,38.369166666666665],[-116.3025,38.33916666666667],[-116.45722222222223,38.30583333333333],[-116.61055555555555,38.27055555555555],[-116.76555555555555,38.23555555555556],[-116.92083333333333,38.20027777777778],[-117.075,38.164722222222224],[-117.23333333333333,38.128055555555555],[-117.54888888888888,38.055],[-117.70027777777779,38.01972222222222],[-117.85583333333332,37.99388888888889],[-118.01638888888888,37.977222222222224],[-118.33444444444444,37.94333333333333],[-118.49055555555556,37.92611111111111],[-118.64805555555556,37.90861111111111],[-118.80555555555556,37.89111111111111],[-119.10666666666665,37.85666666666667],[-119.26527777777778,37.838055555555556],[-119.42527777777778,37.81944444444445],[-119.58222222222221,37.800555555555555],[-119.74055555555556,37.781666666666666],[-120.06055555555555,37.7425],[-120.21444444444445,37.723055555555554],[-120.38333333333334,37.7],[-120.505,37.6875],[-120.58333333333333,37.68333333333333],[-120.64666666666668,37.67111111111111],[-120.73333333333333,37.666666666666664],[-120.78527777777778,37.654444444444444],[-120.86666666666666,37.65],[-120.98333333333333,37.63333333333333],[-121.04388888888889,37.62222222222222],[-121.11666666666666,37.61666666666667],[-121.17916666666667,37.60388888888889],[-121.23333333333333,37.6],[-121.29861111111111,37.588055555555556],[-121.36666666666666,37.583333333333336],[-121.40694444444445,37.57638888888889],[-121.46666666666667,37.56666666666667],[-121.56666666666666,37.56666666666667],[-121.59944444444444,37.553888888888885],[-121.63333333333334,37.55],[-121.67944444444444,37.57166666666667],[-121.71666666666667,37.583333333333336],[-121.8,37.61666666666667],[-121.83666666666666,37.62416666666667],[-121.91666666666667,37.63861111111111],[-121.93333333333334,37.61666666666667],[-121.93527777777778,37.5775],[-121.9,37.55],[-121.86944444444444,37.528888888888886],[-121.85,37.516666666666666],[-121.80499999999999,37.48277777777778],[-121.78333333333333,37.46666666666667],[-121.81527777777778,37.426944444444445],[-121.85,37.43333333333333],[-121.89694444444446,37.43694444444444],[-121.93333333333334,37.45],[-121.97777777777777,37.453611111111115],[-122.08333333333333,37.5],[-122.12138888888889,37.51416666666667],[-122.13333333333334,37.516666666666666],[-122.18222222222222,37.53972222222222],[-122.2,37.55],[-122.24444444444444,37.566111111111105],[-122.30055555555555,37.58972222222222],[-122.34916666666666,37.61]]}
}
