{
  "id": 2047926251,
  "type": "Feature",
  "properties": {
    "geom:area": 0,
    "geom:bbox": "-122.350000,33.609444,-84.450000,38.432222",
    "geom:latitude": 36.3878386420107,
    "geom:longitude": -103.55961680962923,
    "src:alt_label": "swim-path",
    "src:geom": "swim",
    "swim:altitudes": [
      "018",
      "033",
      "040",
      "053",
      "078",
      "090",
      "108",
      "125",
      "145",
      "164",
      "179",
      "195",
      "212",
      "223",
      "245",
      "259",
      "272",
      "282",
      "286",
      "293",
      "299C",
      "300C",
      "300C",
      "300C",
      "300C",
      "300C",
      "300C",
      "300C",
      "300C",
      "300C",
      "300C",
      "300C",
      "300C",
      "300C",
      "300C",
      "300C",
      "300C",
      "300C",
      "300C",
      "300C",
      "300C",
      "300C",
      "300C",
      "300C",
      "300C",
      "300C",
      "300C",
      "300C",
      "300C",
      "300C",
      "300C",
      "300C",
      "300C",
      "305",
      "316",
      "320C",
      "320C",
      "320C",
      "320C",
      "320C",
      "320C",
      "320C",
      "320C",
      "320C",
      "320C",
      "320C",
      "320C",
      "320C",
      "320C",
      "320C",
      "320C",
      "320C",
      "320C",
      "320C",
      "320C",
      "320C",
      "320C",
      "320C",
      "320C",
      "320C",
      "320C",
      "320C",
      "320C",
      "320C",
      "320C",
      "320C",
      "320C",
      "320C",
      "320C",
      "320C",
      "320C",
      "320C",
      "320C",
      "320C",
      "320C",
      "320C",
      "320C",
      "320C",
      "320C",
      "320C",
      "320C",
      "320C",
      "320C",
      "320C",
      "320C",
      "320C",
      "320C",
      "320C",
      "320C",
      "320C",
      "320C",
      "320C",
      "320C",
      "320C",
      "320C",
      "320C",
      "320C",
      "320C",
      "320C",
      "320C",
      "320C",
      "320C",
      "320C",
      "320C",
      "320C",
      "320C",
      "320C",
      "320C",
      "320C",
      "320C",
      "320C",
      "320C",
      "320",
      "324",
      "328",
      "334",
      "338C",
      "340C",
      "340C",
      "340C",
      "340C",
      "340C",
      "340C",
      "340C",
      "340C",
      "340C",
      "340C",
      "340C",
      "340C",
      "340C",
      "340C",
      "340C",
      "340C",
      "340C",
      "340C",
      "340C",
      "340C",
      "340C",
      "340C",
      "340C",
      "340C",
      "340C",
      "340C",
      "340C",
      "340C",
      "340C",
      "340C",
      "340C",
      "340C",
      "340C",
      "340C",
      "340C",
      "340C",
      "340C",
      "340C",
      "340C",
      "340C",
      "340C",
      "340C",
      "340C",
      "340C",
      "340C",
      "340C",
      "340C",
      "340C",
      "340C",
      "340C",
      "340C",
      "340C",
      "340C",
      "340C",
      "340C",
      "340C",
      "340C",
      "340C",
      "340C",
      "340C",
      "340C",
      "340C",
      "340C",
      "340C",
      "340C",
      "340C",
      "340C",
      "340C",
      "340C",
      "340C",
      "340C",
      "340C",
      "340C",
      "340C",
      "340C",
      "340C",
      "340C",
      "340C",
      "340C",
      "340C",
      "340C",
      "340C",
      "340C",
      "340C",
      "340C",
      "340C",
      "340C",
      "340C",
      "340C",
      "340C",
      "340C",
      "340C",
      "340C",
      "340C",
      "340C",
      "340C",
      "340C",
      "340C",
      "340C",
      "340C",
      "340C",
      "340C",
      "340C",
      "340C",
      "340C",
      "340C",
      "340C",
      "340C",
      "340C",
      "340C",
      "340C",
      "340C",
      "340C",
      "340C",
      "340C",
      "340C",
      "340C",
      "340C",
      "340C",
      "340C",
      "340C",
      "340C",
      "340C",
      "340C",
      "340C",
      "340C",
      "340C",
      "340C",
      "340C",
      "340C",
      "340C",
      "340C",
      "340C",
      "340C",
      "340C",
      "340C",
      "340C",
      "340C",
      "340C",
      "340C",
      "340C",
      "340C",
      "340C",
      "340C",
      "340C",
      "340C",
      "340C",
      "340C",
      "340C",
      "340C",
      "340C",
      "340C",
      "340C",
      "340C",
      "340C",
      "340C",
      "340C",
      "340C",
      "340C",
      "340C",
      "340C",
      "340C",
      "340C",
      "340C",
      "340C",
      "340C",
      "340C",
      "340C",
      "340C",
      "340C",
      "340C",
      "340C",
      "340C",
      "340C",
      "340C",
      "340C",
      "340C",
      "340C",
      "340C",
      "340C",
      "340C",
      "340C",
      "340C",
      "340C",
      "340C",
      "340C",
      "340C",
      "340C",
      "340C",
      "340C",
      "340C",
      "340C",
      "340C",
      "340C",
      "340C",
      "340",
      "331",
      "276",
      "251",
      "230",
      "212",
      "196",
      "193",
      "178",
      "161",
      "143",
      "131",
      "123",
      "110",
      "110",
      "110",
      "099",
      "095",
      "082",
      "081C",
      "070",
      "068",
      "060",
      "053",
      "042",
      "030",
      "019",
      "011",
      "003"
    ],
    "swim:geom": "path",
    "swim:speeds": [
      190,
      229,
      257,
      266,
      267,
      270,
      291,
      318,
      329,
      339,
      352,
      357,
      366,
      366,
      403,
      408,
      410,
      410,
      423,
      435,
      441,
      449,
      451,
      451,
      452,
      452,
      452,
      453,
      454,
      455,
      456,
      456,
      457,
      457,
      458,
      458,
      459,
      459,
      459,
      459,
      459,
      459,
      459,
      459,
      459,
      458,
      459,
      460,
      461,
      462,
      463,
      464,
      465,
      466,
      463,
      460,
      455,
      460,
      455,
      460,
      458,
      461,
      458,
      462,
      458,
      462,
      461,
      462,
      466,
      461,
      463,
      460,
      462,
      459,
      461,
      459,
      460,
      459,
      460,
      459,
      460,
      461,
      462,
      461,
      462,
      461,
      463,
      462,
      462,
      462,
      461,
      461,
      461,
      461,
      461,
      461,
      461,
      461,
      461,
      462,
      463,
      462,
      463,
      465,
      466,
      467,
      468,
      469,
      470,
      470,
      471,
      472,
      472,
      472,
      472,
      472,
      474,
      474,
      477,
      476,
      477,
      475,
      476,
      475,
      476,
      476,
      476,
      477,
      477,
      478,
      479,
      478,
      479,
      479,
      479,
      478,
      475,
      474,
      473,
      473,
      472,
      473,
      473,
      474,
      474,
      473,
      473,
      473,
      472,
      472,
      472,
      471,
      470,
      471,
      471,
      471,
      471,
      471,
      473,
      473,
      475,
      476,
      476,
      475,
      469,
      474,
      470,
      473,
      471,
      473,
      472,
      473,
      473,
      475,
      475,
      477,
      477,
      477,
      477,
      476,
      475,
      475,
      474,
      474,
      473,
      473,
      472,
      471,
      470,
      471,
      471,
      471,
      472,
      471,
      471,
      471,
      472,
      473,
      473,
      474,
      474,
      476,
      476,
      477,
      477,
      478,
      478,
      479,
      478,
      478,
      478,
      478,
      478,
      477,
      477,
      477,
      477,
      479,
      477,
      479,
      477,
      477,
      477,
      471,
      470,
      471,
      471,
      471,
      472,
      472,
      470,
      472,
      469,
      472,
      468,
      468,
      472,
      467,
      471,
      467,
      469,
      466,
      469,
      467,
      466,
      464,
      463,
      462,
      462,
      461,
      462,
      462,
      463,
      463,
      464,
      464,
      465,
      464,
      464,
      464,
      463,
      463,
      462,
      462,
      462,
      461,
      461,
      460,
      459,
      459,
      465,
      467,
      468,
      469,
      470,
      471,
      471,
      473,
      474,
      463,
      461,
      459,
      456,
      454,
      453,
      453,
      451,
      448,
      449,
      448,
      447,
      448,
      446,
      445,
      446,
      447,
      448,
      450,
      451,
      472,
      479,
      481,
      481,
      483,
      484,
      484,
      480,
      478,
      452,
      452,
      451,
      450,
      450,
      422,
      421,
      403,
      403,
      401,
      401,
      401,
      401,
      401,
      403,
      412,
      423,
      429,
      431,
      433,
      433,
      432,
      431,
      431,
      431,
      430,
      435,
      428,
      414,
      390,
      382,
      385,
      350,
      326,
      315,
      298,
      260,
      258,
      245,
      248,
      250,
      237,
      237,
      237,
      232,
      230,
      230,
      227,
      230,
      227,
      196,
      164,
      164
    ],
    "swim:timestamps": [
      1786472853,
      1786472914,
      1786472948,
      1786472974,
      1786473034,
      1786473068,
      1786473128,
      1786473188,
      1786473248,
      1786473308,
      1786473368,
      1786473433,
      1786473488,
      1786473553,
      1786473669,
      1786473734,
      1786473794,
      1786473854,
      1786473914,
      1786473974,
      1786474029,
      1786474094,
      1786474154,
      1786474209,
      1786474274,
      1786474330,
      1786474390,
      1786474455,
      1786474510,
      1786474575,
      1786474635,
      1786474695,
      1786474755,
      1786474815,
      1786474875,
      1786474935,
      1786474995,
      1786475055,
      1786475116,
      1786475176,
      1786475236,
      1786475296,
      1786475356,
      1786475416,
      1786475476,
      1786475536,
      1786475596,
      1786475656,
      1786475728,
      1786475788,
      1786475849,
      1786475909,
      1786475969,
      1786476029,
      1786476089,
      1786476149,
      1786476178,
      1786476209,
      1786476238,
      1786476269,
      1786476298,
      1786476329,
      1786476358,
      1786476389,
      1786476418,
      1786476449,
      1786476479,
      1786476509,
      1786476538,
      1786476570,
      1786476598,
      1786476630,
      1786476658,
      1786476690,
      1786476719,
      1786476750,
      1786476779,
      1786476810,
      1786476839,
      1786476882,
      1786476899,
      1786476959,
      1786477002,
      1786477019,
      1786477062,
      1786477080,
      1786477122,
      1786477139,
      1786477182,
      1786477199,
      1786477242,
      1786477302,
      1786477319,
      1786477363,
      1786477381,
      1786477440,
      1786477483,
      1786477500,
      1786477543,
      1786477620,
      1786477680,
      1786477687,
      1786477747,
      1786477860,
      1786477920,
      1786477980,
      1786478040,
      1786478100,
      1786478161,
      1786478221,
      1786478281,
      1786478342,
      1786478401,
      1786478521,
      1786478581,
      1786478641,
      1786478701,
      1786478761,
      1786478798,
      1786478823,
      1786478858,
      1786478883,
      1786478918,
      1786478943,
      1786478979,
      1786479039,
      1786479063,
      1786479099,
      1786479123,
      1786479159,
      1786479184,
      1786479219,
      1786479244,
      1786479279,
      1786479304,
      1786479339,
      1786479364,
      1786479399,
      1786479424,
      1786479459,
      1786479484,
      1786479519,
      1786479544,
      1786479579,
      1786479640,
      1786479664,
      1786479700,
      1786479724,
      1786479760,
      1786479784,
      1786479820,
      1786479845,
      1786479880,
      1786479905,
      1786479940,
      1786479962,
      1786480000,
      1786480022,
      1786480060,
      1786480085,
      1786480120,
      1786480180,
      1786480240,
      1786480301,
      1786480318,
      1786480361,
      1786480378,
      1786480421,
      1786480438,
      1786480481,
      1786480499,
      1786480541,
      1786480559,
      1786480601,
      1786480619,
      1786480661,
      1786480679,
      1786480721,
      1786480739,
      1786480799,
      1786480841,
      1786480859,
      1786480902,
      1786480919,
      1786480962,
      1786480979,
      1786481022,
      1786481039,
      1786481082,
      1786481099,
      1786481142,
      1786481159,
      1786481220,
      1786481262,
      1786481280,
      1786481340,
      1786481400,
      1786481442,
      1786481460,
      1786481502,
      1786481520,
      1786481563,
      1786481580,
      1786481640,
      1786481700,
      1786481743,
      1786481760,
      1786481803,
      1786481820,
      1786481863,
      1786481880,
      1786481923,
      1786481941,
      1786482001,
      1786482043,
      1786482061,
      1786482103,
      1786482115,
      1786482121,
      1786482175,
      1786482181,
      1786482241,
      1786482301,
      1786482356,
      1786482416,
      1786482476,
      1786482536,
      1786482596,
      1786482656,
      1786482662,
      1786482722,
      1786482776,
      1786482782,
      1786482836,
      1786482842,
      1786482902,
      1786482951,
      1786482962,
      1786483011,
      1786483022,
      1786483071,
      1786483082,
      1786483131,
      1786483137,
      1786483197,
      1786483257,
      1786483322,
      1786483371,
      1786483383,
      1786483443,
      1786483497,
      1786483515,
      1786483551,
      1786483575,
      1786483612,
      1786483635,
      1786483672,
      1786483695,
      1786483732,
      1786483755,
      1786483792,
      1786483815,
      1786483858,
      1786483875,
      1786483918,
      1786483935,
      1786483978,
      1786484038,
      1786484098,
      1786484158,
      1786484218,
      1786484278,
      1786484338,
      1786484398,
      1786484458,
      1786484518,
      1786484579,
      1786484639,
      1786484699,
      1786484759,
      1786484819,
      1786484879,
      1786484939,
      1786484999,
      1786485059,
      1786485074,
      1786485119,
      1786485134,
      1786485179,
      1786485194,
      1786485239,
      1786485254,
      1786485300,
      1786485360,
      1786485374,
      1786485420,
      1786485434,
      1786485494,
      1786485504,
      1786485564,
      1786485624,
      1786485674,
      1786485684,
      1786485744,
      1786485794,
      1786485804,
      1786485855,
      1786485864,
      1786485984,
      1786486035,
      1786486045,
      1786486095,
      1786486105,
      1786486155,
      1786486165,
      1786486215,
      1786486225,
      1786486275,
      1786486285,
      1786486335,
      1786486345,
      1786486395,
      1786486405,
      1786486455,
      1786486515,
      1786486575,
      1786486636,
      1786486696,
      1786486756,
      1786486816,
      1786486876,
      1786486936,
      1786486996,
      1786487056,
      1786487176,
      1786487236,
      1786487296,
      1786487357,
      1786487403,
      1786487417,
      1786487477,
      1786487537,
      1786487597,
      1786487649,
      1786487709,
      1786487777,
      1786487829,
      1786487837,
      1786487955,
      1786488017,
      1786488070,
      1786488078,
      1786488138,
      1786488198,
      1786488258,
      1786488318,
      1786488378,
      1786488438,
      1786488498,
      1786488558,
      1786488610
    ],
    "wof:geomhash": "7f74c9eba10442983c3f8baa7d836949",
    "wof:id": 2047926251,
    "wof:repo": "sfomuseum-data-flights-2026-08"
  },
  "bbox": [
    -122.35,
    33.60944444444445,
    -84.45,
    38.43222222222222
  ],
  "geometry": {"type":"LineString","coordinates":[[-84.45,33.63333333333333],[-84.51666666666667,33.63333333333333],[-84.5675,33.64194444444444],[-84.61666666666666,33.65],[-84.7,33.65],[-84.74583333333334,33.661944444444444],[-84.84027777777777,33.669444444444444],[-84.94277777777778,33.651666666666664],[-85.05194444444444,33.62916666666667],[-85.16277777777778,33.61333333333334],[-85.27805555555555,33.60944444444445],[-85.38611111111112,33.63111111111111],[-85.50222222222222,33.681666666666665],[-85.6086111111111,33.717777777777776],[-85.8586111111111,33.796388888888885],[-86.01083333333334,33.84444444444445],[-86.13972222222223,33.885],[-86.26777777777778,33.925],[-86.4,33.96611111111111],[-86.53777777777778,34.00888888888889],[-86.64722222222223,34.04277777777778],[-86.81916666666666,34.095555555555556],[-86.96000000000001,34.138888888888886],[-87.07333333333332,34.17361111111111],[-87.24583333333334,34.225833333333334],[-87.36027777777777,34.26027777777778],[-87.50416666666666,34.30361111111111],[-87.65361111111112,34.34805555555556],[-87.79888888888888,34.391666666666666],[-87.94611111111111,34.434999999999995],[-88.09055555555555,34.47777777777778],[-88.23444444444445,34.51972222222222],[-88.38027777777778,34.56222222222222],[-88.52694444444444,34.60472222222222],[-88.66333333333334,34.64416666666666],[-88.80944444444444,34.68611111111111],[-88.9563888888889,34.72777777777778],[-89.10138888888888,34.76916666666666],[-89.27694444444444,34.81861111111112],[-89.42222222222223,34.859722222222224],[-89.56916666666666,34.900555555555556],[-89.71222222222222,34.940555555555555],[-89.85499999999999,34.980000000000004],[-89.99944444444445,35.01722222222222],[-90.15138888888889,35.03861111111111],[-90.30499999999999,35.059999999999995],[-90.45777777777778,35.08083333333334],[-90.61055555555555,35.10166666666667],[-90.76611111111112,35.1225],[-90.95138888888889,35.14722222222222],[-91.10694444444444,35.16777777777777],[-91.26388888888889,35.18833333333333],[-91.41888888888889,35.20805555555556],[-91.57722222222222,35.22833333333333],[-91.73083333333334,35.24777777777778],[-91.8863888888889,35.26722222222222],[-91.94722222222222,35.27305555555555],[-92.04083333333332,35.28611111111111],[-92.10138888888888,35.29222222222222],[-92.19416666666667,35.30555555555555],[-92.25611111111111,35.3125],[-92.34916666666666,35.32416666666667],[-92.4113888888889,35.33027777777778],[-92.50666666666666,35.3425],[-92.565,35.350833333333334],[-92.66166666666668,35.36083333333333],[-92.71972222222223,35.367222222222225],[-92.81555555555555,35.37861111111111],[-92.88194444444444,35.38638888888889],[-92.97166666666666,35.39666666666667],[-93.04333333333334,35.405],[-93.14055555555557,35.41611111111111],[-93.2038888888889,35.42305555555555],[-93.29472222222222,35.43333333333333],[-93.3586111111111,35.440555555555555],[-93.44916666666667,35.450833333333335],[-93.51055555555556,35.4575],[-93.60333333333332,35.4675],[-93.66611111111112,35.47416666666667],[-93.75916666666667,35.48444444444444],[-93.82305555555556,35.49138888888889],[-93.98083333333334,35.50805555555556],[-94.10166666666666,35.524166666666666],[-94.135,35.528888888888886],[-94.2575,35.54611111111111],[-94.28694444444444,35.55],[-94.41166666666668,35.56666666666667],[-94.44388888888889,35.571111111111115],[-94.56861111111111,35.58722222222222],[-94.60416666666666,35.591944444444444],[-94.72305555555556,35.6075],[-94.8786111111111,35.62777777777778],[-94.915,35.6325],[-95.03305555555555,35.6475],[-95.06388888888888,35.651666666666664],[-95.22472222222223,35.67222222222222],[-95.34305555555555,35.68722222222222],[-95.37972222222221,35.69166666666666],[-95.49694444444445,35.70611111111111],[-95.69388888888889,35.730555555555554],[-95.84888888888888,35.74916666666667],[-95.87333333333332,35.75222222222222],[-96.03,35.77111111111111],[-96.31944444444444,35.805277777777775],[-96.47444444444444,35.82333333333334],[-96.6375,35.841944444444444],[-96.79472222222222,35.859722222222224],[-96.9525,35.8775],[-97.1111111111111,35.894999999999996],[-97.27055555555556,35.9125],[-97.42777777777778,35.92944444444444],[-97.58805555555556,35.94638888888888],[-97.74861111111112,35.96333333333334],[-98.09444444444443,35.99888888888889],[-98.25583333333333,36.015277777777776],[-98.41444444444446,36.03111111111111],[-98.57583333333334,36.04694444444444],[-98.74083333333333,36.06305555555555],[-98.81388888888888,36.07],[-98.87388888888889,36.07555555555556],[-98.99,36.086666666666666],[-99.03444444444445,36.090833333333336],[-99.15055555555556,36.10138888888889],[-99.19777777777779,36.10583333333334],[-99.31333333333333,36.11638888888889],[-99.47333333333333,36.130833333333335],[-99.53805555555556,36.13666666666666],[-99.63611111111112,36.14527777777778],[-99.70166666666667,36.151111111111106],[-99.80527777777777,36.16],[-99.86416666666666,36.165277777777774],[-99.96722222222222,36.174166666666665],[-100.02833333333334,36.17944444444444],[-100.12944444444443,36.187777777777775],[-100.19277777777778,36.19305555555555],[-100.29388888888889,36.20166666666667],[-100.35499999999999,36.20666666666667],[-100.45583333333333,36.215],[-100.51694444444445,36.22],[-100.61527777777778,36.22777777777778],[-100.67833333333334,36.23277777777778],[-100.78055555555555,36.240833333333335],[-100.83749999999999,36.24527777777778],[-100.94083333333333,36.25333333333333],[-101.10555555555555,36.26611111111111],[-101.1613888888889,36.27027777777778],[-101.26527777777778,36.278055555555554],[-101.32111111111111,36.282222222222224],[-101.42055555555557,36.28944444444444],[-101.4825,36.29416666666666],[-101.57916666666667,36.30083333333333],[-101.64250000000001,36.305277777777775],[-101.73944444444444,36.31222222222222],[-101.80333333333333,36.316944444444445],[-101.90111111111112,36.32361111111111],[-101.96166666666667,36.32777777777778],[-102.06222222222222,36.334722222222226],[-102.12333333333332,36.33861111111111],[-102.22416666666666,36.345555555555556],[-102.285,36.349444444444444],[-102.38777777777779,36.35611111111111],[-102.54944444444445,36.36638888888889],[-102.71194444444444,36.376666666666665],[-102.87666666666667,36.386944444444445],[-102.91833333333334,36.38944444444444],[-103.05305555555556,36.3975],[-103.085,36.39944444444444],[-103.21444444444445,36.40694444444444],[-103.2475,36.40888888888889],[-103.3761111111111,36.41638888888889],[-103.41083333333334,36.41833333333333],[-103.53861111111111,36.425555555555555],[-103.57333333333332,36.42722222222222],[-103.7,36.43416666666666],[-103.74,36.436388888888885],[-103.865,36.44305555555555],[-103.90527777777778,36.44499999999999],[-104.02833333333334,36.450833333333335],[-104.07,36.448611111111106],[-104.23194444444445,36.44027777777777],[-104.35416666666666,36.43416666666666],[-104.39527777777778,36.43194444444444],[-104.51611111111112,36.42611111111111],[-104.55944444444444,36.4225],[-104.67555555555556,36.410555555555554],[-104.71916666666667,36.40611111111111],[-104.83666666666666,36.39388888888889],[-104.88083333333333,36.38916666666667],[-104.99583333333334,36.3775],[-105.04805555555555,36.37222222222222],[-105.1575,36.36138888888889],[-105.20916666666668,36.35666666666667],[-105.36972222222222,36.34444444444445],[-105.47916666666667,36.34027777777778],[-105.54777777777778,36.33777777777778],[-105.70166666666667,36.33444444444444],[-105.86694444444444,36.331388888888895],[-105.98194444444445,36.328611111111115],[-106.03138888888888,36.327222222222225],[-106.1463888888889,36.324444444444445],[-106.19833333333334,36.323055555555555],[-106.30194444444444,36.321111111111115],[-106.36611111111111,36.31805555555556],[-106.51833333333333,36.305277777777775],[-106.66972222222223,36.293055555555554],[-106.79916666666666,36.275],[-106.8325,36.269999999999996],[-106.96166666666667,36.25055555555556],[-106.9925,36.24611111111111],[-107.12583333333333,36.24111111111111],[-107.15444444444445,36.24916666666667],[-107.26527777777778,36.30305555555555],[-107.29472222222222,36.31916666666667],[-107.42916666666667,36.39277777777778],[-107.5363888888889,36.450833333333335],[-107.56527777777778,36.46611111111111],[-107.67305555555556,36.52333333333333],[-107.69944444444445,36.53611111111111],[-107.70277777777778,36.53916666666667],[-107.83749999999999,36.60861111111111],[-107.83777777777777,36.61055555555556],[-107.97583333333334,36.683611111111105],[-108.11861111111111,36.75111111111111],[-108.27222222222223,36.79],[-108.43333333333334,36.8275],[-108.59083333333332,36.86555555555556],[-108.74861111111112,36.903888888888886],[-108.9063888888889,36.94138888888889],[-109.06555555555555,36.978611111111114],[-109.08666666666666,36.985],[-109.24111111111111,37.02111111111111],[-109.37638888888888,37.05166666666666],[-109.39555555555556,37.05694444444444],[-109.53222222222222,37.08777777777778],[-109.55138888888888,37.09277777777778],[-109.70666666666666,37.12833333333333],[-109.83444444444444,37.15861111111111],[-109.86333333333333,37.16416666666667],[-109.99055555555556,37.19361111111111],[-110.02027777777778,37.19972222222222],[-110.1463888888889,37.228611111111114],[-110.17583333333334,37.234722222222224],[-110.30222222222221,37.26361111111111],[-110.30888888888889,37.26416666666667],[-110.46638888888889,37.299166666666665],[-110.62138888888889,37.333333333333336],[-110.80694444444444,37.37388888888889],[-110.92027777777778,37.39861111111111],[-110.93222222222222,37.401111111111106],[-111.11777777777777,37.441111111111105],[-111.24416666666667,37.468333333333334],[-111.30333333333333,37.48083333333334],[-111.38777777777779,37.49888888888889],[-111.46166666666667,37.51444444444444],[-111.54277777777777,37.53138888888889],[-111.62055555555555,37.54805555555556],[-111.70027777777779,37.56472222222222],[-111.77694444444444,37.58083333333334],[-111.85833333333333,37.597500000000004],[-111.92027777777778,37.61027777777778],[-112.00861111111111,37.62861111111111],[-112.0775,37.64277777777778],[-112.19722222222222,37.6675],[-112.24722222222222,37.676944444444445],[-112.35499999999999,37.68277777777777],[-112.40611111111112,37.68555555555555],[-112.51638888888888,37.68805555555555],[-112.67694444444444,37.69083333333333],[-112.83722222222222,37.69027777777777],[-112.9961111111111,37.71027777777778],[-113.14527777777778,37.76111111111111],[-113.29222222222222,37.81944444444445],[-113.43777777777778,37.8775],[-113.58638888888889,37.93611111111111],[-113.73444444444445,37.99444444444445],[-113.88111111111111,38.051944444444445],[-114.03,38.10944444444445],[-114.18222222222222,38.16861111111111],[-114.33055555555555,38.22555555555556],[-114.49055555555556,38.243611111111115],[-114.65333333333334,38.23388888888889],[-114.81333333333333,38.223333333333336],[-114.97222222222223,38.21277777777778],[-115.13055555555555,38.20194444444445],[-115.28833333333333,38.191111111111105],[-115.32388888888889,38.189166666666665],[-115.44805555555556,38.18],[-115.48027777777779,38.177499999999995],[-115.60527777777777,38.16861111111111],[-115.6388888888889,38.16638888888889],[-115.76194444444444,38.15694444444444],[-115.79444444444444,38.154444444444444],[-115.91611111111112,38.14555555555555],[-116.07472222222222,38.13361111111111],[-116.10777777777777,38.130833333333335],[-116.23277777777778,38.12111111111111],[-116.26555555555555,38.118611111111115],[-116.42333333333333,38.10638888888889],[-116.45416666666667,38.10388888888889],[-116.61583333333333,38.105555555555554],[-116.77194444444444,38.156666666666666],[-116.89722222222223,38.19833333333333],[-116.92777777777778,38.20861111111111],[-117.08277777777778,38.26083333333333],[-117.22722222222222,38.31055555555555],[-117.23666666666666,38.31388888888888],[-117.38416666666667,38.36472222222223],[-117.39055555555557,38.36694444444444],[-117.70055555555555,38.4225],[-117.83,38.425555555555555],[-117.86194444444443,38.42666666666666],[-117.9888888888889,38.43111111111111],[-118.01888888888888,38.43222222222222],[-118.15305555555557,38.391666666666666],[-118.15444444444445,38.390277777777776],[-118.23444444444445,38.299166666666665],[-118.23583333333333,38.2975],[-118.315,38.20777777777778],[-118.315,38.20777777777778],[-118.39583333333334,38.11638888888889],[-118.39583333333334,38.11638888888889],[-118.46194444444444,38.04111111111111],[-118.47666666666667,38.02444444444444],[-118.5525,37.95388888888889],[-118.69027777777778,37.9125],[-118.8386111111111,37.886944444444445],[-119.00611111111111,37.86805555555556],[-119.15666666666667,37.850833333333334],[-119.30833333333334,37.83305555555556],[-119.45722222222223,37.815555555555555],[-119.60833333333333,37.7975],[-119.75777777777778,37.779444444444444],[-119.9063888888889,37.76138888888889],[-120.05555555555556,37.74305555555556],[-120.35805555555555,37.705000000000005],[-120.5075,37.68722222222222],[-120.65222222222222,37.67027777777778],[-120.78944444444444,37.653888888888886],[-120.9,37.63333333333333],[-120.9238888888889,37.63777777777778],[-121.04888888888888,37.62166666666667],[-121.16333333333334,37.60611111111111],[-121.2713888888889,37.59166666666667],[-121.36666666666666,37.583333333333336],[-121.46666666666667,37.56666666666667],[-121.5586111111111,37.558611111111105],[-121.63333333333334,37.55],[-121.64333333333335,37.54666666666667],[-121.76666666666667,37.63333333333333],[-121.83916666666666,37.63305555555556],[-121.83333333333333,37.56666666666667],[-121.83,37.5675],[-121.81916666666666,37.50416666666667],[-121.88472222222222,37.48111111111111],[-121.965,37.47666666666667],[-122.0461111111111,37.48222222222223],[-122.11361111111111,37.51111111111111],[-122.18444444444445,37.54083333333333],[-122.24694444444445,37.566944444444445],[-122.29833333333333,37.58888888888889],[-122.35,37.6]]}
}
