{
  "id": 2032120879,
  "type": "Feature",
  "properties": {
    "geom:area": 0,
    "geom:bbox": "-122.383333,37.616667,-110.300556,43.820556",
    "geom:latitude": 40.895637326689084,
    "geom:longitude": -116.17218579039529,
    "src:alt_label": "swim-path",
    "src:geom": "swim",
    "swim:altitudes": [
      "006",
      "028",
      "041",
      "057",
      "087",
      "111",
      "125",
      "148",
      "172",
      "213",
      "229",
      "282",
      "294",
      "305",
      "308",
      "321",
      "330",
      "330",
      "330",
      "330",
      "330",
      "330",
      "333",
      "341",
      "342",
      "350C",
      "350C",
      "350C",
      "350C",
      "350C",
      "350C",
      "350C",
      "350C",
      "350C",
      "350C",
      "350C",
      "350C",
      "349C",
      "350C",
      "350C",
      "350C",
      "350C",
      "350C",
      "350C",
      "350C",
      "350C",
      "350C",
      "350C",
      "350C",
      "350C",
      "350C",
      "350C",
      "350C",
      "350C",
      "350C",
      "350C",
      "350C",
      "350C",
      "350C",
      "350C",
      "350C",
      "350C",
      "350C",
      "350C",
      "350C",
      "350C",
      "351C",
      "351C",
      "350C",
      "350C",
      "350C",
      "350C",
      "350C",
      "350C",
      "350C",
      "350C",
      "351C",
      "350C",
      "347",
      "338",
      "328",
      "318",
      "299",
      "291",
      "281",
      "272",
      "251",
      "222",
      "197",
      "173",
      "156",
      "139",
      "136",
      "128",
      "126",
      "107",
      "089",
      "078",
      "070"
    ],
    "swim:geom": "path",
    "swim:speeds": [
      139,
      162,
      197,
      283,
      297,
      317,
      372,
      380,
      386,
      410,
      417,
      457,
      466,
      467,
      467,
      467,
      466,
      463,
      462,
      463,
      462,
      461,
      459,
      458,
      459,
      460,
      463,
      462,
      463,
      464,
      467,
      466,
      464,
      464,
      463,
      462,
      461,
      460,
      460,
      459,
      458,
      458,
      458,
      458,
      458,
      458,
      457,
      457,
      457,
      457,
      458,
      458,
      458,
      458,
      458,
      458,
      457,
      458,
      458,
      459,
      458,
      457,
      458,
      459,
      459,
      460,
      461,
      462,
      461,
      459,
      456,
      455,
      455,
      455,
      457,
      458,
      459,
      458,
      458,
      458,
      463,
      465,
      474,
      476,
      477,
      478,
      460,
      448,
      435,
      421,
      396,
      372,
      292,
      248,
      218,
      213,
      207,
      200,
      181
    ],
    "swim:timestamps": [
      1785978503,
      1785978580,
      1785978641,
      1785978701,
      1785978761,
      1785978821,
      1785978881,
      1785978941,
      1785979001,
      1785979121,
      1785979181,
      1785979421,
      1785979482,
      1785979534,
      1785979542,
      1785979594,
      1785979654,
      1785979714,
      1785979774,
      1785979782,
      1785979894,
      1785979902,
      1785979962,
      1785980014,
      1785980022,
      1785980074,
      1785980082,
      1785980195,
      1785980202,
      1785980263,
      1785980315,
      1785980375,
      1785980383,
      1785980435,
      1785980443,
      1785980495,
      1785980555,
      1785980563,
      1785980615,
      1785980623,
      1785980683,
      1785980735,
      1785980743,
      1785980795,
      1785980803,
      1785980863,
      1785980923,
      1785980976,
      1785980983,
      1785981043,
      1785981096,
      1785981104,
      1785981156,
      1785981224,
      1785981276,
      1785981336,
      1785981396,
      1785981456,
      1785981516,
      1785981637,
      1785981757,
      1785981817,
      1785981877,
      1785981937,
      1785981997,
      1785982117,
      1785982177,
      1785982237,
      1785982358,
      1785982418,
      1785982478,
      1785982538,
      1785982598,
      1785982658,
      1785982718,
      1785982778,
      1785982838,
      1785982958,
      1785983018,
      1785983079,
      1785983139,
      1785983199,
      1785983319,
      1785983379,
      1785983439,
      1785983499,
      1785983619,
      1785983679,
      1785983739,
      1785983800,
      1785983860,
      1785983980,
      1785984040,
      1785984100,
      1785984160,
      1785984280,
      1785984400,
      1785984460,
      1785984521
    ],
    "wof:geomhash": "c497a4e107142612484f8f6a01d79d4f",
    "wof:id": 2032120879,
    "wof:repo": "sfomuseum-data-flights-2026-08"
  },
  "bbox": [
    -122.38333333333334,
    37.61666666666667,
    -110.30055555555555,
    43.82055555555556
  ],
  "geometry": {"type":"LineString","coordinates":[[-122.38333333333334,37.61666666666667],[-122.36833333333333,37.655],[-122.31222222222222,37.67583333333333],[-122.23222222222222,37.71027777777778],[-122.16555555555556,37.771388888888886],[-122.10222222222221,37.8425],[-122.02805555555555,37.92361111111111],[-121.95083333333334,38.009166666666665],[-121.87166666666666,38.09583333333334],[-121.69333333333334,38.290277777777774],[-121.60583333333332,38.385555555555555],[-121.14361111111111,38.69277777777778],[-121.01138888888889,38.7725],[-120.90333333333334,38.83694444444445],[-120.87916666666666,38.85194444444445],[-120.77111111111111,38.91416666666667],[-120.64,38.993611111111115],[-120.50888888888889,39.07],[-120.37805555555555,39.14972222222222],[-120.35249999999999,39.16583333333333],[-120.11416666666666,39.306666666666665],[-120.08749999999999,39.32166666666667],[-119.9563888888889,39.39833333333333],[-119.85249999999999,39.45861111111111],[-119.82527777777777,39.474444444444444],[-119.71861111111112,39.536944444444444],[-119.68972222222223,39.55305555555555],[-119.45027777777779,39.69138888888889],[-119.42083333333333,39.70805555555556],[-119.28527777777778,39.785555555555554],[-119.17916666666667,39.846111111111114],[-119.04194444444444,39.92055555555555],[-119.01166666666667,39.93583333333333],[-118.89944444444446,39.99138888888889],[-118.86833333333333,40.004444444444445],[-118.75416666666666,40.05333333333333],[-118.60833333333333,40.11527777777778],[-118.57722222222222,40.12833333333333],[-118.4625,40.176944444444445],[-118.43027777777779,40.190555555555555],[-118.28388888888888,40.25222222222222],[-118.17083333333333,40.29944444444444],[-118.1375,40.31333333333333],[-118.02166666666666,40.35416666666667],[-117.99055555555556,40.365],[-117.83833333333332,40.41722222222222],[-117.68444444444445,40.46944444444445],[-117.56361111111111,40.51027777777778],[-117.53194444444445,40.520833333333336],[-117.37777777777777,40.572500000000005],[-117.25666666666666,40.613055555555555],[-117.22444444444444,40.62388888888889],[-117.10305555555556,40.66416666666667],[-116.91305555555556,40.72694444444445],[-116.7911111111111,40.76722222222222],[-116.63583333333334,40.81777777777778],[-116.48277777777778,40.867777777777775],[-116.32694444444444,40.918055555555554],[-116.17055555555557,40.968611111111116],[-115.86027777777777,41.0675],[-115.55,41.165277777777774],[-115.39472222222223,41.21361111111111],[-115.23694444444445,41.26277777777778],[-115.08083333333333,41.31111111111111],[-114.92444444444445,41.35888888888889],[-114.60083333333333,41.4575],[-114.4413888888889,41.50555555555555],[-114.28027777777778,41.553888888888885],[-113.96333333333334,41.64805555555556],[-113.80944444444444,41.69944444444444],[-113.66583333333334,41.76638888888889],[-113.52333333333333,41.83388888888889],[-113.38083333333333,41.90083333333333],[-113.235,41.969166666666666],[-113.09027777777777,42.03666666666666],[-112.94277777777778,42.10527777777778],[-112.79777777777778,42.17222222222222],[-112.50555555555556,42.30611111111111],[-112.35833333333333,42.37305555555555],[-112.21111111111111,42.439722222222215],[-112.06222222222222,42.50666666666667],[-111.91027777777778,42.575],[-111.60444444444444,42.711111111111116],[-111.47055555555556,42.77027777777778],[-111.31694444444445,42.83777777777778],[-111.16027777777778,42.907777777777774],[-110.92972222222222,43.1],[-110.80611111111111,43.21277777777778],[-110.70111111111112,43.30833333333333],[-110.60111111111111,43.39888888888889],[-110.50777777777778,43.483333333333334],[-110.32333333333332,43.64861111111111],[-110.30055555555555,43.72888888888889],[-110.32472222222222,43.797777777777775],[-110.38722222222223,43.82055555555556],[-110.55166666666666,43.80916666666666],[-110.67111111111112,43.737500000000004],[-110.69861111111112,43.68722222222222],[-110.71972222222223,43.644999999999996]]}
}
