{
  "id": 2032088851,
  "type": "Feature",
  "properties": {
    "geom:area": 0,
    "geom:bbox": "-122.405270,37.624690,-121.247830,37.984990",
    "geom:latitude": 37.878188274458026,
    "geom:longitude": -121.86274464498347,
    "src:alt_label": "swim-takeoff",
    "src:geom": "swim",
    "swim:elevations": [
      122,
      347,
      487,
      554,
      627,
      817,
      1214,
      1420,
      1719,
      1785,
      2050,
      2274,
      2399,
      2517,
      2984,
      3154,
      3309,
      3505,
      3559,
      3570,
      3600,
      3723,
      3966,
      4028,
      4218,
      4428,
      4502,
      4686
    ],
    "swim:geom": "takeoff",
    "swim:timestamps": [
      1785744721,
      1785744741,
      1785744769,
      1785744784,
      1785744805,
      1785744826,
      1785744862,
      1785744883,
      1785744912,
      1785744918,
      1785744945,
      1785744969,
      1785744981,
      1785744993,
      1785745042,
      1785745062,
      1785745098,
      1785745168,
      1785745192,
      1785745196,
      1785745213,
      1785745253,
      1785745288,
      1785745301,
      1785745330,
      1785745373,
      1785745382,
      1785745410
    ],
    "wof:geomhash": "98319a6a0909d640006e25db5bc5d175",
    "wof:id": 2032088851,
    "wof:repo": "sfomuseum-data-flights-2026-08"
  },
  "bbox": [
    -122.40527,
    37.62469,
    -121.24783,
    37.98499
  ],
  "geometry": {"type":"LineString","coordinates":[[-122.38928,37.62469],[-122.40527,37.63441],[-122.40049,37.65636],[-122.38416,37.66412],[-122.35711,37.6712],[-122.32692,37.67974],[-122.27685,37.69646],[-122.24574,37.70773],[-122.21175,37.73286],[-122.20473,37.73868],[-122.17389,37.76436],[-122.1462,37.78701],[-122.13175,37.79876],[-122.11761,37.81026],[-122.05738,37.85802],[-122.03145,37.87793],[-121.9831,37.91564],[-121.84974,37.9572],[-121.79344,37.95962],[-121.78385,37.96007],[-121.74273,37.96207],[-121.64463,37.96675],[-121.55754,37.97092],[-121.52719,37.97238],[-121.45148,37.97581],[-121.34385,37.98065],[-121.31846,37.98178],[-121.24783,37.98499]]}
}
