{
  "id": 2048055217,
  "type": "Feature",
  "properties": {
    "date:cessation_lower": "1970-01-01",
    "date:cessation_upper": "1970-01-01",
    "date:inception_lower": "2026-08-18",
    "date:inception_upper": "2026-08-18",
    "edtf:cessation": "1970-01-01T00:00:00Z",
    "edtf:inception": "2026-08-18T12:11:57-07:00",
    "flysfo:actual_timestamp": -1,
    "flysfo:airline": "UA",
    "flysfo:base_airline": "",
    "flysfo:base_flight_number": "3285",
    "flysfo:date": "2026-08-18",
    "flysfo:estimated_timestamp": 1787103420,
    "flysfo:event": "D",
    "flysfo:flight_number": "UA2846",
    "flysfo:gate": "F19",
    "flysfo:journey": "SFO-BUR",
    "flysfo:scheduled_timestamp": 1787103900,
    "flysfo:timestamp": 1787103900,
    "geom:area": 0,
    "geom:bbox": "-122.370943,34.196704,-118.353322,37.617990",
    "geom:latitude": 35.907347,
    "geom:longitude": -120.3621325,
    "iata:airline": "UA",
    "iata:base_airline": "",
    "icao:aircraft": "B738",
    "icao:airline": "UAL",
    "icao:base_airline": "ACA",
    "lbl:latitude": 37.620929,
    "lbl:longitude": -122.390272,
    "sfomuseum:aircraft_id": 1159289871,
    "sfomuseum:airline_id": 1159285413,
    "sfomuseum:arrival_id": 1746879083,
    "sfomuseum:base_flight_id": "20260818-D-ACA-3285",
    "sfomuseum:departure_id": 102527513,
    "sfomuseum:flight_id": "20260818-D-UAL-2846",
    "sfomuseum:flight_number": [
      "UAL2846",
      "UA2846"
    ],
    "sfomuseum:placetype": "flight",
    "src:geom": "flysfo",
    "src:geom_alt": [
      "swim-takeoff"
    ],
    "swim:tail_number": "N76532",
    "wof:belongsto": [
      1947304067,
      102527513,
      1947304451,
      102191575,
      85633793,
      102087579,
      85922583,
      554784711,
      85688637,
      1947304487,
      1947304447,
      102085387
    ],
    "wof:country": "US",
    "wof:created": 1787156243,
    "wof:geomhash": "5b5841a3ebf3c57d9843115edfb8ee6b",
    "wof:hierarchy": [
      {
        "building_id": 1947304067,
        "campus_id": 102527513,
        "concourse_id": 1947304451,
        "continent_id": 102191575,
        "country_id": 85633793,
        "county_id": 102087579,
        "custom_id": 2048055217,
        "flight_id": 2048055217,
        "locality_id": 85922583,
        "postalcode_id": 554784711,
        "region_id": 85688637,
        "venue_id": 1947304487,
        "wing_id": 1947304447
      },
      {
        "building_id": 1947304067,
        "campus_id": 102527513,
        "concourse_id": 1947304451,
        "continent_id": 102191575,
        "country_id": 85633793,
        "county_id": 102085387,
        "custom_id": 2048055217,
        "flight_id": 2048055217,
        "region_id": 85688637,
        "venue_id": 1947304487,
        "wing_id": 1947304447
      }
    ],
    "wof:id": 2048055217,
    "wof:involves": [
      1746879083,
      102527513,
      1159285413,
      1947304487,
      1159283597,
      1159289871
    ],
    "wof:lastmodified": 1787156390,
    "wof:name": "UA2846 (SFO-BUR)",
    "wof:parent_id": 1947304487,
    "wof:placetype": "custom",
    "wof:placetype_alt": [
      "flight"
    ],
    "wof:repo": "sfomuseum-data-flights-2026-08",
    "wof:superseded_by": [],
    "wof:supersedes": []
  },
  "bbox": [
    -122.370943,
    34.196704,
    -118.353322,
    37.61799
  ],
  "geometry": {"type":"MultiPoint","coordinates":[[-122.370943,37.61799],[-118.353322,34.196704]]}
}
