{
  "id": 2032060911,
  "type": "Feature",
  "properties": {
    "geom:area": 0,
    "geom:bbox": "-122.751111,37.628611,-122.227778,45.573056",
    "geom:latitude": 41.73691655129948,
    "geom:longitude": -122.51700942963735,
    "src:alt_label": "swim-path",
    "src:geom": "swim",
    "swim:altitudes": [
      "008",
      "021",
      "030",
      "052",
      "072",
      "093",
      "108",
      "121",
      "141",
      "162",
      "180",
      "201",
      "218",
      "231",
      "273",
      "285",
      "298",
      "311",
      "323",
      "335",
      "350",
      "360C",
      "360C",
      "360C",
      "360C",
      "360C",
      "360C",
      "360C",
      "360C",
      "360C",
      "360C",
      "360C",
      "360C",
      "360C",
      "360C",
      "360C",
      "360C",
      "360",
      "360",
      "354",
      "327",
      "263",
      "244",
      "226",
      "207",
      "161",
      "147",
      "141",
      "131",
      "129",
      "122",
      "118",
      "105",
      "094",
      "090",
      "079",
      "077",
      "067",
      "063",
      "061",
      "058",
      "049",
      "046",
      "034",
      "027",
      "025",
      "025",
      "025",
      "017",
      "008",
      "003"
    ],
    "swim:geom": "path",
    "swim:speeds": [
      161,
      210,
      252,
      269,
      281,
      290,
      320,
      365,
      382,
      396,
      396,
      409,
      422,
      435,
      470,
      483,
      489,
      491,
      491,
      491,
      492,
      483,
      481,
      479,
      481,
      485,
      485,
      485,
      484,
      483,
      488,
      491,
      493,
      494,
      495,
      494,
      490,
      484,
      483,
      483,
      485,
      435,
      427,
      427,
      416,
      378,
      351,
      345,
      341,
      324,
      309,
      302,
      300,
      298,
      291,
      294,
      294,
      292,
      288,
      255,
      249,
      247,
      245,
      226,
      202,
      194,
      190,
      186,
      155,
      146,
      148
    ],
    "swim:timestamps": [
      1785623069,
      1785623129,
      1785623189,
      1785623250,
      1785623310,
      1785623370,
      1785623430,
      1785623490,
      1785623550,
      1785623610,
      1785623671,
      1785623731,
      1785623791,
      1785623851,
      1785624031,
      1785624091,
      1785624151,
      1785624211,
      1785624271,
      1785624331,
      1785624392,
      1785624452,
      1785624511,
      1785624632,
      1785624691,
      1785624752,
      1785624872,
      1785624932,
      1785624992,
      1785625112,
      1785625172,
      1785625232,
      1785625292,
      1785625353,
      1785625413,
      1785625473,
      1785625653,
      1785625773,
      1785625893,
      1785625953,
      1785626013,
      1785626193,
      1785626253,
      1785626314,
      1785626374,
      1785626554,
      1785626603,
      1785626627,
      1785626674,
      1785626687,
      1785626734,
      1785626747,
      1785626808,
      1785626854,
      1785626868,
      1785626914,
      1785626928,
      1785626974,
      1785626988,
      1785627034,
      1785627048,
      1785627094,
      1785627108,
      1785627168,
      1785627214,
      1785627228,
      1785627274,
      1785627289,
      1785627349,
      1785627415,
      1785627455
    ],
    "wof:geomhash": "6cebabeda02357369df56818e6a83248",
    "wof:id": 2032060911,
    "wof:repo": "sfomuseum-data-flights-2026-08"
  },
  "bbox": [
    -122.75111111111111,
    37.62861111111111,
    -122.22777777777777,
    45.573055555555555
  ],
  "geometry": {"coordinates":[[-122.39777777777779,37.62861111111111],[-122.37027777777777,37.66583333333333],[-122.31833333333333,37.69444444444444],[-122.31416666666667,37.783055555555556],[-122.3025,37.86027777777778],[-122.29083333333332,37.941111111111105],[-122.27888888888889,38.026666666666664],[-122.26444444444445,38.125],[-122.24916666666667,38.23027777777778],[-122.23361111111112,38.34055555555556],[-122.22777777777777,38.44305555555555],[-122.25138888888888,38.55722222222222],[-122.26305555555555,38.67611111111111],[-122.2761111111111,38.79861111111111],[-122.31694444444445,39.18555555555555],[-122.33111111111111,39.32055555555556],[-122.34916666666666,39.468611111111116],[-122.36166666666666,39.593611111111116],[-122.37638888888888,39.72944444444445],[-122.39194444444445,39.8675],[-122.40944444444445,40.02972222222222],[-122.4213888888889,40.14055555555556],[-122.4363888888889,40.27777777777778],[-122.46583333333334,40.544444444444444],[-122.48083333333334,40.678888888888885],[-122.49583333333334,40.81472222222222],[-122.5261111111111,41.084722222222226],[-122.5411111111111,41.21888888888889],[-122.55583333333333,41.35138888888889],[-122.5825,41.63138888888889],[-122.59138888888889,41.76694444444444],[-122.60027777777778,41.906388888888884],[-122.60944444444443,42.04361111111111],[-122.61861111111111,42.18444444444444],[-122.62777777777777,42.32166666666667],[-122.63694444444445,42.45888888888889],[-122.66305555555556,42.84527777777778],[-122.68138888888889,43.11361111111111],[-122.69888888888889,43.38055555555555],[-122.70833333333334,43.51416666666667],[-122.71833333333333,43.64888888888889],[-122.7461111111111,44.05444444444444],[-122.75111111111111,44.17194444444444],[-122.73972222222223,44.28805555555555],[-122.72805555555556,44.40333333333333],[-122.69694444444445,44.71666666666667],[-122.68861111111111,44.81083333333333],[-122.68527777777778,44.84916666666667],[-122.67750000000001,44.91],[-122.67611111111111,44.94027777777777],[-122.66888888888889,44.996944444444445],[-122.66555555555556,45.026944444444446],[-122.65944444444445,45.11027777777778],[-122.6563888888889,45.17055555555555],[-122.65694444444445,45.19222222222222],[-122.65083333333334,45.25055555555556],[-122.6325,45.2675],[-122.56194444444444,45.30138888888889],[-122.53722222222223,45.31305555555555],[-122.47416666666666,45.34305555555556],[-122.45333333333333,45.3525],[-122.39472222222223,45.38111111111111],[-122.37333333333332,45.390277777777776],[-122.32305555555556,45.44499999999999],[-122.34027777777777,45.48222222222223],[-122.35916666666667,45.49138888888889],[-122.40333333333334,45.50972222222222],[-122.4225,45.5175],[-122.48111111111112,45.54],[-122.53472222222221,45.55972222222222],[-122.56555555555555,45.573055555555555]],"type":"LineString"}
}
