{
  "id": 2047911101,
  "type": "Feature",
  "properties": {
    "geom:area": 0,
    "geom:bbox": "-122.847140,37.426160,-122.078780,38.516080",
    "geom:latitude": 37.819055971875265,
    "geom:longitude": -122.48502791983356,
    "src:alt_label": "swim-approach",
    "src:geom": "swim",
    "swim:elevations": [
      7529,
      7251,
      6985,
      6683,
      6386,
      6249,
      5940,
      5664,
      5450,
      5319,
      4845,
      4631,
      4534,
      4284,
      3923,
      3825,
      3619,
      3471,
      3382,
      3353,
      3353,
      3353,
      3353,
      3153,
      2967,
      2855,
      2622,
      2498,
      2169,
      2033,
      1737,
      1602,
      1583,
      1412,
      1219,
      1219,
      1219,
      1219,
      1124,
      1099,
      891,
      752,
      668,
      455,
      363,
      254,
      56,
      8
    ],
    "swim:geom": "approach",
    "swim:timestamps": [
      1786408286,
      1786408316,
      1786408343,
      1786408377,
      1786408407,
      1786408422,
      1786408457,
      1786408490,
      1786408514,
      1786408532,
      1786408586,
      1786408615,
      1786408627,
      1786408660,
      1786408702,
      1786408712,
      1786408736,
      1786408754,
      1786408791,
      1786408826,
      1786408856,
      1786408883,
      1786408907,
      1786408939,
      1786408961,
      1786408976,
      1786409007,
      1786409024,
      1786409066,
      1786409081,
      1786409119,
      1786409157,
      1786409163,
      1786409196,
      1786409235,
      1786409262,
      1786409301,
      1786409321,
      1786409369,
      1786409372,
      1786409417,
      1786409442,
      1786409462,
      1786409501,
      1786409525,
      1786409552,
      1786409600,
      1786409612
    ],
    "wof:geomhash": "a09f30be46c4d455ef8060dbfb98218f",
    "wof:id": 2047911101,
    "wof:repo": "sfomuseum-data-flights-2026-08"
  },
  "bbox": [
    -122.84714,
    37.42616,
    -122.07878,
    38.51608
  ],
  "geometry": {"type":"LineString","coordinates":[[-122.84714,38.51608],[-122.83238,38.46322],[-122.81931,38.41631],[-122.80375,38.35822],[-122.78941,38.30463],[-122.78239,38.27876],[-122.76615,38.21944],[-122.75081,38.16613],[-122.73923,38.12724],[-122.73077,38.09859],[-122.70631,38.01377],[-122.69368,37.97012],[-122.6885,37.9523],[-122.67156,37.90453],[-122.62429,37.85324],[-122.61166,37.8412],[-122.58168,37.81312],[-122.55942,37.79212],[-122.51662,37.75163],[-122.47747,37.7146],[-122.44502,37.68416],[-122.41666,37.65751],[-122.39368,37.63597],[-122.36473,37.60791],[-122.34985,37.58637],[-122.34272,37.57068],[-122.32632,37.53932],[-122.31609,37.52259],[-122.29033,37.48182],[-122.27414,37.47152],[-122.22515,37.45596],[-122.17785,37.44042],[-122.17111,37.43813],[-122.13558,37.42616],[-122.09362,37.43057],[-122.07878,37.45373],[-122.07879,37.48767],[-122.09404,37.5007],[-122.14042,37.52239],[-122.14342,37.52363],[-122.18878,37.54269],[-122.21337,37.55313],[-122.23344,37.56149],[-122.27123,37.57742],[-122.29097,37.58577],[-122.31248,37.59481],[-122.34972,37.61048],[-122.3591,37.61427]]}
}
