{
  "id": 2047898783,
  "type": "Feature",
  "properties": {
    "geom:area": 0,
    "geom:bbox": "-122.362778,33.918333,-118.439722,37.613611",
    "geom:latitude": 35.56357918248769,
    "geom:longitude": -120.63374818050072,
    "src:alt_label": "swim-path",
    "src:geom": "swim",
    "swim:altitudes": [
      "009",
      "027",
      "046",
      "069",
      "093",
      "109",
      "129",
      "139",
      "154",
      "170",
      "193",
      "204",
      "215",
      "230",
      "240",
      "252",
      "262",
      "269",
      "280",
      "290",
      "300",
      "310",
      "319C",
      "320C",
      "320C",
      "320C",
      "320",
      "320",
      "306",
      "283",
      "262",
      "252",
      "241",
      "229",
      "226",
      "216",
      "206",
      "196",
      "188",
      "176",
      "168",
      "156",
      "139",
      "134",
      "126",
      "120",
      "111",
      "106",
      "097",
      "092",
      "083",
      "079",
      "071",
      "067",
      "060",
      "056",
      "048",
      "045",
      "040",
      "037",
      "034",
      "026",
      "022",
      "018",
      "009",
      "007",
      "60"
    ],
    "swim:geom": "path",
    "swim:speeds": [
      169,
      220,
      260,
      278,
      285,
      318,
      342,
      380,
      400,
      413,
      420,
      422,
      440,
      452,
      454,
      462,
      476,
      481,
      488,
      493,
      494,
      495,
      496,
      498,
      499,
      500,
      499,
      499,
      498,
      485,
      470,
      461,
      453,
      441,
      424,
      408,
      407,
      397,
      397,
      385,
      387,
      375,
      342,
      332,
      313,
      307,
      296,
      299,
      291,
      294,
      278,
      279,
      272,
      274,
      261,
      259,
      244,
      238,
      202,
      200,
      177,
      175,
      179,
      175,
      158,
      160,
      142
    ],
    "swim:timestamps": [
      1786329292,
      1786329352,
      1786329412,
      1786329472,
      1786329532,
      1786329592,
      1786329652,
      1786329712,
      1786329772,
      1786329832,
      1786329896,
      1786329952,
      1786330013,
      1786330076,
      1786330133,
      1786330193,
      1786330257,
      1786330313,
      1786330373,
      1786330437,
      1786330493,
      1786330553,
      1786330617,
      1786330674,
      1786330734,
      1786330794,
      1786330854,
      1786330917,
      1786330977,
      1786331037,
      1786331098,
      1786331121,
      1786331158,
      1786331181,
      1786331218,
      1786331241,
      1786331278,
      1786331301,
      1786331338,
      1786331360,
      1786331398,
      1786331426,
      1786331486,
      1786331518,
      1786331541,
      1786331578,
      1786331607,
      1786331638,
      1786331667,
      1786331698,
      1786331727,
      1786331758,
      1786331788,
      1786331818,
      1786331847,
      1786331878,
      1786331907,
      1786331939,
      1786331967,
      1786331999,
      1786332027,
      1786332087,
      1786332119,
      1786332147,
      1786332207,
      1786332239,
      1786332299
    ],
    "wof:geomhash": "2f49a49ef206709d2bf85412ff2b3be3",
    "wof:id": 2047898783,
    "wof:repo": "sfomuseum-data-flights-2026-08"
  },
  "bbox": [
    -122.36277777777777,
    33.91833333333333,
    -118.43972222222223,
    37.61361111111111
  ],
  "geometry": {"type":"LineString","coordinates":[[-118.43972222222223,33.94611111111111],[-118.50777777777778,33.94138888888889],[-118.58888888888889,33.936388888888885],[-118.68111111111112,33.92861111111111],[-118.77583333333334,33.921388888888885],[-118.87777777777777,33.91833333333333],[-118.97611111111111,33.956944444444446],[-119.06194444444444,34.02916666666667],[-119.15777777777778,34.10916666666667],[-119.25444444444445,34.19138888888889],[-119.37194444444444,34.28777777777778],[-119.45138888888889,34.35722222222223],[-119.55555555555556,34.44472222222222],[-119.68583333333333,34.553888888888885],[-119.77111111111111,34.625],[-119.88138888888888,34.71638888888889],[-120.0175,34.831944444444446],[-120.10277777777777,34.911944444444444],[-120.23083333333334,35.031666666666666],[-120.34888888888888,35.14083333333333],[-120.4525,35.23694444444445],[-120.56416666666667,35.33972222222222],[-120.66805555555555,35.43527777777778],[-120.78361111111111,35.55],[-120.88111111111111,35.651944444444446],[-120.98472222222222,35.76027777777778],[-121.09166666666667,35.87111111111111],[-121.19972222222222,35.98305555555556],[-121.30444444444444,36.09138888888889],[-121.40833333333335,36.198055555555555],[-121.50777777777778,36.300555555555555],[-121.55,36.35],[-121.60444444444444,36.399166666666666],[-121.65,36.45],[-121.69805555555556,36.49444444444445],[-121.73333333333333,36.55],[-121.77555555555556,36.5925],[-121.81666666666666,36.63333333333333],[-121.84583333333333,36.68055555555555],[-121.88333333333334,36.733333333333334],[-121.9038888888889,36.77611111111111],[-121.91666666666667,36.833333333333336],[-121.95,36.93333333333333],[-121.96055555555556,36.97083333333334],[-121.98333333333333,37.016666666666666],[-121.9925,37.05305555555555],[-122.01666666666667,37.1],[-122.02333333333333,37.1325],[-122.05,37.18333333333333],[-122.05361111111111,37.209722222222226],[-122.08333333333333,37.25],[-122.11444444444444,37.2625],[-122.16666666666667,37.28333333333333],[-122.16666666666667,37.31472222222222],[-122.15,37.35],[-122.12888888888888,37.38027777777778],[-122.1,37.416666666666664],[-122.09222222222222,37.44138888888889],[-122.1,37.483333333333334],[-122.11749999999999,37.492222222222225],[-122.15,37.516666666666666],[-122.2,37.55],[-122.22055555555556,37.55361111111111],[-122.25,37.56666666666667],[-122.3,37.583333333333336],[-122.31861111111111,37.594722222222224],[-122.36277777777777,37.61361111111111]]}
}
