{
  "id": 2047956101,
  "type": "Feature",
  "properties": {
    "geom:area": 0,
    "geom:bbox": "-122.755340,37.535510,-122.111230,38.518460",
    "geom:latitude": 37.94468663084343,
    "geom:longitude": -122.47493776581655,
    "src:alt_label": "swim-approach",
    "src:geom": "swim",
    "swim:elevations": [
      8153,
      7999,
      7770,
      7481,
      7015,
      6948,
      6735,
      6483,
      6352,
      5975,
      5881,
      5445,
      5166,
      4982,
      4685,
      4528,
      4320,
      3971,
      3800,
      3490,
      3440,
      3402,
      3313,
      3090,
      2708,
      2120,
      1969,
      1854,
      1762,
      1673,
      1566,
      1524,
      1441,
      1234,
      1178,
      1018,
      825,
      816,
      792,
      696,
      553,
      430,
      343,
      273,
      85,
      0
    ],
    "swim:geom": "approach",
    "swim:timestamps": [
      1786662622,
      1786662636,
      1786662662,
      1786662693,
      1786662745,
      1786662752,
      1786662776,
      1786662804,
      1786662818,
      1786662863,
      1786662875,
      1786662924,
      1786662957,
      1786662980,
      1786663013,
      1786663031,
      1786663056,
      1786663095,
      1786663116,
      1786663151,
      1786663166,
      1786663177,
      1786663203,
      1786663232,
      1786663264,
      1786663315,
      1786663333,
      1786663348,
      1786663360,
      1786663377,
      1786663394,
      1786663417,
      1786663451,
      1786663490,
      1786663506,
      1786663530,
      1786663558,
      1786663563,
      1786663581,
      1786663614,
      1786663640,
      1786663671,
      1786663693,
      1786663714,
      1786663763,
      1786663778
    ],
    "wof:geomhash": "94024c512e3d31f9a8af48cd02d7325f",
    "wof:id": 2047956101,
    "wof:repo": "sfomuseum-data-flights-2026-08"
  },
  "bbox": [
    -122.75534,
    37.53551,
    -122.11123,
    38.51846
  ],
  "geometry": {"type":"LineString","coordinates":[[-122.34368,38.51846],[-122.37035,38.50008],[-122.41684,38.46774],[-122.4722,38.4293],[-122.5641,38.36576],[-122.57615,38.35738],[-122.61723,38.32891],[-122.66458,38.2961],[-122.68776,38.27994],[-122.75004,38.22111],[-122.75534,38.20076],[-122.7372,38.11794],[-122.72102,38.06413],[-122.71027,38.02808],[-122.6949,37.97564],[-122.68661,37.94715],[-122.67324,37.90897],[-122.62909,37.85805],[-122.60275,37.83299],[-122.55902,37.79184],[-122.54058,37.7745],[-122.52628,37.76103],[-122.49706,37.7334],[-122.45798,37.70956],[-122.40616,37.69649],[-122.32513,37.67701],[-122.29665,37.66997],[-122.27221,37.66378],[-122.2529,37.65885],[-122.22722,37.65238],[-122.20091,37.64574],[-122.16522,37.63559],[-122.1272,37.6107],[-122.11123,37.57552],[-122.12227,37.56325],[-122.14281,37.5469],[-122.17286,37.53551],[-122.17923,37.53704],[-122.19762,37.54661],[-122.23097,37.56044],[-122.25591,37.57096],[-122.28104,37.58159],[-122.29668,37.58826],[-122.31122,37.59439],[-122.34708,37.60943],[-122.35781,37.61372]]}
}
