{
  "id": 2047974781,
  "type": "Feature",
  "properties": {
    "geom:area": 0,
    "geom:bbox": "-122.409470,37.635040,-121.430200,38.517560",
    "geom:latitude": 38.124926740617994,
    "geom:longitude": -122.0141572570166,
    "src:alt_label": "swim-takeoff",
    "src:geom": "swim",
    "swim:elevations": [
      370,
      495,
      1037,
      1129,
      1491,
      1942,
      2067,
      2456,
      2816,
      3149,
      3320,
      3458,
      3575,
      3701,
      4062,
      4250,
      4552,
      4616,
      4959,
      5218,
      5558,
      5626,
      5700,
      5907,
      5969,
      6335,
      6470,
      6597
    ],
    "swim:geom": "takeoff",
    "swim:timestamps": [
      1786753346,
      1786753362,
      1786753405,
      1786753417,
      1786753461,
      1786753493,
      1786753501,
      1786753530,
      1786753555,
      1786753581,
      1786753614,
      1786753644,
      1786753668,
      1786753695,
      1786753737,
      1786753758,
      1786753792,
      1786753801,
      1786753841,
      1786753872,
      1786753916,
      1786753925,
      1786753937,
      1786753969,
      1786753983,
      1786754035,
      1786754057,
      1786754078
    ],
    "wof:geomhash": "01d4bf202daaf13efa16eca959c85a30",
    "wof:id": 2047974781,
    "wof:repo": "sfomuseum-data-flights-2026-08"
  },
  "bbox": [
    -122.40947,
    37.63504,
    -121.4302,
    38.51756
  ],
  "geometry": {"type":"LineString","coordinates":[[-122.4043,37.63504],[-122.40947,37.64703],[-122.38048,37.67923],[-122.37054,37.68805],[-122.33928,37.73208],[-122.35081,37.77134],[-122.35605,37.7821],[-122.37276,37.8173],[-122.38495,37.85154],[-122.385,37.88785],[-122.37557,37.93663],[-122.33207,37.97166],[-122.28951,37.99772],[-122.23971,38.02814],[-122.15658,38.0788],[-122.11484,38.1043],[-122.04641,38.1459],[-122.02801,38.15706],[-121.94715,38.20598],[-121.88073,38.24604],[-121.78803,38.30187],[-121.76879,38.31348],[-121.74389,38.32839],[-121.67463,38.36997],[-121.64264,38.38914],[-121.52492,38.45948],[-121.47771,38.48832],[-121.4302,38.51756]]}
}
