{
  "id": 2047925647,
  "type": "Feature",
  "properties": {
    "geom:area": 0,
    "geom:bbox": "-122.338889,37.433333,-77.050000,40.449444",
    "geom:latitude": 39.04969397981115,
    "geom:longitude": -99.66434570394628,
    "src:alt_label": "swim-path",
    "src:geom": "swim",
    "swim:altitudes": [
      "011",
      "018",
      "029",
      "032",
      "057",
      "088",
      "108",
      "122",
      "141",
      "160",
      "180",
      "200",
      "217",
      "233",
      "248",
      "263",
      "273",
      "284",
      "298",
      "310",
      "321",
      "331",
      "340",
      "350",
      "360C",
      "360C",
      "360C",
      "360C",
      "360C",
      "360C",
      "360C",
      "360C",
      "360C",
      "360C",
      "360C",
      "360C",
      "360C",
      "360C",
      "360C",
      "360C",
      "360C",
      "360C",
      "360C",
      "360C",
      "360C",
      "360C",
      "360C",
      "360C",
      "360C",
      "360C",
      "360C",
      "360C",
      "360C",
      "360C",
      "360C",
      "360C",
      "360C",
      "360C",
      "360C",
      "360C",
      "360C",
      "360C",
      "360C",
      "360C",
      "360C",
      "360C",
      "360C",
      "360C",
      "360C",
      "360C",
      "360C",
      "360C",
      "360C",
      "360C",
      "360C",
      "360C",
      "360C",
      "360C",
      "360C",
      "360C",
      "360C",
      "360C",
      "360C",
      "360C",
      "360C",
      "360C",
      "360C",
      "360C",
      "360C",
      "360C",
      "360C",
      "360C",
      "360C",
      "360C",
      "360C",
      "360C",
      "360C",
      "360C",
      "360C",
      "360C",
      "360C",
      "360C",
      "360C",
      "360C",
      "360C",
      "360C",
      "360C",
      "360C",
      "360C",
      "360C",
      "360C",
      "360C",
      "360C",
      "360C",
      "360C",
      "360C",
      "360C",
      "360C",
      "360C",
      "360C",
      "360C",
      "360C",
      "360C",
      "360C",
      "360C",
      "360C",
      "360C",
      "360C",
      "360C",
      "360C",
      "360C",
      "360C",
      "360C",
      "360C",
      "360C",
      "360C",
      "360C",
      "360C",
      "360C",
      "360C",
      "360C",
      "360C",
      "360C",
      "360C",
      "360C",
      "360C",
      "360C",
      "360C",
      "360C",
      "360C",
      "360C",
      "360C",
      "360C",
      "360C",
      "360C",
      "360C",
      "360C",
      "360C",
      "360C",
      "360C",
      "360C",
      "360C",
      "360C",
      "360C",
      "360C",
      "360C",
      "360C",
      "360C",
      "360C",
      "360C",
      "360C",
      "360C",
      "360C",
      "360C",
      "360C",
      "360C",
      "360C",
      "360C",
      "360C",
      "360C",
      "360C",
      "360C",
      "360C",
      "360C",
      "360C",
      "360C",
      "360C",
      "360C",
      "360C",
      "360C",
      "360C",
      "360C",
      "360C",
      "360C",
      "360C",
      "360C",
      "360C",
      "360C",
      "360C",
      "360C",
      "360C",
      "360C",
      "360C",
      "360C",
      "360C",
      "360C",
      "360C",
      "360C",
      "360C",
      "360C",
      "360C",
      "360C",
      "360C",
      "360C",
      "360C",
      "360C",
      "360C",
      "360C",
      "360C",
      "360C",
      "360C",
      "360C",
      "360C",
      "360C",
      "360C",
      "360C",
      "360C",
      "360C",
      "360C",
      "360C",
      "360C",
      "360C",
      "360C",
      "360C",
      "360C",
      "360C",
      "360C",
      "360C",
      "360C",
      "360C",
      "360C",
      "360C",
      "360C",
      "360C",
      "360C",
      "360C",
      "360C",
      "360C",
      "360C",
      "360C",
      "360C",
      "360C",
      "360C",
      "360C",
      "360C",
      "360C",
      "360C",
      "360C",
      "360C",
      "360C",
      "360C",
      "360C",
      "360C",
      "360",
      "360",
      "365",
      "375",
      "380C",
      "380C",
      "380C",
      "380C",
      "380C",
      "380C",
      "380C",
      "380C",
      "380C",
      "380C",
      "380C",
      "380C",
      "380C",
      "380C",
      "380C",
      "380C",
      "380C",
      "380C",
      "380C",
      "380C",
      "380C",
      "380C",
      "380C",
      "380C",
      "380C",
      "380C",
      "380C",
      "380C",
      "380C",
      "380C",
      "380C",
      "380C",
      "380C",
      "380C",
      "380C",
      "380C",
      "380C",
      "380C",
      "380C",
      "380C",
      "380C",
      "380C",
      "380C",
      "380C",
      "380C",
      "380C",
      "380C",
      "380C",
      "380C",
      "380C",
      "380C",
      "380C",
      "380C",
      "380C",
      "380C",
      "380C",
      "380C",
      "380C",
      "380C",
      "380C",
      "380C",
      "380C",
      "380C",
      "380C",
      "380C",
      "380C",
      "380C",
      "380C",
      "380C",
      "380C",
      "380C",
      "380C",
      "380C",
      "380C",
      "380C",
      "380C",
      "380C",
      "380C",
      "380C",
      "380C",
      "380C",
      "380C",
      "380C",
      "380C",
      "380C",
      "380C",
      "380C",
      "380C",
      "380C",
      "380C",
      "380C",
      "380C",
      "380C",
      "380C",
      "380C",
      "380C",
      "380C",
      "380C",
      "380C",
      "380C",
      "380C",
      "380C",
      "380C",
      "380C",
      "380C",
      "380C",
      "380C",
      "380C",
      "380C",
      "380C",
      "380C",
      "380C",
      "380",
      "380",
      "380",
      "380",
      "380",
      "367",
      "343",
      "314",
      "299",
      "290",
      "277",
      "268",
      "255",
      "246",
      "233",
      "224",
      "212",
      "204",
      "194",
      "183",
      "171",
      "163",
      "152",
      "143",
      "133",
      "126",
      "123",
      "122",
      "120",
      "116",
      "109",
      "105",
      "098",
      "093",
      "088",
      "082",
      "077",
      "071",
      "070",
      "069",
      "066",
      "063",
      "059",
      "056",
      "046",
      "042",
      "035",
      "031",
      "025",
      "021",
      "015",
      "011",
      "007",
      "004"
    ],
    "swim:geom": "path",
    "swim:speeds": [
      169,
      165,
      231,
      233,
      259,
      261,
      286,
      346,
      367,
      386,
      392,
      395,
      399,
      405,
      412,
      417,
      408,
      426,
      428,
      426,
      425,
      423,
      422,
      415,
      407,
      406,
      405,
      405,
      403,
      401,
      398,
      396,
      396,
      405,
      406,
      407,
      408,
      409,
      409,
      409,
      409,
      409,
      410,
      409,
      407,
      405,
      404,
      405,
      405,
      404,
      405,
      406,
      407,
      407,
      408,
      412,
      408,
      411,
      408,
      411,
      406,
      414,
      391,
      397,
      393,
      396,
      397,
      397,
      400,
      399,
      401,
      400,
      401,
      400,
      400,
      400,
      399,
      400,
      398,
      398,
      397,
      396,
      396,
      395,
      395,
      396,
      394,
      394,
      394,
      394,
      395,
      395,
      395,
      395,
      395,
      395,
      395,
      396,
      396,
      396,
      396,
      396,
      397,
      397,
      398,
      399,
      399,
      400,
      399,
      399,
      399,
      399,
      399,
      400,
      401,
      402,
      402,
      403,
      404,
      404,
      405,
      406,
      407,
      408,
      409,
      409,
      409,
      408,
      408,
      408,
      407,
      406,
      405,
      405,
      404,
      404,
      404,
      404,
      404,
      403,
      403,
      402,
      402,
      403,
      404,
      405,
      406,
      407,
      409,
      410,
      411,
      412,
      413,
      413,
      413,
      413,
      414,
      414,
      415,
      415,
      416,
      417,
      417,
      417,
      417,
      416,
      416,
      417,
      417,
      417,
      416,
      413,
      412,
      411,
      410,
      411,
      412,
      412,
      412,
      412,
      413,
      413,
      414,
      417,
      418,
      419,
      420,
      423,
      421,
      420,
      421,
      420,
      420,
      419,
      419,
      418,
      418,
      417,
      417,
      417,
      417,
      417,
      418,
      418,
      419,
      419,
      419,
      419,
      419,
      420,
      420,
      421,
      421,
      422,
      422,
      422,
      422,
      422,
      422,
      422,
      421,
      421,
      421,
      421,
      421,
      422,
      422,
      424,
      424,
      424,
      424,
      423,
      422,
      422,
      422,
      421,
      421,
      422,
      424,
      426,
      427,
      428,
      427,
      426,
      427,
      427,
      428,
      429,
      429,
      429,
      428,
      428,
      429,
      430,
      431,
      433,
      435,
      436,
      436,
      438,
      437,
      437,
      435,
      434,
      437,
      436,
      437,
      436,
      436,
      436,
      436,
      436,
      435,
      436,
      435,
      436,
      436,
      435,
      433,
      435,
      435,
      435,
      436,
      435,
      435,
      436,
      438,
      437,
      437,
      438,
      440,
      439,
      441,
      442,
      444,
      444,
      446,
      448,
      446,
      445,
      445,
      444,
      442,
      440,
      440,
      439,
      441,
      442,
      442,
      443,
      442,
      441,
      441,
      440,
      438,
      436,
      435,
      434,
      433,
      431,
      429,
      428,
      427,
      427,
      426,
      427,
      428,
      430,
      431,
      431,
      431,
      431,
      431,
      433,
      434,
      433,
      434,
      431,
      432,
      427,
      428,
      425,
      425,
      424,
      424,
      423,
      422,
      423,
      423,
      423,
      424,
      424,
      425,
      426,
      427,
      428,
      428,
      429,
      430,
      430,
      430,
      430,
      430,
      430,
      430,
      430,
      430,
      430,
      429,
      429,
      428,
      428,
      428,
      428,
      430,
      431,
      431,
      430,
      429,
      426,
      424,
      423,
      423,
      424,
      417,
      411,
      420,
      425,
      423,
      424,
      424,
      417,
      413,
      399,
      399,
      387,
      386,
      375,
      374,
      364,
      364,
      352,
      350,
      340,
      339,
      306,
      292,
      263,
      259,
      255,
      256,
      244,
      243,
      236,
      239,
      231,
      234,
      235,
      234,
      235,
      234,
      237,
      235,
      240,
      236,
      233,
      230,
      207,
      204,
      190,
      178,
      152,
      154
    ],
    "swim:timestamps": [
      1786495926,
      1786495953,
      1786495998,
      1786496013,
      1786496073,
      1786496133,
      1786496193,
      1786496253,
      1786496313,
      1786496374,
      1786496434,
      1786496494,
      1786496554,
      1786496614,
      1786496674,
      1786496734,
      1786496794,
      1786496854,
      1786496914,
      1786496974,
      1786497034,
      1786497095,
      1786497154,
      1786497215,
      1786497274,
      1786497335,
      1786497395,
      1786497455,
      1786497515,
      1786497575,
      1786497635,
      1786497696,
      1786497756,
      1786497815,
      1786497875,
      1786497935,
      1786497995,
      1786498056,
      1786498116,
      1786498176,
      1786498236,
      1786498296,
      1786498356,
      1786498416,
      1786498476,
      1786498536,
      1786498596,
      1786498656,
      1786498716,
      1786498777,
      1786498837,
      1786498897,
      1786498957,
      1786499014,
      1786499074,
      1786499104,
      1786499132,
      1786499164,
      1786499194,
      1786499224,
      1786499254,
      1786499284,
      1786499312,
      1786499344,
      1786499372,
      1786499404,
      1786499433,
      1786499465,
      1786499493,
      1786499525,
      1786499553,
      1786499585,
      1786499613,
      1786499645,
      1786499675,
      1786499705,
      1786499733,
      1786499765,
      1786499793,
      1786499825,
      1786499853,
      1786499885,
      1786499915,
      1786499975,
      1786500034,
      1786500065,
      1786500094,
      1786500126,
      1786500156,
      1786500216,
      1786500246,
      1786500276,
      1786500306,
      1786500336,
      1786500366,
      1786500396,
      1786500426,
      1786500454,
      1786500486,
      1786500514,
      1786500546,
      1786500574,
      1786500606,
      1786500624,
      1786500634,
      1786500666,
      1786500695,
      1786500726,
      1786500755,
      1786500787,
      1786500815,
      1786500847,
      1786500875,
      1786500907,
      1786500935,
      1786500967,
      1786500995,
      1786501027,
      1786501055,
      1786501087,
      1786501115,
      1786501147,
      1786501175,
      1786501207,
      1786501235,
      1786501267,
      1786501296,
      1786501327,
      1786501356,
      1786501387,
      1786501416,
      1786501447,
      1786501476,
      1786501508,
      1786501536,
      1786501568,
      1786501596,
      1786501628,
      1786501656,
      1786501688,
      1786501748,
      1786501808,
      1786501868,
      1786501928,
      1786501988,
      1786502048,
      1786502108,
      1786502168,
      1786502229,
      1786502289,
      1786502349,
      1786502409,
      1786502469,
      1786502529,
      1786502589,
      1786502649,
      1786502709,
      1786502769,
      1786502829,
      1786502889,
      1786502950,
      1786503010,
      1786503070,
      1786503130,
      1786503190,
      1786503250,
      1786503310,
      1786503370,
      1786503430,
      1786503490,
      1786503551,
      1786503731,
      1786503792,
      1786503852,
      1786503912,
      1786503972,
      1786504032,
      1786504092,
      1786504152,
      1786504209,
      1786504269,
      1786504329,
      1786504389,
      1786504450,
      1786504510,
      1786504570,
      1786504630,
      1786504663,
      1786504690,
      1786504723,
      1786504750,
      1786504783,
      1786504810,
      1786504843,
      1786504870,
      1786504903,
      1786504933,
      1786504964,
      1786504990,
      1786505024,
      1786505050,
      1786505084,
      1786505110,
      1786505144,
      1786505171,
      1786505204,
      1786505231,
      1786505264,
      1786505292,
      1786505324,
      1786505352,
      1786505384,
      1786505410,
      1786505444,
      1786505471,
      1786505504,
      1786505531,
      1786505564,
      1786505591,
      1786505624,
      1786505651,
      1786505684,
      1786505711,
      1786505745,
      1786505805,
      1786505865,
      1786505925,
      1786505985,
      1786506045,
      1786506105,
      1786506165,
      1786506225,
      1786506285,
      1786506345,
      1786506405,
      1786506465,
      1786506525,
      1786506586,
      1786506646,
      1786506706,
      1786506766,
      1786506826,
      1786506886,
      1786506946,
      1786507006,
      1786507066,
      1786507126,
      1786507186,
      1786507246,
      1786507306,
      1786507366,
      1786507426,
      1786507487,
      1786507547,
      1786507607,
      1786507667,
      1786507727,
      1786507793,
      1786507853,
      1786507907,
      1786507913,
      1786507973,
      1786508027,
      1786508087,
      1786508093,
      1786508154,
      1786508207,
      1786508267,
      1786508274,
      1786508327,
      1786508334,
      1786508394,
      1786508447,
      1786508454,
      1786508507,
      1786508514,
      1786508574,
      1786508634,
      1786508688,
      1786508694,
      1786508754,
      1786508814,
      1786508868,
      1786508874,
      1786508934,
      1786508994,
      1786509048,
      1786509054,
      1786509114,
      1786509175,
      1786509228,
      1786509235,
      1786509288,
      1786509355,
      1786509408,
      1786509415,
      1786509468,
      1786509535,
      1786509595,
      1786509648,
      1786509655,
      1786509715,
      1786509775,
      1786509828,
      1786509835,
      1786509895,
      1786509955,
      1786510015,
      1786510075,
      1786510135,
      1786510195,
      1786510256,
      1786510316,
      1786510376,
      1786510436,
      1786510496,
      1786510556,
      1786510616,
      1786510676,
      1786510736,
      1786510796,
      1786510856,
      1786510916,
      1786510976,
      1786511036,
      1786511096,
      1786511156,
      1786511216,
      1786511276,
      1786511336,
      1786511397,
      1786511457,
      1786511517,
      1786511577,
      1786511637,
      1786511697,
      1786511732,
      1786511757,
      1786511792,
      1786511817,
      1786511852,
      1786511877,
      1786511912,
      1786511937,
      1786512032,
      1786512057,
      1786512092,
      1786512117,
      1786512152,
      1786512177,
      1786512212,
      1786512237,
      1786512272,
      1786512297,
      1786512332,
      1786512357,
      1786512392,
      1786512417,
      1786512452,
      1786512477,
      1786512512,
      1786512537,
      1786512572,
      1786512598,
      1786512632,
      1786512658,
      1786512692,
      1786512718,
      1786512752,
      1786512778,
      1786512812,
      1786512838,
      1786512872,
      1786512898,
      1786512932,
      1786512992,
      1786513052,
      1786513112,
      1786513173,
      1786513233,
      1786513293,
      1786513353,
      1786513413,
      1786513473,
      1786513533,
      1786513593,
      1786513653,
      1786513681,
      1786513713,
      1786513741,
      1786513773,
      1786513802,
      1786513833,
      1786513861,
      1786513893,
      1786513921,
      1786513953,
      1786513976,
      1786514013,
      1786514042,
      1786514073,
      1786514102,
      1786514133,
      1786514162,
      1786514193,
      1786514222,
      1786514253,
      1786514282,
      1786514313,
      1786514342,
      1786514373,
      1786514402,
      1786514433,
      1786514456,
      1786514493,
      1786514516,
      1786514553,
      1786514576,
      1786514613,
      1786514642,
      1786514673,
      1786514702,
      1786514733,
      1786514762,
      1786514793,
      1786514822,
      1786514853,
      1786514882,
      1786514914,
      1786514942,
      1786514974,
      1786515002,
      1786515034
    ],
    "wof:geomhash": "aaffecbe17d894d8d3f3bb66c67dbf13",
    "wof:id": 2047925647,
    "wof:repo": "sfomuseum-data-flights-2026-08"
  },
  "bbox": [
    -122.33888888888889,
    37.43333333333333,
    -77.05,
    40.44944444444444
  ],
  "geometry": {"type":"LineString","coordinates":[[-77.05,38.86666666666667],[-77.05555555555556,38.88666666666666],[-77.1,38.916666666666664],[-77.11277777777777,38.9225],[-77.17166666666667,38.97166666666667],[-77.26833333333333,38.98583333333333],[-77.36,38.99027777777778],[-77.48388888888888,38.980000000000004],[-77.61388888888888,38.968611111111116],[-77.75361111111111,38.956944444444446],[-77.89611111111111,38.95027777777778],[-78.03611111111111,38.95472222222222],[-78.17500000000001,38.95944444444445],[-78.32222222222222,38.966944444444444],[-78.47944444444444,38.9775],[-78.63,38.98694444444445],[-78.7611111111111,38.99305555555556],[-78.92,39.005],[-79.07222222222222,39.01361111111111],[-79.22305555555556,39.0225],[-79.37277777777777,39.03194444444444],[-79.53666666666666,39.04277777777778],[-79.67083333333333,39.05166666666666],[-79.81555555555555,39.06083333333333],[-79.96027777777778,39.06916666666667],[-80.10388888888889,39.077222222222225],[-80.25416666666666,39.086111111111116],[-80.39666666666668,39.09388888888889],[-80.54138888888889,39.10166666666667],[-80.68472222222222,39.10916666666667],[-80.82722222222222,39.11638888888889],[-80.96638888888889,39.123333333333335],[-81.10944444444443,39.138333333333335],[-81.23611111111111,39.189722222222215],[-81.36138888888888,39.2425],[-81.49194444444444,39.29722222222222],[-81.61638888888888,39.34916666666667],[-81.74527777777777,39.403055555555554],[-81.88222222222221,39.45944444444445],[-82.01138888888889,39.51277777777778],[-82.1388888888889,39.565],[-82.27055555555556,39.618611111111115],[-82.4,39.671388888888885],[-82.53166666666667,39.724722222222226],[-82.66055555555556,39.776666666666664],[-82.79027777777777,39.828611111111115],[-82.91916666666667,39.88055555555555],[-83.05027777777778,39.93277777777777],[-83.18194444444445,39.984722222222224],[-83.31138888888889,40.03583333333333],[-83.44166666666668,40.08722222222222],[-83.57222222222222,40.13805555555555],[-83.705,40.19],[-83.83722222222222,40.24111111111111],[-83.96027777777778,40.288888888888884],[-84.01916666666666,40.31111111111111],[-84.08527777777778,40.336666666666666],[-84.15277777777779,40.362500000000004],[-84.22333333333333,40.38944444444444],[-84.2863888888889,40.41416666666667],[-84.35666666666665,40.43944444444444],[-84.4238888888889,40.44944444444444],[-84.49,40.440555555555555],[-84.56138888888889,40.43222222222222],[-84.63333333333334,40.42638888888889],[-84.70722222222223,40.419444444444444],[-84.77222222222223,40.41222222222222],[-84.85222222222221,40.40472222222222],[-84.91472222222222,40.39722222222222],[-84.9975,40.388333333333335],[-85.06166666666667,40.38166666666667],[-85.14444444444445,40.37444444444444],[-85.20666666666666,40.36638888888889],[-85.28666666666666,40.3575],[-85.37666666666667,40.34805555555556],[-85.43055555555556,40.34305555555556],[-85.49027777777778,40.33555555555556],[-85.57388888888889,40.32666666666667],[-85.63444444444445,40.319722222222225],[-85.71555555555555,40.311388888888885],[-85.77638888888889,40.30416666666667],[-85.85944444444443,40.29527777777778],[-85.94694444444445,40.28472222222222],[-86.08833333333332,40.26861111111111],[-86.19916666666667,40.255833333333335],[-86.28472222222221,40.24666666666667],[-86.36722222222221,40.236111111111114],[-86.42444444444445,40.22972222222222],[-86.50972222222222,40.219166666666666],[-86.6525,40.202222222222225],[-86.70833333333334,40.19583333333333],[-86.79305555555555,40.18527777777778],[-86.86083333333333,40.17722222222222],[-86.93361111111112,40.169444444444444],[-86.99083333333333,40.163333333333334],[-87.075,40.15416666666667],[-87.13361111111112,40.147777777777776],[-87.21194444444444,40.138888888888886],[-87.27583333333334,40.13166666666667],[-87.35305555555556,40.12277777777778],[-87.41777777777779,40.11555555555556],[-87.49472222222222,40.10666666666667],[-87.56138888888889,40.09916666666667],[-87.60916666666667,40.09388888888889],[-87.63972222222223,40.09027777777778],[-87.7038888888889,40.08305555555556],[-87.78222222222222,40.07361111111111],[-87.86833333333333,40.06333333333333],[-87.9238888888889,40.05694444444444],[-88.00972222222222,40.04666666666667],[-88.06638888888888,40.04],[-88.1538888888889,40.02972222222222],[-88.20944444444444,40.02305555555555],[-88.2975,40.01222222222222],[-88.3536111111111,40.00527777777778],[-88.44083333333333,39.995],[-88.49888888888889,39.98777777777778],[-88.58666666666666,39.97666666666667],[-88.64277777777778,39.969722222222224],[-88.73083333333334,39.95888888888889],[-88.78944444444444,39.95138888888889],[-88.8786111111111,39.94],[-88.93694444444445,39.93277777777777],[-89.02388888888889,39.92166666666667],[-89.08194444444445,39.91416666666667],[-89.17194444444445,39.902499999999996],[-89.2275,39.89527777777778],[-89.31694444444445,39.88388888888889],[-89.37388888888889,39.87638888888889],[-89.43194444444445,39.868611111111115],[-89.51777777777778,39.85777777777778],[-89.57888888888888,39.856944444444444],[-89.66472222222222,39.85638888888889],[-89.72305555555556,39.85611111111111],[-89.81,39.855555555555554],[-89.87027777777777,39.85527777777778],[-89.95666666666666,39.85472222222222],[-90.01722222222222,39.85416666666667],[-90.10416666666666,39.85333333333333],[-90.16222222222223,39.85277777777778],[-90.3086111111111,39.85138888888889],[-90.45305555555557,39.85],[-90.59916666666666,39.84805555555556],[-90.74444444444444,39.846111111111114],[-90.89166666666668,39.843611111111116],[-91.03555555555555,39.84138888888889],[-91.18222222222222,39.83916666666667],[-91.33222222222221,39.836111111111116],[-91.47805555555556,39.833333333333336],[-91.62638888888888,39.830000000000005],[-91.77527777777777,39.82694444444445],[-91.92555555555556,39.823055555555555],[-92.07638888888889,39.81916666666667],[-92.22694444444444,39.815555555555555],[-92.37472222222222,39.811388888888885],[-92.52527777777777,39.80694444444444],[-92.67666666666668,39.80222222222222],[-92.8275,39.7975],[-92.97722222222222,39.79277777777778],[-93.1261111111111,39.7875],[-93.27805555555555,39.782222222222224],[-93.42944444444444,39.776666666666664],[-93.5786111111111,39.770833333333336],[-93.72916666666667,39.765],[-93.88666666666667,39.75861111111111],[-94.03666666666666,39.75194444444445],[-94.18361111111112,39.74583333333334],[-94.33611111111111,39.73888888888889],[-94.48527777777778,39.73222222222223],[-94.63388888888889,39.725],[-94.78166666666667,39.717777777777776],[-95.22416666666666,39.695277777777775],[-95.3711111111111,39.6875],[-95.51722222222222,39.67916666666667],[-95.66166666666668,39.67111111111111],[-95.80916666666667,39.66277777777778],[-95.9575,39.653888888888886],[-96.10527777777777,39.644999999999996],[-96.25055555555555,39.63611111111111],[-96.39916666666667,39.62694444444445],[-96.54694444444445,39.6175],[-96.69416666666667,39.60777777777778],[-96.84472222222222,39.59777777777778],[-97.00944444444444,39.586666666666666],[-97.15916666666668,39.57611111111112],[-97.29305555555555,39.56638888888889],[-97.44527777777778,39.55555555555555],[-97.54194444444444,39.54888888888889],[-97.59555555555555,39.544999999999995],[-97.7,39.536944444444444],[-97.74555555555555,39.53361111111111],[-97.85055555555554,39.525555555555556],[-97.90972222222223,39.52111111111111],[-98.00055555555555,39.51416666666667],[-98.05833333333334,39.50972222222222],[-98.14888888888889,39.5025],[-98.2063888888889,39.49805555555556],[-98.29916666666666,39.490833333333335],[-98.35444444444444,39.48638888888889],[-98.44694444444445,39.47888888888889],[-98.515,39.473333333333336],[-98.59472222222222,39.46666666666667],[-98.66944444444445,39.46055555555556],[-98.74472222222222,39.45416666666667],[-98.82,39.44777777777777],[-98.89583333333334,39.44138888888889],[-98.9525,39.43666666666666],[-99.04472222222222,39.42861111111111],[-99.10083333333333,39.42388888888889],[-99.19638888888889,39.41555555555556],[-99.25055555555555,39.410555555555554],[-99.34638888888888,39.40222222222222],[-99.4,39.39722222222222],[-99.49555555555555,39.38861111111111],[-99.55194444444444,39.38361111111111],[-99.64750000000001,39.375],[-99.69388888888889,39.370555555555555],[-99.7975,39.361111111111114],[-99.8436111111111,39.35666666666667],[-99.94972222222222,39.34666666666667],[-100.02222222222223,39.34],[-100.0975,39.33277777777778],[-100.17166666666667,39.32555555555556],[-100.24694444444445,39.318333333333335],[-100.39694444444446,39.30361111111111],[-100.54777777777778,39.288888888888884],[-100.7,39.27333333333333],[-100.84972222222221,39.25833333333333],[-101.00222222222222,39.2425],[-101.15194444444445,39.22694444444445],[-101.30083333333333,39.211111111111116],[-101.45166666666667,39.19499999999999],[-101.60027777777778,39.178888888888885],[-101.75361111111111,39.161944444444444],[-101.87833333333333,39.14805555555556],[-102.02472222222222,39.13166666666667],[-102.205,39.111111111111114],[-102.35444444444444,39.094166666666666],[-102.50444444444445,39.07666666666667],[-102.65333333333334,39.05888888888889],[-102.79777777777778,39.041666666666664],[-102.95,39.02361111111111],[-103.09916666666666,39.00527777777778],[-103.25027777777778,38.986666666666665],[-103.4,38.96805555555556],[-103.55,38.94916666666666],[-103.70194444444445,38.92972222222222],[-103.85527777777777,38.91],[-104.00555555555556,38.89055555555556],[-104.15527777777778,38.87083333333334],[-104.30666666666666,38.850833333333334],[-104.45805555555556,38.830555555555556],[-104.60888888888888,38.809999999999995],[-104.76194444444444,38.788888888888884],[-104.91388888888889,38.768055555555556],[-105.06722222222221,38.74666666666667],[-105.21916666666667,38.72527777777778],[-105.37472222222222,38.70111111111111],[-105.52833333333334,38.67833333333333],[-105.68055555555556,38.65888888888889],[-105.68277777777779,38.65555555555555],[-105.83444444444444,38.634166666666665],[-105.98472222222222,38.61416666666667],[-106.11916666666666,38.594166666666666],[-106.13694444444445,38.58972222222222],[-106.2863888888889,38.5675],[-106.43222222222222,38.54666666666667],[-106.5825,38.52361111111111],[-106.5925,38.52111111111111],[-106.73805555555556,38.49944444444444],[-106.74361111111111,38.4975],[-106.89555555555556,38.47277777777778],[-107.03999999999999,38.45388888888889],[-107.04805555555555,38.45027777777778],[-107.19416666666667,38.45333333333333],[-107.20111111111112,38.45194444444445],[-107.3536111111111,38.45305555555556],[-107.50694444444444,38.45388888888889],[-107.6286111111111,38.45583333333334],[-107.6613888888889,38.45472222222222],[-107.81444444444445,38.455555555555556],[-107.96916666666667,38.45583333333334],[-108.09166666666667,38.456944444444446],[-108.12416666666665,38.45638888888889],[-108.28,38.45611111111111],[-108.43666666666667,38.45583333333334],[-108.56027777777777,38.45611111111111],[-108.59222222222222,38.45527777777778],[-108.74083333333333,38.45527777777778],[-108.90083333333334,38.45416666666667],[-109.02555555555556,38.45333333333333],[-109.05916666666667,38.45305555555556],[-109.18333333333334,38.45194444444445],[-109.37388888888889,38.45],[-109.50083333333333,38.448611111111106],[-109.53138888888888,38.44833333333333],[-109.65861111111111,38.446666666666665],[-109.85166666666666,38.44416666666666],[-110.00916666666667,38.44166666666666],[-110.13388888888889,38.43944444444444],[-110.16583333333334,38.43888888888888],[-110.32111111111111,38.43611111111111],[-110.47805555555556,38.433055555555555],[-110.60027777777778,38.43055555555555],[-110.63111111111111,38.42972222222222],[-110.78861111111111,38.42611111111111],[-110.94444444444444,38.422777777777775],[-111.08222222222221,38.41916666666666],[-111.2375,38.415277777777774],[-111.42500000000001,38.41],[-111.57972222222222,38.405277777777776],[-111.735,38.40083333333333],[-111.89,38.395833333333336],[-112.04444444444444,38.39083333333333],[-112.19916666666667,38.385555555555555],[-112.35222222222221,38.37861111111111],[-112.50222222222222,38.37111111111111],[-112.65611111111112,38.36361111111111],[-112.80694444444444,38.35583333333334],[-112.9575,38.348333333333336],[-113.10749999999999,38.34],[-113.25638888888889,38.331944444444446],[-113.40611111111112,38.32361111111111],[-113.55527777777777,38.315],[-113.705,38.30638888888888],[-113.85416666666666,38.29722222222222],[-114.005,38.28805555555555],[-114.15694444444445,38.27861111111111],[-114.3086111111111,38.26888888888889],[-114.46083333333334,38.259166666666665],[-114.61194444444443,38.24888888888889],[-114.76361111111112,38.23888888888889],[-114.91388888888889,38.22833333333333],[-115.06583333333333,38.217777777777776],[-115.22,38.20666666666667],[-115.37583333333333,38.195277777777775],[-115.44250000000001,38.190555555555555],[-115.53277777777778,38.18333333333333],[-115.59305555555555,38.17916666666667],[-115.68138888888889,38.1725],[-115.74138888888889,38.16888888888889],[-115.82833333333333,38.16083333333333],[-115.8913888888889,38.15611111111111],[-115.97916666666667,38.149166666666666],[-116.18805555555556,38.132777777777775],[-116.2761111111111,38.12555555555556],[-116.33527777777778,38.120555555555555],[-116.42305555555556,38.11333333333334],[-116.48444444444445,38.108333333333334],[-116.57277777777777,38.100833333333334],[-116.63277777777778,38.09583333333334],[-116.72194444444445,38.08833333333334],[-116.78388888888888,38.08305555555556],[-116.87194444444444,38.07527777777778],[-116.9363888888889,38.069722222222225],[-116.99361111111111,38.06472222222222],[-117.08833333333332,38.05638888888888],[-117.14861111111112,38.051111111111105],[-117.24361111111111,38.0425],[-117.30583333333333,38.036944444444444],[-117.39777777777779,38.02861111111111],[-117.45805555555556,38.02305555555555],[-117.55027777777778,38.01444444444444],[-117.60777777777777,38.009166666666665],[-117.7,38.00055555555556],[-117.75944444444444,37.995],[-117.85138888888888,37.986111111111114],[-117.90833333333335,37.98083333333334],[-118,37.971944444444446],[-118.05916666666667,37.96638888888889],[-118.15111111111112,37.9575],[-118.20777777777778,37.95166666666667],[-118.30055555555555,37.942499999999995],[-118.3586111111111,37.93666666666666],[-118.45,37.927499999999995],[-118.60194444444444,37.91222222222222],[-118.75055555555555,37.89722222222222],[-118.90194444444445,37.88027777777778],[-119.03416666666666,37.86472222222223],[-119.1825,37.84777777777778],[-119.32805555555555,37.83083333333334],[-119.47638888888889,37.81333333333333],[-119.62194444444444,37.795833333333334],[-119.77111111111111,37.778055555555554],[-119.91555555555556,37.76027777777778],[-120.05638888888889,37.74305555555556],[-120.2025,37.724722222222226],[-120.28333333333333,37.71666666666667],[-120.35222222222221,37.70583333333334],[-120.43333333333334,37.7],[-120.49916666666667,37.68833333333333],[-120.58333333333333,37.68333333333333],[-120.64333333333335,37.671388888888885],[-120.73333333333333,37.666666666666664],[-120.78222222222222,37.65472222222222],[-120.86666666666666,37.65],[-120.915,37.638888888888886],[-120.98333333333333,37.63333333333333],[-121.04583333333333,37.621944444444445],[-121.11666666666666,37.61666666666667],[-121.17,37.60527777777778],[-121.25,37.6],[-121.29222222222222,37.58888888888889],[-121.36666666666666,37.583333333333336],[-121.4088888888889,37.57611111111112],[-121.46666666666667,37.56666666666667],[-121.51416666666667,37.56361111111111],[-121.56666666666666,37.55],[-121.60527777777777,37.55305555555555],[-121.65,37.56666666666667],[-121.68833333333333,37.57638888888889],[-121.73333333333333,37.583333333333336],[-121.76055555555556,37.565],[-121.76666666666667,37.53333333333333],[-121.7538888888889,37.500277777777775],[-121.76666666666667,37.46666666666667],[-121.78999999999999,37.44694444444444],[-121.83333333333333,37.45],[-121.87222222222222,37.44027777777777],[-121.91666666666667,37.43333333333333],[-121.9525,37.43805555555555],[-122,37.46666666666667],[-122.02388888888889,37.471111111111114],[-122.06666666666666,37.483333333333334],[-122.10083333333333,37.50333333333333],[-122.13333333333334,37.516666666666666],[-122.16888888888889,37.53194444444444],[-122.2,37.55],[-122.23305555555555,37.55888888888889],[-122.26666666666667,37.56666666666667],[-122.29166666666667,37.58361111111111],[-122.31666666666666,37.6],[-122.33888888888889,37.60333333333333]]}
}
