{
  "id": 2032056641,
  "type": "Feature",
  "properties": {
    "geom:area": 0,
    "geom:bbox": "-122.688611,37.436667,-73.516667,43.212500",
    "geom:latitude": 42.039031643756374,
    "geom:longitude": -98.75528302089641,
    "src:alt_label": "swim-path",
    "src:geom": "swim",
    "swim:altitudes": [
      "007",
      "016",
      "022",
      "034",
      "045",
      "061",
      "071",
      "087",
      "105",
      "109",
      "115",
      "121",
      "140",
      "162",
      "195",
      "208",
      "219",
      "231",
      "246",
      "250",
      "256",
      "265",
      "275",
      "286",
      "292",
      "296",
      "297",
      "300",
      "304",
      "312",
      "316",
      "319C",
      "320C",
      "320C",
      "320C",
      "320C",
      "320C",
      "320C",
      "320C",
      "320C",
      "320C",
      "320C",
      "320C",
      "320C",
      "320C",
      "320C",
      "320C",
      "320C",
      "320C",
      "320C",
      "320C",
      "320C",
      "320C",
      "320C",
      "320C",
      "320C",
      "320C",
      "320C",
      "320C",
      "320C",
      "320C",
      "320C",
      "320C",
      "320C",
      "320C",
      "320C",
      "320C",
      "320C",
      "320C",
      "320C",
      "320C",
      "320C",
      "320C",
      "320C",
      "320C",
      "320C",
      "320C",
      "320C",
      "320C",
      "320C",
      "320C",
      "320C",
      "320C",
      "320C",
      "320C",
      "320C",
      "320C",
      "320C",
      "320C",
      "320C",
      "320C",
      "320C",
      "320C",
      "317",
      "315",
      "307",
      "306",
      "300C",
      "300C",
      "300C",
      "300C",
      "300C",
      "300C",
      "300C",
      "300C",
      "300C",
      "300C",
      "300C",
      "300C",
      "300C",
      "300C",
      "300C",
      "300C",
      "300C",
      "300C",
      "300C",
      "300C",
      "300C",
      "300",
      "308",
      "319",
      "332",
      "340C",
      "340C",
      "340C",
      "340C",
      "340C",
      "340C",
      "340C",
      "340C",
      "340C",
      "340C",
      "340C",
      "340C",
      "340C",
      "340C",
      "340C",
      "340C",
      "340C",
      "340C",
      "340C",
      "340C",
      "340C",
      "340C",
      "340C",
      "340C",
      "340C",
      "340C",
      "340C",
      "340C",
      "340C",
      "340C",
      "340C",
      "340C",
      "340C",
      "340C",
      "340C",
      "340C",
      "340C",
      "340C",
      "340C",
      "340C",
      "340C",
      "340C",
      "340C",
      "340C",
      "340C",
      "340C",
      "340C",
      "340C",
      "340C",
      "340C",
      "340C",
      "340C",
      "340C",
      "340C",
      "340C",
      "340C",
      "340C",
      "340C",
      "340C",
      "340C",
      "340C",
      "340C",
      "340C",
      "340C",
      "340C",
      "340C",
      "340C",
      "340C",
      "340C",
      "340C",
      "340C",
      "340C",
      "340C",
      "340C",
      "340C",
      "340C",
      "340C",
      "340C",
      "340C",
      "340C",
      "340C",
      "340C",
      "340C",
      "340C",
      "340C",
      "340C",
      "340C",
      "340C",
      "340C",
      "340C",
      "340C",
      "340C",
      "340C",
      "340C",
      "340C",
      "340C",
      "340C",
      "340C",
      "340C",
      "340C",
      "340C",
      "340C",
      "340C",
      "340C",
      "340C",
      "340C",
      "340C",
      "340C",
      "340C",
      "340C",
      "340C",
      "340C",
      "340C",
      "340C",
      "340C",
      "340C",
      "340C",
      "340C",
      "340C",
      "340C",
      "340C",
      "340C",
      "340C",
      "340C",
      "340C",
      "340C",
      "340C",
      "340C",
      "340C",
      "340C",
      "340C",
      "340C",
      "340C",
      "340C",
      "340C",
      "340C",
      "340C",
      "340C",
      "340C",
      "340C",
      "340C",
      "340C",
      "340C",
      "340C",
      "340C",
      "340C",
      "340C",
      "340C",
      "340C",
      "340C",
      "340C",
      "340C",
      "340C",
      "340C",
      "340C",
      "340C",
      "340C",
      "340C",
      "340C",
      "340C",
      "340C",
      "340C",
      "340C",
      "340C",
      "340C",
      "340C",
      "340C",
      "340C",
      "340C",
      "340C",
      "340C",
      "340C",
      "340C",
      "340C",
      "340C",
      "340C",
      "340C",
      "340C",
      "340C",
      "340C",
      "340C",
      "340C",
      "340C",
      "340C",
      "340C",
      "340C",
      "340C",
      "340C",
      "340C",
      "340C",
      "340C",
      "340C",
      "340C",
      "340C",
      "340C",
      "340C",
      "340C",
      "340C",
      "340C",
      "340C",
      "340C",
      "340C",
      "340C",
      "340C",
      "340C",
      "340C",
      "340C",
      "340C",
      "340C",
      "340C",
      "340C",
      "340C",
      "340C",
      "340C",
      "340C",
      "340C",
      "340C",
      "340C",
      "340C",
      "340C",
      "340C",
      "340C",
      "340C",
      "340C",
      "340C",
      "340C",
      "340C",
      "340",
      "330",
      "320",
      "310",
      "289",
      "279",
      "258",
      "238",
      "219",
      "195",
      "173",
      "167",
      "152",
      "133",
      "116",
      "110",
      "110",
      "102",
      "088",
      "070",
      "053",
      "037",
      "030",
      "013",
      "005",
      "110"
    ],
    "swim:geom": "path",
    "swim:speeds": [
      185,
      211,
      236,
      271,
      273,
      283,
      280,
      286,
      309,
      327,
      363,
      364,
      377,
      375,
      389,
      402,
      415,
      421,
      422,
      424,
      425,
      432,
      435,
      435,
      431,
      439,
      440,
      447,
      447,
      442,
      441,
      442,
      442,
      442,
      442,
      442,
      440,
      443,
      443,
      444,
      445,
      445,
      445,
      445,
      445,
      446,
      446,
      447,
      448,
      449,
      449,
      450,
      451,
      452,
      452,
      453,
      452,
      448,
      445,
      444,
      442,
      441,
      440,
      437,
      436,
      436,
      441,
      442,
      443,
      442,
      442,
      442,
      442,
      443,
      444,
      446,
      451,
      454,
      456,
      462,
      464,
      463,
      467,
      467,
      470,
      471,
      473,
      475,
      475,
      475,
      475,
      474,
      473,
      472,
      471,
      471,
      471,
      471,
      471,
      470,
      469,
      469,
      470,
      472,
      473,
      473,
      475,
      477,
      479,
      480,
      483,
      485,
      485,
      486,
      487,
      488,
      487,
      485,
      484,
      483,
      482,
      474,
      468,
      464,
      467,
      464,
      466,
      457,
      464,
      459,
      462,
      460,
      459,
      457,
      456,
      454,
      455,
      455,
      456,
      456,
      458,
      458,
      459,
      459,
      460,
      460,
      460,
      460,
      460,
      460,
      461,
      461,
      462,
      462,
      462,
      463,
      464,
      464,
      465,
      465,
      466,
      467,
      467,
      467,
      467,
      467,
      466,
      465,
      464,
      463,
      461,
      460,
      460,
      460,
      461,
      462,
      462,
      462,
      462,
      462,
      462,
      461,
      461,
      461,
      461,
      461,
      462,
      463,
      463,
      461,
      456,
      460,
      457,
      456,
      457,
      456,
      456,
      456,
      457,
      455,
      457,
      455,
      454,
      458,
      459,
      460,
      460,
      460,
      459,
      461,
      458,
      457,
      456,
      455,
      454,
      454,
      452,
      452,
      452,
      452,
      453,
      452,
      452,
      452,
      452,
      453,
      452,
      451,
      451,
      453,
      454,
      455,
      453,
      452,
      453,
      452,
      452,
      451,
      452,
      453,
      452,
      452,
      455,
      457,
      457,
      457,
      454,
      450,
      442,
      441,
      441,
      445,
      448,
      450,
      451,
      451,
      450,
      450,
      449,
      448,
      448,
      448,
      445,
      444,
      443,
      442,
      442,
      438,
      436,
      434,
      432,
      435,
      437,
      439,
      441,
      442,
      444,
      444,
      439,
      438,
      424,
      422,
      421,
      421,
      421,
      421,
      419,
      420,
      419,
      419,
      420,
      417,
      415,
      414,
      413,
      415,
      412,
      414,
      412,
      414,
      412,
      414,
      415,
      416,
      416,
      423,
      426,
      427,
      428,
      429,
      429,
      429,
      429,
      428,
      428,
      427,
      427,
      426,
      426,
      425,
      425,
      426,
      427,
      427,
      428,
      429,
      428,
      428,
      427,
      426,
      426,
      424,
      424,
      422,
      422,
      426,
      428,
      429,
      429,
      428,
      429,
      429,
      429,
      431,
      433,
      435,
      436,
      437,
      439,
      440,
      436,
      434,
      429,
      421,
      419,
      410,
      400,
      389,
      384,
      375,
      365,
      360,
      358,
      354,
      307,
      300,
      302,
      296,
      295,
      289,
      262,
      220,
      159,
      154,
      129
    ],
    "swim:timestamps": [
      1785627670,
      1785627706,
      1785627732,
      1785627766,
      1785627792,
      1785627826,
      1785627852,
      1785627886,
      1785627946,
      1785627972,
      1785628006,
      1785628032,
      1785628092,
      1785628152,
      1785628273,
      1785628333,
      1785628393,
      1785628453,
      1785628513,
      1785628573,
      1785628633,
      1785628693,
      1785628753,
      1785628814,
      1785628894,
      1785628934,
      1785628954,
      1785628994,
      1785629015,
      1785629054,
      1785629114,
      1785629135,
      1785629174,
      1785629195,
      1785629234,
      1785629255,
      1785629315,
      1785629354,
      1785629375,
      1785629414,
      1785629435,
      1785629474,
      1785629495,
      1785629535,
      1785629555,
      1785629615,
      1785629655,
      1785629676,
      1785629715,
      1785629736,
      1785629775,
      1785629796,
      1785629835,
      1785629895,
      1785629916,
      1785629976,
      1785630036,
      1785630156,
      1785630216,
      1785630276,
      1785630337,
      1785630397,
      1785630457,
      1785630577,
      1785630637,
      1785630697,
      1785630817,
      1785630877,
      1785630937,
      1785631058,
      1785631118,
      1785631178,
      1785631238,
      1785631298,
      1785631358,
      1785631478,
      1785631598,
      1785631719,
      1785631839,
      1785631887,
      1785631949,
      1785631959,
      1785632009,
      1785632019,
      1785632067,
      1785632079,
      1785632129,
      1785632189,
      1785632199,
      1785632247,
      1785632260,
      1785632309,
      1785632320,
      1785632367,
      1785632380,
      1785632427,
      1785632440,
      1785632487,
      1785632548,
      1785632608,
      1785632620,
      1785632670,
      1785632740,
      1785632800,
      1785632850,
      1785632860,
      1785632910,
      1785632970,
      1785633040,
      1785633090,
      1785633151,
      1785633211,
      1785633220,
      1785633271,
      1785633281,
      1785633341,
      1785633391,
      1785633451,
      1785633571,
      1785633631,
      1785633691,
      1785633752,
      1785633872,
      1785633905,
      1785633932,
      1785633965,
      1785633992,
      1785634026,
      1785634052,
      1785634086,
      1785634172,
      1785634206,
      1785634232,
      1785634266,
      1785634292,
      1785634386,
      1785634413,
      1785634473,
      1785634506,
      1785634533,
      1785634626,
      1785634653,
      1785634686,
      1785634713,
      1785634747,
      1785634773,
      1785634807,
      1785634833,
      1785634867,
      1785634893,
      1785634927,
      1785634954,
      1785634987,
      1785635014,
      1785635047,
      1785635074,
      1785635107,
      1785635134,
      1785635167,
      1785635194,
      1785635227,
      1785635254,
      1785635287,
      1785635314,
      1785635347,
      1785635374,
      1785635407,
      1785635467,
      1785635528,
      1785635588,
      1785635648,
      1785635708,
      1785635768,
      1785635828,
      1785635948,
      1785636068,
      1785636188,
      1785636248,
      1785636368,
      1785636429,
      1785636489,
      1785636549,
      1785636609,
      1785636669,
      1785636729,
      1785636789,
      1785636849,
      1785636909,
      1785636969,
      1785637029,
      1785637073,
      1785637089,
      1785637130,
      1785637193,
      1785637209,
      1785637269,
      1785637311,
      1785637330,
      1785637374,
      1785637390,
      1785637434,
      1785637450,
      1785637554,
      1785637570,
      1785637630,
      1785637671,
      1785637690,
      1785637731,
      1785637750,
      1785637794,
      1785637810,
      1785637851,
      1785637870,
      1785637911,
      1785637930,
      1785637974,
      1785638031,
      1785638050,
      1785638092,
      1785638110,
      1785638155,
      1785638170,
      1785638212,
      1785638230,
      1785638272,
      1785638335,
      1785638351,
      1785638392,
      1785638452,
      1785638515,
      1785638632,
      1785638755,
      1785638812,
      1785638876,
      1785638936,
      1785638993,
      1785639116,
      1785639173,
      1785639236,
      1785639296,
      1785639353,
      1785639476,
      1785639597,
      1785639657,
      1785639713,
      1785639774,
      1785639837,
      1785639894,
      1785640074,
      1785640134,
      1785640257,
      1785640438,
      1785640558,
      1785640618,
      1785640678,
      1785640738,
      1785640798,
      1785640858,
      1785640918,
      1785640978,
      1785641038,
      1785641098,
      1785641219,
      1785641279,
      1785641339,
      1785641399,
      1785641459,
      1785641579,
      1785641639,
      1785641699,
      1785641819,
      1785641939,
      1785642000,
      1785642060,
      1785642180,
      1785642240,
      1785642300,
      1785642360,
      1785642420,
      1785642480,
      1785642660,
      1785642720,
      1785642780,
      1785642841,
      1785642901,
      1785642961,
      1785642987,
      1785643021,
      1785643047,
      1785643081,
      1785643107,
      1785643167,
      1785643227,
      1785643261,
      1785643321,
      1785643347,
      1785643381,
      1785643407,
      1785643441,
      1785643467,
      1785643501,
      1785643587,
      1785643621,
      1785643647,
      1785643681,
      1785643707,
      1785643742,
      1785643767,
      1785643802,
      1785643862,
      1785643887,
      1785643922,
      1785643947,
      1785643982,
      1785644008,
      1785644042,
      1785644068,
      1785644102,
      1785644128,
      1785644162,
      1785644188,
      1785644248,
      1785644282,
      1785644342,
      1785644402,
      1785644428,
      1785644462,
      1785644488,
      1785644548,
      1785644582,
      1785644608,
      1785644643,
      1785644668,
      1785644703,
      1785644728,
      1785644848,
      1785644908,
      1785644968,
      1785645028,
      1785645088,
      1785645149,
      1785645209,
      1785645269,
      1785645329,
      1785645389,
      1785645449,
      1785645509,
      1785645569,
      1785645629,
      1785645689,
      1785645749,
      1785645809,
      1785645869,
      1785645989,
      1785646049,
      1785646169,
      1785646290,
      1785646350,
      1785646410,
      1785646470,
      1785646478,
      1785646526,
      1785646586,
      1785646650,
      1785646706,
      1785646766,
      1785646826,
      1785646890,
      1785646950,
      1785647010,
      1785647070,
      1785647130,
      1785647246,
      1785647306,
      1785647370
    ],
    "wof:geomhash": "c589fed023c4d17420d76fe58a203043",
    "wof:id": 2032056641,
    "wof:repo": "sfomuseum-data-flights-2026-08"
  },
  "bbox": [
    -122.68861111111111,
    37.43666666666666,
    -73.51666666666667,
    43.212500000000006
  ],
  "geometry": {"coordinates":[[-73.76666666666667,40.63333333333333],[-73.73333333333333,40.61666666666667],[-73.69972222222222,40.60138888888889],[-73.65,40.6],[-73.60777777777777,40.617222222222225],[-73.56666666666666,40.65],[-73.55055555555555,40.67944444444444],[-73.51666666666667,40.71666666666667],[-73.51666666666667,40.8],[-73.53444444444445,40.83277777777778],[-73.56666666666666,40.88333333333333],[-73.60472222222222,40.91555555555556],[-73.71361111111112,40.974444444444444],[-73.84888888888888,40.99666666666667],[-74.125,41.043055555555554],[-74.27361111111111,41.0675],[-74.42222222222223,41.091944444444444],[-74.57083333333333,41.11611111111111],[-74.71083333333334,41.14472222222222],[-74.84833333333333,41.20305555555556],[-74.9825,41.26111111111111],[-75.12166666666666,41.321111111111115],[-75.26055555555556,41.380833333333335],[-75.40138888888889,41.44083333333333],[-75.58388888888888,41.50472222222222],[-75.69972222222222,41.53777777777778],[-75.73805555555556,41.54861111111111],[-75.84638888888888,41.580000000000005],[-75.89277777777778,41.593333333333334],[-75.99833333333333,41.62305555555555],[-76.15055555555556,41.66583333333333],[-76.22527777777778,41.68694444444444],[-76.335,41.7175],[-76.37944444444443,41.730000000000004],[-76.48472222222222,41.75944444444445],[-76.53027777777778,41.77194444444444],[-76.68416666666667,41.81444444444444],[-76.7761111111111,41.83972222222222],[-76.84027777777777,41.85722222222223],[-76.93361111111112,41.882777777777775],[-76.99805555555555,41.900555555555556],[-77.08833333333332,41.92472222222222],[-77.15277777777779,41.94222222222222],[-77.24666666666667,41.967222222222226],[-77.3086111111111,41.98388888888889],[-77.46666666666667,42.02638888888889],[-77.55916666666667,42.05166666666666],[-77.6261111111111,42.069722222222225],[-77.71944444444445,42.095],[-77.78361111111111,42.112500000000004],[-77.87833333333333,42.13777777777778],[-77.94388888888889,42.155277777777776],[-78.03916666666666,42.18083333333333],[-78.20027777777779,42.22361111111111],[-78.23277777777778,42.23222222222223],[-78.39472222222223,42.27333333333333],[-78.55416666666666,42.31222222222222],[-78.87277777777777,42.39055555555556],[-79.05611111111111,42.43527777777778],[-79.18833333333333,42.4675],[-79.34527777777777,42.505833333333335],[-79.50111111111111,42.543055555555554],[-79.66000000000001,42.58111111111111],[-79.99638888888889,42.62111111111111],[-80.15944444444445,42.628055555555555],[-80.32305555555556,42.63472222222222],[-80.65611111111112,42.6475],[-80.82305555555556,42.65277777777778],[-80.98861111111111,42.65833333333333],[-81.32083333333333,42.67305555555555],[-81.485,42.69194444444444],[-81.64916666666667,42.71055555555556],[-81.82388888888889,42.73027777777778],[-81.99027777777778,42.74888888888889],[-82.15611111111112,42.76694444444444],[-82.49138888888889,42.80305555555555],[-82.82805555555555,42.84666666666667],[-83.16611111111112,42.89194444444444],[-83.50777777777778,42.913333333333334],[-83.66361111111112,42.913888888888884],[-83.83694444444444,42.914722222222224],[-83.85111111111111,42.914722222222224],[-84.01583333333333,42.915],[-84.02777777777777,42.915],[-84.19555555555556,42.91555555555556],[-84.20583333333333,42.91555555555556],[-84.37444444444444,42.91555555555556],[-84.55416666666666,42.915277777777774],[-84.5886111111111,42.915],[-84.73611111111111,42.91444444444444],[-84.77,42.91444444444444],[-84.91166666666668,42.91361111111111],[-84.94694444444445,42.91361111111111],[-85.09138888888889,42.9125],[-85.12388888888889,42.9125],[-85.27166666666666,42.91111111111111],[-85.30333333333333,42.91083333333333],[-85.44944444444445,42.909444444444446],[-85.62777777777777,42.9075],[-85.80444444444444,42.905277777777776],[-85.83694444444444,42.90472222222222],[-85.98444444444445,42.902499999999996],[-86.13361111111112,42.9],[-86.35111111111111,42.896388888888886],[-86.49361111111111,42.89361111111111],[-86.52972222222222,42.89277777777778],[-86.67333333333333,42.89],[-86.8561111111111,42.88583333333333],[-87.07666666666667,42.88055555555555],[-87.22111111111111,42.87694444444445],[-87.4038888888889,42.87222222222222],[-87.59305555555555,42.86694444444444],[-87.63527777777779,42.86555555555556],[-87.77944444444444,42.861111111111114],[-87.83138888888888,42.85944444444445],[-87.97888888888889,42.85444444444445],[-88.14916666666667,42.84916666666667],[-88.33166666666666,42.84277777777778],[-88.69972222222222,42.82888888888889],[-88.87972222222221,42.82166666666667],[-89.0625,42.814166666666665],[-89.24194444444444,42.80638888888888],[-89.59472222222222,42.79055555555556],[-89.70055555555555,42.78527777777778],[-89.76916666666666,42.782222222222224],[-89.87694444444443,42.77722222222222],[-89.94583333333334,42.77361111111111],[-90.04638888888888,42.76833333333333],[-90.12777777777777,42.76416666666667],[-90.22055555555556,42.75944444444445],[-90.47333333333333,42.74611111111111],[-90.57666666666667,42.74027777777778],[-90.64472222222223,42.74111111111111],[-90.74888888888889,42.750277777777775],[-90.81583333333333,42.756388888888885],[-91.0886111111111,42.78055555555555],[-91.15472222222223,42.78638888888889],[-91.32555555555555,42.80083333333333],[-91.42916666666667,42.80972222222222],[-91.4961111111111,42.815555555555555],[-91.76027777777777,42.83722222222222],[-91.82638888888889,42.84277777777778],[-91.9325,42.85138888888889],[-91.99888888888889,42.85638888888889],[-92.10527777777777,42.865],[-92.17361111111111,42.87027777777778],[-92.27777777777777,42.878055555555555],[-92.34555555555555,42.88333333333333],[-92.44861111111112,42.89111111111111],[-92.51805555555555,42.896388888888886],[-92.62194444444444,42.90416666666667],[-92.69388888888889,42.909444444444446],[-92.79888888888888,42.91722222222222],[-92.86666666666666,42.92194444444444],[-92.97194444444445,42.92944444444444],[-93.04083333333332,42.93444444444444],[-93.14555555555556,42.94166666666666],[-93.21555555555555,42.94638888888888],[-93.32333333333332,42.953611111111115],[-93.39111111111112,42.958333333333336],[-93.49861111111112,42.96555555555556],[-93.56861111111111,42.97],[-93.67444444444445,42.97694444444445],[-93.745,42.981388888888894],[-93.85249999999999,42.98833333333334],[-93.92083333333333,42.9925],[-94.02638888888889,42.99888888888889],[-94.20111111111112,43.00944444444445],[-94.38055555555555,43.02027777777778],[-94.55694444444444,43.030277777777776],[-94.72944444444444,43.04],[-94.90472222222223,43.04944444444444],[-95.07777777777777,43.058611111111105],[-95.25111111111111,43.0675],[-95.60111111111111,43.084722222222226],[-95.95222222222222,43.10055555555556],[-96.30277777777778,43.11555555555556],[-96.48055555555555,43.12277777777778],[-96.83138888888888,43.13611111111111],[-97.00555555555556,43.1425],[-97.1825,43.14833333333333],[-97.35916666666667,43.15416666666667],[-97.53305555555555,43.15972222222222],[-97.70777777777778,43.164722222222224],[-97.8825,43.16972222222222],[-98.05833333333334,43.17444444444444],[-98.23388888888888,43.178888888888885],[-98.40972222222223,43.183055555555555],[-98.58694444444444,43.18666666666666],[-98.76277777777777,43.19027777777777],[-98.87444444444444,43.19194444444444],[-98.93583333333333,43.19361111111111],[-99.05222222222221,43.19583333333333],[-99.22305555555556,43.198611111111106],[-99.29722222222222,43.19972222222222],[-99.46972222222223,43.202222222222225],[-99.57444444444444,43.20333333333333],[-99.64111111111112,43.20416666666667],[-99.74527777777777,43.20444444444445],[-99.81555555555555,43.20611111111111],[-99.91805555555555,43.20638888888889],[-99.98777777777778,43.20805555555556],[-100.27972222222222,43.20888888888889],[-100.33722222222222,43.21055555555556],[-100.51444444444445,43.21138888888889],[-100.61805555555554,43.211666666666666],[-100.68944444444445,43.21194444444445],[-100.79166666666667,43.21222222222222],[-100.86305555555555,43.21222222222222],[-100.97888888888889,43.21083333333333],[-101.03722222222223,43.212500000000006],[-101.14194444444445,43.21222222222222],[-101.20944444444444,43.21222222222222],[-101.31333333333333,43.21194444444445],[-101.38111111111111,43.211666666666666],[-101.49361111111111,43.209722222222226],[-101.65694444444445,43.21055555555556],[-101.7238888888889,43.21027777777778],[-101.83055555555555,43.20944444444445],[-101.89750000000001,43.20888888888889],[-102.00611111111111,43.205000000000005],[-102.06777777777778,43.2075],[-102.18027777777779,43.20638888888889],[-102.24194444444444,43.20583333333334],[-102.35083333333333,43.20444444444445],[-102.52111111111111,43.198611111111106],[-102.58277777777778,43.20138888888889],[-102.69611111111111,43.2],[-102.865,43.197222222222216],[-103.03611111111111,43.190555555555555],[-103.38138888888888,43.187777777777775],[-103.72416666666666,43.18],[-103.89694444444446,43.17583333333333],[-104.06472222222222,43.1725],[-104.23555555555555,43.1675],[-104.40805555555556,43.161944444444444],[-104.74472222222222,43.15277777777778],[-104.91777777777779,43.14555555555555],[-105.08722222222222,43.14083333333333],[-105.25777777777778,43.13333333333333],[-105.42861111111111,43.126666666666665],[-105.80638888888889,43.111666666666665],[-106.14861111111112,43.09666666666667],[-106.32222222222222,43.0825],[-106.45583333333333,43.058055555555555],[-106.62194444444444,43.02722222222222],[-106.82055555555556,42.99027777777778],[-106.95111111111112,42.965833333333336],[-107.45194444444445,42.86944444444445],[-107.61222222222221,42.83833333333334],[-107.93527777777778,42.77472222222222],[-108.41916666666667,42.677499999999995],[-108.74305555555556,42.611111111111114],[-108.90555555555557,42.577222222222225],[-109.06833333333333,42.543055555555554],[-109.23055555555555,42.509166666666665],[-109.39416666666668,42.47416666666667],[-109.55583333333333,42.43944444444444],[-109.71555555555555,42.405],[-109.90833333333335,42.363055555555555],[-110.06833333333333,42.32777777777778],[-110.22833333333334,42.2925],[-110.54527777777777,42.221944444444446],[-110.70527777777778,42.18555555555555],[-110.8625,42.14972222222222],[-111.00416666666666,42.117222222222225],[-111.16000000000001,42.08111111111111],[-111.46861111111112,42.009166666666665],[-111.62222222222222,41.973055555555554],[-111.77638888888889,41.936388888888885],[-112.08055555555555,41.86361111111111],[-112.3875,41.788888888888884],[-112.54138888888889,41.75111111111111],[-112.69694444444445,41.71277777777778],[-113.0075,41.63527777777778],[-113.16166666666668,41.59638888888889],[-113.31694444444445,41.55722222222222],[-113.50305555555556,41.50972222222222],[-113.65583333333333,41.47027777777778],[-113.80944444444444,41.430277777777775],[-114.25888888888889,41.312777777777775],[-114.40666666666667,41.27333333333333],[-114.55138888888888,41.234722222222224],[-114.69666666666667,41.19555555555555],[-114.84444444444443,41.155833333333334],[-114.98194444444445,41.11833333333333],[-115.0411111111111,41.1025],[-115.1261111111111,41.07916666666667],[-115.185,41.06222222222222],[-115.27027777777778,41.03944444444444],[-115.33027777777778,41.022777777777776],[-115.47111111111111,40.98388888888889],[-115.61444444444444,40.94444444444444],[-115.69777777777779,40.92055555555555],[-115.8386111111111,40.880833333333335],[-115.89583333333334,40.865],[-115.98083333333334,40.840833333333336],[-116.0375,40.82472222222223],[-116.12138888888889,40.801111111111105],[-116.17805555555556,40.78527777777778],[-116.26138888888889,40.76083333333333],[-116.46027777777778,40.70388888888889],[-116.54444444444444,40.67916666666667],[-116.60416666666666,40.661944444444444],[-116.68666666666667,40.63805555555555],[-116.74722222222222,40.62027777777778],[-116.83194444444445,40.595555555555556],[-116.89055555555557,40.57833333333333],[-116.97638888888889,40.55472222222222],[-117.12166666666666,40.51722222222222],[-117.18277777777779,40.50111111111111],[-117.26888888888888,40.478611111111114],[-117.32972222222222,40.462500000000006],[-117.41444444444446,40.44027777777777],[-117.47500000000001,40.424166666666665],[-117.56055555555555,40.40138888888889],[-117.62083333333332,40.38527777777778],[-117.7063888888889,40.362500000000004],[-117.765,40.34666666666667],[-117.85083333333333,40.323888888888895],[-117.93944444444445,40.29972222222222],[-118.06138888888889,40.266666666666666],[-118.1438888888889,40.24444444444445],[-118.28944444444444,40.20472222222222],[-118.4375,40.163888888888884],[-118.49861111111112,40.14694444444444],[-118.58277777777778,40.12388888888889],[-118.67166666666667,40.097500000000004],[-118.81444444444445,40.053888888888885],[-118.86833333333333,40.03777777777778],[-118.95722222222223,40.01111111111111],[-119.03777777777778,39.98638888888889],[-119.09694444444445,39.968333333333334],[-119.17833333333334,39.94361111111111],[-119.23722222222223,39.925555555555555],[-119.51944444444445,39.83861111111111],[-119.66166666666668,39.79472222222222],[-119.80527777777777,39.75],[-119.94888888888889,39.70472222222222],[-120.0911111111111,39.65972222222222],[-120.22111111111111,39.61888888888889],[-120.36305555555555,39.57361111111111],[-120.50583333333333,39.52777777777778],[-120.64888888888889,39.481944444444444],[-120.7936111111111,39.434999999999995],[-120.93777777777778,39.3875],[-121.06472222222222,39.31638888888889],[-121.18583333333333,39.24055555555556],[-121.30749999999999,39.16416666666667],[-121.43111111111112,39.08638888888889],[-121.54916666666666,39.01166666666666],[-121.66972222222223,38.93472222222222],[-121.78666666666666,38.86055555555556],[-122.01472222222222,38.714444444444446],[-122.13027777777778,38.64],[-122.35749999999999,38.49277777777778],[-122.575,38.350833333333334],[-122.67583333333334,38.28055555555555],[-122.68861111111111,38.17666666666666],[-122.68277777777779,38.07361111111111],[-122.68333333333334,38.03333333333333],[-122.68333333333334,37.96666666666667],[-122.63333333333334,37.86666666666667],[-122.56138888888889,37.79361111111111],[-122.48333333333333,37.71666666666667],[-122.41666666666667,37.666666666666664],[-122.35,37.6],[-122.31444444444445,37.51972222222222],[-122.25055555555555,37.46],[-122.15666666666667,37.43666666666666],[-122.10694444444444,37.49111111111111],[-122.1675,37.53138888888889],[-122.28333333333333,37.583333333333336],[-122.33333333333333,37.6],[-122.36972222222222,37.61638888888889]],"type":"LineString"}
}
