{
  "id": 2047931587,
  "type": "Feature",
  "properties": {
    "geom:area": 0,
    "geom:bbox": "-122.408320,37.626810,-121.250690,37.964490",
    "geom:latitude": 37.830069948667,
    "geom:longitude": -121.85334940059454,
    "src:alt_label": "swim-takeoff",
    "src:geom": "swim",
    "swim:elevations": [
      152,
      244,
      610,
      805,
      1195,
      1257,
      1579,
      1907,
      2432,
      2645,
      3236,
      3255,
      3929,
      4206,
      4800,
      4819,
      5193,
      5500,
      5963,
      6340,
      6443,
      6939
    ],
    "swim:geom": "takeoff",
    "swim:timestamps": [
      1786448007,
      1786448013,
      1786448053,
      1786448072,
      1786448119,
      1786448132,
      1786448160,
      1786448193,
      1786448234,
      1786448253,
      1786448309,
      1786448313,
      1786448386,
      1786448413,
      1786448458,
      1786448461,
      1786448494,
      1786448526,
      1786448573,
      1786448610,
      1786448621,
      1786448672
    ],
    "wof:geomhash": "eea47c31c7e08c001194637324bd563e",
    "wof:id": 2047931587,
    "wof:repo": "sfomuseum-data-flights-2026-08"
  },
  "bbox": [
    -122.40832,
    37.62681,
    -121.25069,
    37.96449
  ],
  "geometry": {"type":"LineString","coordinates":[[-122.3945,37.62681],[-122.40014,37.62914],[-122.40832,37.65828],[-122.38845,37.66571],[-122.33481,37.67918],[-122.31727,37.68493],[-122.27794,37.69737],[-122.22672,37.71366],[-122.16576,37.74259],[-122.13741,37.75703],[-122.05229,37.80143],[-122.04572,37.80484],[-121.8997,37.84534],[-121.84153,37.85597],[-121.74529,37.87392],[-121.73875,37.87513],[-121.66485,37.88896],[-121.59264,37.90222],[-121.48535,37.92192],[-121.39964,37.93753],[-121.37226,37.94252],[-121.25069,37.96449]]}
}
