{
  "id": 2047931587,
  "type": "Feature",
  "properties": {
    "geom:area": 0,
    "geom:bbox": "-122.403889,37.630833,-82.651944,41.160556",
    "geom:latitude": 39.617076750033185,
    "geom:longitude": -102.3436590577543,
    "src:alt_label": "swim-path",
    "src:geom": "swim",
    "swim:altitudes": [
      "010",
      "030",
      "043",
      "065",
      "089",
      "108",
      "126",
      "147",
      "172",
      "191",
      "211",
      "230",
      "241",
      "259",
      "272",
      "290",
      "305",
      "310",
      "313",
      "316",
      "321",
      "326",
      "332",
      "337",
      "345",
      "350C",
      "350C",
      "350C",
      "350C",
      "350C",
      "350C",
      "350C",
      "350C",
      "350C",
      "350C",
      "350C",
      "350C",
      "350C",
      "350C",
      "350C",
      "350C",
      "350C",
      "350C",
      "350C",
      "350C",
      "350C",
      "350C",
      "350C",
      "350C",
      "350C",
      "350C",
      "350C",
      "350C",
      "350C",
      "350C",
      "350C",
      "350C",
      "350C",
      "350C",
      "350C",
      "350C",
      "350C",
      "350C",
      "350C",
      "350C",
      "350C",
      "350C",
      "350C",
      "350C",
      "350C",
      "350C",
      "350C",
      "350C",
      "350",
      "356",
      "365",
      "370C",
      "370C",
      "370C",
      "370C",
      "370C",
      "370C",
      "370C",
      "370C",
      "370C",
      "370C",
      "370C",
      "370C",
      "370C",
      "370C",
      "370C",
      "370C",
      "370C",
      "370C",
      "370C",
      "370C",
      "370C",
      "370C",
      "370C",
      "370C",
      "370C",
      "370C",
      "370C",
      "370C",
      "370C",
      "370C",
      "370C",
      "370C",
      "370C",
      "370C",
      "370C",
      "370C",
      "370C",
      "370C",
      "370C",
      "370C",
      "370C",
      "370C",
      "370C",
      "370C",
      "370C",
      "370C",
      "370C",
      "370C",
      "370C",
      "370C",
      "370C",
      "370C",
      "370C",
      "370C",
      "370C",
      "370C",
      "370C",
      "370C",
      "370C",
      "370C",
      "370C",
      "370C",
      "370C",
      "370C",
      "370C",
      "370C",
      "370C",
      "370C",
      "370C",
      "370C",
      "370C",
      "370C",
      "370C",
      "370C",
      "370C",
      "370C",
      "370C",
      "370C",
      "370C",
      "370C",
      "370C",
      "370C",
      "370C",
      "370C",
      "370C",
      "370C",
      "370C",
      "370C",
      "370C",
      "370C",
      "370C",
      "370C",
      "370C",
      "370C",
      "370C",
      "370C",
      "370C",
      "370C",
      "370C",
      "370C",
      "370C",
      "370C",
      "370C",
      "370C",
      "370C",
      "370C",
      "370C",
      "370C",
      "370C",
      "370C",
      "370C",
      "370C",
      "370C",
      "370C",
      "370C",
      "370C",
      "370C",
      "370C",
      "370C",
      "370C",
      "370C",
      "370C",
      "370C",
      "370C",
      "370C",
      "370C",
      "370C",
      "370C",
      "370C",
      "370C",
      "370C",
      "370C",
      "370C",
      "370C",
      "370C",
      "370C",
      "370C",
      "370C",
      "370C",
      "370C",
      "370C",
      "370C",
      "370C",
      "370C",
      "370C",
      "370C",
      "370C",
      "370C",
      "370C",
      "370C",
      "370C",
      "370C",
      "370C",
      "370C",
      "370",
      "373",
      "382",
      "389C",
      "390C",
      "390C",
      "390C",
      "390C",
      "390C",
      "390C",
      "390C",
      "390C",
      "390C",
      "390C",
      "390C",
      "390C",
      "390C",
      "390C",
      "390C",
      "390C",
      "390C",
      "390C",
      "390",
      "390",
      "390",
      "390",
      "390",
      "390",
      "383",
      "379",
      "374",
      "370",
      "365",
      "361",
      "355",
      "352C",
      "350C",
      "350C",
      "350C",
      "350C",
      "350C",
      "350C",
      "350C",
      "350C",
      "350C",
      "350C",
      "350C",
      "350",
      "346",
      "341",
      "336",
      "333",
      "326",
      "323",
      "317",
      "313",
      "307",
      "303",
      "295",
      "291",
      "286",
      "280",
      "262",
      "257",
      "239",
      "233",
      "230C",
      "230C",
      "230",
      "230",
      "230",
      "230",
      "230",
      "230",
      "222",
      "216",
      "200",
      "193",
      "188",
      "178",
      "172",
      "163",
      "158",
      "152",
      "145",
      "137",
      "121",
      "106",
      "100",
      "094",
      "089",
      "080",
      "067",
      "056",
      "048",
      "034",
      "032",
      "030",
      "032",
      "030",
      "032",
      "030",
      "021",
      "012"
    ],
    "swim:geom": "path",
    "swim:speeds": [
      174,
      199,
      246,
      284,
      302,
      328,
      366,
      382,
      385,
      399,
      407,
      417,
      428,
      442,
      455,
      455,
      453,
      451,
      457,
      456,
      468,
      469,
      473,
      472,
      470,
      473,
      465,
      469,
      463,
      464,
      461,
      461,
      459,
      456,
      458,
      456,
      458,
      457,
      458,
      457,
      463,
      460,
      462,
      461,
      462,
      461,
      461,
      461,
      461,
      461,
      462,
      462,
      463,
      464,
      464,
      465,
      465,
      466,
      467,
      467,
      468,
      468,
      469,
      469,
      469,
      469,
      469,
      469,
      468,
      467,
      467,
      465,
      465,
      466,
      473,
      474,
      474,
      475,
      475,
      476,
      477,
      479,
      480,
      480,
      481,
      481,
      480,
      479,
      479,
      478,
      478,
      477,
      477,
      478,
      478,
      477,
      476,
      476,
      476,
      477,
      477,
      478,
      478,
      479,
      479,
      480,
      481,
      481,
      481,
      481,
      481,
      482,
      482,
      483,
      482,
      482,
      481,
      480,
      481,
      481,
      481,
      481,
      482,
      483,
      483,
      482,
      482,
      482,
      482,
      482,
      482,
      482,
      481,
      477,
      476,
      476,
      485,
      476,
      479,
      477,
      479,
      478,
      479,
      479,
      479,
      481,
      480,
      483,
      480,
      484,
      481,
      484,
      482,
      484,
      482,
      483,
      482,
      482,
      482,
      481,
      482,
      479,
      482,
      476,
      480,
      475,
      480,
      473,
      473,
      476,
      473,
      475,
      474,
      476,
      476,
      476,
      477,
      477,
      478,
      478,
      478,
      478,
      477,
      480,
      472,
      470,
      472,
      471,
      471,
      472,
      472,
      474,
      475,
      476,
      476,
      476,
      475,
      475,
      474,
      474,
      474,
      474,
      474,
      474,
      473,
      473,
      473,
      474,
      475,
      475,
      476,
      478,
      479,
      480,
      481,
      481,
      480,
      480,
      480,
      480,
      481,
      482,
      482,
      483,
      483,
      483,
      485,
      485,
      485,
      484,
      484,
      484,
      490,
      491,
      491,
      491,
      490,
      489,
      488,
      487,
      486,
      485,
      485,
      485,
      485,
      485,
      485,
      485,
      485,
      484,
      485,
      484,
      485,
      483,
      483,
      481,
      481,
      480,
      483,
      490,
      501,
      501,
      504,
      507,
      508,
      507,
      506,
      506,
      506,
      507,
      508,
      508,
      509,
      509,
      513,
      515,
      517,
      518,
      517,
      516,
      514,
      515,
      514,
      515,
      515,
      516,
      522,
      523,
      524,
      524,
      523,
      522,
      504,
      501,
      479,
      477,
      474,
      475,
      474,
      475,
      476,
      476,
      476,
      477,
      478,
      478,
      469,
      463,
      449,
      438,
      430,
      420,
      420,
      416,
      412,
      414,
      406,
      388,
      332,
      328,
      323,
      326,
      313,
      270,
      261,
      233,
      216,
      210,
      212,
      212,
      214,
      216,
      177,
      162
    ],
    "swim:timestamps": [
      1786473225,
      1786473285,
      1786473345,
      1786473405,
      1786473465,
      1786473525,
      1786473585,
      1786473645,
      1786473706,
      1786473766,
      1786473826,
      1786473886,
      1786473946,
      1786474006,
      1786474066,
      1786474126,
      1786474186,
      1786474209,
      1786474246,
      1786474269,
      1786474306,
      1786474329,
      1786474367,
      1786474389,
      1786474427,
      1786474449,
      1786474487,
      1786474509,
      1786474547,
      1786474569,
      1786474607,
      1786474629,
      1786474667,
      1786474689,
      1786474727,
      1786474749,
      1786474787,
      1786474809,
      1786474847,
      1786474870,
      1786474930,
      1786474967,
      1786474990,
      1786475027,
      1786475050,
      1786475088,
      1786475110,
      1786475148,
      1786475170,
      1786475208,
      1786475230,
      1786475268,
      1786475290,
      1786475328,
      1786475350,
      1786475388,
      1786475410,
      1786475448,
      1786475470,
      1786475508,
      1786475530,
      1786475568,
      1786475591,
      1786475628,
      1786475651,
      1786475688,
      1786475711,
      1786475749,
      1786475771,
      1786475809,
      1786475831,
      1786475891,
      1786475951,
      1786476011,
      1786476071,
      1786476131,
      1786476191,
      1786476251,
      1786476311,
      1786476372,
      1786476432,
      1786476492,
      1786476552,
      1786476612,
      1786476672,
      1786476732,
      1786476792,
      1786476852,
      1786476912,
      1786477032,
      1786477153,
      1786477273,
      1786477333,
      1786477458,
      1786477518,
      1786477579,
      1786477699,
      1786477753,
      1786477814,
      1786477874,
      1786477934,
      1786477999,
      1786478054,
      1786478114,
      1786478174,
      1786478234,
      1786478300,
      1786478360,
      1786478420,
      1786478426,
      1786478486,
      1786478540,
      1786478546,
      1786478600,
      1786478660,
      1786478720,
      1786478780,
      1786478840,
      1786478900,
      1786478960,
      1786479021,
      1786479081,
      1786479141,
      1786479201,
      1786479261,
      1786479321,
      1786479381,
      1786479441,
      1786479501,
      1786479561,
      1786479621,
      1786479681,
      1786479742,
      1786479802,
      1786479862,
      1786479922,
      1786479950,
      1786479982,
      1786480010,
      1786480042,
      1786480070,
      1786480102,
      1786480130,
      1786480162,
      1786480190,
      1786480222,
      1786480250,
      1786480282,
      1786480310,
      1786480342,
      1786480370,
      1786480402,
      1786480430,
      1786480463,
      1786480490,
      1786480523,
      1786480551,
      1786480583,
      1786480611,
      1786480643,
      1786480671,
      1786480703,
      1786480731,
      1786480763,
      1786480791,
      1786480823,
      1786480851,
      1786480883,
      1786480943,
      1786480971,
      1786481003,
      1786481031,
      1786481063,
      1786481091,
      1786481123,
      1786481151,
      1786481184,
      1786481211,
      1786481244,
      1786481272,
      1786481304,
      1786481364,
      1786481428,
      1786481488,
      1786481548,
      1786481604,
      1786481668,
      1786481728,
      1786481788,
      1786481848,
      1786481908,
      1786481965,
      1786482029,
      1786482089,
      1786482149,
      1786482209,
      1786482269,
      1786482329,
      1786482389,
      1786482449,
      1786482509,
      1786482569,
      1786482629,
      1786482690,
      1786482750,
      1786482810,
      1786482870,
      1786482930,
      1786482990,
      1786483050,
      1786483110,
      1786483170,
      1786483230,
      1786483290,
      1786483350,
      1786483410,
      1786483471,
      1786483531,
      1786483591,
      1786483651,
      1786483711,
      1786483771,
      1786483831,
      1786483891,
      1786483951,
      1786484011,
      1786484131,
      1786484192,
      1786484252,
      1786484312,
      1786484372,
      1786484432,
      1786484494,
      1786484554,
      1786484614,
      1786484674,
      1786484734,
      1786484795,
      1786484855,
      1786484915,
      1786484975,
      1786485035,
      1786485055,
      1786485095,
      1786485155,
      1786485175,
      1786485215,
      1786485275,
      1786485295,
      1786485336,
      1786485355,
      1786485396,
      1786485416,
      1786485456,
      1786485476,
      1786485516,
      1786485536,
      1786485576,
      1786485636,
      1786485656,
      1786485696,
      1786485716,
      1786485756,
      1786485776,
      1786485816,
      1786485836,
      1786485877,
      1786485896,
      1786485937,
      1786485956,
      1786485997,
      1786486017,
      1786486057,
      1786486077,
      1786486117,
      1786486137,
      1786486177,
      1786486197,
      1786486237,
      1786486257,
      1786486297,
      1786486317,
      1786486357,
      1786486377,
      1786486417,
      1786486437,
      1786486478,
      1786486497,
      1786486538,
      1786486557,
      1786486598,
      1786486617,
      1786486658,
      1786486678,
      1786486718,
      1786486738,
      1786486778,
      1786486798,
      1786486838,
      1786486858,
      1786486898,
      1786486918,
      1786486958,
      1786486978,
      1786487018,
      1786487038,
      1786487079,
      1786487098,
      1786487107,
      1786487139,
      1786487158,
      1786487179,
      1786487199,
      1786487218,
      1786487233,
      1786487259,
      1786487293,
      1786487347,
      1786487420,
      1786487459,
      1786487468,
      1786487519,
      1786487579,
      1786487639,
      1786487654,
      1786487714,
      1786487759,
      1786487774,
      1786487819,
      1786487834,
      1786487879,
      1786487894,
      1786487948,
      1786488009
    ],
    "wof:geomhash": "a0e063559a265b2e37b7fd3af40f6b2d",
    "wof:id": 2047931587,
    "wof:repo": "sfomuseum-data-flights-2026-08"
  },
  "bbox": [
    -122.4038888888889,
    37.630833333333335,
    -82.65194444444445,
    41.160555555555554
  ],
  "geometry": {"type":"LineString","coordinates":[[-122.4038888888889,37.630833333333335],[-122.3825,37.666666666666664],[-122.31,37.68722222222222],[-122.22055555555556,37.715833333333336],[-122.13111111111111,37.76027777777778],[-122.03833333333333,37.808611111111105],[-121.91805555555555,37.841944444444444],[-121.78916666666666,37.86555555555556],[-121.65194444444445,37.89138888888889],[-121.51583333333333,37.91638888888889],[-121.3761111111111,37.94194444444444],[-121.23388888888888,37.9675],[-121.11777777777777,37.98833333333334],[-120.93472222222222,38.01722222222222],[-120.7775,38.04111111111111],[-120.62249999999999,38.065],[-120.46694444444445,38.08861111111111],[-120.40138888888889,38.09722222222222],[-120.31027777777777,38.11194444444445],[-120.24194444444444,38.11972222222222],[-120.14944444444446,38.135555555555555],[-120.07833333333333,38.144444444444446],[-119.98361111111112,38.16027777777778],[-119.91388888888889,38.16916666666666],[-119.82055555555556,38.18416666666666],[-119.75111111111111,38.19138888888889],[-119.66166666666668,38.20666666666667],[-119.59166666666667,38.21472222222223],[-119.50138888888888,38.22916666666667],[-119.43333333333334,38.23722222222222],[-119.33972222222222,38.25194444444445],[-119.27555555555556,38.26],[-119.18138888888889,38.274166666666666],[-119.11861111111111,38.281666666666666],[-119.02222222222223,38.29611111111111],[-118.95972222222223,38.30361111111111],[-118.86361111111111,38.31777777777778],[-118.80027777777778,38.325],[-118.70361111111112,38.33916666666667],[-118.64194444444445,38.34638888888889],[-118.48194444444445,38.36888888888889],[-118.38305555555554,38.38194444444444],[-118.31472222222222,38.39083333333333],[-118.22472222222223,38.402499999999996],[-118.15361111111112,38.41166666666666],[-118.06055555555555,38.42361111111111],[-117.99055555555556,38.43277777777777],[-117.89361111111111,38.44499999999999],[-117.83,38.45305555555556],[-117.72972222222222,38.465833333333336],[-117.66805555555555,38.473333333333336],[-117.56722222222221,38.486111111111114],[-117.50194444444445,38.494166666666665],[-117.4025,38.506388888888885],[-117.33972222222222,38.513888888888886],[-117.23611111111111,38.52611111111111],[-117.17083333333333,38.532222222222224],[-117.07,38.54194444444444],[-117.00527777777778,38.54833333333333],[-116.9038888888889,38.55833333333333],[-116.83805555555556,38.56444444444444],[-116.73861111111111,38.57416666666667],[-116.67166666666667,38.580555555555556],[-116.57138888888889,38.59],[-116.50722222222223,38.596111111111114],[-116.40527777777778,38.605555555555554],[-116.34194444444444,38.61138888888889],[-116.24055555555556,38.62083333333334],[-116.17694444444444,38.626666666666665],[-116.07583333333334,38.63583333333333],[-116.01277777777777,38.64138888888889],[-115.84861111111111,38.65611111111111],[-115.71722222222222,38.66722222222222],[-115.55083333333333,38.681666666666665],[-115.38361111111112,38.69583333333333],[-115.20166666666667,38.71083333333333],[-115.0363888888889,38.724444444444444],[-114.86833333333333,38.738055555555555],[-114.70027777777779,38.75111111111111],[-114.53138888888888,38.76416666666667],[-114.3611111111111,38.776944444444446],[-114.19527777777778,38.78944444444444],[-114.02666666666667,38.80166666666666],[-113.85527777777777,38.81361111111111],[-113.68583333333333,38.82555555555556],[-113.515,38.83722222222222],[-113.345,38.84861111111111],[-113.1763888888889,38.85944444444445],[-113.00611111111111,38.870555555555555],[-112.66666666666667,38.89138888888889],[-112.32944444444443,38.91111111111111],[-111.99222222222222,38.93],[-111.82333333333332,38.939166666666665],[-111.44388888888889,38.956944444444446],[-111.27416666666666,38.96666666666667],[-111.10527777777777,38.974722222222226],[-110.76638888888888,38.99],[-110.62972222222221,38.99583333333334],[-110.46138888888889,39.003055555555555],[-110.29333333333334,39.00972222222222],[-110.12388888888889,39.01638888888889],[-109.91916666666667,39.02388888888889],[-109.78333333333333,39.02861111111111],[-109.61138888888888,39.03472222222222],[-109.44194444444445,39.04055555555556],[-109.26944444444445,39.04694444444444],[-109.07111111111111,39.08305555555556],[-108.90555555555557,39.115],[-108.7388888888889,39.14694444444444],[-108.7388888888889,39.14694444444444],[-108.54027777777777,39.18277777777777],[-108.40722222222223,39.20583333333334],[-108.37583333333333,39.211111111111116],[-108.24083333333333,39.23416666666667],[-108.05444444444444,39.26555555555556],[-107.88666666666667,39.294999999999995],[-107.7213888888889,39.32277777777778],[-107.55444444444444,39.34916666666667],[-107.38555555555556,39.373333333333335],[-107.21138888888889,39.376111111111115],[-107.05638888888889,39.37861111111111],[-106.88277777777778,39.38055555555555],[-106.71138888888889,39.382222222222225],[-106.53694444444444,39.38361111111111],[-106.36472222222221,39.38472222222222],[-106.19166666666668,39.385555555555555],[-106.00222222222222,39.38638888888889],[-105.82888888888888,39.38666666666666],[-105.65805555555556,39.38666666666666],[-105.48388888888888,39.38638888888889],[-105.3125,39.38611111111111],[-105.14083333333333,39.38527777777778],[-104.97027777777778,39.38444444444444],[-104.80111111111111,39.38333333333333],[-104.63611111111112,39.38194444444444],[-104.46833333333333,39.38027777777778],[-104.37833333333333,39.37722222222222],[-104.2975,39.37861111111111],[-104.20805555555556,39.37638888888889],[-104.12833333333333,39.37638888888889],[-104.03555555555555,39.37361111111111],[-103.95694444444445,39.37388888888889],[-103.86472222222221,39.37138888888889],[-103.78472222222221,39.37138888888889],[-103.69083333333333,39.368611111111115],[-103.61222222222221,39.36833333333333],[-103.51861111111111,39.365],[-103.43694444444445,39.365],[-103.34333333333333,39.36277777777778],[-103.265,39.361666666666665],[-103.16944444444445,39.35916666666667],[-103.09222222222222,39.35805555555556],[-102.99527777777777,39.35583333333334],[-102.91888888888889,39.35388888888889],[-102.82194444444444,39.35166666666667],[-102.74583333333334,39.349444444444444],[-102.64972222222222,39.34722222222222],[-102.54527777777777,39.34444444444445],[-102.47805555555556,39.34277777777778],[-102.37138888888889,39.33972222222222],[-102.30638888888889,39.337500000000006],[-102.20333333333333,39.334722222222226],[-102.135,39.33305555555556],[-102.03166666666667,39.32916666666667],[-101.96555555555555,39.32777777777778],[-101.86388888888888,39.323888888888895],[-101.79583333333333,39.32166666666667],[-101.70305555555557,39.31861111111112],[-101.53361111111111,39.312777777777775],[-101.45694444444445,39.31111111111111],[-101.36638888888888,39.306666666666665],[-101.28888888888889,39.303888888888885],[-101.19694444444445,39.300555555555555],[-101.11972222222222,39.2975],[-101.02583333333334,39.29361111111111],[-100.94722222222222,39.290277777777774],[-100.85416666666666,39.28638888888889],[-100.77472222222222,39.283055555555556],[-100.68333333333334,39.27916666666667],[-100.60416666666666,39.27583333333333],[-100.51333333333334,39.27194444444444],[-100.34277777777777,39.26416666666667],[-100.1738888888889,39.265],[-100.00777777777778,39.30166666666666],[-99.84555555555555,39.33888888888889],[-99.69055555555556,39.37444444444444],[-99.53333333333333,39.41027777777778],[-99.37166666666666,39.446666666666665],[-99.17583333333334,39.49055555555556],[-99.01277777777777,39.526666666666664],[-98.85222222222221,39.56194444444444],[-98.71666666666667,39.59166666666667],[-98.51916666666666,39.63444444444444],[-98.35305555555556,39.67027777777778],[-98.22,39.698611111111106],[-98.0225,39.74055555555556],[-97.85749999999999,39.775],[-97.69361111111111,39.80916666666666],[-97.52972222222222,39.843333333333334],[-97.36222222222221,39.8775],[-97.23,39.90472222222222],[-97.0325,39.94472222222222],[-96.86722222222221,39.97777777777778],[-96.70138888888889,40.010555555555555],[-96.56888888888888,40.036944444444444],[-96.37194444444444,40.07527777777778],[-96.23972222222223,40.10138888888889],[-96.07305555555556,40.13305555555556],[-95.87388888888889,40.171388888888885],[-95.70583333333333,40.20305555555556],[-95.53666666666666,40.234722222222224],[-95.37083333333332,40.26555555555556],[-95.20055555555555,40.29694444444444],[-95.02916666666667,40.32833333333333],[-94.89416666666668,40.35277777777778],[-94.69250000000001,40.388888888888886],[-94.52333333333333,40.41916666666666],[-94.35,40.44972222222222],[-94.18111111111112,40.47916666666667],[-94.0075,40.50888888888889],[-93.83638888888889,40.538333333333334],[-93.66638888888889,40.56722222222223],[-93.49222222222222,40.59638888888889],[-93.32138888888889,40.625],[-93.14722222222223,40.65361111111111],[-92.9738888888889,40.681666666666665],[-92.62277777777777,40.738055555555555],[-92.44722222222222,40.76583333333333],[-92.27444444444444,40.793055555555554],[-92.09888888888888,40.82027777777778],[-91.92500000000001,40.846111111111114],[-91.75083333333333,40.87305555555555],[-91.57166666666666,40.9],[-91.39500000000001,40.92638888888889],[-91.24027777777778,40.94888888888889],[-91.06361111111111,40.974722222222226],[-90.88722222222223,41],[-90.71027777777778,41.025277777777774],[-90.53527777777778,41.04972222222222],[-90.35888888888888,41.07416666666667],[-90.18277777777779,41.09805555555556],[-90.00527777777778,41.117222222222225],[-89.94666666666667,41.12166666666667],[-89.82583333333334,41.1225],[-89.64527777777778,41.12694444444445],[-89.58944444444444,41.12861111111111],[-89.46555555555555,41.13111111111111],[-89.28555555555555,41.135],[-89.23555555555555,41.135555555555555],[-89.10805555555555,41.138333333333335],[-89.05805555555555,41.13916666666667],[-88.92916666666667,41.14194444444444],[-88.87916666666666,41.14277777777778],[-88.74944444444445,41.144999999999996],[-88.705,41.145833333333336],[-88.57416666666666,41.147777777777776],[-88.49472222222222,41.14888888888889],[-88.39861111111112,41.15],[-88.22027777777778,41.15222222222222],[-88.14305555555556,41.153055555555554],[-88.03527777777778,41.154444444444444],[-87.96111111111111,41.155277777777776],[-87.85027777777778,41.15611111111111],[-87.77638888888889,41.15694444444444],[-87.66250000000001,41.157777777777774],[-87.595,41.15833333333333],[-87.47666666666667,41.15888888888889],[-87.40916666666668,41.159166666666664],[-87.28916666666666,41.15972222222222],[-87.22305555555556,41.15972222222222],[-87.10388888888889,41.16],[-87.03722222222223,41.16027777777778],[-86.91444444444446,41.160555555555554],[-86.84916666666666,41.160555555555554],[-86.72694444444444,41.16027777777778],[-86.65972222222223,41.16],[-86.53583333333333,41.15222222222222],[-86.46222222222222,41.140277777777776],[-86.35194444444444,41.1225],[-86.27472222222222,41.11],[-86.16722222222222,41.092222222222226],[-86.09666666666666,41.080555555555556],[-85.98361111111112,41.06194444444444],[-85.91055555555556,41.04944444444444],[-85.79888888888888,41.03055555555555],[-85.72666666666667,41.01833333333333],[-85.61277777777777,40.99916666666667],[-85.53833333333333,40.98638888888889],[-85.42555555555556,40.967222222222226],[-85.35222222222221,40.95444444444445],[-85.24111111111111,40.93555555555555],[-85.16611111111112,40.92222222222222],[-85.02527777777777,40.8975],[-84.98861111111111,40.89111111111111],[-84.85416666666666,40.867222222222225],[-84.81166666666667,40.859722222222224],[-84.68916666666667,40.82611111111112],[-84.65166666666667,40.81472222222222],[-84.52777777777777,40.776666666666664],[-84.48916666666666,40.76444444444444],[-84.36777777777777,40.72638888888889],[-84.3261111111111,40.713055555555556],[-84.205,40.675],[-84.16555555555556,40.6625],[-84.04416666666667,40.62416666666667],[-84.00361111111111,40.611111111111114],[-83.88722222222223,40.57416666666667],[-83.84666666666666,40.561388888888885],[-83.80805555555555,40.54888888888889],[-83.73611111111111,40.52638888888889],[-83.69444444444444,40.51305555555555],[-83.63583333333334,40.4925],[-83.59583333333333,40.481388888888894],[-83.55472222222222,40.467777777777776],[-83.51333333333334,40.452222222222225],[-83.46166666666667,40.433055555555555],[-83.3875,40.39111111111111],[-83.28138888888888,40.331944444444446],[-83.17666666666668,40.245555555555555],[-83.13166666666666,40.20472222222222],[-83.11305555555555,40.19277777777778],[-83.03416666666666,40.154444444444444],[-82.94194444444445,40.10444444444445],[-82.8436111111111,40.08583333333333],[-82.81388888888888,40.084722222222226],[-82.72555555555556,40.08027777777778],[-82.66944444444445,40.07611111111112],[-82.65194444444445,40.06388888888888],[-82.65444444444445,40.02472222222222],[-82.65972222222223,40.00861111111111],[-82.70972222222223,39.99166666666667],[-82.73333333333333,39.99138888888889],[-82.79694444444445,39.99583333333334],[-82.85472222222222,39.99888888888889]]}
}
