{
  "id": 2032130069,
  "type": "Feature",
  "properties": {
    "geom:area": 0,
    "geom:bbox": "-123.491800,37.194170,-122.020440,37.612210",
    "geom:latitude": 37.32259261488622,
    "geom:longitude": -122.66742434599318,
    "src:alt_label": "swim-approach",
    "src:geom": "swim",
    "swim:elevations": [
      5273,
      4750,
      3968,
      3632,
      3421,
      3231,
      3137,
      3048,
      3048,
      3048,
      3048,
      3048,
      3048,
      3048,
      3048,
      3048,
      3048,
      3048,
      3048,
      3048,
      3049,
      3048,
      2987,
      2944,
      2745,
      2745,
      2739,
      2555,
      2438,
      2438,
      2437,
      2315,
      2209,
      2142,
      2111,
      2074,
      1829,
      1820,
      1658,
      1586,
      1524,
      1524,
      1524,
      1524,
      1525,
      1524,
      1521,
      1523,
      1261,
      941,
      889,
      774,
      710,
      466,
      416,
      334,
      227,
      99,
      89
    ],
    "swim:geom": "approach",
    "swim:timestamps": [
      1786016678,
      1786016734,
      1786016813,
      1786016848,
      1786016873,
      1786016906,
      1786016925,
      1786016961,
      1786016989,
      1786016993,
      1786017026,
      1786017031,
      1786017050,
      1786017077,
      1786017090,
      1786017129,
      1786017174,
      1786017202,
      1786017229,
      1786017244,
      1786017296,
      1786017314,
      1786017333,
      1786017340,
      1786017387,
      1786017418,
      1786017426,
      1786017469,
      1786017503,
      1786017507,
      1786017530,
      1786017554,
      1786017590,
      1786017607,
      1786017611,
      1786017631,
      1786017707,
      1786017739,
      1786017775,
      1786017790,
      1786017838,
      1786017866,
      1786017891,
      1786017915,
      1786017954,
      1786017980,
      1786018011,
      1786018024,
      1786018071,
      1786018138,
      1786018152,
      1786018177,
      1786018191,
      1786018251,
      1786018263,
      1786018282,
      1786018310,
      1786018347,
      1786018372
    ],
    "wof:geomhash": "6174da3cb035a4b53b24a0b81408b307",
    "wof:id": 2032130069,
    "wof:repo": "sfomuseum-data-flights-2026-08"
  },
  "bbox": [
    -123.4918,
    37.19417,
    -122.02044,
    37.61221
  ],
  "geometry": {"type":"LineString","coordinates":[[-123.4918,37.29434],[-123.36616,37.2877],[-123.19081,37.27753],[-123.11691,37.27315],[-123.0695,37.27036],[-123.01092,37.26677],[-122.97874,37.2647],[-122.92046,37.26112],[-122.87606,37.25841],[-122.86974,37.25816],[-122.82474,37.27773],[-122.82136,37.28271],[-122.81791,37.30812],[-122.84157,37.33528],[-122.86088,37.34096],[-122.91862,37.33131],[-122.97896,37.309],[-122.98547,37.27775],[-122.95854,37.25427],[-122.93779,37.24762],[-122.86136,37.2259],[-122.83348,37.21793],[-122.80547,37.20981],[-122.79617,37.20718],[-122.7236,37.19417],[-122.67572,37.20647],[-122.6638,37.20985],[-122.59664,37.22882],[-122.54533,37.24336],[-122.53916,37.2451],[-122.50396,37.25511],[-122.46727,37.26548],[-122.41506,37.28036],[-122.39124,37.28715],[-122.38624,37.28859],[-122.35811,37.29453],[-122.26081,37.30864],[-122.21872,37.31453],[-122.17244,37.3211],[-122.15369,37.32381],[-122.09606,37.33166],[-122.06922,37.3468],[-122.05679,37.36846],[-122.04504,37.39048],[-122.02651,37.42548],[-122.02044,37.44964],[-122.03874,37.47417],[-122.05077,37.48177],[-122.10045,37.50313],[-122.16861,37.53187],[-122.18153,37.53735],[-122.20325,37.54652],[-122.21559,37.55168],[-122.26623,37.57304],[-122.27617,37.57718],[-122.29123,37.58354],[-122.31329,37.5928],[-122.34092,37.6044],[-122.35963,37.61221]]}
}
