{
  "id": 2047927227,
  "type": "Feature",
  "properties": {
    "geom:area": 0,
    "geom:bbox": "-122.806350,37.375000,-122.098890,38.467690",
    "geom:latitude": 37.68108114909312,
    "geom:longitude": -122.42125247719959,
    "src:alt_label": "swim-approach",
    "src:geom": "swim",
    "swim:elevations": [
      7162,
      6962,
      6682,
      6365,
      5891,
      5807,
      5665,
      5561,
      5143,
      4895,
      4611,
      4446,
      4325,
      4258,
      4121,
      4088,
      3812,
      3749,
      3471,
      3355,
      3353,
      3353,
      3353,
      3353,
      3353,
      3257,
      3125,
      2918,
      2689,
      2526,
      2363,
      2227,
      2135,
      2134,
      2134,
      1750,
      1646,
      1643,
      1462,
      1165,
      976,
      859,
      793,
      632,
      449,
      730,
      848,
      1317,
      1615,
      1759,
      1829,
      1829,
      1829,
      1829,
      1829,
      1829,
      1829,
      1829,
      1829,
      1829,
      1829,
      1829,
      1829,
      1604,
      1556,
      1524,
      1421,
      1233,
      1091,
      1033,
      923,
      810,
      719,
      571,
      369,
      216,
      143,
      90
    ],
    "swim:geom": "approach",
    "swim:timestamps": [
      1786459121,
      1786459141,
      1786459171,
      1786459209,
      1786459258,
      1786459265,
      1786459283,
      1786459294,
      1786459345,
      1786459368,
      1786459403,
      1786459422,
      1786459438,
      1786459464,
      1786459498,
      1786459502,
      1786459550,
      1786459560,
      1786459594,
      1786459639,
      1786459654,
      1786459690,
      1786459708,
      1786459738,
      1786459746,
      1786459777,
      1786459798,
      1786459820,
      1786459846,
      1786459867,
      1786459894,
      1786459920,
      1786459953,
      1786459992,
      1786460013,
      1786460065,
      1786460096,
      1786460101,
      1786460131,
      1786460160,
      1786460187,
      1786460211,
      1786460220,
      1786460251,
      1786460296,
      1786460333,
      1786460353,
      1786460386,
      1786460422,
      1786460435,
      1786460473,
      1786460510,
      1786460533,
      1786460552,
      1786460595,
      1786460613,
      1786460658,
      1786460675,
      1786460704,
      1786460735,
      1786460742,
      1786460753,
      1786460766,
      1786460818,
      1786460832,
      1786460863,
      1786460880,
      1786460926,
      1786460964,
      1786460975,
      1786460998,
      1786461018,
      1786461037,
      1786461064,
      1786461110,
      1786461147,
      1786461171,
      1786461184
    ],
    "wof:geomhash": "ff245d5323cf29f0a6e7621d9aecde0a",
    "wof:id": 2047927227,
    "wof:repo": "sfomuseum-data-flights-2026-08"
  },
  "bbox": [
    -122.80635,
    37.375,
    -122.09889,
    38.46769
  ],
  "geometry": {"type":"LineString","coordinates":[[-122.80635,38.46769],[-122.80027,38.43003],[-122.79152,38.37579],[-122.781,38.30904],[-122.76716,38.22386],[-122.7639,38.21089],[-122.75488,38.181],[-122.74936,38.16262],[-122.72492,38.07839],[-122.71407,38.04084],[-122.69772,37.98442],[-122.68904,37.95463],[-122.68174,37.92925],[-122.66485,37.89073],[-122.62276,37.85247],[-122.61771,37.84782],[-122.56223,37.79491],[-122.55108,37.78433],[-122.51267,37.74784],[-122.46258,37.70086],[-122.4467,37.68594],[-122.40719,37.64859],[-122.3872,37.62979],[-122.35649,37.59904],[-122.35084,37.59064],[-122.33374,37.55621],[-122.32175,37.53277],[-122.30839,37.50974],[-122.29165,37.48241],[-122.27892,37.46178],[-122.26154,37.43344],[-122.24536,37.40676],[-122.21971,37.375],[-122.16508,37.3771],[-122.14553,37.39649],[-122.11424,37.45245],[-122.09898,37.48387],[-122.09889,37.48872],[-122.11841,37.51195],[-122.14704,37.52493],[-122.17347,37.53619],[-122.1981,37.54637],[-122.20721,37.55026],[-122.23919,37.56368],[-122.28137,37.58175],[-122.31686,37.59594],[-122.34347,37.59943],[-122.39357,37.60332],[-122.44936,37.60486],[-122.46747,37.59775],[-122.48593,37.55656],[-122.48267,37.51525],[-122.48365,37.49089],[-122.48429,37.47058],[-122.48572,37.42505],[-122.48513,37.40655],[-122.43762,37.37942],[-122.41457,37.37956],[-122.37244,37.38436],[-122.32946,37.38929],[-122.31974,37.39043],[-122.30485,37.39215],[-122.28671,37.39425],[-122.2179,37.41568],[-122.20044,37.42302],[-122.16286,37.43858],[-122.14537,37.45074],[-122.12438,37.49695],[-122.15081,37.52549],[-122.16114,37.5306],[-122.18424,37.54073],[-122.20407,37.54905],[-122.22283,37.55702],[-122.24932,37.56817],[-122.29014,37.5854],[-122.31742,37.59683],[-122.33506,37.60416],[-122.34426,37.6081]]}
}
