{
  "id": 2047960321,
  "type": "Feature",
  "properties": {
    "geom:area": 0,
    "geom:bbox": "-122.408880,37.627890,-121.271760,37.973620",
    "geom:latitude": 37.880795476065025,
    "geom:longitude": -121.91813547624086,
    "src:alt_label": "swim-takeoff",
    "src:geom": "swim",
    "swim:elevations": [
      152,
      549,
      1057,
      1229,
      1488,
      1534,
      1802,
      1983,
      2332,
      2655,
      3103,
      3179,
      3438,
      3579,
      3638,
      3873,
      4099,
      4347,
      4429,
      4508,
      4738,
      5097,
      5184,
      5478,
      5602,
      5799
    ],
    "swim:geom": "takeoff",
    "swim:timestamps": [
      1786663412,
      1786663442,
      1786663490,
      1786663523,
      1786663558,
      1786663563,
      1786663584,
      1786663599,
      1786663629,
      1786663662,
      1786663701,
      1786663717,
      1786663766,
      1786663790,
      1786663808,
      1786663851,
      1786663875,
      1786663905,
      1786663918,
      1786663930,
      1786663958,
      1786664008,
      1786664024,
      1786664066,
      1786664083,
      1786664116
    ],
    "wof:geomhash": "4e58f58d95afde53880437334c8d2fa5",
    "wof:id": 2047960321,
    "wof:repo": "sfomuseum-data-flights-2026-08"
  },
  "bbox": [
    -122.40888,
    37.62789,
    -121.27176,
    37.97362
  ],
  "geometry": {"type":"LineString","coordinates":[[-122.39592,37.62789],[-122.40888,37.64989],[-122.37526,37.68659],[-122.34788,37.71387],[-122.3429,37.75486],[-122.34592,37.7611],[-122.35819,37.78623],[-122.36678,37.8047],[-122.35648,37.84196],[-122.30779,37.86089],[-122.24001,37.86872],[-122.2132,37.87202],[-122.11749,37.88294],[-122.06619,37.88858],[-122.02659,37.89293],[-121.92884,37.9037],[-121.87267,37.90979],[-121.8002,37.91774],[-121.77036,37.92098],[-121.74135,37.92404],[-121.67127,37.93155],[-121.54683,37.94485],[-121.50645,37.94905],[-121.40108,37.96013],[-121.35794,37.96465],[-121.27176,37.97362]]}
}
