{
  "id": 2032135541,
  "type": "Feature",
  "properties": {
    "geom:area": 0,
    "geom:bbox": "-122.535530,36.735310,-121.458080,37.668270",
    "geom:latitude": 37.201711130510674,
    "geom:longitude": -122.06160684266773,
    "src:alt_label": "swim-takeoff",
    "src:geom": "swim",
    "swim:elevations": [
      734,
      808,
      931,
      1038,
      1076,
      1124,
      1159,
      1215,
      1307,
      2290,
      3302,
      3390,
      3411,
      3546,
      3625,
      4253,
      4438,
      4652,
      5236,
      5594,
      5924,
      6126,
      6182,
      6215,
      6281,
      6335,
      6352,
      6742,
      7709,
      7786,
      8139,
      8577,
      8668,
      8832,
      9025,
      9203,
      9359
    ],
    "swim:geom": "takeoff",
    "swim:timestamps": [
      1786036014,
      1786036020,
      1786036034,
      1786036052,
      1786036057,
      1786036061,
      1786036064,
      1786036068,
      1786036076,
      1786036143,
      1786036222,
      1786036235,
      1786036238,
      1786036254,
      1786036261,
      1786036305,
      1786036317,
      1786036332,
      1786036372,
      1786036401,
      1786036426,
      1786036443,
      1786036449,
      1786036455,
      1786036461,
      1786036467,
      1786036470,
      1786036516,
      1786036610,
      1786036620,
      1786036669,
      1786036729,
      1786036742,
      1786036765,
      1786036796,
      1786036817,
      1786036830
    ],
    "wof:geomhash": "1010295367425cc255efb81340909484",
    "wof:id": 2032135541,
    "wof:repo": "sfomuseum-data-flights-2026-08"
  },
  "bbox": [
    -122.53553,
    36.73531,
    -121.45808,
    37.66827
  ],
  "geometry": {"type":"LineString","coordinates":[[-122.42854,37.64163],[-122.43462,37.6441],[-122.44915,37.65003],[-122.46887,37.65836],[-122.47563,37.66128],[-122.48074,37.66345],[-122.48487,37.66514],[-122.4903,37.66688],[-122.50182,37.66827],[-122.53553,37.60544],[-122.48414,37.50897],[-122.471,37.49118],[-122.46761,37.48745],[-122.44548,37.46849],[-122.4361,37.46185],[-122.36861,37.41207],[-122.34916,37.3976],[-122.32746,37.38152],[-122.2648,37.33539],[-122.21942,37.30189],[-122.18071,37.27339],[-122.15352,37.25328],[-122.14335,37.24577],[-122.13403,37.23885],[-122.12382,37.23122],[-122.11467,37.22448],[-122.10967,37.22079],[-122.03158,37.16291],[-121.86792,37.04102],[-121.85077,37.02773],[-121.76172,36.9626],[-121.64916,36.87982],[-121.62434,36.86127],[-121.58211,36.82981],[-121.52335,36.78518],[-121.48216,36.75381],[-121.45808,36.73531]]}
}
