{
  "id": 2032055351,
  "type": "Feature",
  "properties": {
    "geom:area": 0,
    "geom:bbox": "-122.333333,32.916667,-97.050000,37.696667",
    "geom:latitude": 35.479327783634645,
    "geom:longitude": -109.69839764663655,
    "src:alt_label": "swim-path",
    "src:geom": "swim",
    "swim:altitudes": [
      "012",
      "032",
      "058",
      "085",
      "095",
      "104",
      "127",
      "150",
      "169",
      "187",
      "204",
      "219",
      "231",
      "243",
      "258",
      "270",
      "278",
      "285",
      "301",
      "312",
      "327",
      "335",
      "338C",
      "340C",
      "340C",
      "340C",
      "340C",
      "340C",
      "340C",
      "340C",
      "340C",
      "340C",
      "340C",
      "340C",
      "340C",
      "340C",
      "340C",
      "340C",
      "340C",
      "340C",
      "340C",
      "340C",
      "340C",
      "340C",
      "340C",
      "340C",
      "340C",
      "340C",
      "340C",
      "340C",
      "340C",
      "340C",
      "340C",
      "340C",
      "340C",
      "340C",
      "340C",
      "340C",
      "340C",
      "340C",
      "340C",
      "340C",
      "340C",
      "340C",
      "340C",
      "340C",
      "340C",
      "340C",
      "340C",
      "340C",
      "340C",
      "340C",
      "340C",
      "340C",
      "340C",
      "340C",
      "340C",
      "340C",
      "340C",
      "340C",
      "340C",
      "340C",
      "340C",
      "340C",
      "340C",
      "340C",
      "340C",
      "340C",
      "341C",
      "340C",
      "340C",
      "340C",
      "340C",
      "340C",
      "340C",
      "340C",
      "340C",
      "340C",
      "340C",
      "340C",
      "340C",
      "340C",
      "341C",
      "340C",
      "340C",
      "340C",
      "341C",
      "340C",
      "340C",
      "340C",
      "340C",
      "340C",
      "340C",
      "340C",
      "340C",
      "340C",
      "340C",
      "340C",
      "340C",
      "340C",
      "340C",
      "340C",
      "340C",
      "340C",
      "340C",
      "340C",
      "340C",
      "340C",
      "340C",
      "340C",
      "340C",
      "340C",
      "340C",
      "340C",
      "340C",
      "340C",
      "340C",
      "340C",
      "340C",
      "340C",
      "340C",
      "340C",
      "340C",
      "340C",
      "340C",
      "340C",
      "340C",
      "340C",
      "340C",
      "340C",
      "340C",
      "340C",
      "340C",
      "340C",
      "340C",
      "340C",
      "340C",
      "340C",
      "340C",
      "340C",
      "340C",
      "340C",
      "340C",
      "340C",
      "340C",
      "340C",
      "340C",
      "340C",
      "340C",
      "340C",
      "340C",
      "340C",
      "340C",
      "340C",
      "340C",
      "340C",
      "340C",
      "340C",
      "340C",
      "340C",
      "340C",
      "340C",
      "340C",
      "340C",
      "340C",
      "340C",
      "340C",
      "340C",
      "340C",
      "340C",
      "340C",
      "340C",
      "340C",
      "340C",
      "340C",
      "340C",
      "340C",
      "340C",
      "340C",
      "340C",
      "340C",
      "340C",
      "340C",
      "339C",
      "340C",
      "340C",
      "340C",
      "340",
      "340",
      "331",
      "293",
      "271",
      "250",
      "235",
      "230",
      "212",
      "194",
      "176",
      "157",
      "144",
      "140",
      "125",
      "112",
      "098",
      "096",
      "085",
      "070C",
      "061",
      "051",
      "040",
      "031",
      "021",
      "014",
      "006",
      "006"
    ],
    "swim:geom": "path",
    "swim:speeds": [
      158,
      212,
      253,
      262,
      274,
      282,
      290,
      301,
      313,
      356,
      356,
      370,
      384,
      397,
      398,
      405,
      418,
      426,
      447,
      446,
      424,
      421,
      421,
      426,
      426,
      426,
      433,
      423,
      422,
      421,
      422,
      422,
      423,
      423,
      424,
      425,
      425,
      427,
      428,
      429,
      430,
      431,
      432,
      433,
      433,
      434,
      434,
      435,
      436,
      436,
      437,
      437,
      438,
      439,
      439,
      440,
      440,
      440,
      440,
      439,
      439,
      439,
      440,
      440,
      440,
      439,
      438,
      437,
      436,
      435,
      434,
      433,
      433,
      433,
      433,
      434,
      434,
      434,
      434,
      434,
      434,
      434,
      434,
      434,
      434,
      435,
      435,
      437,
      438,
      438,
      437,
      437,
      438,
      439,
      440,
      441,
      442,
      442,
      443,
      444,
      444,
      447,
      449,
      448,
      446,
      445,
      446,
      446,
      446,
      446,
      446,
      446,
      446,
      446,
      449,
      447,
      443,
      448,
      449,
      449,
      449,
      450,
      451,
      451,
      451,
      451,
      450,
      452,
      453,
      452,
      453,
      452,
      452,
      450,
      449,
      447,
      447,
      447,
      447,
      447,
      447,
      448,
      448,
      448,
      448,
      449,
      449,
      449,
      451,
      450,
      451,
      450,
      452,
      452,
      450,
      449,
      448,
      448,
      448,
      448,
      450,
      451,
      451,
      450,
      450,
      450,
      451,
      452,
      453,
      453,
      453,
      453,
      454,
      456,
      454,
      455,
      454,
      454,
      454,
      456,
      456,
      457,
      457,
      457,
      457,
      456,
      456,
      456,
      455,
      455,
      450,
      450,
      448,
      447,
      445,
      445,
      445,
      445,
      445,
      445,
      445,
      444,
      444,
      443,
      443,
      444,
      444,
      444,
      444,
      444,
      447,
      432,
      429,
      416,
      417,
      398,
      384,
      378,
      364,
      356,
      358,
      344,
      313,
      293,
      296,
      277,
      268,
      256,
      231,
      227,
      210,
      185,
      135,
      140,
      140
    ],
    "swim:timestamps": [
      1785589038,
      1785589110,
      1785589170,
      1785589231,
      1785589268,
      1785589328,
      1785589388,
      1785589448,
      1785589509,
      1785589569,
      1785589629,
      1785589689,
      1785589749,
      1785589809,
      1785589869,
      1785589929,
      1785589989,
      1785590049,
      1785590170,
      1785590230,
      1785590290,
      1785590350,
      1785590410,
      1785590470,
      1785590530,
      1785590590,
      1785590628,
      1785590650,
      1785590688,
      1785590710,
      1785590748,
      1785590770,
      1785590808,
      1785590830,
      1785590891,
      1785590928,
      1785590951,
      1785591048,
      1785591071,
      1785591109,
      1785591131,
      1785591169,
      1785591191,
      1785591229,
      1785591251,
      1785591289,
      1785591311,
      1785591371,
      1785591409,
      1785591431,
      1785591470,
      1785591491,
      1785591551,
      1785591590,
      1785591612,
      1785591650,
      1785591710,
      1785591732,
      1785591770,
      1785591792,
      1785591830,
      1785591852,
      1785591890,
      1785591912,
      1785592032,
      1785592071,
      1785592092,
      1785592131,
      1785592152,
      1785592212,
      1785592251,
      1785592311,
      1785592333,
      1785592371,
      1785592393,
      1785592432,
      1785592453,
      1785592513,
      1785592549,
      1785592573,
      1785592609,
      1785592633,
      1785592669,
      1785592693,
      1785592729,
      1785592753,
      1785592789,
      1785592849,
      1785592909,
      1785592969,
      1785593029,
      1785593090,
      1785593150,
      1785593210,
      1785593270,
      1785593330,
      1785593390,
      1785593450,
      1785593510,
      1785593570,
      1785593630,
      1785593751,
      1785593871,
      1785593991,
      1785594051,
      1785594111,
      1785594171,
      1785594231,
      1785594291,
      1785594352,
      1785594412,
      1785594472,
      1785594532,
      1785594592,
      1785594617,
      1785594652,
      1785594677,
      1785594712,
      1785594737,
      1785594772,
      1785594797,
      1785594832,
      1785594858,
      1785594892,
      1785594918,
      1785594952,
      1785594978,
      1785595013,
      1785595038,
      1785595073,
      1785595098,
      1785595133,
      1785595158,
      1785595218,
      1785595278,
      1785595313,
      1785595338,
      1785595373,
      1785595398,
      1785595433,
      1785595458,
      1785595518,
      1785595553,
      1785595579,
      1785595613,
      1785595639,
      1785595674,
      1785595734,
      1785595759,
      1785595794,
      1785595819,
      1785595854,
      1785595879,
      1785595939,
      1785596059,
      1785596119,
      1785596179,
      1785596239,
      1785596300,
      1785596360,
      1785596420,
      1785596480,
      1785596540,
      1785596600,
      1785596660,
      1785596720,
      1785596780,
      1785596840,
      1785596900,
      1785596960,
      1785597021,
      1785597081,
      1785597141,
      1785597307,
      1785597321,
      1785597367,
      1785597381,
      1785597427,
      1785597501,
      1785597548,
      1785597561,
      1785597621,
      1785597682,
      1785597728,
      1785597742,
      1785597788,
      1785597802,
      1785597848,
      1785597908,
      1785597922,
      1785597968,
      1785597982,
      1785598028,
      1785598042,
      1785598148,
      1785598162,
      1785598208,
      1785598222,
      1785598269,
      1785598389,
      1785598403,
      1785598449,
      1785598463,
      1785598509,
      1785598569,
      1785598629,
      1785598689,
      1785598749,
      1785598809,
      1785598869,
      1785598989,
      1785599050,
      1785599110,
      1785599148,
      1785599170,
      1785599230,
      1785599280,
      1785599350,
      1785599410,
      1785599455,
      1785599470,
      1785599530,
      1785599580,
      1785599641,
      1785599650,
      1785599710,
      1785599770,
      1785599821,
      1785599891,
      1785599951,
      1785600001,
      1785600071,
      1785600115,
      1785600175,
      1785600191
    ],
    "wof:geomhash": "b6ca6f8c883f4d2f8334b6bfdba1c93a",
    "wof:id": 2032055351,
    "wof:repo": "sfomuseum-data-flights-2026-08"
  },
  "bbox": [
    -122.33333333333333,
    32.916666666666664,
    -97.05,
    37.696666666666665
  ],
  "geometry": {"coordinates":[[-97.05,32.916666666666664],[-97.05,32.983333333333334],[-97.08333333333333,33.03333333333333],[-97.18333333333334,33.03333333333333],[-97.22916666666667,33.02833333333333],[-97.32444444444444,33.030833333333334],[-97.42111111111112,33.03333333333333],[-97.52194444444444,33.03611111111111],[-97.62333333333332,33.03861111111111],[-97.7475,33.041666666666664],[-97.86416666666666,33.04416666666666],[-97.98666666666666,33.04694444444444],[-98.10333333333332,33.04944444444444],[-98.22444444444444,33.05361111111111],[-98.34972222222221,33.09111111111111],[-98.48555555555555,33.135],[-98.61388888888888,33.17611111111111],[-98.74722222222222,33.219166666666666],[-99.02361111111111,33.3075],[-99.16083333333334,33.350833333333334],[-99.29166666666667,33.39222222222222],[-99.42305555555556,33.433611111111105],[-99.55361111111111,33.473333333333336],[-99.68833333333333,33.51083333333333],[-99.82444444444444,33.54861111111111],[-99.95194444444445,33.58388888888889],[-100.03444444444445,33.60583333333334],[-100.08361111111111,33.62],[-100.16888888888889,33.64333333333333],[-100.2175,33.656666666666666],[-100.30888888888889,33.67861111111111],[-100.35222222222221,33.68888888888888],[-100.44472222222223,33.711111111111116],[-100.48972222222223,33.721944444444446],[-100.62527777777777,33.75416666666667],[-100.71805555555555,33.77583333333333],[-100.76138888888889,33.78611111111111],[-100.98055555555555,33.83777777777778],[-101.04666666666667,33.85305555555556],[-101.11944444444444,33.87],[-101.1875,33.88583333333333],[-101.27361111111111,33.90555555555555],[-101.32666666666667,33.91777777777777],[-101.41388888888889,33.937777777777775],[-101.46805555555555,33.95027777777778],[-101.55222222222221,33.969722222222224],[-101.60722222222222,33.98222222222223],[-101.73055555555555,34.01027777777778],[-101.83638888888889,34.034166666666664],[-101.89111111111112,34.046388888888885],[-101.9775,34.06583333333333],[-102.03333333333333,34.078611111111115],[-102.17527777777778,34.11027777777778],[-102.24333333333334,34.125277777777775],[-102.31777777777778,34.141666666666666],[-102.38527777777779,34.156666666666666],[-102.52722222222222,34.187777777777775],[-102.60249999999999,34.20444444444445],[-102.66861111111112,34.21888888888889],[-102.74666666666667,34.23583333333333],[-102.83416666666666,34.25472222222222],[-102.89083333333333,34.26694444444444],[-102.97583333333334,34.28527777777778],[-103.0325,34.2975],[-103.31888888888888,34.35861111111111],[-103.405,34.37694444444445],[-103.46055555555556,34.38861111111111],[-103.54666666666667,34.406666666666666],[-103.60138888888888,34.418055555555554],[-103.74416666666667,34.44777777777777],[-103.8286111111111,34.46555555555556],[-103.97083333333333,34.49472222222222],[-104.02638888888889,34.50611111111111],[-104.11333333333333,34.524166666666666],[-104.1675,34.53527777777778],[-104.25638888888889,34.55333333333333],[-104.30888888888889,34.56388888888888],[-104.45111111111112,34.59277777777778],[-104.54166666666667,34.61083333333333],[-104.59388888888888,34.62138888888889],[-104.68277777777779,34.63916666666667],[-104.735,34.64944444444444],[-104.79805555555555,34.661944444444444],[-104.87888888888888,34.67805555555555],[-104.9413888888889,34.69027777777777],[-105.02083333333333,34.70583333333334],[-105.08472222222221,34.718611111111116],[-105.22888888888889,34.74666666666667],[-105.3736111111111,34.77472222222222],[-105.51777777777778,34.802499999999995],[-105.66083333333334,34.82972222222222],[-105.83222222222221,34.86222222222222],[-105.96666666666667,34.88777777777778],[-106.11555555555555,34.91555555555556],[-106.26222222222222,34.94277777777778],[-106.41222222222223,34.97027777777778],[-106.55027777777778,34.99583333333334],[-106.69833333333334,35.0225],[-106.84888888888888,35.04944444444444],[-107.00305555555556,35.073055555555555],[-107.15083333333334,35.09583333333334],[-107.44222222222223,35.14055555555556],[-107.74472222222222,35.18611111111111],[-108.0436111111111,35.23027777777778],[-108.19194444444445,35.25194444444445],[-108.33916666666666,35.27333333333333],[-108.49,35.29472222222222],[-108.64083333333333,35.316111111111105],[-108.78916666666666,35.33694444444445],[-108.94,35.35805555555556],[-109.09138888888889,35.37888888888889],[-109.23944444444444,35.399166666666666],[-109.3913888888889,35.41972222222222],[-109.54027777777777,35.439722222222215],[-109.58361111111111,35.45055555555556],[-109.69277777777778,35.46],[-109.73194444444445,35.46638888888889],[-109.845,35.480000000000004],[-109.88333333333334,35.48583333333333],[-109.995,35.49944444444444],[-110.03416666666666,35.50527777777778],[-110.14722222222223,35.51777777777777],[-110.18694444444445,35.52305555555555],[-110.30083333333333,35.53583333333333],[-110.33944444444444,35.54083333333333],[-110.45361111111112,35.55361111111111],[-110.49138888888889,35.55833333333333],[-110.60638888888889,35.57138888888889],[-110.64500000000001,35.57555555555556],[-110.75861111111111,35.58861111111111],[-110.79583333333333,35.59277777777778],[-110.91194444444444,35.60583333333334],[-110.95027777777779,35.61027777777778],[-111.10027777777778,35.62694444444445],[-111.24833333333333,35.643055555555556],[-111.365,35.655833333333334],[-111.40027777777779,35.65972222222222],[-111.48972222222223,35.66916666666666],[-111.55027777777778,35.675555555555555],[-111.64027777777778,35.68527777777778],[-111.70333333333333,35.69194444444444],[-111.8536111111111,35.70777777777778],[-111.94055555555556,35.71666666666667],[-112.03583333333333,35.72638888888889],[-112.095,35.7325],[-112.18861111111111,35.74777777777778],[-112.24555555555555,35.757222222222225],[-112.4238888888889,35.7875],[-112.48916666666666,35.79833333333333],[-112.54472222222222,35.8075],[-112.63916666666667,35.82361111111111],[-112.72305555555556,35.837500000000006],[-112.7875,35.84805555555556],[-112.93805555555556,35.87277777777778],[-113.23722222222223,35.921388888888885],[-113.38777777777779,35.94555555555555],[-113.53777777777778,35.96944444444445],[-113.69083333333333,35.993611111111115],[-113.84138888888889,36.01722222222222],[-113.99277777777777,36.04083333333333],[-114.14333333333335,36.06388888888888],[-114.29694444444445,36.08722222222222],[-114.44666666666667,36.114444444444445],[-114.59944444444444,36.14138888888889],[-114.74972222222222,36.168055555555554],[-114.89972222222222,36.19416666666666],[-115.05333333333333,36.22083333333334],[-115.20527777777778,36.246944444444445],[-115.35916666666667,36.27333333333333],[-115.5111111111111,36.29888888888889],[-115.64611111111111,36.3275],[-115.7863888888889,36.38166666666667],[-115.92861111111111,36.443888888888885],[-116.31888888888888,36.61527777777778],[-116.34722222222221,36.62777777777778],[-116.4588888888889,36.67611111111111],[-116.4863888888889,36.68805555555555],[-116.59583333333333,36.73527777777778],[-116.75611111111111,36.81777777777778],[-116.84583333333333,36.88861111111111],[-116.86694444444444,36.9075],[-116.97500000000001,37.003055555555555],[-117.0825,37.09805555555556],[-117.1675,37.17305555555555],[-117.1888888888889,37.19194444444444],[-117.27388888888889,37.266666666666666],[-117.29694444444445,37.28666666666666],[-117.38,37.36333333333334],[-117.49055555555556,37.45388888888889],[-117.51722222222222,37.4675],[-117.63333333333334,37.50222222222222],[-117.66611111111112,37.50611111111111],[-117.78999999999999,37.51638888888889],[-117.82,37.51888888888889],[-118.10138888888888,37.54138888888889],[-118.13083333333333,37.54388888888889],[-118.25555555555556,37.55333333333333],[-118.27638888888889,37.555],[-118.41222222222223,37.565555555555555],[-118.72277777777778,37.58861111111111],[-118.75361111111111,37.590833333333336],[-118.85,37.59777777777778],[-118.90611111111112,37.60166666666667],[-119.00611111111111,37.60888888888889],[-119.16222222222223,37.61972222222222],[-119.31638888888888,37.63027777777778],[-119.47027777777778,37.64083333333333],[-119.62694444444443,37.651111111111106],[-119.78194444444445,37.66111111111111],[-119.93527777777778,37.670833333333334],[-120.25055555555555,37.69027777777777],[-120.40083333333334,37.696666666666665],[-120.55055555555555,37.68222222222222],[-120.66666666666667,37.666666666666664],[-120.69694444444445,37.665],[-120.83666666666666,37.64833333333333],[-120.96666666666667,37.63333333333333],[-121.10055555555554,37.61472222222223],[-121.23944444444444,37.59583333333334],[-121.33333333333333,37.583333333333336],[-121.36222222222221,37.581388888888895],[-121.48277777777778,37.5675],[-121.58333333333333,37.55],[-121.68333333333334,37.53333333333333],[-121.69333333333334,37.534166666666664],[-121.78805555555556,37.51166666666666],[-121.87694444444443,37.49166666666667],[-121.95,37.5],[-122.04916666666666,37.50083333333333],[-122.11083333333333,37.51],[-122.18333333333334,37.53333333333333],[-122.24361111111111,37.56583333333333],[-122.28333333333333,37.583333333333336],[-122.33333333333333,37.6],[-122.32833333333333,37.60138888888889]],"type":"LineString"}
}
