{
  "id": 2047898651,
  "type": "Feature",
  "properties": {
    "geom:area": 0,
    "geom:bbox": "-122.359450,36.740620,-121.889970,37.612150",
    "geom:latitude": 37.22838050649885,
    "geom:longitude": -122.07429973624497,
    "src:alt_label": "swim-approach",
    "src:geom": "swim",
    "swim:elevations": [
      5315,
      4957,
      4838,
      4593,
      4307,
      4175,
      3877,
      3748,
      3595,
      3490,
      3312,
      3227,
      3013,
      2807,
      2765,
      2452,
      2345,
      2111,
      1983,
      1692,
      1569,
      1376,
      1114,
      1072,
      1040,
      919,
      849,
      637,
      611,
      385,
      366,
      263,
      183,
      69,
      0
    ],
    "swim:geom": "approach",
    "swim:timestamps": [
      1786317432,
      1786317469,
      1786317478,
      1786317503,
      1786317533,
      1786317558,
      1786317596,
      1786317624,
      1786317650,
      1786317664,
      1786317688,
      1786317700,
      1786317742,
      1786317774,
      1786317780,
      1786317832,
      1786317850,
      1786317886,
      1786317910,
      1786317958,
      1786317973,
      1786317999,
      1786318048,
      1786318054,
      1786318071,
      1786318095,
      1786318110,
      1786318166,
      1786318174,
      1786318224,
      1786318233,
      1786318257,
      1786318276,
      1786318306,
      1786318321
    ],
    "wof:geomhash": "98964986abea736b369599b5826dc530",
    "wof:id": 2047898651,
    "wof:repo": "sfomuseum-data-flights-2026-08"
  },
  "bbox": [
    -122.35945,
    36.74062,
    -121.88997,
    37.61215
  ],
  "geometry": {"type":"LineString","coordinates":[[-121.88997,36.74062],[-121.91122,36.80328],[-121.91553,36.81861],[-121.92752,36.86077],[-121.94195,36.91055],[-121.95266,36.94806],[-121.97303,37.00201],[-121.98766,37.04022],[-121.99961,37.07154],[-122.00569,37.08782],[-122.01622,37.11498],[-122.02174,37.12897],[-122.04002,37.17534],[-122.05387,37.2101],[-122.05649,37.21674],[-122.07909,37.27442],[-122.08691,37.2943],[-122.10241,37.33357],[-122.11274,37.35947],[-122.1307,37.40977],[-122.1361,37.42544],[-122.14429,37.45288],[-122.13069,37.50425],[-122.13251,37.50957],[-122.1465,37.522],[-122.17043,37.5327],[-122.18476,37.53874],[-122.23351,37.55927],[-122.24042,37.5622],[-122.28325,37.58017],[-122.29071,37.58338],[-122.31035,37.59158],[-122.32573,37.59797],[-122.34837,37.60745],[-122.35945,37.61215]]}
}
