{
  "id": 2047875793,
  "type": "Feature",
  "properties": {
    "geom:area": 0,
    "geom:bbox": "-122.363690,37.493580,-121.250500,37.615180",
    "geom:latitude": 37.541023862743344,
    "geom:longitude": -121.81432653256812,
    "src:alt_label": "swim-approach",
    "src:geom": "swim",
    "swim:elevations": [
      4519,
      4406,
      4329,
      4227,
      4081,
      3748,
      2743,
      2422,
      1829,
      1523,
      1305,
      1096,
      1030,
      767,
      667,
      536,
      397,
      269,
      114,
      0
    ],
    "swim:geom": "approach",
    "swim:timestamps": [
      1786097119,
      1786097130,
      1786097137,
      1786097149,
      1786097163,
      1786097200,
      1786097402,
      1786097465,
      1786097560,
      1786097624,
      1786097657,
      1786097686,
      1786097701,
      1786097751,
      1786097775,
      1786097802,
      1786097831,
      1786097864,
      1786097899,
      1786097933
    ],
    "wof:geomhash": "e6855c987efc7b58ffefcac104b5cf32",
    "wof:id": 2047875793,
    "wof:repo": "sfomuseum-data-flights-2026-08"
  },
  "bbox": [
    -122.36369,
    37.49358,
    -121.2505,
    37.61518
  ],
  "geometry": {"type":"LineString","coordinates":[[-121.2505,37.5943],[-121.27398,37.5911],[-121.28788,37.5893],[-121.31282,37.58646],[-121.34295,37.58329],[-121.41791,37.57515],[-121.7789,37.5141],[-121.86368,37.49358],[-121.99373,37.49422],[-122.07608,37.49539],[-122.11344,37.51114],[-122.14683,37.52477],[-122.16227,37.5314],[-122.21197,37.55243],[-122.23446,37.56197],[-122.25941,37.57245],[-122.28543,37.58327],[-122.31117,37.5943],[-122.33838,37.60564],[-122.36369,37.61518]]}
}
