{
  "id": 2032088819,
  "type": "Feature",
  "properties": {
    "geom:area": 0,
    "geom:bbox": "-122.383333,37.616667,-87.916389,42.563611",
    "geom:latitude": 41.57640019517002,
    "geom:longitude": -105.37589336447272,
    "src:alt_label": "swim-path",
    "src:geom": "swim",
    "swim:altitudes": [
      "006",
      "025",
      "040",
      "059",
      "080",
      "103",
      "116",
      "138",
      "203",
      "226",
      "258",
      "272",
      "300",
      "312",
      "325",
      "339",
      "349",
      "359",
      "369C",
      "370C",
      "370C",
      "370C",
      "370C",
      "370C",
      "370C",
      "370C",
      "370C",
      "370C",
      "370C",
      "370C",
      "370C",
      "370C",
      "370C",
      "370C",
      "370C",
      "370C",
      "370C",
      "370C",
      "370C",
      "370C",
      "370C",
      "370C",
      "370C",
      "370C",
      "370C",
      "370C",
      "370C",
      "370C",
      "370C",
      "370C",
      "370C",
      "370C",
      "370C",
      "370C",
      "370C",
      "377",
      "386",
      "390C",
      "390C",
      "390C",
      "390C",
      "390C",
      "390C",
      "390C",
      "390C",
      "390C",
      "390C",
      "390C",
      "390C",
      "390C",
      "390C",
      "390C",
      "390C",
      "390C",
      "390C",
      "390C",
      "390C",
      "390C",
      "390C",
      "390C",
      "390C",
      "390C",
      "390C",
      "390C",
      "390C",
      "390C",
      "390C",
      "390C",
      "390C",
      "390C",
      "390C",
      "390C",
      "390C",
      "390C",
      "390C",
      "390C",
      "390C",
      "390C",
      "390C",
      "390C",
      "390C",
      "390C",
      "390C",
      "390C",
      "390C",
      "390C",
      "390C",
      "390C",
      "390C",
      "390C",
      "390C",
      "390C",
      "390C",
      "390C",
      "390C",
      "390C",
      "390C",
      "390C",
      "390C",
      "390C",
      "390C",
      "390C",
      "390C",
      "390C",
      "390C",
      "390C",
      "390C",
      "390C",
      "390C",
      "390C",
      "390C",
      "390C",
      "390C",
      "390C",
      "390C",
      "390C",
      "390C",
      "390C",
      "390C",
      "390C",
      "390C",
      "390C",
      "390C",
      "390C",
      "390C",
      "390C",
      "390C",
      "390C",
      "390C",
      "390C",
      "390C",
      "390C",
      "390C",
      "390C",
      "390C",
      "390C",
      "390C",
      "390C",
      "390C",
      "390C",
      "390C",
      "390C",
      "390C",
      "390C",
      "390C",
      "390C",
      "390C",
      "390C",
      "390C",
      "390C",
      "390C",
      "390C",
      "390C",
      "390C",
      "390C",
      "390C",
      "390C",
      "390C",
      "390C",
      "390C",
      "389",
      "381",
      "372",
      "370",
      "350",
      "341",
      "333",
      "322",
      "314",
      "312C",
      "310C",
      "310C",
      "310",
      "310",
      "310",
      "309",
      "302",
      "263",
      "238",
      "200",
      "188",
      "179",
      "173",
      "161",
      "158",
      "142",
      "136",
      "123",
      "118",
      "110",
      "095",
      "083",
      "067",
      "064",
      "058",
      "057",
      "052",
      "050",
      "050",
      "045",
      "040",
      "040",
      "040",
      "040",
      "034",
      "027",
      "025",
      "011",
      "009",
      "006"
    ],
    "swim:geom": "path",
    "swim:speeds": [
      149,
      205,
      265,
      278,
      289,
      301,
      352,
      364,
      402,
      418,
      445,
      459,
      473,
      482,
      491,
      490,
      491,
      497,
      499,
      499,
      498,
      497,
      494,
      492,
      497,
      497,
      502,
      507,
      509,
      509,
      508,
      507,
      507,
      506,
      505,
      504,
      503,
      503,
      503,
      505,
      509,
      511,
      512,
      513,
      514,
      515,
      516,
      517,
      516,
      515,
      518,
      520,
      520,
      520,
      525,
      525,
      523,
      519,
      520,
      522,
      525,
      526,
      526,
      526,
      526,
      525,
      525,
      525,
      530,
      528,
      530,
      533,
      533,
      534,
      535,
      536,
      536,
      535,
      534,
      534,
      534,
      533,
      532,
      530,
      528,
      526,
      526,
      525,
      525,
      525,
      524,
      525,
      525,
      525,
      525,
      526,
      528,
      528,
      529,
      529,
      528,
      528,
      528,
      527,
      526,
      523,
      519,
      519,
      516,
      515,
      514,
      519,
      518,
      517,
      517,
      521,
      522,
      523,
      523,
      522,
      521,
      517,
      519,
      518,
      518,
      518,
      516,
      518,
      514,
      511,
      512,
      510,
      510,
      509,
      508,
      508,
      507,
      508,
      509,
      510,
      511,
      512,
      513,
      513,
      514,
      513,
      514,
      515,
      517,
      517,
      516,
      515,
      513,
      508,
      506,
      504,
      501,
      501,
      501,
      502,
      504,
      504,
      502,
      500,
      500,
      499,
      500,
      499,
      500,
      499,
      500,
      499,
      499,
      497,
      494,
      493,
      492,
      492,
      492,
      492,
      492,
      492,
      493,
      493,
      493,
      493,
      493,
      492,
      495,
      495,
      496,
      496,
      495,
      495,
      489,
      488,
      486,
      464,
      449,
      418,
      404,
      403,
      394,
      384,
      373,
      363,
      357,
      356,
      334,
      300,
      288,
      287,
      286,
      283,
      265,
      251,
      219,
      219,
      217,
      220,
      183,
      187,
      187,
      186,
      190,
      186,
      181,
      142,
      145,
      134
    ],
    "swim:timestamps": [
      1785800008,
      1785800100,
      1785800159,
      1785800220,
      1785800280,
      1785800341,
      1785800401,
      1785800461,
      1785800641,
      1785800701,
      1785800821,
      1785800881,
      1785801002,
      1785801062,
      1785801122,
      1785801182,
      1785801242,
      1785801302,
      1785801362,
      1785801422,
      1785801482,
      1785801542,
      1785801602,
      1785801722,
      1785801783,
      1785801842,
      1785801903,
      1785802023,
      1785802083,
      1785802143,
      1785802263,
      1785802323,
      1785802383,
      1785802443,
      1785802575,
      1785802624,
      1785802636,
      1785802684,
      1785802696,
      1785802804,
      1785802924,
      1785803044,
      1785803104,
      1785803165,
      1785803225,
      1785803285,
      1785803345,
      1785803405,
      1785803465,
      1785803525,
      1785803645,
      1785803825,
      1785803886,
      1785803946,
      1785804066,
      1785804126,
      1785804186,
      1785804246,
      1785804306,
      1785804366,
      1785804486,
      1785804546,
      1785804607,
      1785804667,
      1785804727,
      1785804787,
      1785804847,
      1785804907,
      1785804925,
      1785804967,
      1785804985,
      1785805027,
      1785805045,
      1785805087,
      1785805147,
      1785805165,
      1785805207,
      1785805225,
      1785805267,
      1785805327,
      1785805346,
      1785805388,
      1785805406,
      1785805448,
      1785805466,
      1785805508,
      1785805526,
      1785805586,
      1785805628,
      1785805646,
      1785805688,
      1785805748,
      1785805766,
      1785805808,
      1785805826,
      1785805886,
      1785805928,
      1785805946,
      1785805988,
      1785806007,
      1785806048,
      1785806067,
      1785806127,
      1785806187,
      1785806247,
      1785806307,
      1785806367,
      1785806427,
      1785806487,
      1785806547,
      1785806607,
      1785806728,
      1785806848,
      1785806908,
      1785806968,
      1785807028,
      1785807088,
      1785807148,
      1785807208,
      1785807268,
      1785807328,
      1785807354,
      1785807388,
      1785807414,
      1785807449,
      1785807474,
      1785807509,
      1785807535,
      1785807569,
      1785807595,
      1785807629,
      1785807655,
      1785807689,
      1785807715,
      1785807749,
      1785807775,
      1785807809,
      1785807835,
      1785807895,
      1785807929,
      1785807955,
      1785807989,
      1785808015,
      1785808049,
      1785808109,
      1785808135,
      1785808195,
      1785808256,
      1785808316,
      1785808376,
      1785808436,
      1785808496,
      1785808556,
      1785808676,
      1785808736,
      1785808796,
      1785808916,
      1785808977,
      1785809037,
      1785809097,
      1785809157,
      1785809217,
      1785809337,
      1785809397,
      1785809457,
      1785809517,
      1785809567,
      1785809577,
      1785809627,
      1785809637,
      1785809687,
      1785809698,
      1785809747,
      1785809807,
      1785809878,
      1785809927,
      1785809938,
      1785809987,
      1785810058,
      1785810118,
      1785810178,
      1785810228,
      1785810288,
      1785810298,
      1785810418,
      1785810479,
      1785810528,
      1785810599,
      1785810648,
      1785810659,
      1785810708,
      1785810719,
      1785810779,
      1785810829,
      1785810949,
      1785810959,
      1785811009,
      1785811129,
      1785811189,
      1785811309,
      1785811342,
      1785811369,
      1785811384,
      1785811430,
      1785811438,
      1785811490,
      1785811504,
      1785811550,
      1785811564,
      1785811612,
      1785811678,
      1785811730,
      1785811790,
      1785811798,
      1785811850,
      1785811858,
      1785811919,
      1785811970,
      1785811984,
      1785812031,
      1785812099,
      1785812151,
      1785812165,
      1785812219,
      1785812279,
      1785812331,
      1785812339,
      1785812451,
      1785812465,
      1785812511
    ],
    "wof:geomhash": "b6f15be2b46d6404a963805da140674b",
    "wof:id": 2032088819,
    "wof:repo": "sfomuseum-data-flights-2026-08"
  },
  "bbox": [
    -122.38333333333334,
    37.61666666666667,
    -87.91638888888889,
    42.56361111111111
  ],
  "geometry": {"type":"LineString","coordinates":[[-122.38333333333334,37.61666666666667],[-122.34333333333333,37.66833333333333],[-122.25,37.7],[-122.1913888888889,37.74194444444444],[-122.1463888888889,37.8125],[-122.11555555555555,37.891666666666666],[-122.02333333333333,37.95027777777778],[-121.92305555555556,38.01222222222222],[-121.60027777777778,38.20916666666667],[-121.46055555555556,38.29333333333333],[-121.22083333333333,38.441111111111105],[-121.09666666666666,38.51777777777777],[-120.83,38.67861111111111],[-120.69361111111111,38.76277777777778],[-120.5586111111111,38.84638888888889],[-120.41583333333334,38.93],[-120.27722222222222,39.01583333333333],[-120.1388888888889,39.1],[-119.99361111111111,39.18472222222222],[-119.85166666666666,39.269999999999996],[-119.70916666666668,39.35527777777778],[-119.56555555555555,39.43833333333333],[-119.42611111111111,39.51972222222222],[-119.14083333333333,39.68722222222222],[-118.99722222222222,39.77027777777778],[-118.84916666666666,39.85527777777778],[-118.72611111111111,39.91361111111111],[-118.39777777777779,40.04722222222222],[-118.23444444444445,40.11222222222222],[-118.04444444444444,40.18888888888888],[-117.69944444444445,40.294999999999995],[-117.53,40.34527777777778],[-117.35416666666666,40.39694444444444],[-117.18333333333334,40.4475],[-116.86722222222221,40.53944444444444],[-116.69361111111111,40.58916666666667],[-116.65861111111111,40.599444444444444],[-116.52166666666666,40.638333333333335],[-116.48444444444445,40.64888888888889],[-116.17416666666666,40.73694444444445],[-115.82555555555555,40.83361111111111],[-115.47166666666666,40.931666666666665],[-115.29638888888888,40.97888888888889],[-115.11694444444444,41.02777777777778],[-114.94,41.07527777777778],[-114.75666666666666,41.12416666666667],[-114.57277777777777,41.17305555555555],[-114.39055555555557,41.22083333333334],[-114.21055555555556,41.2675],[-114.03111111111112,41.314166666666665],[-113.66361111111112,41.38583333333333],[-113.09416666666667,41.45777777777778],[-112.90277777777779,41.48111111111111],[-112.71277777777777,41.50416666666667],[-112.32555555555555,41.54805555555556],[-112.13416666666667,41.5675],[-111.94083333333333,41.587500000000006],[-111.75,41.60722222222223],[-111.55472222222222,41.62694444444445],[-111.36194444444443,41.645833333333336],[-110.97583333333334,41.68222222222222],[-110.80388888888889,41.69833333333333],[-110.61,41.715833333333336],[-110.41388888888889,41.73361111111111],[-110.22027777777778,41.75],[-110.02833333333334,41.76638888888889],[-109.83333333333333,41.783055555555556],[-109.63833333333334,41.79944444444444],[-109.56,41.80555555555555],[-109.43944444444445,41.815],[-109.3625,41.821111111111115],[-109.23916666666666,41.830555555555556],[-109.16250000000001,41.836666666666666],[-109.03972222222222,41.84638888888889],[-108.84027777777777,41.861111111111114],[-108.76166666666667,41.867222222222225],[-108.64083333333333,41.876111111111115],[-108.56277777777777,41.88166666666667],[-108.44027777777778,41.89],[-108.24361111111111,41.903888888888886],[-108.16666666666667,41.909444444444446],[-108.04472222222222,41.9175],[-107.96777777777778,41.9225],[-107.85083333333333,41.930277777777775],[-107.77361111111111,41.93527777777778],[-107.65416666666667,41.94305555555555],[-107.57777777777777,41.948055555555555],[-107.38444444444445,41.96],[-107.26416666666667,41.966944444444444],[-107.18694444444445,41.97166666666667],[-107.07166666666666,41.97888888888889],[-106.87472222222222,41.99027777777778],[-106.79916666666666,41.99444444444445],[-106.68222222222222,42.00111111111111],[-106.60305555555556,42.00555555555555],[-106.43388888888889,42.01444444444444],[-106.27388888888889,42.02305555555555],[-106.23777777777778,42.025],[-106.0775,42.03333333333333],[-106.03944444444444,42.03527777777778],[-105.88083333333333,42.043055555555554],[-105.84222222222222,42.04472222222222],[-105.6463888888889,42.05333333333333],[-105.45194444444445,42.0625],[-105.25722222222223,42.07055555555556],[-105.06611111111111,42.08305555555556],[-104.83694444444444,42.10333333333333],[-104.64750000000001,42.11972222222222],[-104.45861111111111,42.13583333333333],[-104.27083333333333,42.151111111111106],[-104.08055555555555,42.166666666666664],[-103.69611111111111,42.19694444444444],[-103.31166666666667,42.22555555555556],[-103.11944444444444,42.23972222222222],[-102.92722222222223,42.25333333333333],[-102.73,42.26694444444444],[-102.53722222222223,42.28],[-102.34333333333333,42.2925],[-102.14833333333334,42.305],[-101.95111111111112,42.31722222222223],[-101.74138888888889,42.330000000000005],[-101.69833333333334,42.33166666666667],[-101.54805555555555,42.34138888888889],[-101.50444444444445,42.3425],[-101.39277777777778,42.35],[-101.31166666666667,42.353611111111114],[-101.20138888888889,42.361111111111114],[-101.11972222222222,42.36388888888889],[-101.00972222222222,42.37083333333334],[-100.89,42.37694444444445],[-100.81972222222223,42.38055555555555],[-100.69972222222222,42.386944444444445],[-100.63,42.39055555555556],[-100.51055555555556,42.396388888888886],[-100.43944444444445,42.39972222222222],[-100.3236111111111,42.40555555555555],[-100.24777777777778,42.40888888888889],[-100.13527777777779,42.41416666666667],[-99.94361111111111,42.422777777777775],[-99.86361111111111,42.42583333333333],[-99.75138888888888,42.43055555555555],[-99.67166666666667,42.43388888888889],[-99.57694444444444,42.43805555555555],[-99.47916666666667,42.44194444444444],[-99.28388888888888,42.44944444444444],[-99.19250000000001,42.45305555555556],[-98.9975,42.46],[-98.80333333333333,42.46666666666667],[-98.60944444444443,42.473333333333336],[-98.41638888888889,42.48222222222223],[-98.22277777777778,42.490833333333335],[-98.03138888888888,42.498333333333335],[-97.83833333333332,42.505833333333335],[-97.45777777777778,42.519444444444446],[-97.26583333333333,42.52583333333333],[-97.07916666666667,42.53194444444444],[-96.70111111111112,42.54277777777778],[-96.51166666666667,42.545833333333334],[-96.32472222222222,42.549166666666665],[-96.13416666666667,42.55166666666666],[-95.94194444444445,42.55444444444444],[-95.75333333333333,42.556666666666665],[-95.37583333333333,42.559999999999995],[-95.18666666666667,42.56166666666666],[-94.9975,42.5625],[-94.81055555555555,42.56305555555555],[-94.65,42.5625],[-94.62333333333332,42.56333333333333],[-94.46444444444445,42.56361111111111],[-94.42472222222223,42.56333333333333],[-94.275,42.56305555555555],[-94.23861111111111,42.56305555555555],[-94.08999999999999,42.5625],[-93.90444444444445,42.56194444444444],[-93.67944444444444,42.56027777777778],[-93.53611111111111,42.559444444444445],[-93.49583333333334,42.55916666666666],[-93.35055555555554,42.5575],[-93.12833333333333,42.555277777777775],[-92.94333333333334,42.55083333333333],[-92.75833333333334,42.54527777777778],[-92.61055555555555,42.54111111111111],[-92.42666666666668,42.535555555555554],[-92.38916666666667,42.53444444444444],[-92.01916666666666,42.52388888888889],[-91.83749999999999,42.525277777777774],[-91.69194444444445,42.52583333333333],[-91.4725,42.526666666666664],[-91.32583333333334,42.52638888888889],[-91.28888888888889,42.52638888888889],[-91.14194444444445,42.526666666666664],[-91.10222222222221,42.526666666666664],[-90.91972222222223,42.526666666666664],[-90.77194444444444,42.52638888888889],[-90.40416666666667,42.52333333333333],[-90.36666666666666,42.52305555555555],[-90.2225,42.52194444444444],[-89.83083333333333,42.51888888888889],[-89.66527777777779,42.505],[-89.35083333333333,42.46638888888889],[-89.26666666666667,42.45],[-89.20194444444445,42.44777777777777],[-89.16666666666667,42.45],[-89.05694444444444,42.42972222222222],[-89.03333333333333,42.43333333333333],[-88.92361111111111,42.41277777777778],[-88.88333333333334,42.4],[-88.79277777777777,42.39611111111111],[-88.75,42.4],[-88.66666666666667,42.38333333333333],[-88.55,42.36666666666667],[-88.4725,42.33916666666667],[-88.46166666666667,42.260555555555555],[-88.46666666666667,42.25],[-88.4575,42.18527777777778],[-88.45,42.166666666666664],[-88.45,42.1],[-88.44666666666667,42.06055555555555],[-88.45,42.03333333333333],[-88.41333333333334,42.00888888888889],[-88.33333333333333,41.96666666666667],[-88.28333333333333,41.96472222222223],[-88.26666666666667,41.96666666666667],[-88.2,41.96666666666667],[-88.13333333333334,41.96666666666667],[-88.07472222222222,41.96527777777778],[-88.06666666666666,41.96666666666667],[-87.95944444444444,41.96555555555556],[-87.95,41.96666666666667],[-87.91638888888889,41.96555555555556]]}
}
