{
  "id": 2047916539,
  "type": "Feature",
  "properties": {
    "geom:area": 0,
    "geom:bbox": "-122.387330,37.684000,-121.249280,37.991320",
    "geom:latitude": 37.94956342923551,
    "geom:longitude": -121.92109963343817,
    "src:alt_label": "swim-takeoff",
    "src:geom": "swim",
    "swim:elevations": [
      750,
      762,
      1223,
      1578,
      1966,
      2142,
      2282,
      2495,
      2577,
      2998,
      3220,
      3269,
      3464,
      3714,
      3958,
      4266,
      4525,
      4806,
      4891,
      4992,
      5145,
      5297,
      5713,
      5758,
      5993,
      6259,
      6398
    ],
    "swim:geom": "takeoff",
    "swim:timestamps": [
      1786406452,
      1786406462,
      1786406507,
      1786406539,
      1786406577,
      1786406595,
      1786406610,
      1786406634,
      1786406646,
      1786406693,
      1786406728,
      1786406739,
      1786406774,
      1786406798,
      1786406823,
      1786406873,
      1786406905,
      1786406940,
      1786406955,
      1786406970,
      1786406987,
      1786407004,
      1786407057,
      1786407063,
      1786407096,
      1786407138,
      1786407166
    ],
    "wof:geomhash": "0be959be47154eae67f9a4cf0f041999",
    "wof:id": 2047916539,
    "wof:repo": "sfomuseum-data-flights-2026-08"
  },
  "bbox": [
    -122.38733,
    37.684,
    -121.24928,
    37.99132
  ],
  "geometry": {"type":"LineString","coordinates":[[-122.37469,37.684],[-122.3666,37.69241],[-122.33821,37.74507],[-122.35649,37.78213],[-122.37913,37.8298],[-122.38733,37.85313],[-122.38684,37.87311],[-122.38488,37.90593],[-122.38025,37.92265],[-122.30928,37.95543],[-122.24546,37.96747],[-122.22552,37.97172],[-122.15521,37.98611],[-122.10434,37.98833],[-122.0516,37.98815],[-121.94525,37.98897],[-121.87173,37.98947],[-121.79312,37.98993],[-121.75838,37.99005],[-121.72319,37.99024],[-121.68229,37.99044],[-121.64158,37.99066],[-121.51561,37.99109],[-121.50121,37.99114],[-121.42228,37.99132],[-121.31899,37.9912],[-121.24928,37.99119]]}
}
