{
  "id": 2047952113,
  "type": "Feature",
  "properties": {
    "geom:area": 0,
    "geom:bbox": "-122.362150,36.726390,-121.881330,37.613900",
    "geom:latitude": 37.215522032504005,
    "geom:longitude": -122.07211183770566,
    "src:alt_label": "swim-approach",
    "src:geom": "swim",
    "swim:elevations": [
      5630,
      5339,
      4910,
      4703,
      4542,
      3964,
      3831,
      3292,
      3139,
      3065,
      2802,
      2513,
      2441,
      2177,
      2004,
      1711,
      1524,
      1370,
      1264,
      1049,
      1035,
      931,
      747,
      730,
      616,
      477,
      321,
      273,
      119,
      27
    ],
    "swim:geom": "approach",
    "swim:timestamps": [
      1786652327,
      1786652356,
      1786652396,
      1786652415,
      1786652430,
      1786652485,
      1786652498,
      1786652547,
      1786652569,
      1786652594,
      1786652631,
      1786652665,
      1786652680,
      1786652720,
      1786652741,
      1786652784,
      1786652817,
      1786652841,
      1786652857,
      1786652895,
      1786652898,
      1786652915,
      1786652946,
      1786652951,
      1786652973,
      1786653005,
      1786653047,
      1786653061,
      1786653106,
      1786653139
    ],
    "wof:geomhash": "4a53518f36463ec39d46b0c791f74107",
    "wof:id": 2047952113,
    "wof:repo": "sfomuseum-data-flights-2026-08"
  },
  "bbox": [
    -122.36215,
    36.72639,
    -121.88133,
    37.6139
  ],
  "geometry": {"type":"LineString","coordinates":[[-121.88133,36.72639],[-121.90258,36.77241],[-121.92172,36.84008],[-121.93048,36.87119],[-121.93739,36.8958],[-121.96566,36.98407],[-121.97368,37.00492],[-122.0034,37.08127],[-122.01644,37.11434],[-122.03054,37.15039],[-122.05051,37.20225],[-122.06863,37.24772],[-122.07618,37.26809],[-122.09676,37.31839],[-122.10723,37.34472],[-122.12589,37.39669],[-122.13932,37.43454],[-122.14793,37.45939],[-122.15362,37.47625],[-122.16775,37.51578],[-122.16885,37.51893],[-122.17791,37.53592],[-122.21242,37.55006],[-122.21769,37.55218],[-122.23898,37.56163],[-122.26658,37.57324],[-122.29717,37.58605],[-122.30665,37.59005],[-122.33868,37.60345],[-122.36215,37.6139]]}
}
