{
  "id": 2032116631,
  "type": "Feature",
  "properties": {
    "geom:area": 0,
    "geom:bbox": "-122.358380,37.493660,-121.252370,37.614160",
    "geom:latitude": 37.54287671414834,
    "geom:longitude": -121.81246197014872,
    "src:alt_label": "swim-approach",
    "src:geom": "swim",
    "swim:elevations": [
      4995,
      4793,
      4479,
      4077,
      3985,
      3789,
      3628,
      3540,
      3371,
      3170,
      3031,
      2768,
      2616,
      2442,
      2355,
      2225,
      2010,
      1829,
      1799,
      1654,
      1609,
      1565,
      1486,
      1282,
      1219,
      1219,
      1035,
      858,
      754,
      595,
      464,
      283,
      182,
      120,
      0
    ],
    "swim:geom": "approach",
    "swim:timestamps": [
      1785996956,
      1785996976,
      1785997010,
      1785997048,
      1785997058,
      1785997080,
      1785997106,
      1785997124,
      1785997157,
      1785997194,
      1785997217,
      1785997258,
      1785997285,
      1785997313,
      1785997331,
      1785997353,
      1785997401,
      1785997433,
      1785997455,
      1785997472,
      1785997479,
      1785997485,
      1785997497,
      1785997522,
      1785997538,
      1785997550,
      1785997582,
      1785997612,
      1785997636,
      1785997664,
      1785997691,
      1785997734,
      1785997760,
      1785997777,
      1785997805
    ],
    "wof:geomhash": "266c3b73b02b85467a62431c50cc04ed",
    "wof:id": 2032116631,
    "wof:repo": "sfomuseum-data-flights-2026-08"
  },
  "bbox": [
    -122.35838,
    37.49366,
    -121.25237,
    37.61416
  ],
  "geometry": {"type":"LineString","coordinates":[[-121.25237,37.59399],[-121.28862,37.58925],[-121.35032,37.5828],[-121.41832,37.57498],[-121.43579,37.57282],[-121.47305,37.5684],[-121.51614,37.5635],[-121.54561,37.56],[-121.59348,37.55441],[-121.6454,37.54579],[-121.67716,37.53835],[-121.73204,37.52521],[-121.76765,37.51663],[-121.80435,37.50787],[-121.82714,37.5023],[-121.85574,37.49549],[-121.92085,37.49366],[-121.96497,37.49602],[-121.99364,37.49756],[-122.01561,37.4988],[-122.02506,37.49934],[-122.03309,37.4998],[-122.04906,37.50076],[-122.08259,37.50269],[-122.10376,37.50705],[-122.11818,37.51271],[-122.15677,37.52922],[-122.19207,37.54409],[-122.21876,37.55542],[-122.24746,37.56749],[-122.27301,37.57821],[-122.30699,37.5924],[-122.32615,37.60053],[-122.33826,37.60569],[-122.35838,37.61416]]}
}
