{
  "id": 2047955503,
  "type": "Feature",
  "properties": {
    "geom:area": 0,
    "geom:bbox": "-119.276944,40.838333,-95.966944,42.138889",
    "geom:latitude": 41.695455508589184,
    "geom:longitude": -107.70832543028465,
    "src:alt_label": "swim-path",
    "src:geom": "swim",
    "swim:altitudes": [
      "038",
      "062",
      "090",
      "112",
      "121",
      "140",
      "159",
      "193",
      "207",
      "222",
      "235",
      "246",
      "254",
      "272",
      "286",
      "312",
      "324",
      "337",
      "350",
      "369",
      "375",
      "380C",
      "380C",
      "380C",
      "380C",
      "380C",
      "380C",
      "380C",
      "380C",
      "380C",
      "380C",
      "380C",
      "380C",
      "380C",
      "380C",
      "380C",
      "380C",
      "380C",
      "380C",
      "380C",
      "380C",
      "380C",
      "380C",
      "380C",
      "380C",
      "380C",
      "380C",
      "380C",
      "380C",
      "380C",
      "380C",
      "380C",
      "380C",
      "380C",
      "380C",
      "380C",
      "380C",
      "380C",
      "380C",
      "380C",
      "380C",
      "380C",
      "380C",
      "380C",
      "380C",
      "380C",
      "380C",
      "380C",
      "380C",
      "380C",
      "380C",
      "380C",
      "380C",
      "380C",
      "380C",
      "380C",
      "380C",
      "380C",
      "380C",
      "380C",
      "380C",
      "380C",
      "380C",
      "380C",
      "380C",
      "380C",
      "380C",
      "380C",
      "380C",
      "380C",
      "380C",
      "380C",
      "380C",
      "380C",
      "380C",
      "380C",
      "380C",
      "380C",
      "380C",
      "380C",
      "380C",
      "380C",
      "380C",
      "380C",
      "380C",
      "380C",
      "380C",
      "380C",
      "380C",
      "380C",
      "380C",
      "380C",
      "380C",
      "380C",
      "380C",
      "380C",
      "380C",
      "380C",
      "380C",
      "380C",
      "380C",
      "380C",
      "380C",
      "380C",
      "380C",
      "380C",
      "380C",
      "380C",
      "380C",
      "380C",
      "380C",
      "380C",
      "380C",
      "380C",
      "380C",
      "380C",
      "380C",
      "380C",
      "380C",
      "380C",
      "380C",
      "380C",
      "380C",
      "380C",
      "380C",
      "380C",
      "380C",
      "380C",
      "380C",
      "380C",
      "380C",
      "380C",
      "380C",
      "380C",
      "380C",
      "380C",
      "380C",
      "380C",
      "380C",
      "380C",
      "380C",
      "380C",
      "380C",
      "380C",
      "380C",
      "380C",
      "380C",
      "380C",
      "380C",
      "380C",
      "380C",
      "380C",
      "380C",
      "380C",
      "380C",
      "380C",
      "380C",
      "380C",
      "380C",
      "380C",
      "380C",
      "380C",
      "380C",
      "380C",
      "380C",
      "380C",
      "380C",
      "380C",
      "380C",
      "380C",
      "380C",
      "380C",
      "380C",
      "380C",
      "380C",
      "380C",
      "380C",
      "380C",
      "380C",
      "380C",
      "380C",
      "380C",
      "383",
      "387",
      "390C",
      "390C",
      "390C",
      "390C",
      "390C",
      "390C",
      "390C",
      "390C",
      "390C",
      "390C",
      "390C",
      "390C",
      "390C",
      "388",
      "384",
      "380C",
      "380C",
      "380C",
      "380C",
      "380C",
      "380C"
    ],
    "swim:geom": "path",
    "swim:speeds": [
      228,
      273,
      288,
      304,
      356,
      372,
      382,
      406,
      418,
      423,
      429,
      441,
      452,
      455,
      457,
      455,
      453,
      448,
      442,
      435,
      435,
      435,
      434,
      433,
      434,
      432,
      432,
      432,
      427,
      430,
      429,
      428,
      428,
      427,
      427,
      426,
      425,
      425,
      424,
      422,
      420,
      417,
      416,
      415,
      416,
      414,
      415,
      412,
      413,
      411,
      410,
      410,
      409,
      410,
      409,
      410,
      410,
      410,
      410,
      410,
      409,
      410,
      409,
      408,
      410,
      407,
      410,
      406,
      398,
      400,
      395,
      392,
      389,
      388,
      386,
      385,
      383,
      390,
      386,
      390,
      389,
      390,
      390,
      390,
      391,
      391,
      396,
      397,
      399,
      401,
      401,
      403,
      404,
      405,
      405,
      405,
      405,
      405,
      405,
      405,
      404,
      404,
      404,
      405,
      406,
      407,
      408,
      408,
      409,
      409,
      411,
      411,
      412,
      412,
      411,
      411,
      408,
      408,
      408,
      408,
      398,
      395,
      395,
      393,
      393,
      392,
      393,
      393,
      394,
      394,
      394,
      397,
      411,
      413,
      414,
      412,
      410,
      408,
      407,
      405,
      404,
      404,
      404,
      403,
      405,
      409,
      410,
      412,
      413,
      415,
      418,
      420,
      420,
      421,
      425,
      425,
      425,
      427,
      429,
      430,
      429,
      424,
      419,
      416,
      414,
      412,
      410,
      409,
      409,
      408,
      409,
      408,
      409,
      410,
      412,
      409,
      413,
      414,
      414,
      414,
      414,
      413,
      414,
      428,
      427,
      430,
      429,
      432,
      433,
      434,
      435,
      435,
      435,
      437,
      435,
      438,
      438,
      439,
      438,
      440,
      438,
      439,
      423,
      416,
      417,
      415,
      417,
      416,
      417,
      417,
      418,
      418,
      418,
      417,
      417,
      416,
      416,
      415,
      415,
      416,
      415,
      415,
      415,
      416,
      416
    ],
    "swim:timestamps": [
      1786656774,
      1786656841,
      1786656901,
      1786656961,
      1786657021,
      1786657081,
      1786657141,
      1786657261,
      1786657321,
      1786657381,
      1786657441,
      1786657502,
      1786657562,
      1786657682,
      1786657751,
      1786657871,
      1786657931,
      1786657991,
      1786658051,
      1786658171,
      1786658234,
      1786658295,
      1786658363,
      1786658423,
      1786658475,
      1786658484,
      1786658535,
      1786658544,
      1786658595,
      1786658664,
      1786658724,
      1786658776,
      1786658784,
      1786658844,
      1786658896,
      1786658904,
      1786658956,
      1786658964,
      1786659024,
      1786659084,
      1786659136,
      1786659205,
      1786659256,
      1786659265,
      1786659316,
      1786659325,
      1786659377,
      1786659385,
      1786659437,
      1786659445,
      1786659505,
      1786659557,
      1786659565,
      1786659617,
      1786659625,
      1786659677,
      1786659685,
      1786659737,
      1786659745,
      1786659797,
      1786659805,
      1786659857,
      1786659866,
      1786659926,
      1786659977,
      1786659986,
      1786660037,
      1786660046,
      1786660106,
      1786660158,
      1786660166,
      1786660218,
      1786660226,
      1786660278,
      1786660286,
      1786660338,
      1786660346,
      1786660398,
      1786660406,
      1786660458,
      1786660466,
      1786660518,
      1786660526,
      1786660578,
      1786660587,
      1786660638,
      1786660647,
      1786660698,
      1786660707,
      1786660758,
      1786660767,
      1786660827,
      1786660879,
      1786660887,
      1786660939,
      1786660947,
      1786661007,
      1786661067,
      1786661119,
      1786661127,
      1786661179,
      1786661187,
      1786661247,
      1786661308,
      1786661359,
      1786661368,
      1786661419,
      1786661428,
      1786661479,
      1786661488,
      1786661539,
      1786661548,
      1786661600,
      1786661608,
      1786661660,
      1786661668,
      1786661720,
      1786661728,
      1786661780,
      1786661788,
      1786661848,
      1786661900,
      1786661908,
      1786661960,
      1786661968,
      1786662029,
      1786662080,
      1786662089,
      1786662140,
      1786662149,
      1786662260,
      1786662320,
      1786662381,
      1786662441,
      1786662501,
      1786662561,
      1786662621,
      1786662681,
      1786662741,
      1786662801,
      1786662861,
      1786662921,
      1786662981,
      1786663041,
      1786663102,
      1786663162,
      1786663222,
      1786663282,
      1786663342,
      1786663402,
      1786663462,
      1786663522,
      1786663582,
      1786663642,
      1786663702,
      1786663762,
      1786663823,
      1786663883,
      1786663943,
      1786664003,
      1786664063,
      1786664123,
      1786664183,
      1786664243,
      1786664315,
      1786664375,
      1786664435,
      1786664495,
      1786664532,
      1786664556,
      1786664592,
      1786664616,
      1786664652,
      1786664676,
      1786664736,
      1786664772,
      1786664796,
      1786664832,
      1786664892,
      1786664916,
      1786664952,
      1786664976,
      1786665012,
      1786665036,
      1786665073,
      1786665096,
      1786665133,
      1786665156,
      1786665193,
      1786665216,
      1786665253,
      1786665276,
      1786665313,
      1786665337,
      1786665373,
      1786665397,
      1786665433,
      1786665457,
      1786665493,
      1786665517,
      1786665553,
      1786665577,
      1786665637,
      1786665673,
      1786665697,
      1786665734,
      1786665757,
      1786665794,
      1786665817,
      1786665854,
      1786665877,
      1786665914,
      1786665937,
      1786665974,
      1786665997,
      1786666034,
      1786666058,
      1786666094,
      1786666118,
      1786666154,
      1786666178,
      1786666238,
      1786666274,
      1786666298,
      1786666334
    ],
    "wof:geomhash": "060c133d4db74a3da784cf53564c3bcf",
    "wof:id": 2047955503,
    "wof:repo": "sfomuseum-data-flights-2026-08"
  },
  "bbox": [
    -119.27694444444444,
    40.83833333333334,
    -95.96694444444445,
    42.138888888888886
  ],
  "geometry": {"type":"LineString","coordinates":[[-95.96694444444445,41.36472222222223],[-96.04638888888888,41.405833333333334],[-96.13333333333334,41.44972222222222],[-96.22111111111111,41.49722222222222],[-96.32972222222222,41.545833333333334],[-96.45027777777779,41.594722222222224],[-96.57416666666666,41.644999999999996],[-96.83944444444444,41.75194444444445],[-96.97694444444444,41.80722222222222],[-97.115,41.86194444444445],[-97.25861111111111,41.91861111111111],[-97.40861111111111,41.97805555555556],[-97.55027777777778,42.03361111111111],[-97.87527777777777,42.08583333333333],[-98.06722222222221,42.09138888888889],[-98.40444444444445,42.10055555555556],[-98.5736111111111,42.105000000000004],[-98.73861111111111,42.10888888888889],[-98.90333333333334,42.112500000000004],[-99.22500000000001,42.119166666666665],[-99.36611111111111,42.12138888888889],[-99.56083333333333,42.124722222222225],[-99.74361111111111,42.12722222222222],[-99.9363888888889,42.12972222222222],[-100.06472222222222,42.13],[-100.0961111111111,42.13166666666667],[-100.22527777777778,42.132777777777775],[-100.25611111111111,42.13305555555556],[-100.36749999999999,42.13305555555556],[-100.57694444444444,42.13583333333333],[-100.7363888888889,42.13666666666666],[-100.8475,42.136944444444445],[-100.89472222222223,42.1375],[-101.05194444444444,42.13805555555555],[-101.16444444444446,42.13611111111111],[-101.21194444444444,42.138333333333335],[-101.32333333333332,42.1375],[-101.36722222222221,42.138333333333335],[-101.52527777777777,42.138333333333335],[-101.68166666666667,42.13805555555555],[-101.79416666666667,42.13583333333333],[-101.99166666666667,42.13638888888889],[-102.10333333333332,42.134166666666665],[-102.14555555555556,42.135555555555555],[-102.25638888888889,42.13194444444444],[-102.28833333333333,42.13472222222222],[-102.40972222222223,42.1325],[-102.44111111111111,42.13305555555556],[-102.56277777777777,42.13111111111111],[-102.5936111111111,42.13166666666667],[-102.74555555555555,42.12972222222222],[-102.86749999999999,42.12777777777778],[-102.89916666666667,42.12777777777778],[-103.02,42.124722222222225],[-103.05333333333333,42.12555555555556],[-103.17333333333333,42.1225],[-103.20444444444445,42.123333333333335],[-103.3275,42.120555555555555],[-103.35833333333333,42.12083333333334],[-103.48027777777779,42.1175],[-103.51222222222222,42.12],[-103.63277777777778,42.12138888888889],[-103.66416666666667,42.12388888888889],[-103.81722222222221,42.12833333333333],[-103.93722222222223,42.13138888888889],[-103.96972222222223,42.13333333333333],[-104.08944444444444,42.13611111111111],[-104.12138888888889,42.138888888888886],[-104.26916666666666,42.13444444444444],[-104.3875,42.12833333333333],[-104.41555555555556,42.126666666666665],[-104.52972222222222,42.10666666666667],[-104.55694444444444,42.098888888888894],[-104.65138888888889,42.05166666666666],[-104.66972222222223,42.035],[-104.74638888888889,41.971944444444446],[-104.77333333333333,41.96527777777778],[-104.88833333333334,41.958333333333336],[-104.91861111111112,41.95916666666667],[-105.035,41.95583333333334],[-105.06388888888888,41.95583333333334],[-105.18,41.95027777777778],[-105.20972222222223,41.95111111111111],[-105.3261111111111,41.94555555555555],[-105.35499999999999,41.94694444444444],[-105.47194444444445,41.92944444444444],[-105.50027777777778,41.92305555555555],[-105.61361111111111,41.89416666666666],[-105.64333333333335,41.88722222222222],[-105.75611111111111,41.85916666666667],[-105.78388888888888,41.85333333333333],[-105.92944444444444,41.81777777777778],[-106.04444444444444,41.78944444444444],[-106.07222222222222,41.782777777777774],[-106.18861111111111,41.75388888888889],[-106.215,41.74722222222222],[-106.35833333333333,41.711666666666666],[-106.50111111111111,41.67583333333333],[-106.615,41.64694444444444],[-106.63444444444445,41.64222222222222],[-106.77583333333334,41.60638888888889],[-106.77583333333334,41.60638888888889],[-106.91833333333334,41.569722222222225],[-107.06083333333333,41.53333333333333],[-107.19694444444445,41.49805555555556],[-107.20138888888889,41.496944444444445],[-107.34194444444444,41.46027777777778],[-107.34666666666666,41.45916666666667],[-107.49138888888889,41.421388888888885],[-107.49138888888889,41.421388888888885],[-107.63972222222223,41.39666666666667],[-107.63972222222223,41.39666666666667],[-107.78972222222222,41.37416666666667],[-107.78972222222222,41.37416666666667],[-107.9363888888889,41.35444444444445],[-107.93666666666667,41.35444444444445],[-108.08416666666666,41.33583333333333],[-108.08416666666666,41.33583333333333],[-108.23527777777778,41.31722222222223],[-108.23027777777779,41.31777777777778],[-108.37916666666666,41.30361111111111],[-108.52444444444444,41.29083333333333],[-108.52444444444444,41.29083333333333],[-108.66805555555555,41.27833333333333],[-108.66805555555555,41.27833333333333],[-108.81305555555555,41.265277777777776],[-108.95833333333334,41.25277777777778],[-108.95833333333334,41.25277777777778],[-109.07694444444444,41.24388888888889],[-109.10527777777777,41.24194444444444],[-109.37138888888889,41.22138888888889],[-109.51722222222222,41.215833333333336],[-109.66777777777779,41.223333333333336],[-109.82138888888889,41.231388888888894],[-109.97277777777778,41.23916666666667],[-110.12472222222222,41.24638888888889],[-110.275,41.25333333333333],[-110.42416666666666,41.26027777777778],[-110.57222222222222,41.26694444444444],[-110.72027777777778,41.27333333333333],[-110.86833333333333,41.279444444444444],[-111.03777777777778,41.28638888888889],[-111.1863888888889,41.29194444444444],[-111.33305555555555,41.2975],[-111.48222222222222,41.30277777777778],[-111.63194444444444,41.308055555555555],[-111.78333333333333,41.31333333333333],[-111.9325,41.31805555555556],[-112.08388888888888,41.32277777777778],[-112.23777777777778,41.327222222222225],[-112.39277777777778,41.331944444444446],[-112.5475,41.336111111111116],[-112.70222222222222,41.34],[-112.85666666666665,41.343611111111116],[-113.01444444444445,41.35944444444445],[-113.16777777777779,41.37694444444445],[-113.32416666666666,41.39416666666666],[-113.48166666666667,41.41166666666666],[-113.63833333333334,41.42861111111111],[-113.79527777777777,41.44555555555555],[-113.95222222222222,41.46222222222222],[-114.10833333333333,41.47888888888889],[-114.25777777777778,41.494166666666665],[-114.41055555555556,41.50972222222222],[-114.59055555555555,41.52777777777778],[-114.74166666666667,41.54277777777778],[-114.88305555555554,41.55638888888888],[-115.03,41.57083333333334],[-115.12222222222222,41.580000000000005],[-115.21166666666667,41.588055555555556],[-115.27055555555556,41.59277777777778],[-115.36,41.60194444444445],[-115.42111111111112,41.60666666666667],[-115.5125,41.615833333333335],[-115.66194444444444,41.629444444444445],[-115.72527777777778,41.63527777777778],[-115.815,41.643055555555556],[-115.87888888888888,41.64888888888889],[-116.03111111111112,41.66222222222222],[-116.11833333333333,41.66972222222222],[-116.18222222222222,41.67527777777777],[-116.27,41.6825],[-116.335,41.68805555555555],[-116.42750000000001,41.69583333333333],[-116.52694444444444,41.70388888888889],[-116.58916666666666,41.70916666666667],[-116.6863888888889,41.717222222222226],[-116.74694444444445,41.721944444444446],[-116.8475,41.730555555555554],[-116.90805555555556,41.735],[-117.00805555555556,41.74333333333333],[-117.06916666666666,41.7475],[-117.16888888888889,41.75555555555555],[-117.23166666666667,41.76],[-117.33,41.76833333333333],[-117.39277777777778,41.77222222222222],[-117.49277777777777,41.779444444444444],[-117.55666666666666,41.784166666666664],[-117.65611111111112,41.791666666666664],[-117.71833333333333,41.79611111111111],[-117.8175,41.80277777777778],[-117.87972222222221,41.8075],[-118.03722222222223,41.79888888888889],[-118.10749999999999,41.75388888888889],[-118.14972222222222,41.72083333333334],[-118.21583333333334,41.671388888888885],[-118.2575,41.63861111111111],[-118.32249999999999,41.58861111111111],[-118.36583333333333,41.555],[-118.43166666666667,41.505],[-118.4738888888889,41.47222222222222],[-118.53944444444444,41.420833333333334],[-118.58027777777778,41.38861111111111],[-118.64527777777778,41.33777777777778],[-118.68611111111112,41.30555555555555],[-118.75111111111111,41.254444444444445],[-118.79166666666667,41.223055555555554],[-118.85555555555555,41.1725],[-118.8963888888889,41.140277777777776],[-118.96194444444444,41.08861111111111],[-119.0025,41.05638888888888],[-119.10777777777777,40.973055555555554],[-119.17166666666667,40.92222222222222],[-119.2125,40.88972222222222],[-119.27694444444444,40.83833333333334]]}
}
