{
  "id": 2047958547,
  "type": "Feature",
  "properties": {
    "geom:area": 0,
    "geom:bbox": "-122.543190,36.721660,-121.443420,37.668110",
    "geom:latitude": 37.21117667812732,
    "geom:longitude": -122.06791953391775,
    "src:alt_label": "swim-takeoff",
    "src:geom": "swim",
    "swim:elevations": [
      122,
      690,
      893,
      1011,
      1261,
      2034,
      2082,
      2325,
      2763,
      3144,
      3207,
      3349,
      3894,
      4047,
      4197,
      4375,
      4725,
      4932,
      5043,
      5295,
      5618,
      5915,
      6197,
      6383,
      6572,
      6761,
      6814,
      6915,
      7087,
      7155,
      7288
    ],
    "swim:geom": "takeoff",
    "swim:timestamps": [
      1786654662,
      1786654708,
      1786654737,
      1786654755,
      1786654777,
      1786654828,
      1786654831,
      1786654847,
      1786654881,
      1786654914,
      1786654923,
      1786654952,
      1786655003,
      1786655035,
      1786655067,
      1786655091,
      1786655128,
      1786655152,
      1786655168,
      1786655199,
      1786655238,
      1786655277,
      1786655308,
      1786655336,
      1786655359,
      1786655393,
      1786655406,
      1786655420,
      1786655454,
      1786655463,
      1786655490
    ],
    "wof:geomhash": "29a39d4ee02fd3319c3e1c8eb4d0b5e1",
    "wof:id": 2047958547,
    "wof:repo": "sfomuseum-data-flights-2026-08"
  },
  "bbox": [
    -122.54319,
    36.72166,
    -121.44342,
    37.66811
  ],
  "geometry": {"type":"LineString","coordinates":[[-122.38422,37.62264],[-122.42314,37.63987],[-122.45315,37.65273],[-122.47374,37.66177],[-122.50633,37.66811],[-122.54319,37.62141],[-122.54152,37.61774],[-122.53126,37.59861],[-122.50962,37.55778],[-122.48775,37.5155],[-122.48183,37.50406],[-122.4474,37.46992],[-122.3709,37.4138],[-122.31995,37.37627],[-122.2639,37.33487],[-122.22016,37.30254],[-122.15407,37.25365],[-122.1088,37.2201],[-122.07923,37.19822],[-122.0208,37.1549],[-121.94539,37.09865],[-121.87063,37.04285],[-121.80847,36.99649],[-121.75309,36.95497],[-121.70852,36.92154],[-121.64019,36.87013],[-121.614,36.85055],[-121.58541,36.82897],[-121.51664,36.77709],[-121.49831,36.76321],[-121.44342,36.72166]]}
}
