{
  "id": 2032113153,
  "type": "Feature",
  "properties": {
    "geom:area": 0,
    "geom:bbox": "-122.350010,37.457840,-121.247600,37.653140",
    "geom:latitude": 37.56004223808576,
    "geom:longitude": -121.82258701135119,
    "src:alt_label": "swim-approach",
    "src:geom": "swim",
    "swim:elevations": [
      4809,
      4621,
      4087,
      3966,
      3809,
      3728,
      3577,
      3372,
      3221,
      3047,
      3048,
      3048,
      3048,
      3048,
      3048,
      3048,
      2556,
      2343,
      2109,
      1988,
      1848,
      1829,
      1829,
      1549,
      1520,
      1358,
      997,
      976,
      571,
      426,
      359,
      200,
      147,
      50
    ],
    "swim:geom": "approach",
    "swim:timestamps": [
      1785929751,
      1785929777,
      1785929846,
      1785929861,
      1785929888,
      1785929930,
      1785929960,
      1785929992,
      1785930021,
      1785930050,
      1785930068,
      1785930072,
      1785930110,
      1785930114,
      1785930122,
      1785930191,
      1785930352,
      1785930410,
      1785930442,
      1785930464,
      1785930485,
      1785930530,
      1785930545,
      1785930594,
      1785930597,
      1785930613,
      1785930649,
      1785930653,
      1785930736,
      1785930771,
      1785930789,
      1785930829,
      1785930843,
      1785930865
    ],
    "wof:geomhash": "4d07546e11511a9a6111506e416f7b18",
    "wof:id": 2032113153,
    "wof:repo": "sfomuseum-data-flights-2026-08"
  },
  "bbox": [
    -122.35001,
    37.45784,
    -121.2476,
    37.65314
  ],
  "geometry": {"type":"LineString","coordinates":[[-121.2476,37.59476],[-121.29588,37.58848],[-121.42041,37.57447],[-121.44755,37.57136],[-121.49393,37.56603],[-121.55969,37.55819],[-121.60366,37.55299],[-121.65071,37.55609],[-121.68512,37.57622],[-121.71924,37.59781],[-121.74013,37.61092],[-121.74501,37.61398],[-121.7892,37.64183],[-121.79388,37.64475],[-121.80426,37.65047],[-121.90081,37.65314],[-121.92747,37.52877],[-121.8747,37.48844],[-121.89982,37.46228],[-121.92921,37.45896],[-121.95786,37.45784],[-122.01882,37.47094],[-122.03739,37.47867],[-122.09739,37.50408],[-122.10107,37.50562],[-122.1209,37.51407],[-122.16401,37.53222],[-122.16876,37.53424],[-122.24949,37.56832],[-122.27791,37.58029],[-122.29093,37.58572],[-122.322,37.59877],[-122.33236,37.60318],[-122.35001,37.61056]]}
}
