{
  "id": 2047945777,
  "type": "Feature",
  "properties": {
    "geom:area": 0,
    "geom:bbox": "-122.404444,35.766667,-86.630833,39.135278",
    "geom:latitude": 37.805837385858055,
    "geom:longitude": -104.40111176580413,
    "src:alt_label": "swim-path",
    "src:geom": "swim",
    "swim:altitudes": [
      "022",
      "041",
      "060",
      "083",
      "105",
      "115",
      "132",
      "151",
      "172",
      "192",
      "207",
      "221",
      "238",
      "251",
      "264",
      "276",
      "279",
      "289",
      "293",
      "302",
      "306",
      "313",
      "316",
      "323",
      "325",
      "330C",
      "330C",
      "330C",
      "330C",
      "329C",
      "330C",
      "330C",
      "330C",
      "330C",
      "330C",
      "330C",
      "330C",
      "330C",
      "330C",
      "330C",
      "330C",
      "330C",
      "330C",
      "330C",
      "330",
      "335",
      "340",
      "346",
      "350C",
      "350C",
      "350C",
      "350C",
      "350C",
      "350C",
      "350C",
      "350C",
      "350C",
      "350C",
      "350C",
      "350C",
      "350C",
      "350C",
      "350C",
      "350C",
      "350C",
      "350C",
      "350C",
      "350C",
      "350C",
      "350C",
      "350C",
      "350C",
      "350C",
      "350C",
      "350C",
      "350C",
      "350C",
      "350C",
      "350C",
      "350C",
      "350C",
      "350C",
      "350C",
      "350C",
      "350C",
      "350C",
      "350C",
      "350C",
      "350C",
      "350C",
      "350C",
      "350C",
      "350C",
      "350C",
      "350C",
      "350C",
      "350C",
      "350C",
      "350C",
      "350C",
      "350C",
      "350C",
      "350C",
      "350C",
      "350C",
      "350C",
      "350C",
      "350C",
      "350C",
      "350C",
      "350C",
      "350C",
      "350C",
      "350C",
      "350C",
      "350C",
      "350C",
      "350C",
      "350C",
      "350C",
      "350C",
      "350C",
      "350C",
      "350C",
      "350C",
      "350C",
      "350C",
      "350C",
      "350C",
      "350C",
      "350C",
      "350C",
      "350C",
      "350C",
      "350C",
      "350C",
      "350C",
      "350C",
      "350C",
      "350C",
      "350C",
      "350C",
      "350C",
      "350C",
      "350C",
      "350C",
      "350C",
      "350C",
      "350C",
      "350C",
      "350C",
      "350C",
      "350C",
      "350C",
      "350C",
      "350C",
      "350C",
      "350C",
      "350C",
      "350C",
      "350C",
      "350C",
      "350C",
      "350C",
      "350C",
      "350C",
      "350C",
      "350C",
      "350C",
      "350C",
      "350C",
      "350C",
      "350C",
      "350C",
      "350C",
      "350C",
      "350C",
      "350C",
      "350C",
      "350C",
      "350C",
      "350C",
      "350C",
      "350C",
      "350C",
      "350C",
      "350C",
      "350C",
      "350C",
      "350C",
      "350C",
      "350C",
      "350C",
      "350C",
      "350C",
      "350C",
      "350C",
      "350C",
      "350C",
      "350C",
      "350C",
      "350C",
      "350C",
      "350C",
      "350C",
      "350C",
      "350C",
      "350C",
      "350C",
      "350C",
      "350C",
      "350C",
      "350C",
      "350C",
      "350C",
      "350C",
      "350C",
      "350C",
      "350C",
      "350C",
      "350C",
      "350C",
      "350C",
      "350C",
      "350C",
      "350C",
      "350C",
      "350C",
      "350C",
      "350C",
      "350C",
      "350C",
      "350C",
      "350C",
      "350C",
      "350C",
      "350C",
      "350C",
      "350C",
      "350C",
      "350C",
      "350C",
      "350C",
      "350C",
      "350C",
      "350C",
      "350C",
      "350C",
      "350C",
      "350C",
      "350C",
      "350C",
      "350C",
      "350C",
      "350C",
      "350C",
      "350C",
      "350C",
      "350C",
      "350C",
      "350C",
      "350C",
      "350C",
      "350C",
      "350C",
      "350C",
      "350C",
      "350C",
      "350C",
      "350C",
      "350C",
      "350C",
      "350C",
      "350C",
      "350C",
      "350C",
      "350C",
      "350C",
      "350C",
      "350C",
      "350C",
      "350C",
      "350C",
      "350C",
      "350C",
      "350C",
      "350C",
      "350C",
      "350C",
      "350C",
      "350C",
      "350C",
      "347",
      "337",
      "328",
      "318",
      "308",
      "298",
      "288",
      "278",
      "269",
      "258",
      "246",
      "237",
      "218",
      "192",
      "190",
      "181",
      "158",
      "143",
      "125",
      "109",
      "102",
      "091",
      "088",
      "080",
      "077",
      "067",
      "065",
      "053",
      "038",
      "029",
      "020",
      "012",
      "005"
    ],
    "swim:geom": "path",
    "swim:speeds": [
      210,
      235,
      278,
      298,
      311,
      364,
      396,
      409,
      419,
      425,
      439,
      453,
      458,
      462,
      470,
      475,
      473,
      474,
      473,
      472,
      473,
      469,
      470,
      469,
      470,
      470,
      471,
      470,
      469,
      464,
      461,
      466,
      471,
      468,
      471,
      469,
      470,
      469,
      470,
      469,
      470,
      470,
      471,
      470,
      471,
      471,
      471,
      469,
      466,
      464,
      464,
      463,
      463,
      469,
      479,
      487,
      488,
      490,
      491,
      492,
      493,
      494,
      496,
      498,
      499,
      501,
      501,
      501,
      497,
      494,
      494,
      493,
      492,
      491,
      480,
      475,
      473,
      473,
      473,
      472,
      472,
      472,
      472,
      472,
      471,
      469,
      464,
      463,
      464,
      465,
      467,
      469,
      471,
      470,
      470,
      470,
      470,
      472,
      475,
      472,
      476,
      477,
      476,
      477,
      477,
      478,
      477,
      478,
      478,
      478,
      479,
      480,
      482,
      484,
      485,
      486,
      487,
      488,
      489,
      489,
      490,
      490,
      491,
      491,
      490,
      488,
      488,
      487,
      486,
      485,
      485,
      484,
      485,
      484,
      485,
      484,
      483,
      479,
      470,
      465,
      464,
      464,
      464,
      466,
      466,
      460,
      459,
      464,
      468,
      470,
      470,
      466,
      460,
      458,
      458,
      460,
      461,
      467,
      470,
      471,
      471,
      471,
      473,
      472,
      474,
      472,
      474,
      474,
      474,
      474,
      474,
      475,
      475,
      475,
      475,
      475,
      475,
      475,
      474,
      474,
      472,
      471,
      470,
      469,
      468,
      468,
      468,
      468,
      469,
      469,
      470,
      471,
      471,
      472,
      473,
      474,
      474,
      476,
      476,
      477,
      477,
      478,
      478,
      479,
      479,
      479,
      479,
      479,
      477,
      477,
      475,
      473,
      472,
      472,
      471,
      472,
      474,
      474,
      474,
      474,
      472,
      472,
      471,
      471,
      471,
      471,
      472,
      472,
      472,
      469,
      471,
      470,
      470,
      470,
      470,
      470,
      468,
      474,
      467,
      467,
      466,
      466,
      465,
      466,
      465,
      465,
      465,
      464,
      464,
      465,
      465,
      466,
      467,
      467,
      469,
      469,
      469,
      466,
      466,
      463,
      462,
      461,
      460,
      459,
      459,
      458,
      458,
      458,
      459,
      459,
      461,
      461,
      463,
      464,
      464,
      464,
      464,
      465,
      465,
      467,
      468,
      469,
      469,
      469,
      469,
      469,
      470,
      471,
      472,
      473,
      473,
      473,
      473,
      470,
      473,
      477,
      481,
      476,
      475,
      475,
      476,
      458,
      428,
      424,
      416,
      400,
      393,
      384,
      377,
      370,
      358,
      351,
      311,
      274,
      265,
      252,
      242,
      240,
      235,
      237,
      238,
      217,
      180,
      156,
      155
    ],
    "swim:timestamps": [
      1786574008,
      1786574068,
      1786574128,
      1786574188,
      1786574248,
      1786574308,
      1786574368,
      1786574429,
      1786574489,
      1786574549,
      1786574609,
      1786574669,
      1786574729,
      1786574789,
      1786574849,
      1786574909,
      1786574928,
      1786574969,
      1786574988,
      1786575029,
      1786575048,
      1786575089,
      1786575108,
      1786575150,
      1786575168,
      1786575210,
      1786575228,
      1786575270,
      1786575288,
      1786575330,
      1786575348,
      1786575390,
      1786575408,
      1786575450,
      1786575468,
      1786575510,
      1786575529,
      1786575570,
      1786575589,
      1786575630,
      1786575649,
      1786575690,
      1786575709,
      1786575750,
      1786575769,
      1786575810,
      1786575829,
      1786575871,
      1786575889,
      1786575931,
      1786575949,
      1786575991,
      1786576009,
      1786576051,
      1786576069,
      1786576111,
      1786576129,
      1786576171,
      1786576189,
      1786576231,
      1786576250,
      1786576291,
      1786576310,
      1786576351,
      1786576370,
      1786576411,
      1786576430,
      1786576471,
      1786576490,
      1786576532,
      1786576550,
      1786576610,
      1786576670,
      1786576730,
      1786576790,
      1786576850,
      1786576910,
      1786576970,
      1786577031,
      1786577091,
      1786577151,
      1786577211,
      1786577271,
      1786577331,
      1786577391,
      1786577451,
      1786577511,
      1786577571,
      1786577631,
      1786577691,
      1786577752,
      1786577812,
      1786577872,
      1786577932,
      1786577992,
      1786578052,
      1786578112,
      1786578172,
      1786578232,
      1786578262,
      1786578292,
      1786578322,
      1786578352,
      1786578382,
      1786578412,
      1786578442,
      1786578473,
      1786578502,
      1786578533,
      1786578562,
      1786578593,
      1786578622,
      1786578653,
      1786578682,
      1786578713,
      1786578743,
      1786578773,
      1786578803,
      1786578833,
      1786578863,
      1786578893,
      1786578923,
      1786578953,
      1786578983,
      1786579013,
      1786579043,
      1786579073,
      1786579103,
      1786579133,
      1786579163,
      1786579194,
      1786579223,
      1786579254,
      1786579283,
      1786579343,
      1786579403,
      1786579464,
      1786579524,
      1786579584,
      1786579644,
      1786579704,
      1786579764,
      1786579824,
      1786579884,
      1786579944,
      1786580004,
      1786580064,
      1786580124,
      1786580185,
      1786580245,
      1786580305,
      1786580365,
      1786580425,
      1786580485,
      1786580545,
      1786580605,
      1786580665,
      1786580725,
      1786580845,
      1786580906,
      1786580966,
      1786580992,
      1786581026,
      1786581052,
      1786581086,
      1786581112,
      1786581146,
      1786581172,
      1786581206,
      1786581232,
      1786581266,
      1786581292,
      1786581326,
      1786581353,
      1786581386,
      1786581413,
      1786581446,
      1786581473,
      1786581506,
      1786581533,
      1786581566,
      1786581593,
      1786581627,
      1786581653,
      1786581687,
      1786581713,
      1786581747,
      1786581773,
      1786581807,
      1786581833,
      1786581879,
      1786581939,
      1786581954,
      1786581999,
      1786582014,
      1786582059,
      1786582074,
      1786582119,
      1786582134,
      1786582179,
      1786582194,
      1786582239,
      1786582254,
      1786582314,
      1786582374,
      1786582434,
      1786582494,
      1786582554,
      1786582675,
      1786582735,
      1786582795,
      1786582855,
      1786582915,
      1786582975,
      1786583035,
      1786583095,
      1786583155,
      1786583215,
      1786583275,
      1786583336,
      1786583396,
      1786583456,
      1786583516,
      1786583576,
      1786583636,
      1786583696,
      1786583756,
      1786583816,
      1786583876,
      1786583923,
      1786583936,
      1786583983,
      1786583997,
      1786584043,
      1786584057,
      1786584103,
      1786584117,
      1786584164,
      1786584177,
      1786584224,
      1786584237,
      1786584284,
      1786584297,
      1786584344,
      1786584357,
      1786584404,
      1786584417,
      1786584464,
      1786584477,
      1786584524,
      1786584537,
      1786584584,
      1786584644,
      1786584657,
      1786584704,
      1786584718,
      1786584778,
      1786584824,
      1786584838,
      1786584884,
      1786584898,
      1786584945,
      1786584958,
      1786585005,
      1786585018,
      1786585065,
      1786585079,
      1786585139,
      1786585185,
      1786585199,
      1786585245,
      1786585259,
      1786585319,
      1786585365,
      1786585379,
      1786585425,
      1786585440,
      1786585485,
      1786585545,
      1786585605,
      1786585665,
      1786585725,
      1786585786,
      1786585846,
      1786585906,
      1786585966,
      1786586026,
      1786586086,
      1786586146,
      1786586206,
      1786586266,
      1786586326,
      1786586386,
      1786586446,
      1786586506,
      1786586567,
      1786586627,
      1786586687,
      1786586747,
      1786586807,
      1786586867,
      1786586927,
      1786586987,
      1786587047,
      1786587107,
      1786587166,
      1786587227,
      1786587287,
      1786587346,
      1786587407,
      1786587468,
      1786587528,
      1786587588,
      1786587648,
      1786587665,
      1786587708,
      1786587725,
      1786587768,
      1786587779,
      1786587828,
      1786587893,
      1786587948,
      1786588008,
      1786588068,
      1786588128
    ],
    "wof:geomhash": "cefae799cdfb3bd5547e01ff293ecf19",
    "wof:id": 2047945777,
    "wof:repo": "sfomuseum-data-flights-2026-08"
  },
  "bbox": [
    -122.40444444444445,
    35.766666666666666,
    -86.63083333333333,
    39.13527777777778
  ],
  "geometry": {"type":"LineString","coordinates":[[-122.40444444444445,37.665],[-122.31861111111111,37.68666666666666],[-122.23111111111112,37.71277777777778],[-122.14194444444445,37.755],[-122.05111111111111,37.80222222222222],[-121.93916666666667,37.83861111111111],[-121.80666666666666,37.863055555555555],[-121.66611111111112,37.88861111111111],[-121.52444444444444,37.914722222222224],[-121.37972222222221,37.941111111111105],[-121.22888888888889,37.968333333333334],[-121.07555555555555,37.99583333333334],[-120.91638888888889,38.019999999999996],[-120.75638888888889,38.04416666666666],[-120.59472222222222,38.06916666666667],[-120.43027777777779,38.08416666666667],[-120.38972222222223,38.086666666666666],[-120.26416666666667,38.08722222222222],[-120.2238888888889,38.08527777777778],[-120.09916666666666,38.08583333333333],[-120.05777777777777,38.08388888888889],[-119.93361111111112,38.084722222222226],[-119.89472222222223,38.08361111111111],[-119.76944444444445,38.08555555555556],[-119.72888888888889,38.08416666666667],[-119.60222222222221,38.08388888888889],[-119.56472222222222,38.08277777777778],[-119.43833333333333,38.072500000000005],[-119.40138888888889,38.065],[-119.28027777777778,38.041666666666664],[-119.24583333333334,38.03361111111111],[-119.11666666666666,38.03138888888889],[-119.08194444444445,38.033055555555556],[-118.95722222222223,38.044444444444444],[-118.92416666666666,38.046388888888885],[-118.7925,38.05722222222222],[-118.76027777777777,38.058055555555555],[-118.62722222222222,38.07],[-118.59527777777777,38.07194444444445],[-118.46305555555556,38.08277777777778],[-118.39916666666667,38.087500000000006],[-118.29694444444445,38.09527777777778],[-118.23305555555555,38.1],[-118.13166666666666,38.10777777777778],[-118.06861111111111,38.11222222222222],[-117.96638888888889,38.11972222222222],[-117.90166666666667,38.12416666666667],[-117.80111111111111,38.13138888888889],[-117.73861111111111,38.13583333333333],[-117.63916666666667,38.14277777777778],[-117.57694444444444,38.14722222222222],[-117.47805555555556,38.153888888888886],[-117.41361111111112,38.15833333333333],[-117.31805555555555,38.1725],[-117.28472222222221,38.184999999999995],[-117.1825,38.25416666666667],[-117.14833333333334,38.280277777777776],[-117.04916666666666,38.3575],[-117.02472222222222,38.37638888888889],[-116.92361111111111,38.455000000000005],[-116.89916666666667,38.47361111111111],[-116.7975,38.552499999999995],[-116.77333333333333,38.57138888888889],[-116.6713888888889,38.65138888888889],[-116.6463888888889,38.670833333333334],[-116.54333333333334,38.751666666666665],[-116.52083333333333,38.76972222222222],[-116.40805555555556,38.84055555555556],[-116.37916666666666,38.85583333333334],[-116.2675,38.915],[-116.23555555555555,38.931666666666665],[-116.08388888888888,39.00138888888889],[-115.92861111111111,39.06472222222222],[-115.76527777777778,39.11388888888889],[-115.59305555555555,39.13527777777778],[-115.42277777777778,39.13055555555555],[-115.26861111111111,39.12694444444445],[-115.09916666666666,39.12166666666667],[-114.93361111111112,39.11611111111111],[-114.765,39.11027777777778],[-114.58777777777777,39.10416666666667],[-114.42027777777778,39.09805555555556],[-114.25166666666667,39.091944444444444],[-114.0825,39.08527777777778],[-113.89277777777778,39.077222222222225],[-113.72583333333334,39.07027777777778],[-113.56222222222222,39.06333333333333],[-113.39888888888889,39.05583333333333],[-113.2325,39.04805555555556],[-113.06638888888888,39.04],[-112.90138888888889,39.03194444444444],[-112.73361111111112,39.02333333333333],[-112.56583333333333,39.014722222222225],[-112.39805555555556,39.00555555555555],[-112.23111111111112,38.99638888888889],[-112.06666666666666,38.98722222222222],[-111.89861111111112,38.977222222222224],[-111.73027777777779,38.967222222222226],[-111.55166666666666,38.95638888888889],[-111.48666666666666,38.95527777777778],[-111.38277777777778,38.94583333333333],[-111.31583333333333,38.94027777777777],[-111.22361111111111,38.93583333333333],[-111.14722222222223,38.93083333333333],[-111.05444444444444,38.92472222222222],[-110.97722222222222,38.91972222222222],[-110.87722222222222,38.91277777777778],[-110.80833333333334,38.908055555555556],[-110.7075,38.901111111111106],[-110.64,38.896388888888886],[-110.535,38.888888888888886],[-110.46888888888888,38.884166666666665],[-110.36555555555555,38.87694444444445],[-110.29722222222222,38.871944444444445],[-110.19194444444445,38.86416666666667],[-110.12333333333332,38.85916666666667],[-110.01972222222223,38.85138888888889],[-109.95111111111112,38.846111111111114],[-109.845,38.838055555555556],[-109.77833333333334,38.83305555555556],[-109.6725,38.825],[-109.60527777777777,38.81944444444445],[-109.49916666666667,38.811388888888885],[-109.43111111111112,38.80583333333333],[-109.32916666666667,38.797777777777775],[-109.26,38.79194444444444],[-109.16444444444446,38.784166666666664],[-109.08888888888889,38.77777777777778],[-108.9875,38.76916666666666],[-108.91944444444445,38.763333333333335],[-108.82638888888889,38.75555555555555],[-108.75111111111111,38.74916666666667],[-108.64722222222223,38.73972222222222],[-108.57972222222222,38.73416666666667],[-108.40833333333335,38.719166666666666],[-108.24,38.70388888888889],[-108.07166666666666,38.68833333333333],[-107.87027777777777,38.669999999999995],[-107.70555555555556,38.65416666666667],[-107.54222222222222,38.63861111111111],[-107.38055555555555,38.62277777777778],[-107.21777777777778,38.60666666666667],[-107.07305555555556,38.592222222222226],[-106.91055555555556,38.575833333333335],[-106.74638888888889,38.55416666666667],[-106.64527777777778,38.45861111111111],[-106.55194444444444,38.355555555555554],[-106.41638888888889,38.286944444444444],[-106.25194444444445,38.28972222222222],[-106.08444444444444,38.30638888888888],[-105.92194444444445,38.33083333333334],[-105.75555555555556,38.34055555555556],[-105.59444444444443,38.32833333333333],[-105.44361111111111,38.282777777777774],[-105.28888888888889,38.244166666666665],[-105.13194444444444,38.21555555555556],[-104.97027777777778,38.19083333333333],[-104.80777777777777,38.165277777777774],[-104.48138888888889,38.12027777777778],[-104.31222222222222,38.11694444444444],[-104.14694444444446,38.11222222222222],[-104.0775,38.1075],[-103.97833333333334,38.10722222222223],[-103.91000000000001,38.105000000000004],[-103.8086111111111,38.10194444444445],[-103.74361111111111,38.098888888888894],[-103.64166666666668,38.096944444444446],[-103.58083333333333,38.094722222222224],[-103.47416666666666,38.09138888888889],[-103.41166666666668,38.08916666666667],[-103.30611111111111,38.08555555555556],[-103.24388888888889,38.083333333333336],[-103.1388888888889,38.07972222222222],[-103.07638888888889,38.0775],[-102.97222222222223,38.07333333333334],[-102.9088888888889,38.07083333333334],[-102.80722222222222,38.066944444444445],[-102.74111111111111,38.06444444444444],[-102.6413888888889,38.06055555555555],[-102.5761111111111,38.05777777777777],[-102.47722222222222,38.05361111111111],[-102.41166666666668,38.05083333333333],[-102.31138888888889,38.046388888888885],[-102.25083333333333,38.04388888888889],[-102.14861111111112,38.03944444444444],[-102.08472222222221,38.03666666666666],[-101.985,38.03194444444444],[-101.92027777777778,38.028888888888886],[-101.81694444444445,38.024166666666666],[-101.75416666666666,38.02111111111111],[-101.65111111111112,38.01611111111111],[-101.45277777777778,38.00611111111111],[-101.42194444444445,38.00472222222222],[-101.28555555555555,37.9975],[-101.25472222222223,37.99583333333334],[-101.11722222222221,37.98861111111111],[-101.08666666666666,37.98694444444445],[-100.94861111111112,37.97944444444445],[-100.91833333333334,37.97777777777778],[-100.77833333333334,37.97],[-100.74583333333334,37.96805555555556],[-100.60944444444443,37.96027777777778],[-100.57638888888889,37.958333333333336],[-100.4063888888889,37.94833333333333],[-100.23777777777778,37.93805555555555],[-100.07083333333333,37.92777777777778],[-99.90166666666667,37.91694444444444],[-99.73361111111112,37.90611111111111],[-99.40305555555557,37.88388888888889],[-99.235,37.8725],[-99.07027777777778,37.86083333333333],[-98.90527777777778,37.848888888888894],[-98.74388888888889,37.83694444444445],[-98.57694444444444,37.82472222222223],[-98.41416666666667,37.81222222222222],[-98.24888888888889,37.799166666666665],[-98.07,37.785],[-97.90222222222222,37.77166666666667],[-97.73527777777778,37.757777777777775],[-97.57,37.74194444444444],[-97.40805555555556,37.7075],[-97.24916666666667,37.67333333333333],[-97.08916666666666,37.638333333333335],[-96.93194444444445,37.60388888888889],[-96.77166666666666,37.568333333333335],[-96.61305555555555,37.533055555555556],[-96.45444444444445,37.4975],[-96.29583333333333,37.46194444444445],[-96.13666666666667,37.42583333333333],[-96.01888888888888,37.41083333333333],[-95.98083333333334,37.39],[-95.86027777777777,37.37222222222222],[-95.82305555555556,37.35388888888889],[-95.70472222222223,37.33638888888889],[-95.66666666666667,37.3175],[-95.54972222222221,37.30222222222222],[-95.51194444444444,37.28138888888889],[-95.38833333333334,37.25222222222222],[-95.35777777777777,37.24527777777778],[-95.23277777777778,37.21555555555556],[-95.20361111111112,37.20888888888889],[-95.08083333333333,37.17944444444444],[-95.04777777777778,37.17166666666667],[-94.92361111111111,37.14194444444444],[-94.89472222222223,37.135],[-94.76861111111111,37.10472222222222],[-94.73972222222223,37.09777777777778],[-94.61527777777778,37.0675],[-94.5825,37.059444444444445],[-94.45972222222223,37.029444444444444],[-94.42972222222222,37.02222222222222],[-94.30583333333333,36.99166666666667],[-94.1538888888889,36.95444444444445],[-94.11722222222221,36.945277777777775],[-93.99638888888889,36.915277777777774],[-93.96111111111111,36.906388888888884],[-93.80749999999999,36.867777777777775],[-93.68527777777778,36.83722222222222],[-93.65611111111112,36.82972222222222],[-93.53444444444445,36.79888888888889],[-93.50416666666666,36.79138888888889],[-93.38416666666667,36.760555555555555],[-93.35194444444444,36.75222222222222],[-93.23194444444445,36.721111111111114],[-93.20138888888889,36.71333333333334],[-93.08527777777778,36.67361111111111],[-93.05722222222222,36.66222222222222],[-92.91861111111112,36.60444444444445],[-92.80361111111111,36.55694444444444],[-92.7725,36.544444444444444],[-92.65861111111111,36.49888888888889],[-92.63083333333333,36.488055555555555],[-92.48694444444445,36.43111111111111],[-92.36972222222222,36.38444444444444],[-92.34305555555555,36.37388888888889],[-92.22583333333334,36.32777777777778],[-92.1975,36.31666666666667],[-92.08166666666666,36.27333333333333],[-91.93694444444445,36.2175],[-91.78972222222222,36.160555555555554],[-91.64416666666668,36.106944444444444],[-91.49,36.06888888888889],[-91.33138888888888,36.04972222222222],[-91.17111111111112,36.02916666666667],[-91.0175,36.00888888888889],[-90.8561111111111,35.98777777777778],[-90.69861111111112,35.966944444444444],[-90.53805555555556,35.95166666666667],[-90.37694444444443,35.94277777777778],[-90.21277777777777,35.933611111111105],[-90.05194444444444,35.92472222222222],[-89.89027777777778,35.915],[-89.73,35.905277777777776],[-89.57027777777778,35.89527777777778],[-89.41000000000001,35.885],[-89.24666666666667,35.874722222222225],[-89.08555555555554,35.86416666666667],[-88.9238888888889,35.853611111111114],[-88.76138888888889,35.8425],[-88.60111111111111,35.831388888888895],[-88.43694444444445,35.81916666666667],[-88.27638888888889,35.8075],[-88.13138888888888,35.79722222222222],[-87.9975,35.78722222222222],[-87.85777777777777,35.77611111111111],[-87.7,35.766666666666666],[-87.58833333333332,35.79111111111111],[-87.46555555555555,35.828611111111115],[-87.33333333333333,35.88333333333333],[-87.23194444444445,35.91138888888889],[-87.11861111111111,35.950833333333335],[-87.00972222222222,35.98888888888889],[-86.90972222222223,36.02333333333333],[-86.81138888888889,36.07333333333334],[-86.8,36.1],[-86.78527777777778,36.14055555555556],[-86.78333333333333,36.166666666666664],[-86.76055555555556,36.20305555555556],[-86.75,36.21666666666667],[-86.73583333333333,36.263888888888886],[-86.66666666666667,36.3],[-86.63083333333333,36.26305555555555],[-86.64972222222222,36.21194444444445],[-86.66611111111112,36.17027777777778],[-86.68166666666667,36.12972222222222]]}
}
