{
  "id": 2032133425,
  "type": "Feature",
  "properties": {
    "geom:area": 0,
    "geom:bbox": "-122.591920,36.719230,-122.147640,37.664690",
    "geom:latitude": 37.21610123596534,
    "geom:longitude": -122.45746737397178,
    "src:alt_label": "swim-takeoff",
    "src:geom": "swim",
    "swim:elevations": [
      392,
      664,
      834,
      1180,
      1661,
      1878,
      2225,
      2477,
      2717,
      2824,
      3264,
      3593,
      3629,
      3663,
      3688,
      3799,
      4005,
      4199,
      4977,
      5567,
      6056,
      6225,
      6361,
      6402,
      6588,
      6853,
      6908,
      7252,
      7298,
      7701,
      8076
    ],
    "swim:geom": "takeoff",
    "swim:timestamps": [
      1786000306,
      1786000348,
      1786000361,
      1786000400,
      1786000436,
      1786000452,
      1786000478,
      1786000502,
      1786000523,
      1786000533,
      1786000575,
      1786000616,
      1786000622,
      1786000627,
      1786000630,
      1786000642,
      1786000661,
      1786000678,
      1786000747,
      1786000821,
      1786000867,
      1786000883,
      1786000897,
      1786000902,
      1786000924,
      1786000957,
      1786000965,
      1786001008,
      1786001012,
      1786001041,
      1786001062
    ],
    "wof:geomhash": "4848e35f01b6475037d089c188abe8cd",
    "wof:id": 2032133425,
    "wof:repo": "sfomuseum-data-flights-2026-08"
  },
  "bbox": [
    -122.59192,
    36.71923,
    -122.14764,
    37.66469
  ],
  "geometry": {"type":"LineString","coordinates":[[-122.41595,37.63632],[-122.46348,37.65736],[-122.48016,37.66469],[-122.53491,37.65976],[-122.58127,37.63285],[-122.59192,37.61459],[-122.58877,37.58218],[-122.58484,37.55222],[-122.58317,37.5254],[-122.58284,37.5124],[-122.58108,37.4587],[-122.57871,37.40186],[-122.57839,37.3931],[-122.57813,37.38612],[-122.57786,37.38052],[-122.57719,37.36248],[-122.57605,37.33426],[-122.57504,37.30768],[-122.56989,37.19636],[-122.48554,37.08873],[-122.42377,37.0217],[-122.4026,36.99879],[-122.3829,36.97755],[-122.37539,36.96948],[-122.34502,36.93645],[-122.29779,36.88493],[-122.28615,36.87219],[-122.22432,36.80465],[-122.21879,36.79858],[-122.17666,36.75235],[-122.14764,36.71923]]}
}
