{
  "id": 2047943563,
  "type": "Feature",
  "properties": {
    "geom:area": 0,
    "geom:bbox": "-123.390670,37.624750,-122.389360,38.515080",
    "geom:latitude": 38.04075036524121,
    "geom:longitude": -122.91184366130605,
    "src:alt_label": "swim-takeoff",
    "src:geom": "swim",
    "swim:elevations": [
      183,
      641,
      984,
      1194,
      1494,
      1674,
      2511,
      2557,
      2587,
      3512,
      3921,
      3998,
      4526,
      4906,
      5388,
      5545,
      5972,
      6163,
      7014,
      7572,
      7724,
      7839,
      8016,
      8138,
      8352
    ],
    "swim:geom": "takeoff",
    "swim:timestamps": [
      1786565855,
      1786565898,
      1786565934,
      1786565951,
      1786565970,
      1786565983,
      1786566043,
      1786566046,
      1786566049,
      1786566143,
      1786566174,
      1786566182,
      1786566224,
      1786566254,
      1786566294,
      1786566307,
      1786566343,
      1786566360,
      1786566439,
      1786566507,
      1786566525,
      1786566540,
      1786566563,
      1786566584,
      1786566611
    ],
    "wof:geomhash": "f7fa38ca839388d6ccc2f76dca0bdc60",
    "wof:id": 2047943563,
    "wof:repo": "sfomuseum-data-flights-2026-08"
  },
  "bbox": [
    -123.39067,
    37.62475,
    -122.38936,
    38.51508
  ],
  "geometry": {"type":"LineString","coordinates":[[-122.38936,37.62475],[-122.42993,37.64236],[-122.47047,37.66009],[-122.49226,37.66983],[-122.51626,37.68228],[-122.53184,37.69173],[-122.60938,37.73707],[-122.61333,37.7394],[-122.61733,37.74171],[-122.75167,37.82304],[-122.79053,37.86521],[-122.79972,37.87612],[-122.84892,37.93486],[-122.8849,37.97841],[-122.93428,38.03774],[-122.94922,38.0555],[-122.99495,38.10998],[-123.01684,38.13623],[-123.11948,38.25855],[-123.21042,38.36677],[-123.23508,38.39588],[-123.25723,38.42083],[-123.29889,38.45231],[-123.33967,38.47886],[-123.39067,38.51508]]}
}
