{
  "id": 2047994191,
  "type": "Feature",
  "properties": {
    "geom:area": 0,
    "geom:bbox": "-122.540950,36.727750,-121.306980,37.666700",
    "geom:latitude": 37.207991185248574,
    "geom:longitude": -122.00668003068675,
    "src:alt_label": "swim-takeoff",
    "src:geom": "swim",
    "swim:elevations": [
      122,
      511,
      716,
      810,
      1108,
      1570,
      1916,
      2544,
      3007,
      3257,
      3324,
      3564,
      3707,
      3904,
      4329,
      4632,
      4844,
      4997,
      5075,
      5293,
      5560,
      5737,
      5885,
      5916,
      5986,
      6155,
      6317,
      6499,
      6572,
      6754,
      6959,
      7035,
      7202
    ],
    "swim:geom": "takeoff",
    "swim:timestamps": [
      1786868085,
      1786868116,
      1786868155,
      1786868169,
      1786868190,
      1786868232,
      1786868250,
      1786868296,
      1786868330,
      1786868357,
      1786868371,
      1786868417,
      1786868448,
      1786868468,
      1786868511,
      1786868543,
      1786868562,
      1786868592,
      1786868603,
      1786868632,
      1786868668,
      1786868694,
      1786868720,
      1786868726,
      1786868738,
      1786868763,
      1786868790,
      1786868812,
      1786868826,
      1786868865,
      1786868903,
      1786868915,
      1786868952
    ],
    "wof:geomhash": "b6f2fb59a895468f62f2a4a84c0ab85e",
    "wof:id": 2047994191,
    "wof:repo": "sfomuseum-data-flights-2026-08"
  },
  "bbox": [
    -122.54095,
    36.72775,
    -121.30698,
    37.6667
  ],
  "geometry": {"type":"LineString","coordinates":[[-122.38422,37.62264],[-122.40785,37.63291],[-122.4449,37.64919],[-122.46117,37.65609],[-122.48871,37.6667],[-122.54076,37.64576],[-122.54095,37.62361],[-122.51392,37.57079],[-122.4935,37.52928],[-122.47455,37.49447],[-122.45726,37.47911],[-122.38202,37.43069],[-122.32684,37.39517],[-122.29034,37.37161],[-122.21,37.31971],[-122.14803,37.27967],[-122.11167,37.25614],[-122.05439,37.21899],[-122.03281,37.20491],[-121.97406,37.1666],[-121.90171,37.11952],[-121.84967,37.08553],[-121.79673,37.05085],[-121.78369,37.04234],[-121.7588,37.02607],[-121.70711,36.99211],[-121.65022,36.9547],[-121.6057,36.92541],[-121.5769,36.90644],[-121.49257,36.85066],[-121.41301,36.79806],[-121.38745,36.78108],[-121.30698,36.72775]]}
}
