{
  "id": 2047898623,
  "type": "Feature",
  "properties": {
    "geom:area": 0,
    "geom:bbox": "-122.350200,37.491890,-121.248890,38.493670",
    "geom:latitude": 37.79896643807891,
    "geom:longitude": -121.594720629727,
    "src:alt_label": "swim-approach",
    "src:geom": "swim",
    "swim:elevations": [
      2803,
      2876,
      3419,
      3841,
      4056,
      4488,
      4572,
      4572,
      3744,
      3530,
      3434,
      3321,
      3322,
      3322,
      3322,
      3326,
      3324,
      3318,
      3354,
      3353,
      3274,
      3013,
      2911,
      2798,
      2561,
      2316,
      2133,
      2074,
      1972,
      1815,
      1747,
      1652,
      1481,
      1308,
      1244,
      1217,
      929,
      818,
      633,
      547,
      432,
      301,
      129,
      61
    ],
    "swim:geom": "approach",
    "swim:timestamps": [
      1786342017,
      1786342022,
      1786342061,
      1786342102,
      1786342124,
      1786342155,
      1786342182,
      1786342206,
      1786342497,
      1786342519,
      1786342552,
      1786342583,
      1786342592,
      1786342601,
      1786342646,
      1786342662,
      1786342706,
      1786342710,
      1786342737,
      1786342764,
      1786342790,
      1786342819,
      1786342830,
      1786342845,
      1786342875,
      1786342904,
      1786342945,
      1786342972,
      1786342998,
      1786343027,
      1786343040,
      1786343053,
      1786343075,
      1786343109,
      1786343127,
      1786343130,
      1786343183,
      1786343206,
      1786343246,
      1786343266,
      1786343293,
      1786343321,
      1786343363,
      1786343381
    ],
    "wof:geomhash": "ea16a4934ebce927c66ed3c4933b9c81",
    "wof:id": 2047898623,
    "wof:repo": "sfomuseum-data-flights-2026-08"
  },
  "bbox": [
    -122.3502,
    37.49189,
    -121.24889,
    38.49367
  ],
  "geometry": {"type":"LineString","coordinates":[[-121.3823,38.49367],[-121.37947,38.4877],[-121.35459,38.43845],[-121.32713,38.3843],[-121.31153,38.35272],[-121.2888,38.30674],[-121.26824,38.2649],[-121.25022,38.22856],[-121.24889,37.80915],[-121.28165,37.78659],[-121.32776,37.75458],[-121.36923,37.72577],[-121.38104,37.71767],[-121.39277,37.70966],[-121.45097,37.66989],[-121.4709,37.65623],[-121.5273,37.61751],[-121.53225,37.61416],[-121.56739,37.5902],[-121.60187,37.56646],[-121.63865,37.54768],[-121.68568,37.5363],[-121.70341,37.53209],[-121.72761,37.52612],[-121.7744,37.51484],[-121.81911,37.50403],[-121.88254,37.49189],[-121.92289,37.49381],[-121.95817,37.49559],[-121.99607,37.49793],[-122.01278,37.49895],[-122.02976,37.49993],[-122.05941,37.50158],[-122.10303,37.50698],[-122.1229,37.51495],[-122.12612,37.51635],[-122.18105,37.53937],[-122.20275,37.54845],[-122.23946,37.56404],[-122.25653,37.57126],[-122.27937,37.58074],[-122.3026,37.59068],[-122.33518,37.60426],[-122.3502,37.61058]]}
}
