{
  "id": 2047884577,
  "type": "Feature",
  "properties": {
    "geom:area": 0,
    "geom:bbox": "-123.426830,37.252080,-122.111960,37.612430",
    "geom:latitude": 37.36792666364865,
    "geom:longitude": -122.65685995000568,
    "src:alt_label": "swim-approach",
    "src:geom": "swim",
    "swim:elevations": [
      5193,
      4492,
      4012,
      3918,
      3505,
      3320,
      3308,
      3095,
      3048,
      3048,
      2832,
      2785,
      2652,
      2435,
      2318,
      2239,
      2042,
      2042,
      1859,
      1858,
      1829,
      1829,
      1829,
      1829,
      1739,
      1600,
      1499,
      1373,
      1220,
      1219,
      1219,
      1219,
      1156,
      1137,
      851,
      741,
      578,
      488,
      311,
      190,
      63,
      47
    ],
    "swim:geom": "approach",
    "swim:timestamps": [
      1786186015,
      1786186087,
      1786186136,
      1786186145,
      1786186197,
      1786186228,
      1786186234,
      1786186266,
      1786186309,
      1786186325,
      1786186375,
      1786186384,
      1786186411,
      1786186455,
      1786186483,
      1786186500,
      1786186558,
      1786186562,
      1786186616,
      1786186620,
      1786186676,
      1786186680,
      1786186736,
      1786186740,
      1786186782,
      1786186805,
      1786186848,
      1786186881,
      1786186916,
      1786186920,
      1786186974,
      1786186999,
      1786187036,
      1786187040,
      1786187081,
      1786187107,
      1786187145,
      1786187162,
      1786187210,
      1786187239,
      1786187277,
      1786187281
    ],
    "wof:geomhash": "3cc6407be04d30ff3d7ed3f403b8ec35",
    "wof:id": 2047884577,
    "wof:repo": "sfomuseum-data-flights-2026-08"
  },
  "bbox": [
    -123.42683,
    37.25208,
    -122.11196,
    37.61243
  ],
  "geometry": {"type":"LineString","coordinates":[[-123.42683,37.43227],[-123.27721,37.3862],[-123.1788,37.35535],[-123.16083,37.34986],[-123.0576,37.31817],[-123.00229,37.30053],[-122.99154,37.29715],[-122.93705,37.28051],[-122.87081,37.262],[-122.8463,37.26193],[-122.77618,37.27763],[-122.76376,37.28048],[-122.72403,37.27875],[-122.66206,37.26542],[-122.62343,37.25734],[-122.59982,37.25208],[-122.52339,37.25719],[-122.51817,37.25992],[-122.45786,37.2946],[-122.45339,37.29712],[-122.39086,37.33381],[-122.38637,37.33633],[-122.32189,37.37055],[-122.31664,37.372],[-122.25967,37.377],[-122.22673,37.37824],[-122.16928,37.38357],[-122.13915,37.40288],[-122.12015,37.42956],[-122.11897,37.43289],[-122.11196,37.47898],[-122.1273,37.49811],[-122.15252,37.52349],[-122.15511,37.5262],[-122.1933,37.5443],[-122.21803,37.55495],[-122.25307,37.56976],[-122.26772,37.57608],[-122.30452,37.5914],[-122.32584,37.60046],[-122.35187,37.61133],[-122.35454,37.61243]]}
}
