{
  "id": 2048097641,
  "type": "Feature",
  "properties": {
    "geom:area": 0,
    "geom:bbox": "-122.548230,36.738650,-121.466380,37.665160",
    "geom:latitude": 37.2211293211893,
    "geom:longitude": -122.08135447862432,
    "src:alt_label": "swim-takeoff",
    "src:geom": "swim",
    "swim:elevations": [
      421,
      865,
      1180,
      1274,
      1795,
      2294,
      2682,
      2956,
      3120,
      3506,
      4170,
      4627,
      5109,
      5290,
      5826,
      6163,
      6583,
      6940,
      7490,
      7848,
      8157,
      8345,
      8701,
      8832,
      8917,
      9228,
      9450,
      9449,
      9449,
      9499,
      9714,
      9995
    ],
    "swim:geom": "takeoff",
    "swim:timestamps": [
      1787356905,
      1787356947,
      1787356977,
      1787356985,
      1787357026,
      1787357057,
      1787357078,
      1787357096,
      1787357108,
      1787357139,
      1787357188,
      1787357217,
      1787357247,
      1787357259,
      1787357303,
      1787357326,
      1787357359,
      1787357386,
      1787357428,
      1787357458,
      1787357488,
      1787357507,
      1787357542,
      1787357557,
      1787357604,
      1787357634,
      1787357667,
      1787357679,
      1787357719,
      1787357744,
      1787357767,
      1787357804
    ],
    "wof:geomhash": "69229e90a98510fb321e3acb245b14ac",
    "wof:id": 2048097641,
    "wof:repo": "sfomuseum-data-flights-2026-08"
  },
  "bbox": [
    -122.54823,
    36.73865,
    -121.46638,
    37.66516
  ],
  "geometry": {"type":"LineString","coordinates":[[-122.38865,37.62476],[-122.42446,37.64109],[-122.45707,37.65473],[-122.46655,37.65864],[-122.52272,37.66516],[-122.54823,37.63457],[-122.54077,37.61009],[-122.52945,37.58918],[-122.52181,37.57527],[-122.50127,37.53801],[-122.45895,37.47882],[-122.41817,37.44853],[-122.37612,37.41745],[-122.35906,37.40489],[-122.29584,37.3586],[-122.2628,37.33427],[-122.21366,37.29786],[-122.17276,37.26752],[-122.10779,37.21928],[-122.0604,37.18357],[-122.01128,37.14716],[-121.98091,37.12451],[-121.92238,37.08108],[-121.89603,37.06142],[-121.81681,37.00225],[-121.76414,36.96278],[-121.70605,36.91909],[-121.6851,36.90311],[-121.61489,36.85027],[-121.57186,36.8182],[-121.53017,36.78688],[-121.46638,36.73865]]}
}
