{
  "id": 2047888517,
  "type": "Feature",
  "properties": {
    "geom:area": 0,
    "geom:bbox": "-122.526389,37.633333,-85.763333,40.848056",
    "geom:latitude": 39.46207911451826,
    "geom:longitude": -104.25223280080183,
    "src:alt_label": "swim-path",
    "src:geom": "swim",
    "swim:altitudes": [
      "007",
      "020",
      "039",
      "042",
      "050",
      "069",
      "090",
      "110",
      "126",
      "147",
      "167",
      "183",
      "201",
      "214",
      "227",
      "240",
      "251",
      "262",
      "271",
      "282",
      "291",
      "300",
      "308",
      "320",
      "326",
      "333",
      "344",
      "350C",
      "350C",
      "350C",
      "350C",
      "350C",
      "350C",
      "350C",
      "350C",
      "350C",
      "350C",
      "350C",
      "350C",
      "350C",
      "350C",
      "350C",
      "350C",
      "350C",
      "350C",
      "349C",
      "350C",
      "350C",
      "350C",
      "350C",
      "350C",
      "350C",
      "350C",
      "350C",
      "350C",
      "350C",
      "350C",
      "350C",
      "350C",
      "350C",
      "350C",
      "350C",
      "350C",
      "350C",
      "350C",
      "348",
      "343",
      "339",
      "334",
      "330C",
      "330C",
      "330C",
      "330C",
      "330C",
      "330C",
      "330C",
      "330C",
      "330C",
      "330C",
      "330C",
      "330C",
      "330C",
      "330C",
      "330C",
      "330C",
      "330C",
      "330C",
      "330C",
      "330C",
      "330C",
      "330C",
      "330C",
      "330C",
      "330C",
      "330C",
      "330C",
      "330C",
      "330C",
      "330C",
      "330C",
      "330C",
      "330C",
      "330C",
      "330C",
      "330C",
      "330C",
      "330C",
      "330C",
      "330C",
      "330",
      "329",
      "323",
      "317",
      "315",
      "303",
      "297",
      "291",
      "285",
      "278",
      "269",
      "258",
      "247",
      "238",
      "228",
      "225",
      "217",
      "215",
      "205",
      "203",
      "193",
      "189",
      "179",
      "169",
      "166",
      "158",
      "155",
      "147",
      "144",
      "134",
      "133",
      "124",
      "122",
      "110",
      "110",
      "110",
      "110",
      "105",
      "102",
      "100",
      "100",
      "100",
      "100",
      "100",
      "100",
      "100",
      "100",
      "100",
      "100",
      "100",
      "100",
      "100",
      "100",
      "095",
      "094",
      "085",
      "082",
      "075",
      "073",
      "066",
      "065",
      "058",
      "056",
      "053",
      "058",
      "073",
      "076",
      "086",
      "098",
      "101",
      "099",
      "100",
      "108",
      "122",
      "129",
      "143",
      "151",
      "171",
      "190",
      "209",
      "227",
      "243",
      "257",
      "280",
      "289",
      "302",
      "317",
      "330",
      "330",
      "334",
      "342",
      "350C",
      "350C",
      "350C",
      "350C",
      "350C",
      "350C",
      "350C",
      "350C",
      "350C",
      "350C",
      "350C",
      "350C",
      "350C",
      "350C",
      "350C",
      "351C",
      "350C",
      "350C",
      "348",
      "339",
      "329",
      "319",
      "310C",
      "310C",
      "310C",
      "310C",
      "310C",
      "310C",
      "310C",
      "310C",
      "310C",
      "310C",
      "310C",
      "310C",
      "310C",
      "310C",
      "310C",
      "310C",
      "310C",
      "310C",
      "310C",
      "310C",
      "310C",
      "310C",
      "310C",
      "310C",
      "310C",
      "310C",
      "310C",
      "310C",
      "310C",
      "310C",
      "310C",
      "310C",
      "310C",
      "310C",
      "310C",
      "310C",
      "310C",
      "310C",
      "310C",
      "310C",
      "310C",
      "310C",
      "310C",
      "310C",
      "310C",
      "310C",
      "310C",
      "310C",
      "310C",
      "310C",
      "310C",
      "310C",
      "310C",
      "310",
      "310",
      "310",
      "310",
      "310",
      "310",
      "310",
      "310",
      "310",
      "310",
      "310",
      "310",
      "310",
      "311",
      "310",
      "302",
      "295",
      "290C",
      "290",
      "290",
      "290",
      "290",
      "290",
      "290",
      "290",
      "290",
      "289",
      "268",
      "247",
      "227",
      "215",
      "204",
      "195",
      "170",
      "151",
      "140",
      "136",
      "122",
      "114",
      "109",
      "102",
      "097",
      "088",
      "083",
      "076",
      "072",
      "065",
      "060",
      "059",
      "060",
      "060",
      "060",
      "055",
      "049",
      "048",
      "044",
      "040",
      "031",
      "028",
      "022",
      "019",
      "014",
      "011"
    ],
    "swim:geom": "path",
    "swim:speeds": [
      160,
      159,
      170,
      173,
      237,
      279,
      297,
      308,
      341,
      349,
      361,
      371,
      381,
      393,
      410,
      415,
      423,
      430,
      440,
      447,
      456,
      460,
      468,
      471,
      479,
      487,
      489,
      487,
      485,
      483,
      484,
      484,
      485,
      485,
      485,
      485,
      484,
      484,
      484,
      484,
      488,
      489,
      490,
      489,
      487,
      486,
      486,
      487,
      489,
      491,
      493,
      494,
      494,
      495,
      495,
      496,
      498,
      498,
      499,
      499,
      498,
      497,
      481,
      478,
      479,
      479,
      480,
      482,
      482,
      482,
      481,
      480,
      480,
      479,
      479,
      480,
      480,
      481,
      481,
      482,
      482,
      481,
      480,
      480,
      478,
      480,
      479,
      481,
      480,
      481,
      481,
      481,
      481,
      481,
      481,
      481,
      481,
      480,
      480,
      480,
      480,
      480,
      481,
      481,
      481,
      482,
      482,
      481,
      480,
      477,
      476,
      475,
      464,
      463,
      457,
      454,
      452,
      444,
      437,
      449,
      450,
      442,
      435,
      430,
      425,
      427,
      407,
      407,
      402,
      384,
      375,
      369,
      360,
      353,
      348,
      344,
      341,
      337,
      334,
      328,
      330,
      317,
      316,
      301,
      272,
      267,
      269,
      264,
      267,
      264,
      265,
      260,
      263,
      260,
      261,
      267,
      264,
      260,
      248,
      244,
      247,
      244,
      245,
      241,
      243,
      238,
      198,
      195,
      168,
      157,
      160,
      162,
      123,
      187,
      233,
      267,
      297,
      294,
      298,
      295,
      322,
      345,
      353,
      357,
      368,
      367,
      378,
      391,
      402,
      412,
      428,
      425,
      443,
      458,
      474,
      483,
      486,
      486,
      484,
      482,
      480,
      479,
      483,
      484,
      485,
      484,
      483,
      482,
      482,
      478,
      470,
      464,
      462,
      461,
      461,
      463,
      461,
      453,
      449,
      446,
      446,
      446,
      448,
      450,
      450,
      451,
      452,
      455,
      459,
      460,
      462,
      467,
      469,
      480,
      482,
      483,
      484,
      483,
      483,
      483,
      485,
      486,
      488,
      488,
      488,
      487,
      487,
      487,
      487,
      487,
      487,
      486,
      486,
      486,
      487,
      492,
      494,
      496,
      498,
      499,
      499,
      500,
      501,
      504,
      502,
      504,
      504,
      505,
      507,
      507,
      507,
      508,
      507,
      507,
      508,
      507,
      508,
      508,
      508,
      507,
      506,
      506,
      505,
      505,
      505,
      506,
      506,
      507,
      508,
      508,
      506,
      492,
      474,
      467,
      460,
      461,
      463,
      466,
      466,
      467,
      469,
      470,
      489,
      474,
      451,
      436,
      434,
      425,
      396,
      366,
      368,
      357,
      340,
      339,
      335,
      322,
      308,
      301,
      298,
      298,
      286,
      289,
      286,
      287,
      286,
      272,
      276,
      277,
      263,
      236,
      211,
      198,
      201,
      188,
      188,
      156,
      145,
      139
    ],
    "swim:timestamps": [
      1786191074,
      1786191106,
      1786191152,
      1786191166,
      1786191226,
      1786191286,
      1786191346,
      1786191406,
      1786191466,
      1786191526,
      1786191586,
      1786191646,
      1786191706,
      1786191766,
      1786191826,
      1786191886,
      1786191946,
      1786192006,
      1786192067,
      1786192127,
      1786192187,
      1786192247,
      1786192307,
      1786192367,
      1786192427,
      1786192487,
      1786192547,
      1786192607,
      1786192667,
      1786192727,
      1786192787,
      1786192847,
      1786192907,
      1786192967,
      1786193027,
      1786193087,
      1786193147,
      1786193207,
      1786193267,
      1786193327,
      1786193387,
      1786193447,
      1786193507,
      1786193567,
      1786193627,
      1786193687,
      1786193747,
      1786193807,
      1786193867,
      1786193927,
      1786193987,
      1786194052,
      1786194112,
      1786194172,
      1786194232,
      1786194292,
      1786194353,
      1786194413,
      1786194473,
      1786194533,
      1786194593,
      1786194653,
      1786194713,
      1786194773,
      1786194833,
      1786194893,
      1786194953,
      1786195013,
      1786195073,
      1786195133,
      1786195193,
      1786195253,
      1786195313,
      1786195373,
      1786195433,
      1786195494,
      1786195554,
      1786195614,
      1786195674,
      1786195734,
      1786195794,
      1786195854,
      1786195914,
      1786195974,
      1786195986,
      1786196034,
      1786196046,
      1786196094,
      1786196106,
      1786196154,
      1786196167,
      1786196214,
      1786196227,
      1786196274,
      1786196287,
      1786196334,
      1786196347,
      1786196395,
      1786196455,
      1786196467,
      1786196527,
      1786196575,
      1786196587,
      1786196635,
      1786196647,
      1786196695,
      1786196707,
      1786196755,
      1786196767,
      1786196815,
      1786196827,
      1786196875,
      1786196935,
      1786196948,
      1786197068,
      1786197128,
      1786197188,
      1786197248,
      1786197308,
      1786197368,
      1786197428,
      1786197488,
      1786197548,
      1786197609,
      1786197625,
      1786197669,
      1786197685,
      1786197729,
      1786197739,
      1786197789,
      1786197799,
      1786197849,
      1786197909,
      1786197919,
      1786197969,
      1786197979,
      1786198029,
      1786198039,
      1786198089,
      1786198099,
      1786198149,
      1786198160,
      1786198209,
      1786198220,
      1786198269,
      1786198280,
      1786198330,
      1786198346,
      1786198390,
      1786198406,
      1786198450,
      1786198460,
      1786198510,
      1786198526,
      1786198570,
      1786198586,
      1786198630,
      1786198640,
      1786198690,
      1786198700,
      1786198750,
      1786198760,
      1786198810,
      1786198820,
      1786198870,
      1786198880,
      1786198930,
      1786198940,
      1786198990,
      1786199000,
      1786199051,
      1786199060,
      1786199111,
      1786206830,
      1786206884,
      1786206921,
      1786206945,
      1786206981,
      1786207005,
      1786207041,
      1786207059,
      1786207102,
      1786207130,
      1786207162,
      1786207190,
      1786207222,
      1786207282,
      1786207342,
      1786207402,
      1786207462,
      1786207517,
      1786207577,
      1786207698,
      1786207758,
      1786207818,
      1786207878,
      1786207938,
      1786207998,
      1786208058,
      1786208118,
      1786208178,
      1786208238,
      1786208299,
      1786208359,
      1786208479,
      1786208539,
      1786208599,
      1786208659,
      1786208719,
      1786208779,
      1786208839,
      1786208899,
      1786208960,
      1786209020,
      1786209080,
      1786209140,
      1786209200,
      1786209260,
      1786209320,
      1786209380,
      1786209440,
      1786209500,
      1786209560,
      1786209621,
      1786209681,
      1786209741,
      1786209801,
      1786209861,
      1786209921,
      1786209981,
      1786210041,
      1786210101,
      1786210161,
      1786210222,
      1786210282,
      1786210342,
      1786210402,
      1786210462,
      1786210522,
      1786210582,
      1786210642,
      1786210702,
      1786210762,
      1786210822,
      1786210883,
      1786210943,
      1786211003,
      1786211063,
      1786211123,
      1786211183,
      1786211243,
      1786211303,
      1786211363,
      1786211423,
      1786211483,
      1786211544,
      1786211604,
      1786211664,
      1786211724,
      1786211784,
      1786211844,
      1786211904,
      1786211964,
      1786211986,
      1786212024,
      1786212046,
      1786212084,
      1786212106,
      1786212144,
      1786212166,
      1786212205,
      1786212226,
      1786212265,
      1786212286,
      1786212325,
      1786212346,
      1786212385,
      1786212406,
      1786212445,
      1786212466,
      1786212505,
      1786212527,
      1786212565,
      1786212587,
      1786212625,
      1786212647,
      1786212685,
      1786212707,
      1786212745,
      1786212767,
      1786212805,
      1786212827,
      1786212866,
      1786212887,
      1786212926,
      1786212947,
      1786212986,
      1786213007,
      1786213046,
      1786213067,
      1786213127,
      1786213188,
      1786213248,
      1786213308,
      1786213368,
      1786213390,
      1786213428,
      1786213444,
      1786213504,
      1786213564,
      1786213608,
      1786213624,
      1786213684,
      1786213728,
      1786213744,
      1786213788,
      1786213804,
      1786213849,
      1786213864,
      1786213909,
      1786213924,
      1786213969,
      1786213984,
      1786214029,
      1786214044,
      1786214104,
      1786214149,
      1786214164,
      1786214209,
      1786214224,
      1786214269,
      1786214284,
      1786214329,
      1786214350,
      1786214389,
      1786214410,
      1786214449,
      1786214470
    ],
    "wof:geomhash": "344a75245e04f2c40f681a2249a16076",
    "wof:id": 2047888517,
    "wof:repo": "sfomuseum-data-flights-2026-08"
  },
  "bbox": [
    -122.52638888888889,
    37.63333333333333,
    -85.76333333333334,
    40.84805555555556
  ],
  "geometry": {"type":"LineString","coordinates":[[-122.38333333333334,37.63333333333333],[-122.415,37.63805555555555],[-122.45,37.65],[-122.4675,37.659166666666664],[-122.52388888888889,37.693888888888885],[-122.52638888888889,37.77027777777778],[-122.46583333333334,37.82666666666667],[-122.37305555555555,37.867777777777775],[-122.27166666666666,37.916666666666664],[-122.16611111111112,37.9675],[-122.05694444444444,38.01972222222222],[-121.94472222222223,38.07333333333334],[-121.83,38.128055555555555],[-121.71444444444445,38.183055555555555],[-121.59083333333332,38.24166666666667],[-121.46361111111112,38.30166666666666],[-121.34138888888889,38.36638888888889],[-121.22277777777778,38.44],[-121.10416666666666,38.513333333333335],[-120.97972222222222,38.58972222222222],[-120.85249999999999,38.66777777777777],[-120.72333333333333,38.74666666666667],[-120.59138888888889,38.82666666666667],[-120.45805555555556,38.907222222222224],[-120.32388888888889,38.98833333333334],[-120.18583333333333,39.071111111111115],[-120.03666666666666,39.16027777777778],[-119.89944444444446,39.24194444444444],[-119.76055555555556,39.32416666666667],[-119.62416666666665,39.40472222222222],[-119.48472222222222,39.486666666666665],[-119.3436111111111,39.56916666666667],[-119.20472222222223,39.65],[-119.06333333333333,39.731944444444444],[-118.92,39.81472222222222],[-118.80805555555555,39.8775],[-118.6525,39.94361111111111],[-118.49833333333333,40.006388888888885],[-118.34277777777777,40.06944444444445],[-118.18722222222223,40.13194444444444],[-118.02222222222223,40.17833333333333],[-117.84583333333333,40.20277777777778],[-117.66888888888889,40.22694444444445],[-117.46611111111112,40.25416666666667],[-117.29416666666667,40.276944444444446],[-117.12166666666666,40.29972222222222],[-116.94833333333334,40.32194444444445],[-116.7825,40.34305555555556],[-116.60722222222222,40.36527777777778],[-116.43083333333334,40.3875],[-116.2538888888889,40.409166666666664],[-116.08027777777778,40.430277777777775],[-115.90083333333334,40.45166666666667],[-115.72277777777778,40.473055555555554],[-115.545,40.493611111111115],[-115.33138888888888,40.51833333333333],[-115.15194444444445,40.53861111111111],[-114.97111111111111,40.55888888888889],[-114.7911111111111,40.578611111111115],[-114.64222222222223,40.594722222222224],[-114.46111111111111,40.61416666666667],[-114.28222222222222,40.63305555555556],[-114.10777777777777,40.651111111111106],[-113.93305555555555,40.66916666666666],[-113.76055555555556,40.686388888888885],[-113.58749999999999,40.703611111111115],[-113.41444444444446,40.720555555555556],[-113.23694444444445,40.73777777777778],[-113.06194444444444,40.75416666666667],[-112.8875,40.77027777777778],[-112.7125,40.78638888888889],[-112.5411111111111,40.801944444444445],[-112.36722222222221,40.81722222222223],[-112.16000000000001,40.83527777777778],[-111.98555555555555,40.84805555555556],[-111.81416666666667,40.841944444444444],[-111.64277777777778,40.83361111111111],[-111.46805555555555,40.82472222222223],[-111.29277777777777,40.81527777777777],[-111.11722222222221,40.80583333333333],[-110.94,40.795833333333334],[-110.76638888888888,40.78583333333333],[-110.59194444444444,40.775555555555556],[-110.41250000000001,40.764722222222225],[-110.3775,40.7625],[-110.23805555555556,40.75388888888889],[-110.20305555555557,40.751666666666665],[-110.08083333333333,40.74388888888889],[-110.02833333333334,40.74055555555556],[-109.90305555555557,40.7325],[-109.8536111111111,40.72916666666667],[-109.72722222222222,40.720555555555556],[-109.67944444444444,40.717222222222226],[-109.55333333333333,40.70888888888889],[-109.51888888888888,40.70638888888889],[-109.3775,40.69638888888888],[-109.3436111111111,40.69416666666666],[-109.20305555555557,40.68416666666666],[-109.01805555555555,40.670833333333334],[-108.99361111111111,40.66916666666666],[-108.81777777777778,40.658055555555556],[-108.67027777777778,40.64833333333333],[-108.64416666666668,40.64666666666667],[-108.49583333333334,40.63666666666666],[-108.46694444444445,40.63472222222222],[-108.32166666666666,40.624722222222225],[-108.28972222222222,40.6225],[-108.14833333333334,40.612500000000004],[-108.12249999999999,40.61083333333333],[-107.97805555555556,40.60027777777778],[-107.92,40.596111111111114],[-107.80499999999999,40.58777777777778],[-107.63833333333334,40.57527777777778],[-107.58694444444444,40.57138888888889],[-107.26027777777777,40.546388888888885],[-107.09527777777777,40.53333333333333],[-106.93305555555555,40.52055555555555],[-106.77277777777778,40.5075],[-106.61555555555555,40.49444444444445],[-106.46472222222222,40.48166666666667],[-106.30277777777778,40.466944444444444],[-106.1236111111111,40.45027777777778],[-105.96833333333333,40.43694444444444],[-105.81333333333333,40.416666666666664],[-105.76666666666667,40.416666666666664],[-105.66305555555556,40.393055555555556],[-105.61666666666666,40.38333333333333],[-105.51694444444445,40.36972222222222],[-105.48333333333333,40.36666666666667],[-105.38333333333334,40.34777777777778],[-105.35,40.333333333333336],[-105.27361111111111,40.290277777777774],[-105.16944444444445,40.228611111111114],[-105.15,40.21666666666667],[-105.06972222222223,40.169444444444444],[-105.05,40.15],[-104.97944444444444,40.10666666666667],[-104.96666666666667,40.083333333333336],[-104.8875,40.035555555555554],[-104.88333333333334,40.03333333333333],[-104.81388888888888,39.97527777777778],[-104.8,39.95],[-104.80666666666666,39.882777777777775],[-104.8,39.86666666666667],[-104.80833333333334,39.80583333333333],[-104.81666666666666,39.78333333333333],[-104.81027777777777,39.73222222222223],[-104.81666666666666,39.71666666666667],[-104.81194444444444,39.659444444444446],[-104.81666666666666,39.63333333333333],[-104.81388888888888,39.58583333333333],[-104.81666666666666,39.56666666666667],[-104.81611111111111,39.51416666666667],[-104.81666666666666,39.5],[-104.81027777777777,39.44194444444444],[-104.78333333333333,39.43333333333333],[-104.72333333333333,39.42472222222222],[-104.7,39.43333333333333],[-104.69361111111111,39.48416666666667],[-104.7,39.5],[-104.69111111111111,39.551944444444445],[-104.68333333333334,39.56666666666667],[-104.68972222222223,39.61972222222222],[-104.68333333333334,39.63333333333333],[-104.68916666666667,39.68611111111111],[-104.68333333333334,39.7],[-104.68833333333333,39.74583333333334],[-104.68333333333334,39.75],[-104.68777777777778,39.796388888888885],[-104.68333333333334,39.8],[-104.6875,39.84027777777778],[-104.68333333333334,39.85],[-104.6863888888889,39.882777777777775],[-104.7,39.88333333333333],[-104.65,39.916666666666664],[-104.61472222222221,39.89611111111111],[-104.56666666666666,39.88333333333333],[-104.51972222222223,39.85805555555556],[-104.46666666666667,39.833333333333336],[-104.4238888888889,39.822500000000005],[-104.38333333333334,39.81666666666667],[-104.30583333333333,39.806666666666665],[-104.23333333333333,39.8],[-104.17805555555556,39.79277777777778],[-104.1,39.78333333333333],[-104.04722222222222,39.77861111111111],[-103.91055555555556,39.763333333333335],[-103.77388888888889,39.74583333333334],[-103.62888888888888,39.73361111111111],[-103.48083333333334,39.72166666666667],[-103.33111111111111,39.70944444444445],[-103.18,39.693888888888885],[-102.85499999999999,39.666666666666664],[-102.6825,39.650277777777774],[-102.50361111111111,39.63666666666666],[-102.32777777777777,39.6225],[-102.15333333333334,39.60666666666667],[-101.98166666666667,39.59166666666667],[-101.81083333333333,39.57777777777778],[-101.64083333333333,39.564166666666665],[-101.47083333333333,39.55],[-101.30055555555555,39.529444444444444],[-101.12916666666666,39.5025],[-100.95944444444444,39.47888888888889],[-100.61638888888888,39.426944444444445],[-100.44972222222222,39.401111111111106],[-100.28,39.37444444444444],[-100.11138888888888,39.34805555555556],[-99.93916666666667,39.32055555555556],[-99.77638888888889,39.294444444444444],[-99.61083333333333,39.2675],[-99.43944444444445,39.239444444444445],[-99.2775,39.21277777777778],[-99.11833333333333,39.186388888888885],[-98.95722222222223,39.159166666666664],[-98.79416666666667,39.13166666666667],[-98.63194444444444,39.103611111111114],[-98.47333333333333,39.07638888888889],[-98.31833333333333,39.049166666666665],[-98.16361111111112,39.0225],[-98.00916666666667,38.99472222222222],[-97.85166666666666,38.96666666666667],[-97.71000000000001,38.941111111111105],[-97.55361111111111,38.9225],[-97.37416666666665,38.91611111111111],[-97.21416666666667,38.91],[-97.08305555555555,38.90472222222222],[-96.91972222222223,38.89805555555556],[-96.7575,38.89111111111111],[-96.59138888888889,38.88361111111111],[-96.42333333333333,38.87638888888889],[-96.25027777777778,38.86805555555556],[-96.08277777777778,38.86],[-95.91361111111112,38.85166666666667],[-95.74361111111111,38.84277777777778],[-95.57277777777777,38.83361111111111],[-95.40138888888889,38.824444444444445],[-95.23194444444445,38.815],[-95.06472222222222,38.80555555555555],[-94.89333333333335,38.79527777777778],[-94.68694444444445,38.783055555555556],[-94.51777777777778,38.7725],[-94.34194444444444,38.76138888888889],[-94.16944444444445,38.750277777777775],[-93.99888888888889,38.73888888888889],[-93.825,38.727222222222224],[-93.67166666666667,38.71666666666667],[-93.50194444444445,38.70444444444445],[-93.32722222222222,38.69194444444444],[-93.1538888888889,38.67916666666667],[-92.9825,38.66638888888889],[-92.81055555555555,38.653055555555554],[-92.63722222222223,38.63972222222222],[-92.46388888888889,38.62583333333333],[-92.29083333333332,38.611666666666665],[-92.11555555555555,38.597500000000004],[-91.9388888888889,38.5825],[-91.76055555555556,38.56722222222223],[-91.58277777777778,38.55166666666666],[-91.40805555555556,38.53611111111111],[-91.22083333333333,38.51916666666666],[-91.04583333333333,38.50333333333333],[-90.86916666666666,38.486666666666665],[-90.83527777777778,38.4825],[-90.69444444444444,38.47],[-90.625,38.462500000000006],[-90.53722222222223,38.455000000000005],[-90.44888888888889,38.44472222222222],[-90.34138888888889,38.43583333333333],[-90.27194444444444,38.42833333333333],[-90.16000000000001,38.4175],[-90.09638888888888,38.41],[-90.00055555555555,38.40138888888889],[-89.91944444444445,38.3925],[-89.82027777777778,38.38305555555556],[-89.74277777777777,38.374722222222225],[-89.6363888888889,38.36388888888889],[-89.56527777777778,38.35611111111111],[-89.45916666666668,38.34527777777778],[-89.38805555555557,38.337500000000006],[-89.28305555555555,38.32638888888889],[-89.2125,38.31861111111112],[-89.10777777777777,38.30722222222222],[-89.03777777777778,38.29944444444444],[-88.93138888888889,38.28972222222222],[-88.8586111111111,38.28333333333333],[-88.75083333333333,38.27361111111111],[-88.68138888888889,38.26722222222222],[-88.57249999999999,38.257222222222225],[-88.5025,38.25083333333333],[-88.39583333333334,38.240833333333335],[-88.3275,38.23027777777778],[-88.23222222222222,38.20305555555556],[-88.17555555555556,38.17916666666667],[-88.08944444444444,38.14222222222222],[-88.03,38.126111111111115],[-87.93444444444445,38.10111111111111],[-87.87222222222222,38.085],[-87.77944444444444,38.06055555555555],[-87.7175,38.044444444444444],[-87.56055555555555,38.00277777777778],[-87.40166666666667,37.96055555555556],[-87.24194444444444,37.918055555555554],[-87.08333333333333,37.875277777777775],[-86.93416666666667,37.83527777777778],[-86.86666666666666,37.81666666666667],[-86.79027777777777,37.795833333333334],[-86.73333333333333,37.78333333333333],[-86.6,37.75],[-86.46666666666667,37.733333333333334],[-86.38055555555555,37.756388888888885],[-86.35,37.766666666666666],[-86.31666666666666,37.86666666666667],[-86.2961111111111,37.915277777777774],[-86.28333333333333,37.95],[-86.26166666666667,38.0025],[-86.23333333333333,38.03333333333333],[-86.21083333333334,38.07638888888889],[-86.18333333333334,38.1],[-86.13972222222223,38.13527777777778],[-86.1,38.166666666666664],[-86.06555555555555,38.189722222222215],[-86.03333333333333,38.21666666666667],[-85.99111111111111,38.24333333333333],[-85.96666666666667,38.266666666666666],[-85.91666666666667,38.333333333333336],[-85.92333333333333,38.37083333333334],[-85.91666666666667,38.4],[-85.85805555555555,38.42361111111111],[-85.83333333333333,38.416666666666664],[-85.8125,38.37777777777778],[-85.8,38.36666666666667],[-85.79333333333334,38.32166666666667],[-85.78333333333333,38.3],[-85.77722222222222,38.27305555555555],[-85.76666666666667,38.25],[-85.76333333333334,38.230555555555554],[-85.76666666666667,38.21666666666667]]}
}
