{
  "id": 2032062929,
  "type": "Feature",
  "properties": {
    "date:cessation_lower": "2026-08-01",
    "date:cessation_upper": "2026-08-01",
    "date:inception_lower": "2026-08-01",
    "date:inception_upper": "2026-08-01",
    "edtf:cessation": "2026-08-01T19:17:56Z",
    "edtf:inception": "2026-08-01T14:41:00Z",
    "flysfo:actual_timestamp": -1,
    "flysfo:airline": "UA",
    "flysfo:base_airline": "",
    "flysfo:base_flight_number": "7644",
    "flysfo:date": "2026-08-01",
    "flysfo:estimated_timestamp": 1785593580,
    "flysfo:event": "D",
    "flysfo:flight_number": "UA1316",
    "flysfo:gate": "D8",
    "flysfo:journey": "SFO-OGG",
    "flysfo:scheduled_timestamp": 1785593700,
    "flysfo:timestamp": 1785593700,
    "geom:area": 0,
    "geom:bbox": "-156.437877,20.894952,-122.370943,37.617990",
    "geom:latitude": 29.256470999999998,
    "geom:longitude": -139.40440999999998,
    "iata:airline": "UA",
    "iata:base_airline": "",
    "icao:aircraft": "B39M",
    "icao:airline": "UAL",
    "icao:base_airline": "DLH",
    "lbl:latitude": 37.617421,
    "lbl:longitude": -122.380916,
    "sfomuseum:aircraft_id": 1528104577,
    "sfomuseum:airline_id": 1159285413,
    "sfomuseum:arrival_id": 102532929,
    "sfomuseum:base_flight_id": "20260801-D-DLH-7644",
    "sfomuseum:departure_id": 102527513,
    "sfomuseum:flight_id": "20260801-D-UAL-1316",
    "sfomuseum:flight_number": [
      "UAL1316",
      "UA1316"
    ],
    "sfomuseum:placetype": "flight",
    "src:geom": "flysfo",
    "src:geom_alt": [
      "swim-path",
      "swim-takeoff"
    ],
    "swim:tail_number": "N17427",
    "wof:belongsto": [
      1947304067,
      102527513,
      1947304595,
      102191575,
      85633793,
      102087579,
      85922583,
      554784711,
      85688637,
      1947304617,
      1947304591,
      102085387
    ],
    "wof:concordances": {
      "swim:flight_ref": "153432591"
    },
    "wof:country": "US",
    "wof:created": 1785687349,
    "wof:geomhash": "8c8f659fbae3cc58419f360e0abfbe56",
    "wof:hierarchy": [
      {
        "building_id": 1947304067,
        "campus_id": 102527513,
        "concourse_id": 1947304595,
        "continent_id": 102191575,
        "country_id": 85633793,
        "county_id": 102087579,
        "custom_id": 2032062929,
        "flight_id": 2032062929,
        "locality_id": 85922583,
        "postalcode_id": 554784711,
        "region_id": 85688637,
        "venue_id": 1947304617,
        "wing_id": 1947304591
      },
      {
        "building_id": 1947304067,
        "campus_id": 102527513,
        "concourse_id": 1947304595,
        "continent_id": 102191575,
        "country_id": 85633793,
        "county_id": 102085387,
        "custom_id": 2032062929,
        "flight_id": 2032062929,
        "region_id": 85688637,
        "venue_id": 1947304617,
        "wing_id": 1947304591
      }
    ],
    "wof:id": 2032062929,
    "wof:involves": [
      1528104577,
      102532929,
      102527513,
      1159285413,
      1947304617,
      1159286015
    ],
    "wof:lastmodified": 1785687574,
    "wof:name": "UA1316 (SFO-OGG)",
    "wof:parent_id": 1947304617,
    "wof:placetype": "custom",
    "wof:placetype_alt": [
      "flight"
    ],
    "wof:repo": "sfomuseum-data-flights-2026-08",
    "wof:superseded_by": [],
    "wof:supersedes": []
  },
  "bbox": [
    -156.437877,
    20.894952,
    -122.370943,
    37.61799
  ],
  "geometry": {"coordinates":[[-122.370943,37.61799],[-156.437877,20.894952]],"type":"MultiPoint"}
}
