{
  "id": 2032127569,
  "type": "Feature",
  "properties": {
    "geom:area": 0,
    "geom:bbox": "-122.336667,37.491667,-73.546944,41.573889",
    "geom:latitude": 40.301264101770435,
    "geom:longitude": -97.73482200292155,
    "src:alt_label": "swim-path",
    "src:geom": "swim",
    "swim:altitudes": [
      "005",
      "018",
      "027",
      "050",
      "073",
      "093",
      "097",
      "111",
      "119",
      "136",
      "153",
      "167",
      "179",
      "192",
      "205",
      "215",
      "232",
      "246",
      "250",
      "255",
      "265",
      "272",
      "278",
      "285",
      "294",
      "301",
      "310",
      "318",
      "325",
      "333",
      "340C",
      "340C",
      "340C",
      "340C",
      "340C",
      "340C",
      "340C",
      "340C",
      "340C",
      "340C",
      "340C",
      "340C",
      "340C",
      "340C",
      "340C",
      "340C",
      "340C",
      "340C",
      "340C",
      "340C",
      "340C",
      "340C",
      "340C",
      "340C",
      "340C",
      "340C",
      "340C",
      "340C",
      "340C",
      "341C",
      "340C",
      "340C",
      "340C",
      "340C",
      "340C",
      "341",
      "324",
      "320C",
      "320C",
      "320C",
      "320C",
      "320C",
      "320C",
      "320C",
      "320C",
      "321C",
      "320C",
      "320C",
      "320C",
      "320C",
      "320C",
      "320C",
      "320C",
      "320C",
      "320C",
      "320C",
      "320C",
      "320C",
      "320C",
      "320C",
      "320C",
      "320C",
      "320C",
      "320C",
      "320C",
      "320C",
      "321C",
      "321C",
      "320C",
      "320C",
      "320C",
      "320C",
      "320C",
      "320C",
      "320C",
      "320C",
      "320C",
      "320C",
      "320C",
      "320C",
      "320",
      "337",
      "340C",
      "340C",
      "340C",
      "340C",
      "340C",
      "340C",
      "340C",
      "340C",
      "340C",
      "340C",
      "340C",
      "340C",
      "340C",
      "340C",
      "340C",
      "340C",
      "340C",
      "340C",
      "340C",
      "340C",
      "340C",
      "340C",
      "340C",
      "340C",
      "340C",
      "340C",
      "340C",
      "340C",
      "340C",
      "340C",
      "340C",
      "340C",
      "340C",
      "340C",
      "340C",
      "340C",
      "340C",
      "340C",
      "340C",
      "340C",
      "341C",
      "341C",
      "340C",
      "340C",
      "340C",
      "340C",
      "340C",
      "340C",
      "340C",
      "340C",
      "340C",
      "340C",
      "340C",
      "340C",
      "340C",
      "340C",
      "340C",
      "340C",
      "340C",
      "340C",
      "340C",
      "340C",
      "340C",
      "340C",
      "340C",
      "340C",
      "340C",
      "340C",
      "341C",
      "341C",
      "341C",
      "341C",
      "341C",
      "340C",
      "340C",
      "340C",
      "340C",
      "340C",
      "340C",
      "340C",
      "341C",
      "340C",
      "340C",
      "340C",
      "340C",
      "340C",
      "340C",
      "340C",
      "340C",
      "340C",
      "340C",
      "340C",
      "341C",
      "340C",
      "340C",
      "340C",
      "340C",
      "340C",
      "340C",
      "340C",
      "340C",
      "340C",
      "340C",
      "340C",
      "340C",
      "340C",
      "340C",
      "340C",
      "340C",
      "340C",
      "340C",
      "340C",
      "340C",
      "340C",
      "340C",
      "340C",
      "340C",
      "340C",
      "340C",
      "340C",
      "340C",
      "340C",
      "340C",
      "341C",
      "340C",
      "340C",
      "340C",
      "340C",
      "340C",
      "340C",
      "340C",
      "340C",
      "340C",
      "340C",
      "340C",
      "340C",
      "340C",
      "340C",
      "340C",
      "340C",
      "340C",
      "340C",
      "340C",
      "340C",
      "340C",
      "340C",
      "340C",
      "340C",
      "340C",
      "340C",
      "340C",
      "340C",
      "340C",
      "340C",
      "340C",
      "340C",
      "340C",
      "340C",
      "340C",
      "340C",
      "340C",
      "340C",
      "340C",
      "340C",
      "340C",
      "340C",
      "340C",
      "340C",
      "340C",
      "340C",
      "340C",
      "340C",
      "340C",
      "340C",
      "340C",
      "340C",
      "340C",
      "340C",
      "340C",
      "340C",
      "340C",
      "341C",
      "340C",
      "340C",
      "340C",
      "340C",
      "340C",
      "340C",
      "340C",
      "340C",
      "340C",
      "340C",
      "340C",
      "340C",
      "340C",
      "340C",
      "340C",
      "340C",
      "340C",
      "340C",
      "340C",
      "340C",
      "340C",
      "340C",
      "340C",
      "340C",
      "340C",
      "340C",
      "340C",
      "340C",
      "340C",
      "340C",
      "340C",
      "340C",
      "340C",
      "341C",
      "340C",
      "340C",
      "340C",
      "340C",
      "340C",
      "340C",
      "340C",
      "340C",
      "340C",
      "340C",
      "340C",
      "340C",
      "340C",
      "340C",
      "340C",
      "340C",
      "340C",
      "340C",
      "340C",
      "340C",
      "340C",
      "340C",
      "340C",
      "340C",
      "340C",
      "340C",
      "340C",
      "340C",
      "340C",
      "340C",
      "340C",
      "340C",
      "340C",
      "340C",
      "340C",
      "340C",
      "340C",
      "340C",
      "340C",
      "340C",
      "340C",
      "340C",
      "340C",
      "340C",
      "340C",
      "340C",
      "340C",
      "340C",
      "340C",
      "340C",
      "340C",
      "340C",
      "340C",
      "340C",
      "340C",
      "340C",
      "340C",
      "340C",
      "340C",
      "340C",
      "340C",
      "340C",
      "340C",
      "340C",
      "340C",
      "340C",
      "340C",
      "340C",
      "340C",
      "340C",
      "340C",
      "340C",
      "340C",
      "340C",
      "340C",
      "340C",
      "340C",
      "340",
      "324",
      "297",
      "273",
      "260",
      "251",
      "235",
      "229",
      "218",
      "212",
      "199",
      "192",
      "179",
      "172",
      "160",
      "155",
      "147",
      "136",
      "127",
      "118",
      "111",
      "104",
      "102",
      "098",
      "094",
      "087",
      "081",
      "079",
      "077",
      "071",
      "065",
      "062",
      "059",
      "051",
      "050",
      "042",
      "036",
      "031",
      "024",
      "020",
      "015",
      "011",
      "007",
      "004"
    ],
    "swim:geom": "path",
    "swim:speeds": [
      172,
      169,
      245,
      288,
      293,
      308,
      316,
      321,
      360,
      369,
      377,
      379,
      380,
      389,
      393,
      406,
      395,
      382,
      397,
      416,
      422,
      427,
      432,
      439,
      441,
      440,
      440,
      438,
      437,
      444,
      446,
      444,
      441,
      439,
      439,
      437,
      437,
      438,
      439,
      440,
      439,
      439,
      439,
      438,
      437,
      436,
      440,
      442,
      442,
      442,
      429,
      428,
      428,
      429,
      431,
      432,
      433,
      434,
      435,
      435,
      433,
      432,
      430,
      429,
      428,
      427,
      422,
      427,
      427,
      426,
      425,
      424,
      424,
      426,
      424,
      424,
      422,
      420,
      417,
      415,
      413,
      412,
      410,
      410,
      410,
      410,
      410,
      411,
      410,
      410,
      410,
      410,
      410,
      410,
      410,
      411,
      412,
      412,
      412,
      412,
      412,
      411,
      410,
      410,
      409,
      408,
      408,
      408,
      409,
      409,
      410,
      410,
      410,
      401,
      399,
      399,
      397,
      395,
      391,
      389,
      387,
      384,
      379,
      375,
      373,
      371,
      371,
      372,
      375,
      379,
      381,
      383,
      385,
      385,
      387,
      385,
      386,
      385,
      386,
      385,
      386,
      385,
      385,
      385,
      385,
      384,
      385,
      382,
      381,
      382,
      381,
      384,
      382,
      386,
      387,
      387,
      387,
      388,
      387,
      388,
      387,
      387,
      387,
      387,
      387,
      388,
      388,
      388,
      388,
      389,
      389,
      389,
      388,
      388,
      388,
      388,
      389,
      390,
      393,
      395,
      398,
      399,
      401,
      402,
      403,
      403,
      403,
      403,
      403,
      403,
      405,
      406,
      407,
      408,
      408,
      408,
      408,
      408,
      408,
      410,
      412,
      414,
      415,
      417,
      419,
      420,
      417,
      413,
      410,
      407,
      401,
      400,
      400,
      400,
      400,
      401,
      399,
      407,
      403,
      407,
      406,
      404,
      404,
      403,
      403,
      402,
      402,
      401,
      401,
      401,
      401,
      401,
      402,
      403,
      404,
      405,
      405,
      405,
      406,
      405,
      405,
      405,
      405,
      406,
      406,
      407,
      407,
      407,
      408,
      407,
      408,
      408,
      409,
      408,
      409,
      408,
      407,
      406,
      405,
      405,
      405,
      407,
      412,
      411,
      412,
      412,
      414,
      415,
      416,
      416,
      416,
      416,
      418,
      417,
      417,
      416,
      417,
      417,
      416,
      416,
      417,
      416,
      415,
      419,
      419,
      419,
      420,
      419,
      419,
      419,
      417,
      423,
      425,
      427,
      428,
      428,
      427,
      426,
      427,
      428,
      430,
      432,
      433,
      433,
      434,
      434,
      435,
      435,
      435,
      436,
      437,
      438,
      439,
      440,
      440,
      440,
      441,
      442,
      442,
      442,
      443,
      444,
      444,
      443,
      443,
      444,
      444,
      444,
      443,
      442,
      441,
      440,
      441,
      441,
      441,
      441,
      441,
      440,
      440,
      441,
      441,
      442,
      442,
      443,
      444,
      444,
      445,
      445,
      444,
      443,
      444,
      440,
      439,
      441,
      438,
      453,
      439,
      446,
      440,
      443,
      440,
      442,
      442,
      441,
      442,
      441,
      441,
      440,
      440,
      438,
      438,
      437,
      437,
      435,
      435,
      434,
      434,
      433,
      432,
      407,
      407,
      404,
      403,
      403,
      403,
      404,
      404,
      405,
      406,
      406,
      406,
      406,
      406,
      405,
      406,
      406,
      406,
      406,
      406,
      406,
      406,
      406,
      406,
      406,
      407,
      407,
      408,
      419,
      420,
      416,
      415,
      406,
      408,
      388,
      390,
      381,
      383,
      371,
      372,
      359,
      331,
      309,
      308,
      305,
      306,
      304,
      303,
      273,
      250,
      239,
      237,
      230,
      233,
      241,
      236,
      243,
      239,
      233,
      231,
      231,
      230,
      239,
      236,
      202,
      201,
      165,
      156,
      140,
      143
    ],
    "swim:timestamps": [
      1786011252,
      1786011288,
      1786011344,
      1786011404,
      1786011464,
      1786011524,
      1786011534,
      1786011584,
      1786011644,
      1786011704,
      1786011765,
      1786011825,
      1786011885,
      1786011945,
      1786012005,
      1786012065,
      1786012125,
      1786012185,
      1786012245,
      1786012305,
      1786012365,
      1786012425,
      1786012486,
      1786012546,
      1786012606,
      1786012666,
      1786012726,
      1786012783,
      1786012843,
      1786012906,
      1786012963,
      1786013024,
      1786013086,
      1786013146,
      1786013207,
      1786013267,
      1786013327,
      1786013387,
      1786013447,
      1786013507,
      1786013567,
      1786013627,
      1786013687,
      1786013747,
      1786013807,
      1786013868,
      1786013925,
      1786013985,
      1786014105,
      1786014165,
      1786014225,
      1786014285,
      1786014345,
      1786014406,
      1786014466,
      1786014526,
      1786014586,
      1786014646,
      1786014706,
      1786014766,
      1786014826,
      1786014886,
      1786014946,
      1786015006,
      1786015067,
      1786015127,
      1786015187,
      1786015247,
      1786015307,
      1786015367,
      1786015427,
      1786015487,
      1786015547,
      1786015580,
      1786015607,
      1786015640,
      1786015668,
      1786015700,
      1786015728,
      1786015760,
      1786015788,
      1786015821,
      1786015848,
      1786015881,
      1786015908,
      1786015941,
      1786015968,
      1786016001,
      1786016028,
      1786016061,
      1786016088,
      1786016121,
      1786016148,
      1786016181,
      1786016208,
      1786016241,
      1786016301,
      1786016329,
      1786016361,
      1786016389,
      1786016421,
      1786016449,
      1786016482,
      1786016509,
      1786016542,
      1786016569,
      1786016602,
      1786016629,
      1786016662,
      1786016689,
      1786016722,
      1786016842,
      1786016902,
      1786016962,
      1786017022,
      1786017083,
      1786017143,
      1786017203,
      1786017263,
      1786017323,
      1786017383,
      1786017443,
      1786017503,
      1786017564,
      1786017624,
      1786017684,
      1786017744,
      1786017804,
      1786017864,
      1786017924,
      1786017984,
      1786018044,
      1786018104,
      1786018165,
      1786018200,
      1786018225,
      1786018260,
      1786018285,
      1786018320,
      1786018345,
      1786018380,
      1786018405,
      1786018440,
      1786018465,
      1786018500,
      1786018525,
      1786018560,
      1786018585,
      1786018621,
      1786018645,
      1786018681,
      1786018705,
      1786018741,
      1786018766,
      1786018801,
      1786018826,
      1786018861,
      1786018886,
      1786018921,
      1786018946,
      1786018981,
      1786019006,
      1786019041,
      1786019066,
      1786019101,
      1786019126,
      1786019161,
      1786019186,
      1786019221,
      1786019246,
      1786019281,
      1786019306,
      1786019342,
      1786019367,
      1786019402,
      1786019427,
      1786019462,
      1786019487,
      1786019522,
      1786019547,
      1786019582,
      1786019607,
      1786019642,
      1786019667,
      1786019702,
      1786019727,
      1786019762,
      1786019787,
      1786019822,
      1786019847,
      1786019907,
      1786019942,
      1786019968,
      1786020028,
      1786020063,
      1786020088,
      1786020123,
      1786020148,
      1786020183,
      1786020243,
      1786020303,
      1786020363,
      1786020423,
      1786020483,
      1786020543,
      1786020663,
      1786020783,
      1786020844,
      1786020904,
      1786020964,
      1786021024,
      1786021084,
      1786021144,
      1786021204,
      1786021264,
      1786021324,
      1786021352,
      1786021412,
      1786021444,
      1786021472,
      1786021532,
      1786021565,
      1786021592,
      1786021625,
      1786021652,
      1786021685,
      1786021712,
      1786021745,
      1786021772,
      1786021805,
      1786021832,
      1786021865,
      1786021893,
      1786021925,
      1786021953,
      1786021985,
      1786022013,
      1786022057,
      1786022073,
      1786022117,
      1786022133,
      1786022177,
      1786022193,
      1786022237,
      1786022253,
      1786022298,
      1786022313,
      1786022358,
      1786022373,
      1786022418,
      1786022433,
      1786022478,
      1786022493,
      1786022538,
      1786022553,
      1786022613,
      1786022674,
      1786022734,
      1786022794,
      1786022854,
      1786022914,
      1786022974,
      1786023035,
      1786023094,
      1786023154,
      1786023215,
      1786023274,
      1786023335,
      1786023395,
      1786023455,
      1786023515,
      1786023575,
      1786023635,
      1786023695,
      1786023755,
      1786023815,
      1786023876,
      1786023936,
      1786023995,
      1786024055,
      1786024116,
      1786024176,
      1786024236,
      1786024296,
      1786024356,
      1786024416,
      1786024477,
      1786024537,
      1786024597,
      1786024657,
      1786024717,
      1786024777,
      1786024837,
      1786024897,
      1786024957,
      1786025017,
      1786025077,
      1786025137,
      1786025198,
      1786025258,
      1786025317,
      1786025377,
      1786025437,
      1786025497,
      1786025558,
      1786025618,
      1786025678,
      1786025738,
      1786025798,
      1786025858,
      1786025918,
      1786025978,
      1786026038,
      1786026098,
      1786026158,
      1786026218,
      1786026279,
      1786026339,
      1786026399,
      1786026459,
      1786026519,
      1786026579,
      1786026639,
      1786026700,
      1786026760,
      1786026820,
      1786026880,
      1786026940,
      1786027000,
      1786027060,
      1786027120,
      1786027180,
      1786027240,
      1786027300,
      1786027360,
      1786027420,
      1786027481,
      1786027541,
      1786027601,
      1786027661,
      1786027721,
      1786027781,
      1786027841,
      1786027901,
      1786027961,
      1786028021,
      1786028081,
      1786028141,
      1786028202,
      1786028262,
      1786028329,
      1786028382,
      1786028442,
      1786028450,
      1786028502,
      1786028510,
      1786028562,
      1786028570,
      1786028622,
      1786028630,
      1786028682,
      1786028690,
      1786028750,
      1786028802,
      1786028810,
      1786028862,
      1786028870,
      1786028922,
      1786028930,
      1786028983,
      1786028990,
      1786029043,
      1786029050,
      1786029103,
      1786029110,
      1786029163,
      1786029171,
      1786029231,
      1786029291,
      1786029343,
      1786029351,
      1786029411,
      1786029471,
      1786029523,
      1786029531,
      1786029583,
      1786029591,
      1786029643,
      1786029651,
      1786029703,
      1786029711,
      1786029764,
      1786029771,
      1786029824,
      1786029832,
      1786029892,
      1786029952,
      1786030012,
      1786030072,
      1786030132,
      1786030192,
      1786030252,
      1786030312,
      1786030372,
      1786030432,
      1786030492,
      1786030553,
      1786030613,
      1786030673,
      1786030700,
      1786030733,
      1786030766,
      1786030793,
      1786030826,
      1786030853,
      1786030881,
      1786030913,
      1786030941,
      1786030973,
      1786031001,
      1786031033,
      1786031060,
      1786031093,
      1786031121,
      1786031153,
      1786031181,
      1786031213,
      1786031240,
      1786031274,
      1786031300,
      1786031334,
      1786031361,
      1786031394,
      1786031421,
      1786031454,
      1786031481,
      1786031514,
      1786031540,
      1786031574,
      1786031600,
      1786031634,
      1786031661,
      1786031694,
      1786031721,
      1786031754,
      1786031781,
      1786031814,
      1786031841,
      1786031874
    ],
    "wof:geomhash": "9b9040cbb3f770107ef72c357a3c369e",
    "wof:id": 2032127569,
    "wof:repo": "sfomuseum-data-flights-2026-08"
  },
  "bbox": [
    -122.33666666666666,
    37.49166666666667,
    -73.54694444444445,
    41.573888888888895
  ],
  "geometry": {"type":"LineString","coordinates":[[-73.78333333333333,40.63333333333333],[-73.8,40.6],[-73.78527777777778,40.55638888888888],[-73.69305555555556,40.577222222222225],[-73.64166666666668,40.64833333333333],[-73.58666666666666,40.72416666666667],[-73.58333333333333,40.733333333333334],[-73.54694444444445,40.80583333333333],[-73.55749999999999,40.90416666666667],[-73.64111111111112,40.98527777777778],[-73.72722222222222,41.06722222222223],[-73.83444444444444,41.123333333333335],[-73.97111111111111,41.14555555555555],[-74.11138888888888,41.168055555555554],[-74.25638888888889,41.1825],[-74.405,41.19638888888888],[-74.53194444444445,41.16694444444444],[-74.65333333333334,41.11194444444445],[-74.77722222222222,41.055277777777775],[-74.90611111111112,40.99583333333334],[-75.05555555555556,40.94916666666666],[-75.20472222222223,40.91416666666667],[-75.35833333333333,40.878055555555555],[-75.51194444444444,40.841944444444444],[-75.66833333333334,40.80444444444444],[-75.82333333333332,40.7675],[-75.97527777777778,40.73083333333334],[-76.12555555555555,40.69361111111111],[-76.26666666666667,40.67833333333333],[-76.44916666666667,40.698055555555555],[-76.58916666666666,40.718611111111116],[-76.7461111111111,40.74138888888889],[-76.92861111111111,40.768055555555556],[-77.08666666666666,40.79055555555556],[-77.24333333333334,40.81305555555555],[-77.405,40.83583333333333],[-77.56333333333333,40.85777777777778],[-77.72166666666666,40.879444444444445],[-77.88194444444444,40.90138888888889],[-78.03972222222222,40.9225],[-78.19833333333334,40.94194444444444],[-78.35916666666667,40.96138888888889],[-78.51416666666667,40.98027777777778],[-78.6713888888889,40.99888888888889],[-78.82916666666667,41.01777777777777],[-78.98611111111111,41.03583333333333],[-79.1388888888889,41.065],[-79.28861111111111,41.11666666666667],[-79.58472222222221,41.219722222222224],[-79.72222222222223,41.26555555555556],[-79.87944444444443,41.28361111111111],[-80.0461111111111,41.29555555555555],[-80.20472222222223,41.30638888888888],[-80.3625,41.31722222222223],[-80.50694444444444,41.32666666666667],[-80.66833333333334,41.33722222222222],[-80.8275,41.347500000000004],[-80.98722222222223,41.35722222222223],[-81.14555555555556,41.36694444444444],[-81.30555555555556,41.37638888888889],[-81.48361111111112,41.386944444444445],[-81.61277777777777,41.39416666666666],[-81.76944444444445,41.40277777777778],[-81.95805555555556,41.41277777777778],[-82.11444444444444,41.42111111111111],[-82.26972222222223,41.428888888888885],[-82.42444444444445,41.43666666666666],[-82.58166666666666,41.44416666666666],[-82.74027777777778,41.45166666666667],[-82.89611111111111,41.45861111111111],[-83.05194444444444,41.46555555555556],[-83.20972222222223,41.47222222222222],[-83.3625,41.478611111111114],[-83.43972222222223,41.48166666666667],[-83.5213888888889,41.484722222222224],[-83.59666666666666,41.48777777777778],[-83.67611111111111,41.490833333333335],[-83.75083333333333,41.49388888888889],[-83.82972222222222,41.49666666666667],[-83.9038888888889,41.49944444444444],[-83.98083333333334,41.50222222222222],[-84.05444444444444,41.50472222222222],[-84.13416666666667,41.5075],[-84.20472222222223,41.50972222222222],[-84.28972222222222,41.5125],[-84.35583333333332,41.514722222222225],[-84.41722222222222,41.516666666666666],[-84.50888888888889,41.519444444444446],[-84.56805555555555,41.521388888888886],[-84.66166666666668,41.524166666666666],[-84.71861111111112,41.52583333333333],[-84.81277777777777,41.52861111111111],[-84.86999999999999,41.530277777777776],[-84.96416666666667,41.532777777777774],[-85.02277777777778,41.534166666666664],[-85.11666666666666,41.53666666666666],[-85.27027777777778,41.54055555555556],[-85.33083333333333,41.54194444444444],[-85.42805555555556,41.54416666666666],[-85.48944444444444,41.54555555555555],[-85.58333333333333,41.5475],[-85.64527777777778,41.54888888888889],[-85.73583333333333,41.55083333333333],[-85.79583333333333,41.55166666666666],[-85.88805555555557,41.55361111111111],[-85.94583333333334,41.55472222222222],[-86.03805555555556,41.55638888888888],[-86.0975,41.5575],[-86.19111111111111,41.55888888888889],[-86.24888888888889,41.559999999999995],[-86.34222222222222,41.561388888888885],[-86.64666666666668,41.56527777777777],[-86.7725,41.566944444444445],[-86.94972222222222,41.56888888888889],[-87.09555555555555,41.57],[-87.24194444444444,41.571111111111115],[-87.38805555555557,41.57194444444445],[-87.53277777777778,41.57277777777778],[-87.67666666666668,41.57333333333334],[-87.81833333333333,41.57361111111111],[-87.95694444444445,41.573888888888895],[-88.095,41.573888888888895],[-88.23111111111112,41.573888888888895],[-88.36805555555554,41.57361111111111],[-88.5038888888889,41.573055555555555],[-88.64,41.572500000000005],[-88.77666666666667,41.57166666666667],[-88.91416666666667,41.57083333333334],[-89.05361111111111,41.569722222222225],[-89.19472222222223,41.56805555555556],[-89.33666666666666,41.56666666666667],[-89.4775,41.565],[-89.63055555555555,41.56333333333333],[-89.77333333333333,41.56111111111111],[-89.84916666666666,41.55888888888889],[-89.91472222222222,41.55916666666666],[-89.99194444444444,41.556666666666665],[-90.05583333333333,41.556666666666665],[-90.13333333333334,41.55416666666667],[-90.1975,41.55416666666667],[-90.27583333333334,41.55166666666666],[-90.33888888888889,41.55138888888889],[-90.41777777777779,41.54861111111111],[-90.48277777777778,41.54833333333333],[-90.56,41.54666666666667],[-90.6236111111111,41.54527777777778],[-90.70305555555557,41.54277777777778],[-90.75888888888889,41.54222222222222],[-90.84333333333333,41.53972222222222],[-90.89944444444446,41.538888888888884],[-90.98611111111111,41.53611111111111],[-91.04388888888889,41.53527777777778],[-91.12833333333333,41.533055555555556],[-91.18694444444445,41.53138888888889],[-91.27361111111111,41.52777777777778],[-91.33055555555555,41.527499999999996],[-91.41611111111112,41.52388888888889],[-91.47611111111111,41.52305555555555],[-91.5611111111111,41.51972222222222],[-91.61749999999999,41.51861111111111],[-91.70444444444445,41.51111111111111],[-91.76138888888889,41.505],[-91.86166666666666,41.49583333333334],[-91.90361111111112,41.49166666666667],[-92.0025,41.481388888888894],[-92.04722222222222,41.47777777777778],[-92.15333333333334,41.4675],[-92.1888888888889,41.46416666666667],[-92.29472222222222,41.453611111111115],[-92.33083333333333,41.45],[-92.43666666666667,41.43944444444444],[-92.48666666666666,41.43444444444444],[-92.58083333333333,41.425],[-92.6275,41.42027777777778],[-92.71472222222222,41.41138888888889],[-92.76916666666666,41.40555555555555],[-92.85722222222222,41.396388888888886],[-92.91444444444446,41.39055555555556],[-92.99916666666667,41.38166666666667],[-93.05888888888889,41.375277777777775],[-93.1463888888889,41.36611111111111],[-93.20527777777778,41.359722222222224],[-93.2936111111111,41.35027777777778],[-93.35249999999999,41.34388888888889],[-93.44166666666668,41.33416666666667],[-93.49916666666667,41.32777777777778],[-93.58805555555556,41.31805555555556],[-93.64555555555556,41.31166666666666],[-93.7363888888889,41.30166666666666],[-93.79277777777777,41.29527777777778],[-93.94055555555556,41.27833333333333],[-94.03138888888888,41.268055555555556],[-94.09027777777777,41.26138888888889],[-94.23916666666666,41.244166666666665],[-94.32222222222222,41.23444444444444],[-94.3875,41.22694444444445],[-94.47,41.216944444444444],[-94.53416666666666,41.20944444444445],[-94.61805555555554,41.19944444444444],[-94.76916666666666,41.18111111111111],[-94.9213888888889,41.1625],[-95.07194444444444,41.14388888888889],[-95.22333333333333,41.125],[-95.37638888888888,41.10583333333334],[-95.52888888888889,41.08638888888889],[-95.83666666666666,41.046388888888885],[-96.11333333333333,40.948055555555555],[-96.24944444444445,40.89666666666667],[-96.38416666666667,40.84583333333334],[-96.51583333333333,40.795833333333334],[-96.65694444444445,40.7675],[-96.80166666666666,40.761944444444445],[-96.94972222222222,40.756388888888885],[-97.09527777777777,40.75055555555556],[-97.24305555555556,40.74444444444445],[-97.38916666666667,40.738055555555555],[-97.47194444444445,40.73527777777778],[-97.62055555555555,40.72833333333333],[-97.68305555555555,40.72527777777778],[-97.7625,40.72166666666667],[-97.9175,40.714444444444446],[-97.97916666666667,40.71138888888889],[-98.06388888888888,40.7075],[-98.125,40.70444444444445],[-98.20972222222223,40.7],[-98.27305555555556,40.69694444444444],[-98.35527777777777,40.69277777777778],[-98.41805555555555,40.68944444444444],[-98.50222222222222,40.684999999999995],[-98.565,40.68194444444444],[-98.64722222222223,40.677499999999995],[-98.71111111111111,40.67388888888889],[-98.79416666666667,40.669444444444444],[-98.85749999999999,40.66583333333333],[-98.94166666666668,40.66111111111111],[-99.00722222222223,40.6575],[-99.08999999999999,40.65277777777778],[-99.15472222222223,40.649166666666666],[-99.23861111111111,40.64388888888889],[-99.33194444444445,40.638333333333335],[-99.38527777777779,40.63527777777778],[-99.47916666666667,40.62972222222222],[-99.53388888888888,40.62638888888889],[-99.62555555555555,40.62083333333334],[-99.68138888888889,40.617222222222225],[-99.77555555555556,40.611111111111114],[-99.83111111111111,40.60777777777778],[-99.92500000000001,40.60166666666667],[-99.97916666666667,40.598333333333336],[-100.07055555555556,40.592222222222226],[-100.12944444444443,40.58833333333334],[-100.24027777777778,40.580555555555556],[-100.27722222222222,40.57805555555556],[-100.35888888888888,40.572500000000005],[-100.42750000000001,40.56777777777778],[-100.57722222222222,40.55722222222222],[-100.72555555555556,40.54666666666667],[-100.8436111111111,40.538333333333334],[-100.99305555555556,40.52722222222222],[-101.13972222222223,40.51611111111111],[-101.28666666666666,40.505],[-101.43611111111112,40.49333333333333],[-101.58333333333333,40.48111111111111],[-101.735,40.46944444444445],[-101.88666666666667,40.45722222222223],[-102.03333333333333,40.44444444444444],[-102.18555555555555,40.4325],[-102.33777777777777,40.41694444444444],[-102.48694444444445,40.404444444444444],[-102.63583333333334,40.393055555555556],[-102.80166666666666,40.37833333333333],[-102.93833333333333,40.36472222222223],[-103.10388888888889,40.35055555555556],[-103.2538888888889,40.336666666666666],[-103.40361111111112,40.322500000000005],[-103.55388888888889,40.308055555555555],[-103.69027777777778,40.29472222222222],[-103.84138888888889,40.278888888888886],[-104.00166666666667,40.26361111111111],[-104.15083333333334,40.24861111111111],[-104.28972222222222,40.23388888888889],[-104.44833333333334,40.217777777777776],[-104.58361111111111,40.202222222222225],[-104.74027777777778,40.18611111111111],[-104.89750000000001,40.16972222222222],[-105.04722222222222,40.15333333333333],[-105.19527777777778,40.13666666666666],[-105.34583333333333,40.12],[-105.49555555555555,40.103611111111114],[-105.64500000000001,40.08638888888889],[-105.79416666666667,40.06777777777778],[-105.9475,40.05027777777777],[-106.10027777777778,40.03194444444444],[-106.25138888888888,40.013888888888886],[-106.4063888888889,39.995],[-106.56055555555555,39.97555555555556],[-106.72111111111111,39.95611111111111],[-106.89083333333333,39.93472222222222],[-107.01722222222222,39.91888888888889],[-107.17027777777778,39.89833333333333],[-107.3236111111111,39.87888888888889],[-107.47805555555556,39.85861111111111],[-107.63555555555556,39.837500000000006],[-107.79333333333334,39.81638888888889],[-107.97333333333333,39.79194444444444],[-108.1036111111111,39.774166666666666],[-108.27972222222222,39.74944444444444],[-108.43333333333334,39.72805555555556],[-108.58833333333332,39.70611111111111],[-108.73805555555556,39.68472222222222],[-108.88527777777779,39.663333333333334],[-109.03999999999999,39.64083333333333],[-109.19416666666667,39.61833333333333],[-109.35111111111111,39.595],[-109.50472222222223,39.57194444444445],[-109.66222222222223,39.547777777777775],[-109.81722222222221,39.524166666666666],[-109.97333333333333,39.5],[-110.12833333333333,39.476111111111116],[-110.2825,39.45166666666667],[-110.43916666666667,39.426944444444445],[-110.5975,39.401666666666664],[-110.75055555555555,39.37694444444445],[-110.90666666666667,39.35138888888889],[-111.06138888888889,39.325833333333335],[-111.21805555555555,39.3],[-111.36555555555555,39.275277777777774],[-111.52194444444444,39.24888888888889],[-111.69111111111111,39.22],[-111.8436111111111,39.193888888888885],[-111.99638888888889,39.1675],[-112.15111111111112,39.140277777777776],[-112.30444444444444,39.11333333333334],[-112.45694444444445,39.086111111111116],[-112.61,39.05888888888889],[-112.76305555555555,39.03111111111111],[-112.91555555555556,39.00333333333333],[-113.06611111111111,38.975833333333334],[-113.21861111111112,38.94777777777777],[-113.37166666666666,38.91916666666666],[-113.52333333333333,38.89055555555556],[-113.67750000000001,38.86138888888889],[-113.82972222222222,38.8325],[-113.9825,38.80305555555555],[-114.13527777777779,38.77361111111111],[-114.28722222222223,38.74388888888889],[-114.44222222222223,38.71361111111111],[-114.59638888888888,38.6875],[-114.74277777777777,38.72277777777778],[-114.87333333333332,38.78972222222222],[-115.03222222222222,38.87027777777778],[-115.1363888888889,38.92472222222222],[-115.26416666666667,38.99111111111111],[-115.29222222222222,39.00527777777778],[-115.40138888888889,39.04611111111111],[-115.43361111111112,39.04861111111111],[-115.55111111111111,39.02638888888889],[-115.58472222222221,39.015277777777776],[-115.69694444444445,38.97805555555556],[-115.72944444444444,38.96805555555556],[-115.83999999999999,38.930277777777775],[-115.87416666666665,38.919444444444444],[-116.02,38.86972222222222],[-116.12944444444443,38.8325],[-116.16083333333334,38.82194444444445],[-116.27222222222223,38.78388888888889],[-116.30305555555556,38.77333333333333],[-116.41638888888889,38.73444444444444],[-116.44500000000001,38.724722222222226],[-116.55749999999999,38.68611111111111],[-116.58777777777777,38.675555555555555],[-116.69805555555556,38.6375],[-116.7286111111111,38.62694444444445],[-116.83972222222222,38.58833333333334],[-116.86749999999999,38.578611111111115],[-116.97916666666667,38.53944444444444],[-117.00722222222223,38.52972222222222],[-117.14611111111111,38.48111111111111],[-117.28444444444445,38.43222222222222],[-117.41277777777778,38.38666666666666],[-117.41555555555556,38.38583333333333],[-117.54416666666667,38.34],[-117.67305555555556,38.29388888888889],[-117.79805555555555,38.24888888888889],[-117.8,38.248333333333335],[-117.92805555555556,38.202222222222225],[-117.93027777777779,38.20138888888889],[-118.06083333333333,38.153888888888886],[-118.06194444444444,38.15361111111111],[-118.18972222222223,38.10722222222223],[-118.19083333333333,38.106944444444444],[-118.31888888888888,38.059999999999995],[-118.32194444444444,38.05888888888889],[-118.44722222222222,38.01305555555555],[-118.45055555555555,38.01166666666666],[-118.57888888888888,37.964444444444446],[-118.71027777777778,37.91611111111111],[-118.8461111111111,37.88638888888889],[-119.01305555555555,37.8675],[-119.15527777777778,37.850833333333334],[-119.295,37.834722222222226],[-119.4375,37.81805555555556],[-119.54972222222221,37.80444444444444],[-119.69250000000001,37.7875],[-119.83305555555555,37.77027777777778],[-119.97444444444444,37.753055555555555],[-120.11666666666666,37.73555555555556],[-120.2611111111111,37.717222222222226],[-120.40833333333335,37.698611111111106],[-120.5,37.68333333333333],[-120.55027777777778,37.68222222222222],[-120.65,37.666666666666664],[-120.69444444444444,37.665277777777774],[-120.8,37.65],[-120.82916666666667,37.649166666666666],[-120.91666666666667,37.63333333333333],[-120.9625,37.632777777777775],[-121.05,37.61666666666667],[-121.08972222222222,37.615833333333335],[-121.16666666666667,37.6],[-121.23138888888889,37.596944444444446],[-121.28333333333333,37.583333333333336],[-121.33666666666666,37.58416666666667],[-121.38333333333334,37.583333333333336],[-121.44305555555556,37.57222222222222],[-121.48333333333333,37.56666666666667],[-121.54833333333333,37.55972222222222],[-121.58333333333333,37.55],[-121.63861111111112,37.5475],[-121.66666666666667,37.53333333333333],[-121.71916666666667,37.528055555555554],[-121.75,37.516666666666666],[-121.79666666666667,37.50972222222222],[-121.83333333333333,37.5],[-121.8761111111111,37.49166666666667],[-121.91666666666667,37.5],[-121.94305555555556,37.495],[-122,37.5],[-122.03972222222222,37.500277777777775],[-122.08333333333333,37.5],[-122.11749999999999,37.5125],[-122.15,37.53333333333333],[-122.1763888888889,37.5375],[-122.21666666666667,37.55],[-122.24055555555556,37.56444444444444],[-122.28333333333333,37.583333333333336],[-122.2936111111111,37.586666666666666],[-122.31666666666666,37.6],[-122.33666666666666,37.60472222222222]]}
}
