{
  "id": 2032103279,
  "type": "Feature",
  "properties": {
    "geom:area": 0,
    "geom:bbox": "-122.525556,32.929167,-97.050000,38.518333",
    "geom:latitude": 36.711186856515745,
    "geom:longitude": -109.56952592881414,
    "src:alt_label": "swim-path",
    "src:geom": "swim",
    "swim:altitudes": [
      "018",
      "035",
      "061",
      "083",
      "087",
      "127",
      "151",
      "173",
      "193",
      "212",
      "230",
      "247",
      "260",
      "275",
      "287",
      "298",
      "315",
      "324",
      "326",
      "333",
      "336",
      "343",
      "344",
      "349C",
      "350C",
      "351",
      "352",
      "357",
      "364",
      "366",
      "370C",
      "370C",
      "370C",
      "370C",
      "370C",
      "370C",
      "370C",
      "370C",
      "370C",
      "370C",
      "370C",
      "370C",
      "370C",
      "370C",
      "370C",
      "370C",
      "370C",
      "370C",
      "370C",
      "370C",
      "370C",
      "370C",
      "370C",
      "370C",
      "370C",
      "370C",
      "370C",
      "370C",
      "370C",
      "370C",
      "370C",
      "370C",
      "370C",
      "370C",
      "370C",
      "370C",
      "370C",
      "370C",
      "370C",
      "370C",
      "370C",
      "370C",
      "370C",
      "370C",
      "370C",
      "370C",
      "370C",
      "370C",
      "370C",
      "370C",
      "370C",
      "370C",
      "370C",
      "370C",
      "370C",
      "370C",
      "370C",
      "370C",
      "370C",
      "370C",
      "370C",
      "370C",
      "370C",
      "370C",
      "370C",
      "370C",
      "370C",
      "370C",
      "370C",
      "370C",
      "370C",
      "370C",
      "370C",
      "370C",
      "370C",
      "370C",
      "370C",
      "370C",
      "370C",
      "370C",
      "370C",
      "370C",
      "370C",
      "370C",
      "370C",
      "370C",
      "370C",
      "370C",
      "370C",
      "370C",
      "370C",
      "370C",
      "370C",
      "370C",
      "370C",
      "370C",
      "370C",
      "370C",
      "370C",
      "370C",
      "370C",
      "370C",
      "370C",
      "370C",
      "370C",
      "370C",
      "370C",
      "370C",
      "370C",
      "370C",
      "370C",
      "370C",
      "370C",
      "370C",
      "370C",
      "370C",
      "370C",
      "370C",
      "370C",
      "370C",
      "370C",
      "370C",
      "370C",
      "370C",
      "370C",
      "370C",
      "370C",
      "370C",
      "370C",
      "370C",
      "370C",
      "370C",
      "370C",
      "370C",
      "370C",
      "370C",
      "370C",
      "370C",
      "370C",
      "370C",
      "370C",
      "370C",
      "370C",
      "371C",
      "370C",
      "370C",
      "370C",
      "370C",
      "370C",
      "370C",
      "370C",
      "370C",
      "370C",
      "370C",
      "371C",
      "371C",
      "371C",
      "370C",
      "370C",
      "367",
      "345",
      "337",
      "335",
      "328",
      "318",
      "316",
      "307",
      "298",
      "289",
      "279",
      "269",
      "259",
      "249",
      "240",
      "240",
      "240",
      "240",
      "240",
      "236",
      "207",
      "177",
      "138",
      "133",
      "123",
      "120",
      "113",
      "106",
      "101",
      "093",
      "088",
      "080",
      "076",
      "060",
      "057",
      "051",
      "050",
      "047",
      "046",
      "042",
      "040",
      "038",
      "031",
      "030",
      "030",
      "022",
      "017",
      "016",
      "011",
      "009"
    ],
    "swim:geom": "path",
    "swim:speeds": [
      180,
      255,
      279,
      296,
      294,
      349,
      361,
      368,
      378,
      386,
      396,
      407,
      424,
      430,
      442,
      451,
      458,
      471,
      475,
      476,
      478,
      478,
      480,
      482,
      485,
      487,
      487,
      494,
      494,
      496,
      494,
      495,
      497,
      497,
      499,
      499,
      500,
      500,
      501,
      501,
      501,
      501,
      501,
      502,
      502,
      502,
      502,
      502,
      503,
      503,
      504,
      505,
      505,
      505,
      506,
      506,
      506,
      507,
      506,
      507,
      507,
      507,
      507,
      506,
      506,
      506,
      505,
      505,
      505,
      504,
      505,
      505,
      505,
      505,
      505,
      504,
      505,
      505,
      504,
      504,
      505,
      505,
      504,
      504,
      504,
      505,
      502,
      501,
      501,
      500,
      500,
      499,
      499,
      499,
      500,
      501,
      501,
      501,
      501,
      501,
      501,
      501,
      501,
      501,
      500,
      500,
      501,
      500,
      500,
      500,
      500,
      500,
      500,
      500,
      500,
      500,
      499,
      500,
      498,
      498,
      499,
      499,
      499,
      499,
      499,
      499,
      499,
      497,
      498,
      496,
      497,
      495,
      496,
      493,
      493,
      494,
      492,
      492,
      491,
      492,
      491,
      490,
      488,
      488,
      488,
      488,
      487,
      485,
      485,
      483,
      481,
      479,
      476,
      478,
      476,
      478,
      476,
      477,
      477,
      477,
      477,
      477,
      474,
      474,
      472,
      471,
      470,
      470,
      469,
      469,
      469,
      470,
      470,
      469,
      469,
      469,
      469,
      469,
      469,
      469,
      469,
      471,
      471,
      473,
      473,
      472,
      471,
      467,
      467,
      458,
      445,
      444,
      444,
      446,
      451,
      452,
      455,
      463,
      458,
      449,
      435,
      433,
      426,
      415,
      431,
      437,
      439,
      439,
      426,
      398,
      382,
      316,
      318,
      314,
      310,
      303,
      292,
      293,
      289,
      291,
      280,
      281,
      271,
      275,
      281,
      278,
      281,
      280,
      257,
      237,
      199,
      190,
      170,
      174,
      135,
      130,
      131,
      132,
      131
    ],
    "swim:timestamps": [
      1785847163,
      1785847223,
      1785847283,
      1785847326,
      1785847343,
      1785847463,
      1785847523,
      1785847584,
      1785847644,
      1785847704,
      1785847764,
      1785847824,
      1785847884,
      1785847944,
      1785848004,
      1785848064,
      1785848170,
      1785848230,
      1785848244,
      1785848290,
      1785848304,
      1785848350,
      1785848364,
      1785848410,
      1785848424,
      1785848470,
      1785848484,
      1785848544,
      1785848591,
      1785848604,
      1785848651,
      1785848664,
      1785848711,
      1785848724,
      1785848784,
      1785848831,
      1785848844,
      1785848904,
      1785848951,
      1785848964,
      1785849011,
      1785849024,
      1785849084,
      1785849144,
      1785849191,
      1785849264,
      1785849311,
      1785849324,
      1785849371,
      1785849384,
      1785849432,
      1785849492,
      1785849504,
      1785849552,
      1785849564,
      1785849612,
      1785849625,
      1785849672,
      1785849745,
      1785849792,
      1785849852,
      1785849912,
      1785849972,
      1785850032,
      1785850092,
      1785850152,
      1785850213,
      1785850273,
      1785850333,
      1785850393,
      1785850453,
      1785850513,
      1785850573,
      1785850693,
      1785850753,
      1785850813,
      1785850843,
      1785850903,
      1785850934,
      1785850963,
      1785851023,
      1785851054,
      1785851114,
      1785851143,
      1785851174,
      1785851203,
      1785851234,
      1785851263,
      1785851324,
      1785851354,
      1785851384,
      1785851444,
      1785851504,
      1785851534,
      1785851564,
      1785851594,
      1785851624,
      1785851684,
      1785851715,
      1785851744,
      1785851775,
      1785851804,
      1785851835,
      1785851864,
      1785851895,
      1785852045,
      1785852165,
      1785852225,
      1785852285,
      1785852345,
      1785852405,
      1785852415,
      1785852465,
      1785852476,
      1785852525,
      1785852536,
      1785852585,
      1785852596,
      1785852645,
      1785852705,
      1785852716,
      1785852766,
      1785852776,
      1785852826,
      1785852836,
      1785852886,
      1785852896,
      1785852946,
      1785852956,
      1785853006,
      1785853016,
      1785853066,
      1785853076,
      1785853186,
      1785853197,
      1785853246,
      1785853306,
      1785853366,
      1785853377,
      1785853426,
      1785853437,
      1785853497,
      1785853557,
      1785853617,
      1785853677,
      1785853737,
      1785853798,
      1785853858,
      1785853918,
      1785853978,
      1785854038,
      1785854158,
      1785854207,
      1785854218,
      1785854267,
      1785854278,
      1785854327,
      1785854338,
      1785854387,
      1785854398,
      1785854447,
      1785854459,
      1785854507,
      1785854519,
      1785854627,
      1785854639,
      1785854687,
      1785854699,
      1785854747,
      1785854759,
      1785854808,
      1785854868,
      1785854879,
      1785854939,
      1785854988,
      1785854999,
      1785855048,
      1785855059,
      1785855108,
      1785855120,
      1785855168,
      1785855228,
      1785855240,
      1785855300,
      1785855360,
      1785855408,
      1785855420,
      1785855468,
      1785855480,
      1785855529,
      1785855600,
      1785855649,
      1785855660,
      1785855709,
      1785855769,
      1785855781,
      1785855841,
      1785855889,
      1785855949,
      1785856009,
      1785856069,
      1785856129,
      1785856189,
      1785856250,
      1785856310,
      1785856370,
      1785856430,
      1785856490,
      1785856550,
      1785856610,
      1785856670,
      1785856776,
      1785856790,
      1785856830,
      1785856850,
      1785856910,
      1785856950,
      1785856971,
      1785857010,
      1785857031,
      1785857070,
      1785857091,
      1785857130,
      1785857151,
      1785857190,
      1785857211,
      1785857255,
      1785857271,
      1785857315,
      1785857331,
      1785857370,
      1785857451,
      1785857490,
      1785857511,
      1785857571,
      1785857615,
      1785857631,
      1785857676,
      1785857691
    ],
    "wof:geomhash": "0ca76a4ae620d65947b3e820e4960215",
    "wof:id": 2032103279,
    "wof:repo": "sfomuseum-data-flights-2026-08"
  },
  "bbox": [
    -122.52555555555556,
    32.92916666666667,
    -97.05,
    38.51833333333333
  ],
  "geometry": {"type":"LineString","coordinates":[[-122.42444444444445,37.64],[-122.49638888888889,37.670833333333334],[-122.52555555555556,37.73916666666667],[-122.51666666666667,37.8],[-122.50027777777778,37.81388888888888],[-122.28027777777778,37.85666666666667],[-122.155,37.87166666666667],[-122.02527777777777,37.88666666666666],[-121.89444444444445,37.901944444444446],[-121.76027777777777,37.91777777777777],[-121.62222222222222,37.93333333333333],[-121.48111111111112,37.94944444444444],[-121.33555555555554,37.96555555555556],[-121.18555555555555,37.98222222222223],[-121.03333333333333,38.00222222222222],[-120.87555555555555,38.026666666666664],[-120.60055555555554,38.068333333333335],[-120.435,38.092222222222226],[-120.39250000000001,38.1],[-120.26833333333333,38.11666666666667],[-120.22444444444444,38.125],[-120.10249999999999,38.14083333333333],[-120.06138888888889,38.14888888888889],[-119.93472222222222,38.16583333333333],[-119.89055555555557,38.17388888888889],[-119.76583333333333,38.19],[-119.72111111111111,38.19833333333333],[-119.54805555555555,38.223055555555554],[-119.38722222222223,38.244166666666665],[-119.35194444444444,38.25055555555556],[-119.21722222222222,38.26861111111111],[-119.18222222222222,38.274166666666666],[-119.04305555555555,38.29194444444444],[-119.00861111111111,38.29805555555556],[-118.83472222222221,38.32194444444445],[-118.69666666666667,38.33972222222222],[-118.66194444444444,38.345],[-118.48861111111111,38.36805555555556],[-118.36999999999999,38.38388888888889],[-118.315,38.39111111111111],[-118.19305555555556,38.40694444444444],[-118.14055555555557,38.41361111111111],[-117.98166666666667,38.43416666666666],[-117.80361111111111,38.45666666666667],[-117.66361111111112,38.47416666666667],[-117.44861111111112,38.50111111111111],[-117.30888888888889,38.51638888888889],[-117.27055555555556,38.51833333333333],[-117.12777777777777,38.51583333333333],[-117.08999999999999,38.514722222222225],[-116.94583333333334,38.510555555555555],[-116.76611111111112,38.505],[-116.73,38.50361111111111],[-116.58472222222221,38.49888888888889],[-116.54722222222222,38.4975],[-116.40666666666667,38.4925],[-116.36833333333333,38.49111111111111],[-116.22555555555556,38.486111111111114],[-116.00833333333334,38.47777777777778],[-115.86638888888888,38.471944444444446],[-115.68527777777778,38.46472222222223],[-115.50722222222223,38.456944444444446],[-115.32638888888889,38.44916666666666],[-115.14555555555556,38.44083333333333],[-114.96833333333333,38.4325],[-114.79083333333332,38.42361111111111],[-114.61,38.414722222222224],[-114.43222222222222,38.405277777777776],[-114.25611111111111,38.38194444444444],[-114.08611111111111,38.341944444444444],[-113.915,38.30166666666666],[-113.74277777777777,38.260555555555555],[-113.57416666666666,38.22],[-113.2325,38.13722222222222],[-113.06055555555555,38.09527777777778],[-112.89,38.05305555555555],[-112.82472222222222,38.03666666666666],[-112.6538888888889,37.994166666666665],[-112.54833333333333,37.967777777777776],[-112.48111111111112,37.950833333333335],[-112.31277777777777,37.90833333333333],[-112.20916666666668,37.88194444444444],[-112.03999999999999,37.83861111111111],[-111.97305555555556,37.82222222222222],[-111.87138888888889,37.79944444444444],[-111.8025,37.78361111111111],[-111.69944444444445,37.76],[-111.63305555555554,37.745],[-111.465,37.70611111111111],[-111.36277777777777,37.6825],[-111.29583333333333,37.66694444444444],[-111.12944444444443,37.628055555555555],[-110.96305555555556,37.58888888888889],[-110.86277777777777,37.56444444444444],[-110.795,37.544999999999995],[-110.69555555555556,37.51722222222222],[-110.62972222222221,37.49861111111111],[-110.46555555555555,37.45194444444445],[-110.36527777777778,37.42333333333333],[-110.30027777777778,37.40472222222222],[-110.20111111111112,37.37638888888889],[-110.13055555555555,37.35611111111111],[-110.03861111111111,37.32944444444445],[-109.96666666666667,37.308611111111105],[-109.87333333333332,37.281666666666666],[-109.47777777777777,37.16555555555556],[-109.14750000000001,37.0675],[-108.98583333333333,37.01916666666666],[-108.82194444444444,36.969722222222224],[-108.65805555555556,36.919999999999995],[-108.49666666666667,36.87083333333334],[-108.46583333333334,36.86138888888889],[-108.33583333333333,36.82138888888889],[-108.30499999999999,36.81222222222222],[-108.1725,36.771388888888886],[-108.14055555555557,36.76138888888889],[-108.00694444444444,36.730000000000004],[-108.01083333333334,36.730555555555554],[-107.8411111111111,36.695277777777775],[-107.67500000000001,36.660555555555554],[-107.67500000000001,36.660555555555554],[-107.505,36.624722222222225],[-107.505,36.624722222222225],[-107.34027777777777,36.589444444444446],[-107.33888888888889,36.589444444444446],[-107.17166666666667,36.55361111111111],[-107.17472222222223,36.55444444444444],[-107.00805555555556,36.51861111111111],[-107.00666666666666,36.51833333333333],[-106.84166666666667,36.4825],[-106.84444444444443,36.48305555555556],[-106.67916666666667,36.44694444444444],[-106.67916666666667,36.44694444444444],[-106.35527777777777,36.375277777777775],[-106.32944444444443,36.36972222222222],[-106.19055555555556,36.33861111111111],[-106.02333333333333,36.301111111111105],[-105.85749999999999,36.263888888888886],[-105.83222222222221,36.25805555555556],[-105.70555555555556,36.22916666666667],[-105.67888888888889,36.223055555555554],[-105.52638888888889,36.18805555555555],[-105.36166666666666,36.14972222222222],[-105.20194444444445,36.11277777777778],[-105.04138888888889,36.07527777777778],[-104.87888888888888,36.036944444444444],[-104.71888888888888,35.99888888888889],[-104.55944444444444,35.96083333333333],[-104.40138888888889,35.922777777777775],[-104.2425,35.88444444444444],[-104.08638888888889,35.84],[-103.78083333333333,35.74472222222222],[-103.67666666666668,35.71055555555556],[-103.62694444444443,35.69611111111111],[-103.525,35.66138888888889],[-103.47361111111111,35.647777777777776],[-103.37277777777777,35.615],[-103.32333333333332,35.6],[-103.2213888888889,35.5675],[-103.16972222222223,35.550555555555555],[-103.04194444444444,35.50972222222222],[-103.02027777777778,35.50277777777778],[-102.89027777777778,35.46083333333333],[-102.86888888888888,35.453611111111115],[-102.59472222222222,35.364444444444445],[-102.56805555555555,35.35583333333334],[-102.4475,35.316111111111105],[-102.41638888888889,35.30611111111111],[-102.29861111111111,35.26722222222222],[-102.26916666666666,35.2575],[-102.15222222222222,35.21888888888889],[-102.00527777777778,35.169999999999995],[-101.97555555555556,35.16],[-101.83444444444444,35.11277777777778],[-101.7175,35.07333333333334],[-101.68805555555556,35.06361111111111],[-101.57194444444444,35.024166666666666],[-101.55222222222221,35.01777777777777],[-101.42861111111111,34.975833333333334],[-101.4063888888889,34.968333333333334],[-101.28222222222222,34.92583333333333],[-101.13333333333334,34.875],[-101.10416666666666,34.865],[-100.9563888888889,34.814166666666665],[-100.81027777777777,34.76361111111111],[-100.69305555555556,34.72277777777778],[-100.66250000000001,34.71222222222222],[-100.54833333333333,34.6725],[-100.51888888888888,34.66222222222222],[-100.40805555555556,34.623333333333335],[-100.24027777777778,34.56444444444444],[-100.13777777777779,34.52777777777778],[-100.10305555555556,34.51583333333333],[-99.99472222222222,34.4775],[-99.8536111111111,34.42722222222222],[-99.82944444444443,34.41861111111111],[-99.68972222222223,34.36833333333333],[-99.56916666666666,34.32416666666667],[-99.43611111111112,34.26083333333333],[-99.30499999999999,34.19833333333333],[-99.20972222222223,34.111111111111114],[-99.17166666666667,33.99472222222222],[-99.125,33.88388888888889],[-98.99833333333333,33.823055555555555],[-98.87555555555555,33.78388888888889],[-98.7286111111111,33.73694444444445],[-98.59194444444444,33.69305555555555],[-98.45555555555556,33.64944444444444],[-98.32,33.605555555555554],[-98.19277777777778,33.56444444444444],[-98.07333333333332,33.525555555555556],[-97.88333333333334,33.46666666666667],[-97.86305555555555,33.456944444444446],[-97.8,33.43333333333333],[-97.76722222222222,33.42527777777777],[-97.67472222222223,33.394999999999996],[-97.61666666666666,33.36666666666667],[-97.5911111111111,33.35277777777778],[-97.53333333333333,33.31666666666667],[-97.51333333333334,33.305],[-97.46666666666667,33.28333333333333],[-97.43833333333333,33.271388888888886],[-97.38333333333334,33.266666666666666],[-97.35083333333333,33.26111111111111],[-97.28333333333333,33.233333333333334],[-97.26388888888889,33.231944444444444],[-97.18333333333334,33.21666666666667],[-97.17305555555556,33.21361111111111],[-97.1,33.2],[-97.09055555555555,33.19472222222222],[-97.06666666666666,33.166666666666664],[-97.05361111111111,33.093611111111116],[-97.05,33.06666666666667],[-97.05388888888889,33.04527777777778],[-97.05416666666666,33.00194444444445],[-97.05,32.96666666666667],[-97.05444444444444,32.96611111111111],[-97.05,32.93333333333333],[-97.05472222222222,32.92916666666667]]}
}
