{
  "id": 2032134339,
  "type": "Feature",
  "properties": {
    "geom:area": 0,
    "geom:bbox": "-122.563611,35.668611,-115.146667,37.673611",
    "geom:latitude": 36.960190936127646,
    "geom:longitude": -118.6476764314896,
    "src:alt_label": "swim-path",
    "src:geom": "swim",
    "swim:altitudes": [
      "007",
      "022",
      "042",
      "074",
      "098",
      "116",
      "133",
      "155",
      "172",
      "187",
      "208",
      "212",
      "220",
      "226",
      "241",
      "246",
      "247",
      "251",
      "253",
      "264",
      "266",
      "272",
      "274",
      "285",
      "290C",
      "290C",
      "290C",
      "290C",
      "290C",
      "290C",
      "290C",
      "290C",
      "290C",
      "290C",
      "290C",
      "290C",
      "290C",
      "290C",
      "290C",
      "290C",
      "290C",
      "290C",
      "290C",
      "290C",
      "290C",
      "290C",
      "290C",
      "290C",
      "290C",
      "290C",
      "290C",
      "290C",
      "290C",
      "290C",
      "290",
      "290",
      "284",
      "282",
      "272",
      "264",
      "262",
      "254",
      "252",
      "244",
      "242",
      "234",
      "232",
      "224",
      "222",
      "214",
      "212",
      "210",
      "210",
      "204",
      "194",
      "191",
      "187",
      "184",
      "177",
      "174",
      "168",
      "164",
      "153",
      "148",
      "137",
      "134",
      "132",
      "128",
      "121",
      "106",
      "104",
      "100",
      "100",
      "100",
      "100",
      "100",
      "097",
      "096",
      "088",
      "059",
      "046",
      "036",
      "029",
      "021"
    ],
    "swim:geom": "path",
    "swim:speeds": [
      140,
      209,
      270,
      272,
      297,
      397,
      427,
      430,
      441,
      451,
      444,
      445,
      444,
      451,
      455,
      452,
      475,
      460,
      491,
      472,
      492,
      482,
      492,
      492,
      491,
      491,
      490,
      491,
      492,
      493,
      494,
      497,
      497,
      497,
      498,
      497,
      497,
      496,
      496,
      497,
      496,
      496,
      496,
      496,
      496,
      495,
      495,
      495,
      483,
      420,
      413,
      406,
      406,
      405,
      405,
      405,
      404,
      402,
      394,
      388,
      386,
      381,
      380,
      368,
      366,
      360,
      359,
      356,
      355,
      355,
      355,
      354,
      353,
      352,
      348,
      340,
      334,
      335,
      325,
      330,
      326,
      328,
      322,
      325,
      317,
      319,
      269,
      268,
      257,
      261,
      260,
      260,
      257,
      252,
      257,
      254,
      254,
      254,
      251,
      238,
      207,
      145,
      147,
      142
    ],
    "swim:timestamps": [
      1786045327,
      1786045388,
      1786045454,
      1786045514,
      1786045574,
      1786045694,
      1786045754,
      1786045814,
      1786045874,
      1786045934,
      1786045984,
      1786045994,
      1786046044,
      1786046054,
      1786046115,
      1786046164,
      1786046175,
      1786046224,
      1786046235,
      1786046284,
      1786046295,
      1786046344,
      1786046355,
      1786046415,
      1786046475,
      1786046525,
      1786046535,
      1786046595,
      1786046645,
      1786046655,
      1786046705,
      1786046776,
      1786046825,
      1786046836,
      1786046896,
      1786046945,
      1786046956,
      1786047016,
      1786047066,
      1786047126,
      1786047136,
      1786047186,
      1786047196,
      1786047246,
      1786047256,
      1786047316,
      1786047366,
      1786047376,
      1786047436,
      1786047486,
      1786047497,
      1786047546,
      1786047557,
      1786047617,
      1786047666,
      1786047677,
      1786047726,
      1786047737,
      1786047797,
      1786047847,
      1786047857,
      1786047907,
      1786047917,
      1786047967,
      1786047977,
      1786048027,
      1786048037,
      1786048087,
      1786048097,
      1786048147,
      1786048157,
      1786048207,
      1786048267,
      1786048327,
      1786048387,
      1786048404,
      1786048428,
      1786048448,
      1786048489,
      1786048508,
      1786048549,
      1786048568,
      1786048609,
      1786048628,
      1786048669,
      1786048688,
      1786048729,
      1786048748,
      1786048790,
      1786048850,
      1786048868,
      1786048922,
      1786048928,
      1786048982,
      1786049036,
      1786049048,
      1786049096,
      1786049109,
      1786049156,
      1786049337,
      1786049397,
      1786049463,
      1786049517,
      1786049589
    ],
    "wof:geomhash": "bd03cfb21332e9077c5c8b328c5893d4",
    "wof:id": 2032134339,
    "wof:repo": "sfomuseum-data-flights-2026-08"
  },
  "bbox": [
    -122.56361111111111,
    35.66861111111111,
    -115.14666666666668,
    37.67361111111111
  ],
  "geometry": {"type":"LineString","coordinates":[[-122.38333333333334,37.61666666666667],[-122.43333333333334,37.65],[-122.51861111111111,37.67361111111111],[-122.56361111111111,37.61833333333333],[-122.48388888888888,37.57527777777778],[-122.25277777777778,37.51861111111111],[-122.11222222222221,37.483333333333334],[-121.96805555555555,37.44694444444444],[-121.82111111111111,37.40972222222222],[-121.67222222222223,37.37166666666667],[-121.54638888888888,37.34027777777778],[-121.5213888888889,37.33305555555556],[-121.38611111111112,37.29833333333333],[-121.37138888888889,37.294444444444444],[-121.22166666666666,37.25555555555555],[-121.09416666666667,37.22222222222222],[-121.06666666666666,37.21527777777778],[-120.93583333333333,37.18],[-120.9025,37.17194444444444],[-120.77222222222223,37.13666666666666],[-120.73861111111111,37.12861111111111],[-120.60722222222222,37.09388888888889],[-120.57972222222222,37.086666666666666],[-120.41694444444445,37.04277777777778],[-120.25583333333333,36.99944444444444],[-120.11722222222221,36.96361111111111],[-120.09166666666667,36.95944444444445],[-119.92083333333333,36.943888888888885],[-119.78111111111112,36.95111111111111],[-119.74944444444445,36.95527777777778],[-119.61388888888888,36.98444444444444],[-119.42527777777778,37.05083333333333],[-119.29555555555555,37.093611111111116],[-119.26583333333333,37.10305555555556],[-119.10583333333332,37.154444444444444],[-118.96805555555555,37.198611111111106],[-118.94361111111111,37.20638888888889],[-118.78333333333333,37.255833333333335],[-118.64055555555557,37.2825],[-118.46888888888888,37.29611111111111],[-118.44333333333334,37.29805555555556],[-118.29638888888888,37.30916666666666],[-118.26194444444444,37.31194444444444],[-118.12333333333332,37.32194444444445],[-118.08722222222222,37.32472222222223],[-117.91916666666667,37.336666666666666],[-117.78,37.34638888888889],[-117.74527777777777,37.348888888888894],[-117.57722222222222,37.36055555555556],[-117.45527777777778,37.36666666666667],[-117.42555555555556,37.365833333333335],[-117.31583333333333,37.350833333333334],[-117.28888888888889,37.34444444444445],[-117.16111111111111,37.29722222222222],[-117.07194444444444,37.24277777777778],[-117.05194444444444,37.22805555555556],[-116.96888888888888,37.168055555555554],[-116.94833333333334,37.153055555555554],[-116.85388888888889,37.07527777777778],[-116.7936111111111,37.005],[-116.77833333333334,36.98722222222222],[-116.71833333333333,36.918055555555554],[-116.70333333333333,36.900555555555556],[-116.64555555555556,36.83277777777778],[-116.63222222222221,36.816944444444445],[-116.57666666666667,36.75194444444445],[-116.56138888888889,36.73416666666667],[-116.50694444444444,36.66972222222222],[-116.49222222222222,36.65333333333333],[-116.42027777777778,36.60111111111111],[-116.40166666666667,36.588055555555556],[-116.32777777777777,36.535555555555554],[-116.23694444444445,36.471111111111114],[-116.1438888888889,36.405],[-116.05499999999999,36.34138888888889],[-116.02527777777777,36.32027777777778],[-115.98944444444444,36.29361111111111],[-115.96944444444445,36.280277777777776],[-115.90611111111112,36.23444444444444],[-115.87583333333333,36.217777777777776],[-115.81638888888888,36.18055555555555],[-115.78777777777778,36.16222222222222],[-115.74277777777777,36.11416666666667],[-115.73055555555555,36.088055555555556],[-115.70722222222223,36.030277777777776],[-115.69638888888889,36.00472222222222],[-115.67611111111111,35.95111111111111],[-115.66666666666667,35.93138888888889],[-115.64750000000001,35.88305555555556],[-115.62194444444444,35.81333333333333],[-115.61166666666666,35.79388888888889],[-115.58833333333332,35.73388888888889],[-115.58472222222221,35.72694444444445],[-115.55138888888888,35.66861111111111],[-115.48388888888888,35.67944444444444],[-115.47416666666666,35.69222222222222],[-115.44527777777778,35.743611111111115],[-115.43666666666667,35.755],[-115.40416666666667,35.80722222222222],[-115.32527777777777,35.99888888888889],[-115.30805555555555,36.05972222222222],[-115.24722222222222,36.07361111111111],[-115.20277777777778,36.073055555555555],[-115.14666666666668,36.07361111111111]]}
}
