{
  "id": 2032084723,
  "type": "Feature",
  "properties": {
    "geom:area": 0,
    "geom:bbox": "-122.832280,37.398880,-122.110490,38.517890",
    "geom:latitude": 37.82199628364374,
    "geom:longitude": -122.49448014938312,
    "src:alt_label": "swim-approach",
    "src:geom": "swim",
    "swim:elevations": [
      7468,
      7437,
      7042,
      6945,
      6652,
      6345,
      6112,
      5481,
      5361,
      5240,
      4862,
      4696,
      4303,
      4215,
      3749,
      3515,
      3382,
      3353,
      3353,
      3353,
      3353,
      3312,
      2973,
      2703,
      2567,
      2523,
      2187,
      2089,
      1888,
      1829,
      1682,
      1479,
      1338,
      1221,
      1075,
      1024,
      1003,
      930,
      850,
      671,
      565,
      518,
      442,
      283,
      159,
      70
    ],
    "swim:geom": "approach",
    "swim:timestamps": [
      1785754407,
      1785754411,
      1785754451,
      1785754461,
      1785754493,
      1785754523,
      1785754549,
      1785754618,
      1785754631,
      1785754651,
      1785754695,
      1785754715,
      1785754761,
      1785754773,
      1785754828,
      1785754858,
      1785754878,
      1785754913,
      1785754927,
      1785754971,
      1785754989,
      1785755008,
      1785755053,
      1785755086,
      1785755105,
      1785755112,
      1785755160,
      1785755177,
      1785755203,
      1785755237,
      1785755265,
      1785755290,
      1785755318,
      1785755353,
      1785755393,
      1785755408,
      1785755412,
      1785755431,
      1785755463,
      1785755494,
      1785755517,
      1785755529,
      1785755552,
      1785755589,
      1785755624,
      1785755649
    ],
    "wof:geomhash": "3bbd178c0b2417d854dc7f393124559b",
    "wof:id": 2032084723,
    "wof:repo": "sfomuseum-data-flights-2026-08"
  },
  "bbox": [
    -122.83228,
    37.39888,
    -122.11049,
    38.51789
  ],
  "geometry": {"type":"LineString","coordinates":[[-122.83228,38.51789],[-122.8305,38.51019],[-122.81328,38.43203],[-122.80908,38.41302],[-122.7951,38.34967],[-122.78265,38.29291],[-122.77199,38.24435],[-122.73769,38.12311],[-122.73097,38.09978],[-122.72143,38.06637],[-122.69984,37.9917],[-122.69,37.95749],[-122.65721,37.88533],[-122.64047,37.86841],[-122.56561,37.79761],[-122.52712,37.76132],[-122.50174,37.73726],[-122.4607,37.69866],[-122.44502,37.68395],[-122.4018,37.64329],[-122.38322,37.62578],[-122.36525,37.60784],[-122.33651,37.55884],[-122.31565,37.52336],[-122.30333,37.50281],[-122.29877,37.49538],[-122.26835,37.4453],[-122.25771,37.42864],[-122.22755,37.41312],[-122.18559,37.39888],[-122.15042,37.40585],[-122.13474,37.43042],[-122.12101,37.45696],[-122.11049,37.48713],[-122.13559,37.51597],[-122.14835,37.52439],[-122.15207,37.52629],[-122.1702,37.53444],[-122.19996,37.54746],[-122.22852,37.55953],[-122.2485,37.56781],[-122.25834,37.57192],[-122.27714,37.57992],[-122.3056,37.59187],[-122.33105,37.60253],[-122.34918,37.61013]]}
}
