{
  "id": 2047917273,
  "type": "Feature",
  "properties": {
    "geom:area": 0,
    "geom:bbox": "-126.888611,37.635833,-122.410000,40.232500",
    "geom:latitude": 38.941279187205836,
    "geom:longitude": -124.64486053079415,
    "src:alt_label": "swim-path",
    "src:geom": "swim",
    "swim:altitudes": [
      "012",
      "023",
      "039",
      "054",
      "068",
      "074",
      "085",
      "096",
      "112",
      "127",
      "142",
      "153",
      "167",
      "178",
      "191",
      "201",
      "210",
      "221",
      "232",
      "236C",
      "240",
      "253",
      "260",
      "267",
      "273C",
      "276",
      "279C",
      "282",
      "285C",
      "289",
      "292C",
      "295",
      "300",
      "307",
      "312",
      "321",
      "328",
      "334",
      "339C",
      "340C",
      "340C",
      "340C"
    ],
    "swim:geom": "path",
    "swim:speeds": [
      177,
      228,
      259,
      274,
      293,
      340,
      368,
      375,
      382,
      390,
      398,
      406,
      413,
      423,
      427,
      434,
      445,
      448,
      455,
      460,
      464,
      466,
      471,
      482,
      490,
      484,
      490,
      493,
      500,
      496,
      500,
      501,
      504,
      507,
      509,
      509,
      507,
      503,
      502,
      501,
      501,
      500
    ],
    "swim:timestamps": [
      1786392856,
      1786392916,
      1786392976,
      1786393036,
      1786393096,
      1786393157,
      1786393217,
      1786393277,
      1786393337,
      1786393397,
      1786393457,
      1786393517,
      1786393577,
      1786393637,
      1786393697,
      1786393757,
      1786393818,
      1786393878,
      1786393938,
      1786393974,
      1786393998,
      1786394058,
      1786394118,
      1786394178,
      1786394215,
      1786394238,
      1786394274,
      1786394298,
      1786394335,
      1786394358,
      1786394394,
      1786394418,
      1786394478,
      1786394539,
      1786394599,
      1786394659,
      1786394719,
      1786394779,
      1786394839,
      1786394899,
      1786394959,
      1786395019
    ],
    "wof:geomhash": "6417e9890f0909344365fb9405727f9a",
    "wof:id": 2047917273,
    "wof:repo": "sfomuseum-data-flights-2026-08"
  },
  "bbox": [
    -126.88861111111112,
    37.63583333333333,
    -122.41000000000001,
    40.2325
  ],
  "geometry": {"type":"LineString","coordinates":[[-122.41000000000001,37.63583333333333],[-122.47527777777778,37.6625],[-122.54916666666666,37.70194444444445],[-122.6261111111111,37.74722222222222],[-122.70583333333333,37.79694444444444],[-122.79833333333333,37.853611111111114],[-122.90166666666667,37.91694444444444],[-122.98444444444445,37.9675],[-123.09277777777777,38.03361111111111],[-123.20277777777778,38.10027777777778],[-123.31527777777778,38.16833333333333],[-123.43,38.237500000000004],[-123.54472222222222,38.30638888888888],[-123.66472222222222,38.37833333333333],[-123.78805555555556,38.45194444444445],[-123.90944444444445,38.52388888888889],[-124.03555555555555,38.59861111111111],[-124.16305555555556,38.67388888888889],[-124.30805555555555,38.75888888888889],[-124.38333333333334,38.8],[-124.44194444444445,38.83722222222222],[-124.57416666666666,38.91416666666667],[-124.70916666666668,38.992222222222225],[-124.84916666666666,39.073055555555555],[-124.93333333333334,39.11666666666667],[-124.98833333333333,39.153055555555554],[-125.06666666666666,39.2],[-125.14055555555557,39.24027777777778],[-125.21666666666667,39.28333333333333],[-125.28444444444445,39.32222222222222],[-125.35,39.36666666666667],[-125.43083333333334,39.405277777777776],[-125.56833333333333,39.48277777777778],[-125.71472222222222,39.565],[-125.86527777777778,39.649166666666666],[-126.01583333333333,39.73305555555556],[-126.16277777777778,39.81444444444444],[-126.30972222222222,39.89527777777778],[-126.4575,39.97638888888889],[-126.60277777777777,40.059999999999995],[-126.74555555555555,40.1475],[-126.88861111111112,40.2325]]}
}
