{
  "id": 2032074197,
  "type": "Feature",
  "properties": {
    "geom:area": 0,
    "geom:bbox": "-122.402030,37.624000,-121.326610,38.375520",
    "geom:latitude": 37.99682767347812,
    "geom:longitude": -121.87237271015564,
    "src:alt_label": "swim-takeoff",
    "src:geom": "swim",
    "swim:elevations": [
      183,
      430,
      499,
      716,
      870,
      1023,
      1083,
      1416,
      1492,
      1953,
      2326,
      2585,
      2678,
      2899,
      2923,
      3138,
      3204,
      3361,
      3477,
      3566,
      3652,
      3741,
      3995,
      4014,
      4257,
      4447,
      4746,
      4993,
      5187,
      5233,
      5385
    ],
    "swim:geom": "takeoff",
    "swim:timestamps": [
      1785707177,
      1785707211,
      1785707225,
      1785707273,
      1785707291,
      1785707305,
      1785707310,
      1785707338,
      1785707346,
      1785707390,
      1785707428,
      1785707454,
      1785707463,
      1785707487,
      1785707490,
      1785707516,
      1785707531,
      1785707571,
      1785707603,
      1785707630,
      1785707653,
      1785707665,
      1785707698,
      1785707701,
      1785707737,
      1785707770,
      1785707816,
      1785707855,
      1785707883,
      1785707890,
      1785707911
    ],
    "wof:geomhash": "1d7b74b8d693b9a71f9e527e71808e2f",
    "wof:id": 2032074197,
    "wof:repo": "sfomuseum-data-flights-2026-08"
  },
  "bbox": [
    -122.40203,
    37.624,
    -121.32661,
    38.37552
  ],
  "geometry": {"coordinates":[[-122.38753,37.624],[-122.40203,37.64698],[-122.39105,37.65731],[-122.32957,37.6771],[-122.30461,37.68769],[-122.28815,37.69914],[-122.28161,37.70385],[-122.24915,37.72722],[-122.23968,37.73409],[-122.1855,37.7731],[-122.13933,37.80623],[-122.10639,37.82977],[-122.09494,37.83795],[-122.06409,37.85999],[-122.06015,37.86279],[-122.02559,37.88742],[-122.00496,37.90211],[-121.94735,37.94319],[-121.89539,37.98023],[-121.85135,38.0114],[-121.81101,38.03999],[-121.78979,38.05501],[-121.73107,38.09658],[-121.72566,38.10038],[-121.66079,38.14617],[-121.59884,38.18967],[-121.51376,38.24943],[-121.43975,38.30132],[-121.38446,38.33973],[-121.37072,38.34818],[-121.32661,38.37552]],"type":"LineString"}
}
