{
  "id": 2032058899,
  "type": "Feature",
  "properties": {
    "date:cessation_lower": "2026-08-01",
    "date:cessation_upper": "2026-08-01",
    "date:inception_lower": "2026-08-01",
    "date:inception_upper": "2026-08-01",
    "edtf:cessation": "2026-08-01T00:09:31-07:00",
    "edtf:inception": "2026-08-01T13:30:00Z",
    "flysfo:actual_timestamp": -1,
    "flysfo:airline": "UA",
    "flysfo:date": "2026-08-01",
    "flysfo:estimated_timestamp": 1785593520,
    "flysfo:event": "A",
    "flysfo:flight_number": "UA2718",
    "flysfo:gate": "E11",
    "flysfo:journey": "SBP-SFO",
    "flysfo:scheduled_timestamp": 1785594240,
    "flysfo:timestamp": 1785594240,
    "geom:area": 0,
    "geom:bbox": "-122.370943,35.236920,-120.643230,37.617990",
    "geom:latitude": 36.427454999999995,
    "geom:longitude": -121.5070865,
    "iata:airline": "UA",
    "icao:aircraft": "A319",
    "icao:airline": "UAL",
    "lbl:latitude": 37.619367,
    "lbl:longitude": -122.38387,
    "sfomuseum:aircraft_id": 1159289407,
    "sfomuseum:airline_id": 1159285413,
    "sfomuseum:arrival_id": 102527513,
    "sfomuseum:departure_id": 102527351,
    "sfomuseum:flight_id": "20260801-A-UAL-2718",
    "sfomuseum:flight_number": [
      "UAL2718",
      "UA2718"
    ],
    "sfomuseum:placetype": "flight",
    "src:geom": "flysfo",
    "src:geom_alt": [
      "swim-path",
      "swim-approach"
    ],
    "swim:tail_number": "N831UA",
    "wof:belongsto": [
      1947304067,
      102527513,
      1947304511,
      102191575,
      85633793,
      102087579,
      85922583,
      554784711,
      85688637,
      1947304527,
      1947304447,
      102085387
    ],
    "wof:concordances": {
      "swim:flight_ref": "153428163"
    },
    "wof:country": "US",
    "wof:created": 1785686887,
    "wof:geomhash": "2af895d7dc7816e28cbc6da81f2a802b",
    "wof:hierarchy": [
      {
        "building_id": 1947304067,
        "campus_id": 102527513,
        "concourse_id": 1947304511,
        "continent_id": 102191575,
        "country_id": 85633793,
        "county_id": 102087579,
        "custom_id": 2032058899,
        "flight_id": 2032058899,
        "locality_id": 85922583,
        "postalcode_id": 554784711,
        "region_id": 85688637,
        "venue_id": 1947304527,
        "wing_id": 1947304447
      },
      {
        "building_id": 1947304067,
        "campus_id": 102527513,
        "concourse_id": 1947304511,
        "continent_id": 102191575,
        "country_id": 85633793,
        "county_id": 102085387,
        "custom_id": 2032058899,
        "flight_id": 2032058899,
        "region_id": 85688637,
        "venue_id": 1947304527,
        "wing_id": 1947304447
      }
    ],
    "wof:id": 2032058899,
    "wof:involves": [
      102527351,
      1159285413,
      1947304527,
      1159289407,
      102527513
    ],
    "wof:lastmodified": 1785687535,
    "wof:name": "UA2718 (SBP-SFO)",
    "wof:parent_id": 1947304527,
    "wof:placetype": "custom",
    "wof:placetype_alt": [
      "flight"
    ],
    "wof:repo": "sfomuseum-data-flights-2026-08",
    "wof:superseded_by": [],
    "wof:supersedes": []
  },
  "bbox": [
    -122.370943,
    35.23692,
    -120.64323,
    37.61799
  ],
  "geometry": {"coordinates":[[-120.64323,35.23692],[-122.370943,37.61799]],"type":"MultiPoint"}
}
