{
  "id": 2047981449,
  "type": "Feature",
  "properties": {
    "geom:area": 0,
    "geom:bbox": "-123.330110,37.631930,-122.406180,38.509000",
    "geom:latitude": 38.03004737930286,
    "geom:longitude": -122.90086000957551,
    "src:alt_label": "swim-takeoff",
    "src:geom": "swim",
    "swim:elevations": [
      396,
      753,
      960,
      1045,
      1449,
      1586,
      2133,
      2541,
      2705,
      2936,
      3205,
      3376,
      3542,
      3866,
      4189,
      4501,
      4822,
      5100,
      5382,
      5610,
      5863,
      6093,
      6192,
      6553,
      6645
    ],
    "swim:geom": "takeoff",
    "swim:timestamps": [
      1786845538,
      1786845568,
      1786845598,
      1786845614,
      1786845656,
      1786845668,
      1786845713,
      1786845748,
      1786845764,
      1786845785,
      1786845818,
      1786845851,
      1786845884,
      1786845917,
      1786845950,
      1786845982,
      1786846012,
      1786846042,
      1786846072,
      1786846102,
      1786846132,
      1786846163,
      1786846178,
      1786846221,
      1786846233
    ],
    "wof:geomhash": "2a6ccb39f171e2723ff1a514ddba72bd",
    "wof:id": 2047981449,
    "wof:repo": "sfomuseum-data-flights-2026-08"
  },
  "bbox": [
    -123.33011,
    37.63193,
    -122.40618,
    38.509
  ],
  "geometry": {"type":"LineString","coordinates":[[-122.40618,37.63193],[-122.43636,37.64518],[-122.47165,37.66097],[-122.49244,37.6701],[-122.54851,37.70156],[-122.56505,37.71118],[-122.62827,37.74822],[-122.67953,37.77847],[-122.70192,37.79167],[-122.73292,37.80984],[-122.77513,37.84565],[-122.81195,37.89013],[-122.8516,37.93811],[-122.89327,37.98842],[-122.93591,38.03957],[-122.97816,38.09018],[-123.0184,38.13823],[-123.05909,38.18676],[-123.10042,38.23607],[-123.14223,38.28582],[-123.18442,38.33595],[-123.22885,38.38819],[-123.25063,38.41346],[-123.31244,38.48833],[-123.33011,38.509]]}
}
