{
  "id": 2032105115,
  "type": "Feature",
  "properties": {
    "geom:area": 0,
    "geom:bbox": "-122.409780,37.623890,-121.297140,37.990760",
    "geom:latitude": 37.93164270855679,
    "geom:longitude": -121.96973669208386,
    "src:alt_label": "swim-takeoff",
    "src:geom": "swim",
    "swim:elevations": [
      152,
      401,
      630,
      1027,
      1140,
      1808,
      2291,
      2463,
      2717,
      2859,
      3197,
      3318,
      3417,
      3508,
      3577,
      3777,
      3895,
      4121,
      4262,
      4863,
      5417,
      5440,
      6140,
      6470,
      6953,
      7003
    ],
    "swim:geom": "takeoff",
    "swim:timestamps": [
      1785881966,
      1785881989,
      1785882010,
      1785882050,
      1785882065,
      1785882140,
      1785882178,
      1785882193,
      1785882215,
      1785882227,
      1785882257,
      1785882278,
      1785882305,
      1785882320,
      1785882331,
      1785882361,
      1785882385,
      1785882411,
      1785882425,
      1785882494,
      1785882565,
      1785882572,
      1785882624,
      1785882652,
      1785882717,
      1785882724
    ],
    "wof:geomhash": "a44a093a6efa74d960ca27c195d34f05",
    "wof:id": 2032105115,
    "wof:repo": "sfomuseum-data-flights-2026-08"
  },
  "bbox": [
    -122.40978,
    37.62389,
    -121.29714,
    37.99076
  ],
  "geometry": {"type":"LineString","coordinates":[[-122.38728,37.62389],[-122.40671,37.63462],[-122.40978,37.65155],[-122.3796,37.6807],[-122.36736,37.69285],[-122.34962,37.77662],[-122.37514,37.82244],[-122.38324,37.84236],[-122.38629,37.87133],[-122.38581,37.88859],[-122.37461,37.92827],[-122.34628,37.94828],[-122.29603,37.95925],[-122.26681,37.96447],[-122.24504,37.96855],[-122.18141,37.981],[-122.12759,37.98768],[-122.06553,37.98864],[-122.03322,37.98865],[-121.86652,37.98946],[-121.68902,37.99019],[-121.67164,37.99024],[-121.54277,37.99043],[-121.47476,37.99043],[-121.31318,37.99076],[-121.29714,37.99075]]}
}
