{
  "id": 2032131413,
  "type": "Feature",
  "properties": {
    "geom:area": 0,
    "geom:bbox": "-122.673020,37.382050,-122.118460,38.486320",
    "geom:latitude": 37.78627250537022,
    "geom:longitude": -122.45494847257089,
    "src:alt_label": "swim-approach",
    "src:geom": "swim",
    "swim:elevations": [
      7476,
      7279,
      6874,
      6720,
      6287,
      6157,
      5846,
      5451,
      5317,
      5273,
      4928,
      4803,
      4672,
      4466,
      4274,
      3986,
      3750,
      3603,
      3353,
      3353,
      3353,
      3353,
      3353,
      3308,
      3276,
      2945,
      2906,
      2579,
      2509,
      2217,
      2132,
      1937,
      1711,
      1524,
      1456,
      1408,
      1132,
      1067,
      821,
      517,
      340,
      299,
      249,
      139,
      0
    ],
    "swim:geom": "approach",
    "swim:timestamps": [
      1786026295,
      1786026314,
      1786026354,
      1786026369,
      1786026415,
      1786026427,
      1786026463,
      1786026506,
      1786026522,
      1786026526,
      1786026564,
      1786026579,
      1786026595,
      1786026618,
      1786026640,
      1786026684,
      1786026716,
      1786026735,
      1786026805,
      1786026828,
      1786026867,
      1786026894,
      1786026928,
      1786026954,
      1786026963,
      1786027015,
      1786027020,
      1786027075,
      1786027099,
      1786027132,
      1786027147,
      1786027180,
      1786027217,
      1786027274,
      1786027316,
      1786027322,
      1786027378,
      1786027396,
      1786027438,
      1786027496,
      1786027528,
      1786027538,
      1786027550,
      1786027579,
      1786027620
    ],
    "wof:geomhash": "34d98093da0af81a688373ea755ce14f",
    "wof:id": 2032131413,
    "wof:repo": "sfomuseum-data-flights-2026-08"
  },
  "bbox": [
    -122.67302,
    37.38205,
    -122.11846,
    38.48632
  ],
  "geometry": {"type":"LineString","coordinates":[[-122.6729,38.48632],[-122.67238,38.45006],[-122.67172,38.37777],[-122.67168,38.35122],[-122.67185,38.27014],[-122.67199,38.25031],[-122.67239,38.18866],[-122.67238,38.11595],[-122.67254,38.09059],[-122.6726,38.08245],[-122.67289,38.0208],[-122.67295,37.99725],[-122.673,37.9723],[-122.67302,37.93736],[-122.66765,37.90352],[-122.61922,37.84771],[-122.58193,37.8133],[-122.5614,37.79414],[-122.49299,37.72951],[-122.47127,37.70896],[-122.43498,37.67487],[-122.40901,37.65039],[-122.37705,37.62027],[-122.35639,37.59437],[-122.352,37.58522],[-122.32183,37.5324],[-122.31832,37.52671],[-122.31952,37.46779],[-122.32558,37.44297],[-122.33183,37.40821],[-122.32337,37.39284],[-122.28168,37.38205],[-122.23123,37.39475],[-122.15445,37.41507],[-122.12169,37.45265],[-122.11846,37.45908],[-122.14428,37.51376],[-122.15999,37.52927],[-122.20897,37.55058],[-122.26918,37.57642],[-122.29806,37.5887],[-122.30575,37.59188],[-122.31489,37.59576],[-122.33524,37.60433],[-122.36227,37.61548]]}
}
