{
  "id": 2032092213,
  "type": "Feature",
  "properties": {
    "geom:area": 0,
    "geom:bbox": "-156.033333,19.750000,-104.683333,40.845833",
    "geom:latitude": 34.24223580785343,
    "geom:longitude": -126.64384687000752,
    "src:alt_label": "swim-path",
    "src:geom": "swim",
    "swim:altitudes": [
      "005",
      "010",
      "033",
      "047",
      "063",
      "090",
      "110",
      "122",
      "142",
      "164",
      "183",
      "197",
      "225",
      "237",
      "249",
      "263",
      "290",
      "296",
      "301",
      "308",
      "314",
      "321",
      "325",
      "332",
      "336",
      "347",
      "352",
      "357",
      "361",
      "366",
      "370C",
      "370C",
      "370C",
      "370C",
      "370C",
      "370C",
      "370C",
      "370C",
      "370C",
      "370C",
      "370C",
      "370C",
      "370C",
      "370C",
      "370C",
      "370C",
      "370C",
      "370C",
      "370C",
      "370C",
      "370C",
      "370C",
      "370C",
      "370C",
      "370C",
      "370C",
      "370C",
      "370C",
      "370C",
      "370C",
      "370C",
      "370C",
      "370C",
      "370C",
      "370C",
      "370C",
      "370C",
      "370C",
      "370C",
      "370C",
      "370C",
      "370C",
      "370C",
      "370C",
      "370C",
      "370C",
      "370C",
      "370C",
      "370C",
      "370C",
      "370C",
      "370C",
      "370C",
      "370C",
      "370C",
      "370C",
      "370C",
      "370C",
      "370C",
      "370C",
      "370C",
      "370C",
      "370C",
      "370C",
      "370C",
      "370C",
      "370C",
      "370C",
      "370C",
      "370C",
      "370C",
      "370C",
      "370C",
      "370C",
      "370C",
      "370C",
      "370C",
      "370C",
      "370C",
      "370C",
      "370C",
      "370C",
      "369",
      "368",
      "359",
      "350C",
      "350C",
      "350C",
      "350C",
      "350",
      "345",
      "335",
      "318",
      "266",
      "244",
      "233",
      "228",
      "215",
      "206",
      "198",
      "192",
      "185",
      "177",
      "170",
      "163",
      "157",
      "152",
      "142",
      "137",
      "132",
      "129",
      "125",
      "119",
      "116",
      "110",
      "110",
      "102",
      "100",
      "100",
      "100",
      "100",
      "100",
      "100",
      "100",
      "100",
      "100",
      "100",
      "100",
      "100",
      "100",
      "100",
      "097",
      "085",
      "078",
      "075",
      "069",
      "065",
      "061",
      "058",
      "054",
      "053",
      "004",
      "025",
      "037",
      "052",
      "075",
      "098",
      "119",
      "139",
      "156",
      "173",
      "189",
      "202",
      "217",
      "246",
      "256",
      "268",
      "279",
      "288",
      "297",
      "317",
      "320C",
      "320C",
      "320C",
      "320C",
      "320C",
      "320C",
      "320C",
      "320C",
      "320C",
      "330",
      "330",
      "330",
      "330",
      "330",
      "330",
      "330",
      "330",
      "330",
      "330",
      "330",
      "330T",
      "330T",
      "330T",
      "330T",
      "330T",
      "329T",
      "305T",
      "258T",
      "234T",
      "212T",
      "190T",
      "147T",
      "126T",
      "107T",
      "102T",
      "080T",
      "070T",
      "060T",
      "039T",
      "021T",
      "012T",
      "005T",
      "002"
    ],
    "swim:geom": "path",
    "swim:speeds": [
      159,
      161,
      172,
      213,
      275,
      286,
      310,
      364,
      378,
      393,
      406,
      415,
      437,
      446,
      454,
      460,
      487,
      490,
      491,
      492,
      492,
      493,
      492,
      492,
      493,
      494,
      493,
      494,
      493,
      495,
      494,
      492,
      493,
      492,
      493,
      492,
      492,
      492,
      497,
      493,
      496,
      497,
      499,
      499,
      501,
      501,
      502,
      503,
      503,
      503,
      504,
      505,
      506,
      506,
      507,
      507,
      507,
      507,
      507,
      507,
      508,
      508,
      508,
      509,
      511,
      512,
      513,
      513,
      513,
      513,
      512,
      511,
      511,
      512,
      513,
      513,
      512,
      512,
      512,
      512,
      513,
      513,
      513,
      512,
      513,
      512,
      510,
      509,
      509,
      509,
      509,
      509,
      510,
      511,
      511,
      511,
      511,
      512,
      511,
      509,
      509,
      508,
      507,
      506,
      505,
      504,
      503,
      502,
      502,
      502,
      501,
      501,
      500,
      500,
      499,
      500,
      500,
      501,
      501,
      501,
      500,
      501,
      502,
      454,
      441,
      432,
      434,
      410,
      389,
      393,
      380,
      373,
      346,
      342,
      340,
      340,
      335,
      332,
      333,
      329,
      331,
      328,
      314,
      307,
      296,
      265,
      253,
      255,
      254,
      254,
      254,
      257,
      255,
      257,
      261,
      264,
      261,
      257,
      258,
      253,
      256,
      257,
      223,
      209,
      202,
      197,
      163,
      156,
      154,
      158,
      91,
      169,
      184,
      217,
      275,
      288,
      290,
      371,
      383,
      392,
      402,
      414,
      427,
      434,
      445,
      451,
      458,
      465,
      472,
      477,
      478,
      473,
      472,
      469,
      469,
      469,
      468,
      467,
      467,
      468,
      460,
      460,
      460,
      460,
      460,
      460,
      470,
      470,
      470,
      470,
      470,
      470,
      470,
      470,
      470,
      470,
      470,
      460,
      440,
      430,
      410,
      400,
      380,
      370,
      360,
      310,
      270,
      270,
      260,
      230,
      200,
      160,
      140,
      140
    ],
    "swim:timestamps": [
      1785764127,
      1785764150,
      1785764210,
      1785764270,
      1785764330,
      1785764390,
      1785764450,
      1785764510,
      1785764570,
      1785764630,
      1785764690,
      1785764750,
      1785764870,
      1785764930,
      1785764990,
      1785765050,
      1785765231,
      1785765265,
      1785765291,
      1785765325,
      1785765351,
      1785765385,
      1785765411,
      1785765445,
      1785765471,
      1785765531,
      1785765565,
      1785765591,
      1785765625,
      1785765651,
      1785765686,
      1785765711,
      1785765746,
      1785765771,
      1785765806,
      1785765831,
      1785765866,
      1785765891,
      1785765926,
      1785765951,
      1785765986,
      1785766046,
      1785766071,
      1785766106,
      1785766131,
      1785766166,
      1785766226,
      1785766252,
      1785766286,
      1785766312,
      1785766346,
      1785766372,
      1785766407,
      1785766432,
      1785766467,
      1785766492,
      1785766527,
      1785766552,
      1785766587,
      1785766612,
      1785766707,
      1785766767,
      1785766792,
      1785766887,
      1785766947,
      1785767007,
      1785767067,
      1785767127,
      1785767188,
      1785767248,
      1785767308,
      1785767368,
      1785767428,
      1785767488,
      1785767548,
      1785767608,
      1785767668,
      1785767728,
      1785767788,
      1785767848,
      1785767909,
      1785768029,
      1785768089,
      1785768149,
      1785768209,
      1785768329,
      1785768509,
      1785768569,
      1785768630,
      1785768690,
      1785768750,
      1785768804,
      1785768810,
      1785768870,
      1785768924,
      1785768930,
      1785768984,
      1785768990,
      1785769044,
      1785769104,
      1785769110,
      1785769164,
      1785769170,
      1785769224,
      1785769285,
      1785769345,
      1785769351,
      1785769405,
      1785769411,
      1785769465,
      1785769471,
      1785769525,
      1785769585,
      1785769591,
      1785769645,
      1785769705,
      1785769711,
      1785769765,
      1785769825,
      1785769885,
      1785769945,
      1785770005,
      1785770066,
      1785770217,
      1785770306,
      1785770340,
      1785770366,
      1785770426,
      1785770454,
      1785770486,
      1785770514,
      1785770546,
      1785770574,
      1785770606,
      1785770634,
      1785770666,
      1785770694,
      1785770754,
      1785770787,
      1785770812,
      1785770847,
      1785770867,
      1785770907,
      1785770928,
      1785770967,
      1785770994,
      1785771054,
      1785771087,
      1785771147,
      1785771174,
      1785771207,
      1785771234,
      1785771267,
      1785771288,
      1785771327,
      1785771348,
      1785771387,
      1785771408,
      1785771447,
      1785771468,
      1785771507,
      1785771528,
      1785771588,
      1785771628,
      1785771648,
      1785771688,
      1785771714,
      1785771748,
      1785771774,
      1785771808,
      1785771868,
      1785801398,
      1785801458,
      1785801518,
      1785801578,
      1785801638,
      1785801698,
      1785801818,
      1785801879,
      1785801939,
      1785801999,
      1785802059,
      1785802119,
      1785802179,
      1785802299,
      1785802359,
      1785802419,
      1785802479,
      1785802539,
      1785802599,
      1785802720,
      1785802780,
      1785802840,
      1785803020,
      1785803080,
      1785803140,
      1785803200,
      1785803260,
      1785803320,
      1785803381,
      1785815532,
      1785815592,
      1785815652,
      1785815712,
      1785815772,
      1785815832,
      1785816072,
      1785816132,
      1785816192,
      1785816252,
      1785816312,
      1785816492,
      1785816552,
      1785816613,
      1785816673,
      1785816733,
      1785816793,
      1785816853,
      1785816973,
      1785817033,
      1785817093,
      1785817153,
      1785817273,
      1785817333,
      1785817393,
      1785817453,
      1785817573,
      1785817633,
      1785817693,
      1785817813,
      1785817933,
      1785817993,
      1785818053,
      1785818078
    ],
    "wof:geomhash": "c7998034762004c6c02447d85e87493c",
    "wof:id": 2032092213,
    "wof:repo": "sfomuseum-data-flights-2026-08"
  },
  "bbox": [
    -156.03333333333333,
    19.75,
    -104.68333333333334,
    40.84583333333334
  ],
  "geometry": {"type":"LineString","coordinates":[[-122.38333333333334,37.61666666666667],[-122.39666666666668,37.62833333333333],[-122.38083333333333,37.67027777777778],[-122.34416666666667,37.71472222222223],[-122.3536111111111,37.782777777777774],[-122.38694444444445,37.85722222222223],[-122.37083333333332,37.93833333333333],[-122.26694444444445,37.987500000000004],[-122.14888888888889,38.035555555555554],[-122.00166666666667,38.094166666666666],[-121.87222222222222,38.145833333333336],[-121.76194444444444,38.189722222222215],[-121.49055555555556,38.29666666666667],[-121.35555555555555,38.3575],[-121.23111111111112,38.43472222222222],[-121.08027777777778,38.52777777777778],[-120.68111111111112,38.77194444444444],[-120.59972222222221,38.81916666666667],[-120.5411111111111,38.856944444444444],[-120.46111111111111,38.905],[-120.40305555555557,38.94027777777777],[-120.32138888888889,38.98777777777778],[-120.26444444444445,39.02388888888889],[-120.18222222222222,39.07083333333334],[-120.12333333333332,39.108333333333334],[-119.98611111111111,39.19027777777777],[-119.90222222222222,39.23916666666667],[-119.84388888888888,39.27472222222222],[-119.76083333333334,39.32222222222222],[-119.70333333333333,39.35805555555556],[-119.61944444444444,39.407222222222224],[-119.56222222222222,39.441111111111105],[-119.5075,39.47277777777778],[-119.42,39.52444444444444],[-119.36611111111111,39.555277777777775],[-119.27916666666667,39.60666666666667],[-119.2238888888889,39.638333333333335],[-119.13527777777779,39.69027777777777],[-119.05194444444444,39.73833333333334],[-118.99194444444444,39.77305555555555],[-118.90861111111111,39.821111111111115],[-118.75722222222223,39.90083333333333],[-118.69111111111111,39.92777777777778],[-118.6275,39.95388888888889],[-118.52916666666667,39.99388888888889],[-118.46583333333334,40.019444444444446],[-118.2761111111111,40.096111111111114],[-118.23805555555556,40.111666666666665],[-118.11472222222221,40.16111111111111],[-118.07444444444444,40.176944444444445],[-117.94833333333334,40.21611111111111],[-117.90361111111112,40.22638888888889],[-117.76944444444445,40.257777777777775],[-117.69583333333334,40.275],[-117.59222222222222,40.29888888888889],[-117.51777777777778,40.316111111111105],[-117.41583333333334,40.339444444444446],[-117.34166666666667,40.35638888888889],[-117.23944444444444,40.37972222222222],[-117.16638888888889,40.396388888888886],[-116.91444444444446,40.45305555555556],[-116.72888888888889,40.49444444444445],[-116.65305555555557,40.51111111111111],[-116.36666666666666,40.568333333333335],[-116.18138888888889,40.58361111111111],[-115.9961111111111,40.59777777777778],[-115.80722222222222,40.611666666666665],[-115.62222222222222,40.625277777777775],[-115.43444444444445,40.63861111111111],[-115.25138888888888,40.651111111111106],[-115.06277777777777,40.663888888888884],[-114.87666666666667,40.67611111111111],[-114.68416666666667,40.68861111111111],[-114.4975,40.70027777777778],[-114.31166666666667,40.70722222222223],[-114.1261111111111,40.71388888888889],[-113.9375,40.72027777777778],[-113.75138888888888,40.72666666666667],[-113.56333333333333,40.74111111111111],[-113.37777777777777,40.755],[-113.19222222222223,40.76861111111111],[-112.81722222222221,40.79527777777778],[-112.63083333333333,40.808055555555555],[-112.44472222222223,40.82083333333334],[-112.25805555555556,40.83277777777778],[-111.88972222222223,40.84583333333334],[-111.30194444444444,40.81583333333333],[-111.11777777777777,40.80583333333333],[-110.93083333333334,40.79527777777778],[-110.74638888888889,40.78472222222222],[-110.5611111111111,40.77388888888889],[-110.41305555555556,40.764722222222225],[-110.40666666666667,40.76444444444444],[-110.20277777777778,40.751666666666665],[-110.03611111111111,40.74111111111111],[-110.01694444444445,40.73972222222222],[-109.85083333333333,40.72888888888889],[-109.82833333333333,40.727222222222224],[-109.66527777777779,40.71638888888889],[-109.45805555555556,40.702222222222225],[-109.45805555555556,40.702222222222225],[-109.27555555555556,40.68944444444444],[-109.27305555555556,40.689166666666665],[-109.12972222222221,40.678888888888885],[-108.94500000000001,40.66611111111111],[-108.76055555555556,40.654444444444444],[-108.71805555555555,40.651666666666664],[-108.5825,40.64277777777778],[-108.53583333333333,40.63944444444444],[-108.40138888888889,40.63027777777778],[-108.35555555555555,40.62722222222222],[-108.19333333333334,40.615833333333335],[-108.01305555555555,40.60305555555556],[-107.99361111111111,40.60166666666667],[-107.83777777777777,40.59027777777778],[-107.65805555555556,40.57694444444445],[-107.61999999999999,40.57416666666667],[-107.47722222222222,40.56333333333333],[-107.29694444444445,40.549166666666665],[-107.11527777777778,40.535],[-106.935,40.52055555555555],[-106.75472222222223,40.505833333333335],[-106.57,40.49055555555556],[-106.11666666666666,40.45],[-105.89555555555556,40.42972222222222],[-105.8,40.416666666666664],[-105.74166666666667,40.405277777777776],[-105.59222222222222,40.38166666666667],[-105.51666666666667,40.36666666666667],[-105.44250000000001,40.3575],[-105.38333333333334,40.35],[-105.31888888888888,40.316944444444445],[-105.26666666666667,40.28333333333333],[-105.22055555555556,40.25888888888889],[-105.16666666666667,40.233333333333334],[-105.12222222222222,40.200833333333335],[-105.08333333333333,40.166666666666664],[-104.98333333333333,40.11666666666667],[-104.94277777777778,40.078611111111115],[-104.9,40.05],[-104.8586111111111,40.013333333333335],[-104.83333333333333,39.983333333333334],[-104.80555555555556,39.93888888888888],[-104.8,39.9],[-104.80749999999999,39.849444444444444],[-104.8,39.81666666666667],[-104.81666666666666,39.75],[-104.81055555555555,39.70722222222223],[-104.81222222222222,39.6375],[-104.81666666666666,39.6],[-104.81388888888888,39.56722222222223],[-104.81666666666666,39.53333333333333],[-104.81555555555555,39.49527777777778],[-104.81666666666666,39.46666666666667],[-104.79027777777777,39.43055555555555],[-104.75,39.43333333333333],[-104.715,39.45583333333334],[-104.7,39.483333333333334],[-104.6913888888889,39.524166666666666],[-104.68333333333334,39.55],[-104.69055555555556,39.57777777777778],[-104.68333333333334,39.61666666666667],[-104.68333333333334,39.68333333333333],[-104.6888888888889,39.72361111111111],[-104.68333333333334,39.75],[-104.68833333333333,39.778888888888886],[-104.68333333333334,39.8],[-104.68777777777778,39.823055555555555],[-104.68333333333334,39.85],[-104.68722222222223,39.865833333333335],[-104.68583333333333,39.888333333333335],[-122.38916666666667,37.624722222222225],[-122.44611111111111,37.650277777777774],[-122.50722222222223,37.67833333333333],[-122.59277777777777,37.705555555555556],[-122.69166666666668,37.70611111111111],[-122.7675,37.651666666666664],[-122.9413888888889,37.526944444444446],[-123.04194444444444,37.45388888888889],[-123.14250000000001,37.38166666666667],[-123.24888888888889,37.3075],[-123.35555555555555,37.23027777777778],[-123.46555555555555,37.14972222222222],[-123.57777777777777,37.06722222222223],[-123.80416666666666,36.9],[-123.91888888888889,36.815],[-124.03722222222223,36.72666666666667],[-124.15472222222223,36.63916666666667],[-124.27416666666666,36.549166666666665],[-124.3938888888889,36.45916666666667],[-124.635,36.276666666666664],[-124.75611111111111,36.1875],[-124.8913888888889,36.11694444444444],[-125.30388888888889,35.914722222222224],[-125.44111111111111,35.84638888888889],[-125.5761111111111,35.77916666666667],[-125.71166666666667,35.71138888888889],[-125.8475,35.64333333333333],[-125.98444444444445,35.575],[-126.12083333333332,35.525555555555556],[-152.63333333333333,23],[-152.73333333333332,22.916666666666668],[-152.83333333333334,22.833333333333332],[-152.93333333333334,22.75],[-153.03333333333333,22.666666666666668],[-153.15,22.566666666666666],[-153.55,22.216666666666665],[-153.65,22.133333333333333],[-153.75,22.033333333333335],[-153.85,21.95],[-153.95,21.866666666666667],[-154.26666666666668,21.6],[-154.36666666666667,21.5],[-154.46666666666667,21.416666666666668],[-154.56666666666666,21.316666666666666],[-154.66666666666666,21.233333333333334],[-154.76666666666668,21.15],[-154.86666666666667,21.066666666666666],[-155.06666666666666,20.883333333333333],[-155.15,20.8],[-155.25,20.716666666666665],[-155.33333333333334,20.65],[-155.5,20.5],[-155.58333333333334,20.433333333333334],[-155.65,20.35],[-155.71666666666667,20.3],[-155.83333333333334,20.183333333333334],[-155.88333333333333,20.133333333333333],[-155.93333333333334,20.083333333333332],[-156.01666666666668,19.966666666666665],[-156.03333333333333,19.85],[-156.03333333333333,19.8],[-156.03333333333333,19.766666666666666],[-156.03333333333333,19.75]]}
}
