{
  "id": 2047973419,
  "type": "Feature",
  "properties": {
    "geom:area": 0,
    "geom:bbox": "-122.404830,37.624940,-121.260780,37.955090",
    "geom:latitude": 37.81279956179364,
    "geom:longitude": -121.85049217911967,
    "src:alt_label": "swim-takeoff",
    "src:geom": "swim",
    "swim:elevations": [
      183,
      549,
      771,
      1029,
      1502,
      1972,
      2152,
      2608,
      2791,
      3127,
      3262,
      3449,
      3575,
      3656,
      3973,
      4024,
      4102,
      4321,
      4644,
      4952,
      5113,
      5529,
      5795,
      5891,
      6155
    ],
    "swim:geom": "takeoff",
    "swim:timestamps": [
      1786740085,
      1786740118,
      1786740144,
      1786740173,
      1786740208,
      1786740238,
      1786740250,
      1786740281,
      1786740297,
      1786740326,
      1786740347,
      1786740388,
      1786740412,
      1786740424,
      1786740459,
      1786740462,
      1786740472,
      1786740487,
      1786740523,
      1786740559,
      1786740577,
      1786740622,
      1786740654,
      1786740666,
      1786740698
    ],
    "wof:geomhash": "a340dd64a520c6873cb3b3f82bffa27f",
    "wof:id": 2047973419,
    "wof:repo": "sfomuseum-data-flights-2026-08"
  },
  "bbox": [
    -122.40483,
    37.62494,
    -121.26078,
    37.95509
  ],
  "geometry": {"type":"LineString","coordinates":[[-122.38919,37.62494],[-122.40483,37.6455],[-122.38195,37.66224],[-122.34208,37.67527],[-122.28984,37.69157],[-122.24371,37.70704],[-122.22516,37.71354],[-122.18036,37.73506],[-122.15805,37.74646],[-122.10951,37.75906],[-122.0724,37.76742],[-121.99251,37.78619],[-121.94344,37.79783],[-121.91714,37.80399],[-121.83691,37.82274],[-121.83002,37.82433],[-121.80768,37.82953],[-121.77315,37.8375],[-121.68976,37.85679],[-121.60432,37.8766],[-121.56137,37.88646],[-121.45219,37.91144],[-121.37216,37.9297],[-121.34079,37.93683],[-121.26078,37.95509]]}
}
