{
  "id": 2047879093,
  "type": "Feature",
  "properties": {
    "geom:area": 0,
    "geom:bbox": "-122.394444,37.627222,-70.899722,43.485833",
    "geom:latitude": 42.03894438159341,
    "geom:longitude": -96.8090426466996,
    "src:alt_label": "swim-path",
    "src:geom": "swim",
    "swim:altitudes": [
      "007",
      "022",
      "036",
      "054",
      "073",
      "092",
      "106",
      "114",
      "121",
      "134",
      "149",
      "162",
      "175",
      "187",
      "200",
      "213",
      "230",
      "239",
      "252",
      "258",
      "265",
      "271",
      "277",
      "283",
      "289",
      "299",
      "306",
      "313",
      "321",
      "330C",
      "330C",
      "330C",
      "330C",
      "330C",
      "330C",
      "330C",
      "331C",
      "330C",
      "330C",
      "330C",
      "330C",
      "330C",
      "330C",
      "330C",
      "330C",
      "330C",
      "330C",
      "330C",
      "330C",
      "330C",
      "330C",
      "330C",
      "330C",
      "330C",
      "330C",
      "330C",
      "330C",
      "330C",
      "330C",
      "330C",
      "330C",
      "330C",
      "330C",
      "330C",
      "330C",
      "330C",
      "330C",
      "330C",
      "330C",
      "330C",
      "330",
      "333",
      "340",
      "348C",
      "350C",
      "350C",
      "350C",
      "350C",
      "350C",
      "350C",
      "350C",
      "350C",
      "350C",
      "350C",
      "350C",
      "350C",
      "350C",
      "350C",
      "350C",
      "350C",
      "350C",
      "350C",
      "350C",
      "350C",
      "350C",
      "350C",
      "350C",
      "350C",
      "350C",
      "350C",
      "350C",
      "350C",
      "350C",
      "350C",
      "350C",
      "350C",
      "350C",
      "350C",
      "350C",
      "350C",
      "350C",
      "350C",
      "350C",
      "350C",
      "350C",
      "350C",
      "350C",
      "350C",
      "350C",
      "350C",
      "350C",
      "350C",
      "350C",
      "350C",
      "350C",
      "350C",
      "350C",
      "350C",
      "350C",
      "350C",
      "350C",
      "350C",
      "350C",
      "350C",
      "350C",
      "350C",
      "350C",
      "350C",
      "350C",
      "350C",
      "350C",
      "350C",
      "350C",
      "350C",
      "350C",
      "350C",
      "350C",
      "350C",
      "350C",
      "350C",
      "350C",
      "350C",
      "350C",
      "350C",
      "350C",
      "350C",
      "350C",
      "350C",
      "350C",
      "350C",
      "350C",
      "350C",
      "350C",
      "350C",
      "350C",
      "350C",
      "350C",
      "350C",
      "350C",
      "350C",
      "350C",
      "350C",
      "350C",
      "350C",
      "350C",
      "351C",
      "350C",
      "350C",
      "350C",
      "350C",
      "350C",
      "350C",
      "350C",
      "350C",
      "350C",
      "350C",
      "350C",
      "350C",
      "350C",
      "350C",
      "351C",
      "351C",
      "351C",
      "350C",
      "350C",
      "350C",
      "350C",
      "350C",
      "350C",
      "350C",
      "350C",
      "350C",
      "350C",
      "350C",
      "350C",
      "350C",
      "350C",
      "351C",
      "351C",
      "351C",
      "351C",
      "350C",
      "350C",
      "350C",
      "350C",
      "350C",
      "350C",
      "350C",
      "350C",
      "350C",
      "350C",
      "350C",
      "350C",
      "350C",
      "350C",
      "350C",
      "351C",
      "350C",
      "350C",
      "350C",
      "350C",
      "350C",
      "350C",
      "351C",
      "350C",
      "350C",
      "350C",
      "350C",
      "350C",
      "350C",
      "350C",
      "350C",
      "350C",
      "350C",
      "350C",
      "350C",
      "351C",
      "351C",
      "351C",
      "351C",
      "350C",
      "350C",
      "350C",
      "350C",
      "350C",
      "350C",
      "350C",
      "351C",
      "351C",
      "351C",
      "351C",
      "350C",
      "350C",
      "350C",
      "350C",
      "350C",
      "351C",
      "351C",
      "350C",
      "350C",
      "350C",
      "350C",
      "350C",
      "350C",
      "350C",
      "350C",
      "350C",
      "350C",
      "350C",
      "350C",
      "350C",
      "350C",
      "350C",
      "350C",
      "350C",
      "350C",
      "350C",
      "350C",
      "351C",
      "351C",
      "350C",
      "350C",
      "350C",
      "350C",
      "350C",
      "350C",
      "350C",
      "351C",
      "351C",
      "350C",
      "350C",
      "350C",
      "350C",
      "350C",
      "350C",
      "350C",
      "350C",
      "350C",
      "350C",
      "350C",
      "350C",
      "350C",
      "350C",
      "350C",
      "350C",
      "350C",
      "350C",
      "350C",
      "350C",
      "350C",
      "350C",
      "350C",
      "350C",
      "350C",
      "350C",
      "350C",
      "350C",
      "350C",
      "351C",
      "350C",
      "342",
      "323",
      "310C",
      "310",
      "300",
      "290",
      "281",
      "271",
      "261",
      "251",
      "239",
      "227",
      "211",
      "193",
      "176",
      "157",
      "141",
      "124",
      "109",
      "096",
      "083",
      "069",
      "062",
      "058",
      "054",
      "050",
      "041",
      "040",
      "040",
      "040",
      "040",
      "038",
      "030",
      "030",
      "026",
      "023",
      "016",
      "015",
      "009",
      "007",
      "002",
      "110"
    ],
    "swim:geom": "path",
    "swim:speeds": [
      163,
      219,
      266,
      283,
      286,
      297,
      317,
      362,
      402,
      418,
      426,
      437,
      445,
      450,
      459,
      467,
      461,
      456,
      457,
      458,
      468,
      480,
      486,
      492,
      494,
      497,
      496,
      495,
      498,
      494,
      494,
      493,
      492,
      490,
      491,
      492,
      493,
      494,
      495,
      495,
      496,
      497,
      498,
      498,
      498,
      498,
      498,
      501,
      503,
      504,
      504,
      504,
      503,
      502,
      502,
      501,
      501,
      501,
      501,
      501,
      501,
      501,
      501,
      502,
      503,
      502,
      502,
      502,
      502,
      501,
      501,
      502,
      504,
      498,
      498,
      497,
      497,
      497,
      497,
      497,
      498,
      498,
      498,
      499,
      499,
      501,
      499,
      500,
      500,
      501,
      501,
      501,
      501,
      502,
      502,
      502,
      503,
      504,
      504,
      505,
      505,
      505,
      504,
      504,
      504,
      504,
      504,
      504,
      504,
      504,
      503,
      503,
      503,
      504,
      504,
      504,
      504,
      504,
      504,
      504,
      503,
      503,
      503,
      502,
      503,
      503,
      503,
      503,
      503,
      503,
      503,
      504,
      504,
      505,
      505,
      506,
      506,
      507,
      506,
      506,
      505,
      506,
      509,
      508,
      507,
      507,
      507,
      507,
      508,
      508,
      509,
      508,
      507,
      505,
      506,
      505,
      505,
      505,
      505,
      506,
      507,
      508,
      508,
      507,
      505,
      504,
      504,
      503,
      503,
      503,
      503,
      500,
      497,
      497,
      503,
      505,
      505,
      505,
      508,
      489,
      490,
      492,
      494,
      494,
      494,
      494,
      494,
      495,
      497,
      497,
      500,
      500,
      502,
      502,
      502,
      503,
      503,
      503,
      503,
      503,
      503,
      503,
      504,
      504,
      506,
      506,
      508,
      509,
      510,
      511,
      511,
      512,
      512,
      512,
      512,
      512,
      512,
      512,
      512,
      511,
      510,
      510,
      506,
      505,
      505,
      504,
      503,
      501,
      499,
      497,
      497,
      498,
      501,
      502,
      503,
      502,
      494,
      494,
      492,
      490,
      489,
      487,
      489,
      489,
      490,
      491,
      491,
      491,
      491,
      491,
      490,
      490,
      488,
      487,
      486,
      486,
      487,
      486,
      488,
      487,
      488,
      487,
      488,
      488,
      489,
      492,
      494,
      496,
      495,
      493,
      492,
      494,
      496,
      499,
      500,
      500,
      499,
      498,
      495,
      493,
      492,
      493,
      494,
      495,
      489,
      489,
      490,
      492,
      493,
      492,
      489,
      486,
      487,
      491,
      494,
      496,
      499,
      500,
      501,
      502,
      501,
      500,
      499,
      499,
      497,
      498,
      497,
      496,
      496,
      496,
      495,
      495,
      495,
      495,
      495,
      495,
      496,
      496,
      496,
      493,
      491,
      491,
      490,
      488,
      487,
      487,
      481,
      477,
      475,
      478,
      478,
      472,
      467,
      472,
      488,
      491,
      491,
      493,
      494,
      497,
      498,
      477,
      421,
      409,
      393,
      386,
      372,
      362,
      342,
      313,
      302,
      280,
      263,
      256,
      221,
      219,
      213,
      215,
      214,
      206,
      181,
      179,
      177,
      177,
      180,
      179,
      159,
      160,
      151,
      152,
      143,
      144
    ],
    "swim:timestamps": [
      1786114757,
      1786114817,
      1786114877,
      1786114938,
      1786114998,
      1786115058,
      1786115118,
      1786115178,
      1786115238,
      1786115298,
      1786115358,
      1786115418,
      1786115478,
      1786115538,
      1786115598,
      1786115658,
      1786115719,
      1786115778,
      1786115838,
      1786115898,
      1786115958,
      1786116018,
      1786116078,
      1786116138,
      1786116199,
      1786116259,
      1786116319,
      1786116379,
      1786116439,
      1786116499,
      1786116559,
      1786116679,
      1786116739,
      1786116800,
      1786116859,
      1786116920,
      1786116980,
      1786117040,
      1786117100,
      1786117160,
      1786117220,
      1786117281,
      1786117341,
      1786117401,
      1786117460,
      1786117520,
      1786117580,
      1786117641,
      1786117701,
      1786117761,
      1786117821,
      1786117881,
      1786117941,
      1786118001,
      1786118061,
      1786118121,
      1786118181,
      1786118241,
      1786118301,
      1786118422,
      1786118482,
      1786118542,
      1786118662,
      1786118722,
      1786118782,
      1786118842,
      1786118902,
      1786118962,
      1786119022,
      1786119082,
      1786119143,
      1786119203,
      1786119263,
      1786119323,
      1786119383,
      1786119443,
      1786119503,
      1786119563,
      1786119623,
      1786119683,
      1786119743,
      1786119803,
      1786119863,
      1786119924,
      1786119984,
      1786120008,
      1786120044,
      1786120068,
      1786120104,
      1786120128,
      1786120164,
      1786120189,
      1786120224,
      1786120249,
      1786120284,
      1786120309,
      1786120344,
      1786120369,
      1786120404,
      1786120429,
      1786120464,
      1786120489,
      1786120524,
      1786120549,
      1786120584,
      1786120609,
      1786120645,
      1786120669,
      1786120705,
      1786120729,
      1786120765,
      1786120789,
      1786120825,
      1786120849,
      1786120885,
      1786120910,
      1786120945,
      1786120970,
      1786121005,
      1786121030,
      1786121065,
      1786121090,
      1786121150,
      1786121210,
      1786121270,
      1786121330,
      1786121390,
      1786121450,
      1786121510,
      1786121570,
      1786121630,
      1786121691,
      1786121751,
      1786121811,
      1786121871,
      1786121931,
      1786121991,
      1786122051,
      1786122111,
      1786122171,
      1786122231,
      1786122291,
      1786122300,
      1786122360,
      1786122420,
      1786122480,
      1786122532,
      1786122540,
      1786122592,
      1786122660,
      1786122720,
      1786122780,
      1786122840,
      1786122892,
      1786122960,
      1786123021,
      1786123081,
      1786123141,
      1786123201,
      1786123253,
      1786123261,
      1786123321,
      1786123381,
      1786123441,
      1786123501,
      1786123561,
      1786123621,
      1786123681,
      1786123741,
      1786123802,
      1786123862,
      1786123922,
      1786123982,
      1786124042,
      1786124162,
      1786124222,
      1786124282,
      1786124342,
      1786124462,
      1786124583,
      1786124622,
      1786124643,
      1786124683,
      1786124703,
      1786124743,
      1786124803,
      1786124823,
      1786124863,
      1786124923,
      1786124943,
      1786124983,
      1786125003,
      1786125043,
      1786125063,
      1786125103,
      1786125123,
      1786125163,
      1786125183,
      1786125224,
      1786125244,
      1786125284,
      1786125304,
      1786125344,
      1786125364,
      1786125404,
      1786125424,
      1786125464,
      1786125484,
      1786125524,
      1786125544,
      1786125584,
      1786125604,
      1786125644,
      1786125664,
      1786125704,
      1786125724,
      1786125764,
      1786125784,
      1786125825,
      1786125844,
      1786125904,
      1786125945,
      1786126065,
      1786126125,
      1786126185,
      1786126245,
      1786126305,
      1786126365,
      1786126426,
      1786126486,
      1786126546,
      1786126606,
      1786126666,
      1786126726,
      1786126786,
      1786126846,
      1786126906,
      1786126966,
      1786127027,
      1786127087,
      1786127147,
      1786127153,
      1786127207,
      1786127267,
      1786127327,
      1786127333,
      1786127387,
      1786127393,
      1786127447,
      1786127453,
      1786127507,
      1786127514,
      1786127568,
      1786127634,
      1786127694,
      1786127754,
      1786127814,
      1786127868,
      1786127874,
      1786127928,
      1786127934,
      1786127988,
      1786127994,
      1786128055,
      1786128175,
      1786128235,
      1786128295,
      1786128355,
      1786128415,
      1786128475,
      1786128535,
      1786128595,
      1786128656,
      1786128716,
      1786128776,
      1786128836,
      1786128896,
      1786128956,
      1786129016,
      1786129076,
      1786129136,
      1786129196,
      1786129257,
      1786129317,
      1786129437,
      1786129497,
      1786129557,
      1786129617,
      1786129677,
      1786129737,
      1786129797,
      1786129858,
      1786129918,
      1786129939,
      1786129999,
      1786130038,
      1786130060,
      1786130098,
      1786130120,
      1786130158,
      1786130180,
      1786130240,
      1786130278,
      1786130300,
      1786130338,
      1786130360,
      1786130420,
      1786130459,
      1786130480,
      1786130519,
      1786130540,
      1786130579,
      1786130600,
      1786130639,
      1786130660,
      1786130699,
      1786130721,
      1786130759,
      1786130781,
      1786130819,
      1786130841,
      1786130879,
      1786130901,
      1786130939,
      1786130961,
      1786130999,
      1786131021,
      1786131081,
      1786131141,
      1786131201,
      1786131261,
      1786131321,
      1786131382,
      1786131442,
      1786131502,
      1786131562,
      1786131622,
      1786131682,
      1786131742,
      1786131802,
      1786131862,
      1786131922,
      1786131982,
      1786132043,
      1786132098,
      1786132163,
      1786132218,
      1786132278,
      1786132338,
      1786132398,
      1786132458,
      1786132535,
      1786132573,
      1786132595,
      1786132632,
      1786132655,
      1786132692,
      1786132716,
      1786132752,
      1786132776,
      1786132813,
      1786132836,
      1786132879,
      1786132896,
      1786132938,
      1786132956,
      1786132998,
      1786133016,
      1786133053,
      1786133076,
      1786133113,
      1786133136
    ],
    "wof:geomhash": "203fa517732c92b2f6e9133bd0b117fc",
    "wof:id": 2047879093,
    "wof:repo": "sfomuseum-data-flights-2026-08"
  },
  "bbox": [
    -122.39444444444445,
    37.62722222222222,
    -70.89972222222222,
    43.48583333333333
  ],
  "geometry": {"type":"LineString","coordinates":[[-122.39444444444445,37.62722222222222],[-122.37805555555555,37.66694444444444],[-122.29388888888889,37.69083333333333],[-122.20666666666666,37.72527777777778],[-122.14944444444446,37.79055555555556],[-122.08777777777777,37.85861111111111],[-122.02527777777777,37.927499999999995],[-121.95333333333333,38.00611111111111],[-121.87194444444444,38.09527777777778],[-121.78416666666666,38.19138888888889],[-121.69611111111111,38.286944444444444],[-121.60416666666666,38.386944444444445],[-121.495,38.47805555555556],[-121.36777777777777,38.55583333333333],[-121.23083333333334,38.63944444444444],[-121.09722222222221,38.72027777777778],[-120.9675,38.79861111111111],[-120.85416666666666,38.86666666666667],[-120.72277777777778,38.94333333333333],[-120.59222222222222,39.02222222222222],[-120.45305555555557,39.09666666666667],[-120.31027777777777,39.17361111111111],[-120.16638888888889,39.25194444444445],[-120.02055555555556,39.33027777777778],[-119.87333333333332,39.409166666666664],[-119.72500000000001,39.48833333333334],[-119.57833333333333,39.566111111111105],[-119.43083333333334,39.64388888888889],[-119.29055555555556,39.718611111111116],[-119.13444444444445,39.80027777777777],[-118.9863888888889,39.87722222222222],[-118.6875,40.03138888888889],[-118.57055555555556,40.09166666666667],[-118.39166666666668,40.18388888888889],[-118.2475,40.25833333333333],[-118.09277777777777,40.33694444444445],[-117.94555555555556,40.41166666666666],[-117.79416666666667,40.48777777777778],[-117.64083333333333,40.56361111111111],[-117.48944444444444,40.6375],[-117.33444444444444,40.71277777777778],[-117.17805555555556,40.78777777777778],[-117.02222222222223,40.86194444444445],[-116.86805555555554,40.93555555555555],[-116.71444444444445,41.00694444444444],[-116.55805555555555,41.08083333333334],[-116.4,41.15361111111111],[-116.22027777777778,41.187777777777775],[-116.03916666666666,41.21944444444445],[-115.85749999999999,41.25055555555556],[-115.67277777777778,41.282222222222224],[-115.49166666666667,41.312777777777775],[-115.3125,41.342222222222226],[-115.13027777777778,41.3725],[-114.95083333333334,41.401666666666664],[-114.76444444444445,41.43194444444444],[-114.57833333333333,41.461666666666666],[-114.39444444444445,41.49055555555556],[-114.21472222222222,41.51861111111111],[-113.84916666666666,41.575],[-113.66805555555555,41.602222222222224],[-113.48722222222223,41.62888888888889],[-113.12138888888889,41.683055555555555],[-112.93555555555555,41.709722222222226],[-112.755,41.73555555555556],[-112.5675,41.761944444444445],[-112.38472222222222,41.7875],[-112.19944444444445,41.812777777777775],[-112.01694444444445,41.83777777777778],[-111.83222222222221,41.862500000000004],[-111.68305555555555,41.882222222222225],[-111.49861111111112,41.906388888888884],[-111.31361111111111,41.930277777777775],[-111.12916666666666,41.95388888888889],[-110.94500000000001,41.977222222222224],[-110.74694444444445,42.001666666666665],[-110.56194444444444,42.024166666666666],[-110.38055555555555,42.04611111111111],[-110.19777777777779,42.06777777777778],[-110.0111111111111,42.08972222222222],[-109.82833333333333,42.11083333333333],[-109.64333333333335,42.13194444444444],[-109.45694444444445,42.15277777777778],[-109.2725,42.17333333333333],[-109.08694444444444,42.19361111111111],[-109.01222222222222,42.20166666666667],[-108.89888888888889,42.21388888888889],[-108.82722222222222,42.22138888888889],[-108.71527777777779,42.233333333333334],[-108.63944444444445,42.24111111111111],[-108.52638888888889,42.25277777777778],[-108.45194444444445,42.260555555555555],[-108.33833333333332,42.27222222222222],[-108.26722222222222,42.279444444444444],[-108.15222222222222,42.29055555555556],[-108.07722222222222,42.295833333333334],[-107.96527777777779,42.30222222222222],[-107.89027777777778,42.30722222222222],[-107.77472222222222,42.31472222222222],[-107.70194444444445,42.31944444444445],[-107.58638888888889,42.32694444444445],[-107.51194444444444,42.33166666666667],[-107.39833333333334,42.33888888888889],[-107.32416666666666,42.343333333333334],[-107.20944444444444,42.35027777777778],[-107.13388888888889,42.355000000000004],[-107.0213888888889,42.361666666666665],[-106.94666666666667,42.36611111111111],[-106.83305555555555,42.3725],[-106.78138888888888,42.37555555555556],[-106.66583333333334,42.382222222222225],[-106.59333333333333,42.38611111111111],[-106.4786111111111,42.3925],[-106.40416666666667,42.396388888888886],[-106.29083333333332,42.402499999999996],[-106.21527777777779,42.406388888888884],[-106.1,42.4125],[-106.02694444444444,42.41611111111111],[-105.91305555555556,42.42194444444444],[-105.84027777777777,42.425555555555555],[-105.72527777777778,42.43083333333333],[-105.65,42.43444444444444],[-105.46333333333334,42.44305555555555],[-105.23777777777778,42.45333333333333],[-105.05027777777778,42.46138888888889],[-104.86305555555555,42.46888888888889],[-104.67527777777778,42.475833333333334],[-104.49333333333334,42.48277777777778],[-104.3086111111111,42.48972222222222],[-104.12027777777777,42.49611111111111],[-103.93305555555555,42.49916666666667],[-103.745,42.49638888888889],[-103.55194444444444,42.4925],[-103.36555555555555,42.48916666666667],[-103.17527777777778,42.48527777777778],[-102.98444444444445,42.48111111111111],[-102.795,42.47638888888889],[-102.60277777777777,42.47138888888889],[-102.41444444444446,42.46666666666667],[-102.22305555555556,42.46083333333333],[-102.03416666666666,42.45527777777778],[-101.845,42.44916666666666],[-101.82305555555556,42.447222222222216],[-101.63555555555556,42.439722222222215],[-101.44527777777778,42.42305555555555],[-101.2525,42.407777777777774],[-101.06833333333333,42.39472222222222],[-101.06416666666667,42.39388888888889],[-100.8786111111111,42.37972222222222],[-100.68388888888889,42.36416666666667],[-100.49638888888889,42.35611111111111],[-100.30555555555556,42.365833333333335],[-100.11833333333333,42.37388888888889],[-99.92777777777778,42.382777777777775],[-99.74027777777778,42.39055555555556],[-99.53583333333333,42.399166666666666],[-99.34388888888888,42.406666666666666],[-99.15694444444445,42.41361111111111],[-98.965,42.42027777777778],[-98.79861111111111,42.42583333333333],[-98.77444444444444,42.42666666666666],[-98.58416666666666,42.43277777777777],[-98.39416666666668,42.43888888888888],[-98.20361111111112,42.443888888888885],[-98.015,42.44916666666666],[-97.82666666666667,42.453611111111115],[-97.63583333333334,42.45861111111111],[-97.44888888888889,42.46333333333334],[-97.25888888888889,42.46666666666667],[-97.06916666666666,42.47],[-96.88138888888888,42.47361111111111],[-96.69444444444444,42.476111111111116],[-96.50805555555556,42.47916666666667],[-96.31888888888888,42.481388888888894],[-95.94,42.48527777777778],[-95.74777777777778,42.48638888888889],[-95.55888888888889,42.48777777777778],[-95.36944444444444,42.48833333333334],[-94.99527777777777,42.44499999999999],[-94.63527777777779,42.36694444444444],[-94.52222222222223,42.34277777777778],[-94.45777777777778,42.32916666666667],[-94.34305555555555,42.308611111111105],[-94.27638888888889,42.29944444444444],[-94.16194444444444,42.283055555555556],[-93.97777777777777,42.25944444444445],[-93.94277777777778,42.25944444444445],[-93.79388888888889,42.263333333333335],[-93.60722222222222,42.26638888888889],[-93.57,42.26694444444444],[-93.42055555555557,42.26888888888889],[-93.37944444444443,42.26972222222222],[-93.23222222222222,42.27194444444444],[-93.1538888888889,42.272777777777776],[-93.04194444444444,42.274166666666666],[-92.96638888888889,42.27472222222222],[-92.85333333333332,42.27611111111111],[-92.77833333333334,42.276944444444446],[-92.66611111111112,42.27777777777778],[-92.5911111111111,42.27833333333333],[-92.47916666666667,42.27916666666667],[-92.40361111111112,42.27972222222222],[-92.29055555555556,42.280277777777776],[-92.2125,42.28055555555555],[-92.10083333333333,42.28111111111111],[-92.0225,42.28138888888889],[-91.91277777777778,42.28138888888889],[-91.835,42.281666666666666],[-91.72194444444445,42.281666666666666],[-91.64361111111111,42.281666666666666],[-91.53194444444445,42.28138888888889],[-91.455,42.28138888888889],[-91.34055555555555,42.28111111111111],[-91.26361111111112,42.28055555555555],[-91.14972222222222,42.280277777777776],[-91.07416666666666,42.27972222222222],[-90.95916666666668,42.27916666666667],[-90.88277777777778,42.27861111111111],[-90.76888888888888,42.277499999999996],[-90.69166666666668,42.276666666666664],[-90.50194444444445,42.275],[-90.38944444444445,42.27388888888889],[-90.01055555555556,42.26861111111111],[-89.795,42.265277777777776],[-89.60694444444444,42.261944444444445],[-89.42194444444445,42.25833333333333],[-89.23166666666667,42.254444444444445],[-89.0475,42.25055555555556],[-88.86222222222221,42.24583333333334],[-88.69305555555556,42.24138888888889],[-88.50833333333334,42.23638888888889],[-88.31944444444444,42.231388888888894],[-88.13416666666667,42.24861111111111],[-87.94361111111111,42.26722222222222],[-87.75638888888889,42.285],[-87.57138888888889,42.302499999999995],[-87.38944444444445,42.31944444444445],[-87.20361111111112,42.336111111111116],[-87.02277777777778,42.352222222222224],[-86.8425,42.36805555555556],[-86.65777777777778,42.38388888888889],[-86.62888888888888,42.385555555555555],[-86.48527777777778,42.39833333333333],[-86.30222222222221,42.413333333333334],[-86.12055555555555,42.42805555555555],[-86.08722222222222,42.43083333333333],[-85.9388888888889,42.442499999999995],[-85.90333333333334,42.44555555555555],[-85.75611111111111,42.456944444444446],[-85.72277777777778,42.45944444444445],[-85.53777777777778,42.473333333333336],[-85.5411111111111,42.473055555555554],[-85.35777777777777,42.486666666666665],[-85.17972222222222,42.499722222222225],[-85.00083333333333,42.51222222222222],[-84.8175,42.525],[-84.63666666666667,42.53722222222222],[-84.45222222222222,42.54944444444444],[-84.44472222222223,42.54972222222222],[-84.27166666666666,42.56083333333333],[-84.25972222222222,42.56166666666666],[-84.0911111111111,42.57222222222222],[-84.0775,42.573055555555555],[-83.89333333333335,42.585],[-83.52361111111111,42.60611111111111],[-83.33583333333333,42.61666666666667],[-83.14777777777779,42.62694444444445],[-82.95805555555556,42.636944444444445],[-82.77222222222223,42.64666666666667],[-82.58638888888889,42.655833333333334],[-82.40277777777779,42.66444444444444],[-82.21416666666667,42.67333333333333],[-82.02722222222222,42.681666666666665],[-81.83749999999999,42.69],[-81.66472222222222,42.697222222222216],[-81.4775,42.70444444444445],[-81.29055555555556,42.711666666666666],[-81.10222222222221,42.718611111111116],[-80.9175,42.725],[-80.73333333333333,42.73111111111111],[-80.54583333333333,42.73722222222222],[-80.35833333333333,42.74277777777778],[-80.17222222222223,42.74777777777778],[-79.98527777777778,42.753055555555555],[-79.62055555555555,42.761944444444445],[-79.4375,42.76583333333333],[-79.2525,42.780833333333334],[-79.07388888888889,42.818333333333335],[-78.89472222222223,42.855000000000004],[-78.71472222222222,42.89138888888889],[-78.53777777777778,42.926944444444445],[-78.35944444444443,42.962500000000006],[-78.18194444444445,42.9975],[-78.10972222222222,43.01138888888889],[-77.9238888888889,43.047777777777775],[-77.81277777777777,43.06916666666667],[-77.74083333333333,43.08305555555556],[-77.62527777777777,43.105000000000004],[-77.55555555555556,43.11833333333333],[-77.44083333333333,43.14],[-77.36888888888888,43.15361111111111],[-77.18333333333334,43.18861111111111],[-77.07055555555556,43.20944444444445],[-77.00277777777778,43.221944444444446],[-76.89166666666668,43.2425],[-76.81638888888888,43.25611111111111],[-76.63222222222221,43.28972222222222],[-76.52694444444444,43.30888888888889],[-76.45611111111111,43.32222222222222],[-76.3461111111111,43.34277777777778],[-76.27361111111111,43.35611111111111],[-76.16388888888889,43.376666666666665],[-76.09166666666667,43.390277777777776],[-75.97972222222222,43.411944444444444],[-75.90694444444445,43.42583333333333],[-75.79722222222222,43.4475],[-75.7225,43.46222222222222],[-75.61277777777777,43.48083333333334],[-75.53833333333333,43.48583333333333],[-75.42222222222223,43.47972222222222],[-75.3475,43.47138888888889],[-75.23166666666667,43.45888888888889],[-75.15944444444445,43.44694444444444],[-75.05138888888888,43.41833333333333],[-74.98222222222222,43.39694444444444],[-74.87916666666666,43.36388888888889],[-74.81861111111111,43.33416666666667],[-74.67722222222223,43.253055555555555],[-74.53472222222221,43.170833333333334],[-74.39277777777778,43.08833333333334],[-74.26861111111111,42.99027777777778],[-74.17055555555557,42.882222222222225],[-74.07472222222222,42.77444444444444],[-73.97444444444444,42.67611111111111],[-73.80388888888889,42.63194444444444],[-73.61861111111111,42.641666666666666],[-73.43333333333334,42.65],[-73.24583333333334,42.65833333333333],[-73.05472222222222,42.66694444444444],[-72.86166666666666,42.675],[-72.67444444444445,42.6825],[-72.49166666666667,42.6675],[-72.3286111111111,42.64722222222222],[-72.18027777777779,42.63027777777778],[-72.03333333333333,42.61666666666667],[-71.89055555555557,42.59527777777778],[-71.75,42.583333333333336],[-71.61666666666666,42.55],[-71.5,42.53333333333333],[-71.38333333333334,42.5],[-71.26666666666667,42.483333333333334],[-71.13833333333334,42.467222222222226],[-71.08333333333333,42.483333333333334],[-71.05638888888889,42.50555555555555],[-71.03333333333333,42.55],[-71.02777777777777,42.56472222222222],[-71.01666666666667,42.6],[-70.99805555555555,42.61944444444445],[-70.95,42.61666666666667],[-70.92583333333334,42.6175],[-70.9,42.6],[-70.89972222222222,42.58083333333334],[-70.91666666666667,42.55],[-70.92222222222223,42.53527777777778],[-70.93333333333334,42.5],[-70.94500000000001,42.48833333333334],[-70.96666666666667,42.45],[-70.96638888888889,42.44472222222222],[-70.98333333333333,42.416666666666664],[-70.98527777777778,42.40555555555555],[-71,42.38333333333333],[-71.00333333333333,42.36888888888889]]}
}
