{
  "id": 2047888585,
  "type": "Feature",
  "properties": {
    "geom:area": 0,
    "geom:bbox": "-122.555833,37.633333,-77.450000,42.543889",
    "geom:latitude": 41.11458325547321,
    "geom:longitude": -100.05213177295266,
    "src:alt_label": "swim-path",
    "src:geom": "swim",
    "swim:altitudes": [
      "015",
      "033",
      "040",
      "054",
      "076",
      "095",
      "109",
      "120",
      "139",
      "159",
      "176",
      "197",
      "211",
      "226",
      "240",
      "253",
      "265",
      "271",
      "277",
      "283",
      "289",
      "294",
      "298",
      "304",
      "311",
      "316",
      "323",
      "329",
      "336",
      "340",
      "347",
      "350C",
      "350C",
      "350C",
      "350C",
      "350C",
      "350C",
      "350C",
      "350C",
      "350C",
      "350C",
      "350C",
      "350C",
      "350C",
      "350C",
      "350C",
      "350C",
      "350C",
      "350C",
      "350",
      "352",
      "357",
      "361",
      "364",
      "368C",
      "370C",
      "370C",
      "370C",
      "370C",
      "370C",
      "370C",
      "370C",
      "370C",
      "370C",
      "370C",
      "370C",
      "370C",
      "370C",
      "370C",
      "370C",
      "370C",
      "370C",
      "370C",
      "370C",
      "370C",
      "370C",
      "370C",
      "370C",
      "370C",
      "370C",
      "370C",
      "370C",
      "370C",
      "370C",
      "370C",
      "370C",
      "370C",
      "370C",
      "370C",
      "370C",
      "370C",
      "370C",
      "370C",
      "370C",
      "370C",
      "370C",
      "370C",
      "370C",
      "370C",
      "370C",
      "370C",
      "370C",
      "370C",
      "370C",
      "370C",
      "370C",
      "370C",
      "370C",
      "370C",
      "370C",
      "370C",
      "370C",
      "370C",
      "370C",
      "370C",
      "370C",
      "370C",
      "370C",
      "370C",
      "370C",
      "370C",
      "370C",
      "370C",
      "370C",
      "370C",
      "370C",
      "370C",
      "370C",
      "370C",
      "370C",
      "370C",
      "370C",
      "370C",
      "370C",
      "370C",
      "370C",
      "370C",
      "370C",
      "370C",
      "370C",
      "370C",
      "370C",
      "370C",
      "370C",
      "370C",
      "370C",
      "370C",
      "370C",
      "370C",
      "370C",
      "370C",
      "370C",
      "370C",
      "370C",
      "370C",
      "370C",
      "370C",
      "370C",
      "370C",
      "370C",
      "370C",
      "370C",
      "370C",
      "370C",
      "370C",
      "370C",
      "370C",
      "370C",
      "370C",
      "370C",
      "370C",
      "370C",
      "370C",
      "370C",
      "370C",
      "370C",
      "370C",
      "370C",
      "370C",
      "370C",
      "370C",
      "370C",
      "370C",
      "370C",
      "370C",
      "370C",
      "370C",
      "370C",
      "370C",
      "370C",
      "370C",
      "370C",
      "370C",
      "370C",
      "370C",
      "370C",
      "370C",
      "370C",
      "370C",
      "370C",
      "370C",
      "370C",
      "370C",
      "370C",
      "370C",
      "370C",
      "370C",
      "370C",
      "370C",
      "370C",
      "370C",
      "370C",
      "370C",
      "370C",
      "370C",
      "370C",
      "370C",
      "370C",
      "370C",
      "370C",
      "370C",
      "370C",
      "370C",
      "370C",
      "370C",
      "370C",
      "370C",
      "370C",
      "370C",
      "370C",
      "370C",
      "370C",
      "370C",
      "370C",
      "370C",
      "370C",
      "370C",
      "370C",
      "370C",
      "370C",
      "370C",
      "370C",
      "370C",
      "370C",
      "370C",
      "370C",
      "370C",
      "370C",
      "370C",
      "370C",
      "370C",
      "370C",
      "370C",
      "370C",
      "370C",
      "370C",
      "370C",
      "370C",
      "370C",
      "370C",
      "370C",
      "370C",
      "370C",
      "370C",
      "370C",
      "370C",
      "370C",
      "370C",
      "370C",
      "370C",
      "370C",
      "370C",
      "370C",
      "370C",
      "370C",
      "370C",
      "370C",
      "370C",
      "370C",
      "370C",
      "370C",
      "370C",
      "370C",
      "370C",
      "370C",
      "370C",
      "370C",
      "370C",
      "370C",
      "370C",
      "370C",
      "370C",
      "370C",
      "370C",
      "370C",
      "370C",
      "370C",
      "370C",
      "370C",
      "370C",
      "370C",
      "370C",
      "370C",
      "370C",
      "370C",
      "370C",
      "370C",
      "370C",
      "370C",
      "370C",
      "370C",
      "370C",
      "370C",
      "370C",
      "370C",
      "370C",
      "370C",
      "370C",
      "370C",
      "370C",
      "370C",
      "370C",
      "370C",
      "370C",
      "370C",
      "370C",
      "370C",
      "370C",
      "370C",
      "370C",
      "370C",
      "370C",
      "370C",
      "370C",
      "370C",
      "370C",
      "370C",
      "370C",
      "370C",
      "370C",
      "370C",
      "370C",
      "370C",
      "370C",
      "370C",
      "370C",
      "370C",
      "370C",
      "370C",
      "370C",
      "370C",
      "370C",
      "370C",
      "370C",
      "370C",
      "370C",
      "370C",
      "370C",
      "370C",
      "370C",
      "370C",
      "370C",
      "370C",
      "370C",
      "370C",
      "370C",
      "370C",
      "370C",
      "370C",
      "370",
      "369",
      "364",
      "361",
      "358",
      "353",
      "346",
      "342",
      "333",
      "324",
      "320",
      "312",
      "305",
      "301",
      "294",
      "284",
      "278",
      "270C",
      "270",
      "269",
      "265",
      "255",
      "244",
      "241",
      "232",
      "216",
      "208",
      "196",
      "187",
      "177",
      "171",
      "162",
      "162",
      "153",
      "146",
      "144",
      "136",
      "129",
      "128",
      "120",
      "114",
      "113",
      "111",
      "109",
      "107",
      "103",
      "099",
      "098",
      "095",
      "092",
      "091",
      "086",
      "081",
      "080",
      "073",
      "068",
      "064",
      "061",
      "061",
      "060",
      "060",
      "061",
      "060",
      "060",
      "060",
      "053",
      "052",
      "050",
      "050",
      "050",
      "051",
      "050",
      "050",
      "039",
      "032",
      "026",
      "022",
      "017",
      "014",
      "010",
      "007",
      "003",
      "003"
    ],
    "swim:geom": "path",
    "swim:speeds": [
      178,
      182,
      229,
      274,
      284,
      291,
      317,
      364,
      395,
      410,
      423,
      435,
      447,
      460,
      471,
      481,
      492,
      499,
      502,
      500,
      509,
      508,
      518,
      517,
      523,
      521,
      524,
      524,
      523,
      524,
      522,
      524,
      521,
      524,
      521,
      523,
      522,
      523,
      522,
      523,
      522,
      529,
      522,
      524,
      522,
      523,
      523,
      522,
      522,
      522,
      522,
      522,
      522,
      521,
      521,
      520,
      521,
      521,
      522,
      522,
      523,
      523,
      523,
      523,
      523,
      524,
      524,
      524,
      525,
      525,
      526,
      526,
      526,
      528,
      529,
      530,
      530,
      531,
      531,
      531,
      532,
      533,
      534,
      533,
      533,
      533,
      533,
      533,
      533,
      533,
      533,
      534,
      534,
      534,
      534,
      533,
      530,
      530,
      529,
      529,
      528,
      529,
      529,
      535,
      530,
      533,
      531,
      533,
      531,
      532,
      531,
      532,
      533,
      533,
      533,
      534,
      534,
      534,
      534,
      534,
      534,
      534,
      533,
      533,
      533,
      533,
      533,
      533,
      532,
      532,
      532,
      532,
      532,
      532,
      532,
      532,
      531,
      531,
      531,
      530,
      530,
      528,
      528,
      527,
      527,
      529,
      530,
      530,
      531,
      531,
      530,
      529,
      528,
      526,
      523,
      522,
      521,
      520,
      519,
      523,
      517,
      524,
      515,
      522,
      513,
      518,
      512,
      517,
      510,
      517,
      509,
      505,
      508,
      505,
      506,
      505,
      506,
      505,
      505,
      505,
      504,
      504,
      504,
      505,
      505,
      506,
      507,
      507,
      509,
      510,
      511,
      512,
      513,
      513,
      514,
      515,
      517,
      518,
      518,
      518,
      519,
      520,
      520,
      520,
      521,
      521,
      521,
      521,
      521,
      522,
      524,
      524,
      526,
      527,
      528,
      529,
      530,
      531,
      533,
      534,
      536,
      537,
      538,
      538,
      539,
      540,
      539,
      539,
      538,
      538,
      538,
      538,
      537,
      537,
      536,
      536,
      535,
      535,
      534,
      534,
      533,
      533,
      532,
      533,
      530,
      530,
      528,
      530,
      527,
      527,
      526,
      524,
      525,
      524,
      524,
      524,
      524,
      524,
      523,
      524,
      523,
      524,
      523,
      524,
      523,
      524,
      521,
      521,
      520,
      521,
      519,
      524,
      519,
      525,
      521,
      519,
      520,
      519,
      520,
      519,
      520,
      520,
      520,
      522,
      521,
      524,
      522,
      524,
      522,
      523,
      523,
      523,
      524,
      524,
      524,
      526,
      526,
      526,
      527,
      528,
      528,
      529,
      529,
      528,
      528,
      527,
      527,
      526,
      525,
      525,
      525,
      520,
      522,
      521,
      521,
      522,
      522,
      522,
      523,
      522,
      523,
      523,
      523,
      524,
      525,
      525,
      525,
      524,
      525,
      525,
      525,
      525,
      524,
      524,
      523,
      523,
      523,
      523,
      541,
      542,
      545,
      545,
      546,
      546,
      545,
      548,
      548,
      545,
      548,
      548,
      546,
      548,
      548,
      547,
      547,
      547,
      547,
      546,
      546,
      546,
      545,
      545,
      545,
      545,
      544,
      544,
      543,
      534,
      526,
      522,
      519,
      518,
      517,
      517,
      516,
      516,
      516,
      515,
      514,
      514,
      512,
      509,
      506,
      501,
      493,
      486,
      474,
      470,
      469,
      467,
      460,
      450,
      447,
      440,
      430,
      416,
      409,
      401,
      393,
      392,
      387,
      391,
      388,
      374,
      375,
      375,
      366,
      369,
      364,
      354,
      354,
      341,
      312,
      315,
      314,
      308,
      309,
      308,
      302,
      306,
      305,
      301,
      305,
      302,
      301,
      298,
      289,
      295,
      295,
      293,
      293,
      295,
      278,
      281,
      233,
      237,
      232,
      235,
      240,
      226,
      223,
      217,
      203,
      186,
      189,
      180,
      168,
      159,
      150,
      146,
      148,
      138
    ],
    "swim:timestamps": [
      1786221221,
      1786221281,
      1786221344,
      1786221404,
      1786221464,
      1786221524,
      1786221584,
      1786221644,
      1786221704,
      1786221765,
      1786221837,
      1786221897,
      1786221957,
      1786222017,
      1786222077,
      1786222137,
      1786222197,
      1786222229,
      1786222257,
      1786222289,
      1786222317,
      1786222349,
      1786222377,
      1786222409,
      1786222437,
      1786222469,
      1786222497,
      1786222529,
      1786222557,
      1786222589,
      1786222618,
      1786222649,
      1786222678,
      1786222709,
      1786222738,
      1786222770,
      1786222798,
      1786222830,
      1786222858,
      1786222890,
      1786222918,
      1786222950,
      1786222978,
      1786223010,
      1786223038,
      1786223070,
      1786223130,
      1786223158,
      1786223190,
      1786223218,
      1786223250,
      1786223278,
      1786223310,
      1786223338,
      1786223370,
      1786223430,
      1786223459,
      1786223490,
      1786223519,
      1786223551,
      1786223579,
      1786223611,
      1786223639,
      1786223671,
      1786223699,
      1786223731,
      1786223759,
      1786223791,
      1786223819,
      1786223851,
      1786223911,
      1786223971,
      1786224031,
      1786224091,
      1786224151,
      1786224211,
      1786224272,
      1786224332,
      1786224392,
      1786224452,
      1786224512,
      1786224572,
      1786224644,
      1786224704,
      1786224764,
      1786224824,
      1786224884,
      1786224944,
      1786225005,
      1786225065,
      1786225125,
      1786225185,
      1786225245,
      1786225305,
      1786225365,
      1786225425,
      1786225605,
      1786225665,
      1786225726,
      1786225786,
      1786225846,
      1786225906,
      1786225966,
      1786226051,
      1786226086,
      1786226111,
      1786226146,
      1786226171,
      1786226206,
      1786226232,
      1786226266,
      1786226326,
      1786226352,
      1786226386,
      1786226446,
      1786226472,
      1786226507,
      1786226532,
      1786226567,
      1786226592,
      1786226627,
      1786226652,
      1786226687,
      1786226712,
      1786226747,
      1786226772,
      1786226807,
      1786226832,
      1786226867,
      1786226892,
      1786226927,
      1786226953,
      1786226987,
      1786227013,
      1786227059,
      1786227073,
      1786227119,
      1786227133,
      1786227179,
      1786227193,
      1786227253,
      1786227373,
      1786227433,
      1786227493,
      1786227553,
      1786227613,
      1786227673,
      1786227734,
      1786227794,
      1786227854,
      1786227914,
      1786227974,
      1786228034,
      1786228094,
      1786228154,
      1786228214,
      1786228274,
      1786228334,
      1786228395,
      1786228426,
      1786228455,
      1786228486,
      1786228515,
      1786228547,
      1786228575,
      1786228607,
      1786228635,
      1786228667,
      1786228695,
      1786228727,
      1786228755,
      1786228787,
      1786228815,
      1786228847,
      1786228875,
      1786228907,
      1786228935,
      1786228967,
      1786228995,
      1786229039,
      1786229055,
      1786229099,
      1786229116,
      1786229159,
      1786229176,
      1786229236,
      1786229280,
      1786229296,
      1786229340,
      1786229356,
      1786229400,
      1786229416,
      1786229460,
      1786229476,
      1786229520,
      1786229580,
      1786229640,
      1786229700,
      1786229760,
      1786229820,
      1786229880,
      1786229940,
      1786230001,
      1786230061,
      1786230121,
      1786230181,
      1786230241,
      1786230301,
      1786230361,
      1786230421,
      1786230481,
      1786230541,
      1786230601,
      1786230661,
      1786230722,
      1786230775,
      1786230782,
      1786230842,
      1786230902,
      1786230962,
      1786231015,
      1786231082,
      1786231142,
      1786231202,
      1786231262,
      1786231316,
      1786231394,
      1786231436,
      1786231455,
      1786231496,
      1786231515,
      1786231556,
      1786231575,
      1786231616,
      1786231635,
      1786231677,
      1786231695,
      1786231737,
      1786231755,
      1786231797,
      1786231857,
      1786231875,
      1786231917,
      1786231935,
      1786231977,
      1786232005,
      1786232037,
      1786232065,
      1786232097,
      1786232125,
      1786232157,
      1786232185,
      1786232217,
      1786232245,
      1786232278,
      1786232305,
      1786232338,
      1786232365,
      1786232398,
      1786232425,
      1786232458,
      1786232486,
      1786232518,
      1786232546,
      1786232578,
      1786232606,
      1786232638,
      1786232666,
      1786232698,
      1786232726,
      1786232758,
      1786232786,
      1786232818,
      1786232846,
      1786232906,
      1786232939,
      1786232966,
      1786232999,
      1786233026,
      1786233059,
      1786233086,
      1786233119,
      1786233147,
      1786233179,
      1786233207,
      1786233223,
      1786233267,
      1786233283,
      1786233327,
      1786233343,
      1786233359,
      1786233387,
      1786233404,
      1786233419,
      1786233447,
      1786233464,
      1786233479,
      1786233507,
      1786233524,
      1786233567,
      1786233584,
      1786233627,
      1786233660,
      1786233687,
      1786233701,
      1786233720,
      1786233747,
      1786233761,
      1786233780,
      1786233808,
      1786233821,
      1786233868,
      1786233881,
      1786233900,
      1786233928,
      1786233942,
      1786233960,
      1786233988,
      1786234002,
      1786234020,
      1786234048,
      1786234062,
      1786234080,
      1786234108,
      1786234122,
      1786234168,
      1786234182,
      1786234198,
      1786234228,
      1786234242,
      1786234288,
      1786234302,
      1786234348,
      1786234362,
      1786234408,
      1786234422,
      1786234468,
      1786234482,
      1786234529,
      1786234543,
      1786234589,
      1786234603,
      1786234649,
      1786234663,
      1786234685,
      1786234709,
      1786234723,
      1786234745,
      1786234769,
      1786234783,
      1786234806,
      1786234829,
      1786234843,
      1786234866,
      1786234889,
      1786234903,
      1786234926,
      1786234949,
      1786234963,
      1786234986,
      1786235009,
      1786235023,
      1786235046,
      1786235069,
      1786235083,
      1786235106,
      1786235130,
      1786235144,
      1786235166,
      1786235190,
      1786235204,
      1786235226,
      1786235250,
      1786235264,
      1786235286,
      1786235310,
      1786235324,
      1786235346,
      1786235370,
      1786235384,
      1786235406,
      1786235430,
      1786235444,
      1786235467,
      1786235504,
      1786235527,
      1786235564,
      1786235587,
      1786235611,
      1786235624,
      1786235647,
      1786235671,
      1786235684,
      1786235707,
      1786235745,
      1786235767,
      1786235805,
      1786235827,
      1786235865,
      1786235887,
      1786235913,
      1786235925,
      1786235947,
      1786235968,
      1786235985,
      1786236007,
      1786236028,
      1786236045,
      1786236067,
      1786236088,
      1786236105,
      1786236128,
      1786236142,
      1786236165,
      1786236188,
      1786236202,
      1786236225,
      1786236248,
      1786236268,
      1786236285,
      1786236308,
      1786236328,
      1786236346,
      1786236368,
      1786236406,
      1786236428,
      1786236448,
      1786236466,
      1786236488,
      1786236508,
      1786236526,
      1786236548,
      1786236568,
      1786236586,
      1786236634,
      1786236646,
      1786236668,
      1786236688,
      1786236728,
      1786236748,
      1786236789,
      1786236808,
      1786236849,
      1786236868,
      1786236909,
      1786236929,
      1786236969,
      1786236988,
      1786237029,
      1786237048,
      1786237089,
      1786237149
    ],
    "wof:geomhash": "d8fbf211f4006278d053a143a5f59252",
    "wof:id": 2047888585,
    "wof:repo": "sfomuseum-data-flights-2026-08"
  },
  "bbox": [
    -122.55583333333333,
    37.63333333333333,
    -77.45,
    42.54388888888889
  ],
  "geometry": {"type":"LineString","coordinates":[[-122.41666666666667,37.63333333333333],[-122.46666666666667,37.666666666666664],[-122.52583333333334,37.68861111111111],[-122.55583333333333,37.75388888888889],[-122.48722222222223,37.80694444444444],[-122.40027777777779,37.84861111111111],[-122.30722222222222,37.894444444444446],[-122.20166666666667,37.94555555555555],[-122.06722222222221,38.01083333333333],[-121.94333333333334,38.071111111111115],[-121.81611111111111,38.1325],[-121.66250000000001,38.20611111111111],[-121.52833333333334,38.27027777777778],[-121.39083333333333,38.337500000000006],[-121.26083333333334,38.41583333333333],[-121.13027777777778,38.496944444444445],[-120.99666666666667,38.57916666666667],[-120.92888888888889,38.62166666666667],[-120.85583333333332,38.665277777777774],[-120.78583333333333,38.70472222222222],[-120.71305555555556,38.7525],[-120.64194444444445,38.79333333333333],[-120.57,38.839444444444446],[-120.49472222222222,38.882222222222225],[-120.42111111111112,38.92944444444444],[-120.34694444444445,38.973333333333336],[-120.27277777777778,39.01861111111111],[-120.19833333333334,39.06222222222222],[-120.10944444444443,39.11666666666667],[-120.05166666666666,39.150277777777774],[-119.95972222222223,39.20611111111111],[-119.90305555555557,39.23833333333334],[-119.81444444444445,39.29222222222222],[-119.75555555555556,39.32638888888889],[-119.66361111111112,39.38111111111111],[-119.6061111111111,39.415277777777774],[-119.51333333333334,39.469722222222224],[-119.45583333333333,39.5025],[-119.36416666666666,39.556666666666665],[-119.30499999999999,39.59138888888889],[-119.21111111111111,39.645833333333336],[-119.1538888888889,39.67916666666667],[-119.06027777777777,39.733333333333334],[-119.00111111111111,39.76777777777777],[-118.93777777777778,39.80416666666667],[-118.85027777777778,39.85444444444445],[-118.68527777777778,39.930277777777775],[-118.61888888888888,39.9575],[-118.51944444444445,39.99777777777778],[-118.44833333333334,40.026666666666664],[-118.35333333333332,40.06472222222222],[-118.28138888888888,40.09388888888889],[-118.18583333333333,40.132222222222225],[-118.11361111111111,40.16138888888889],[-118.01888888888888,40.1975],[-117.8436111111111,40.25222222222222],[-117.77083333333333,40.27388888888889],[-117.67083333333333,40.31194444444444],[-117.60388888888889,40.3425],[-117.50805555555556,40.385555555555555],[-117.4375,40.41694444444444],[-117.34083333333332,40.46027777777778],[-117.27333333333333,40.49027777777778],[-117.1738888888889,40.53444444444444],[-117.10527777777777,40.565],[-117.00583333333333,40.60916666666667],[-116.93555555555555,40.640277777777776],[-116.83833333333332,40.683611111111105],[-116.76861111111111,40.71472222222223],[-116.67083333333333,40.75833333333333],[-116.50416666666666,40.83277777777778],[-116.33527777777778,40.9075],[-116.16694444444445,40.974722222222226],[-115.97888888888889,41.013333333333335],[-115.78888888888889,41.04666666666667],[-115.59583333333333,41.080000000000005],[-115.40777777777778,41.111666666666665],[-115.2175,41.14333333333333],[-115.0261111111111,41.175],[-114.83361111111111,41.20638888888889],[-114.63166666666666,41.23888888888889],[-114.43805555555556,41.26972222222222],[-114.24694444444445,41.3],[-114.01305555555555,41.33638888888889],[-113.82083333333333,41.365833333333335],[-113.62833333333333,41.39055555555556],[-113.43305555555555,41.415],[-113.24,41.439166666666665],[-113.0436111111111,41.46361111111111],[-112.8475,41.48777777777778],[-112.65444444444445,41.51111111111111],[-112.4575,41.53444444444444],[-112.26083333333334,41.555],[-112.06277777777777,41.57527777777778],[-111.90333333333334,41.59166666666667],[-111.70833333333334,41.61138888888889],[-111.12055555555555,41.66861111111111],[-110.90833333333335,41.68861111111111],[-110.71416666666667,41.70638888888889],[-110.51944444444445,41.723888888888894],[-110.32444444444444,41.74111111111111],[-110.12972222222221,41.75805555555556],[-109.93305555555555,41.77472222222222],[-109.6675,41.79666666666667],[-109.54138888888889,41.80694444444444],[-109.46361111111112,41.81333333333333],[-109.34027777777777,41.823055555555555],[-109.2625,41.82916666666667],[-109.14222222222223,41.83833333333334],[-109.06333333333333,41.84444444444445],[-108.94527777777778,41.85333333333333],[-108.74666666666667,41.86833333333333],[-108.66611111111112,41.87416666666667],[-108.54694444444445,41.882777777777775],[-108.34833333333333,41.89666666666667],[-108.27,41.90222222222222],[-108.14916666666667,41.910555555555554],[-108.07083333333333,41.91583333333333],[-107.95,41.92388888888889],[-107.87138888888889,41.92916666666667],[-107.75222222222222,41.93694444444444],[-107.67416666666666,41.94194444444444],[-107.55361111111111,41.94944444444444],[-107.47472222222223,41.95444444444445],[-107.35666666666665,41.961666666666666],[-107.27666666666667,41.96666666666667],[-107.15805555555556,41.973888888888894],[-107.08083333333333,41.97833333333333],[-106.96194444444444,41.98527777777778],[-106.88361111111112,41.98972222222222],[-106.76194444444444,41.99666666666667],[-106.68333333333334,42.00083333333333],[-106.59027777777777,42.00611111111111],[-106.48777777777778,42.01166666666666],[-106.39250000000001,42.016666666666666],[-106.27583333333334,42.022777777777776],[-106.15777777777778,42.028888888888886],[-106.08083333333333,42.0325],[-105.96000000000001,42.03861111111111],[-105.88222222222221,42.04222222222222],[-105.68583333333333,42.05166666666666],[-105.29305555555555,42.06916666666667],[-105.09944444444444,42.0775],[-104.905,42.088055555555556],[-104.70861111111111,42.09805555555556],[-104.51138888888889,42.095555555555556],[-104.31638888888888,42.09027777777778],[-104.11999999999999,42.08527777777778],[-103.92194444444445,42.08027777777778],[-103.72611111111111,42.07527777777778],[-103.52833333333334,42.07055555555556],[-103.33138888888888,42.06638888888889],[-103.13583333333334,42.06194444444444],[-102.94194444444445,42.06666666666667],[-102.74944444444445,42.0775],[-102.55527777777777,42.08888888888889],[-102.36055555555555,42.1],[-102.15583333333333,42.11138888888889],[-101.96222222222222,42.121944444444445],[-101.87777777777777,42.126111111111115],[-101.76916666666666,42.132222222222225],[-101.6613888888889,42.135555555555555],[-101.57805555555555,42.141666666666666],[-101.49333333333334,42.14388888888889],[-101.38611111111112,42.151111111111106],[-101.30416666666666,42.153888888888886],[-101.19694444444445,42.16027777777778],[-101.11472222222221,42.16305555555555],[-101.00527777777778,42.16888888888889],[-100.92333333333333,42.171388888888885],[-100.81472222222222,42.17722222222222],[-100.73833333333333,42.18055555555555],[-100.62472222222222,42.18527777777778],[-100.54916666666666,42.18833333333333],[-100.43805555555556,42.19305555555555],[-100.35944444444443,42.19611111111111],[-100.24694444444445,42.20027777777778],[-100.17055555555557,42.20333333333333],[-100.06166666666667,42.20722222222223],[-99.98583333333333,42.21],[-99.87249999999999,42.21416666666667],[-99.74305555555556,42.218611111111116],[-99.68222222222222,42.220555555555556],[-99.55472222222222,42.224722222222226],[-99.49388888888889,42.22666666666667],[-99.30138888888888,42.23277777777778],[-99.17194444444445,42.23444444444444],[-99.11194444444443,42.23444444444444],[-98.98055555555555,42.245555555555555],[-98.92083333333333,42.25111111111111],[-98.79194444444444,42.26138888888889],[-98.73083333333334,42.26638888888889],[-98.59861111111111,42.277499999999996],[-98.53722222222223,42.2825],[-98.4075,42.29388888888889],[-98.21444444444445,42.31111111111111],[-98.02111111111111,42.328611111111115],[-97.83055555555555,42.348888888888894],[-97.6375,42.369166666666665],[-97.44472222222223,42.38944444444444],[-97.24888888888889,42.40972222222222],[-97.05722222222222,42.42972222222222],[-96.86194444444443,42.452222222222225],[-96.67111111111112,42.476111111111116],[-96.47583333333334,42.501666666666665],[-96.28305555555555,42.526666666666664],[-96.08694444444444,42.54388888888889],[-95.89333333333335,42.52861111111111],[-95.69861111111112,42.51027777777778],[-95.50083333333333,42.49111111111111],[-95.30416666666666,42.47166666666667],[-95.10944444444443,42.45166666666667],[-94.91277777777778,42.43138888888889],[-94.715,42.41083333333333],[-94.51972222222223,42.38972222222222],[-94.35388888888889,42.37166666666667],[-94.32166666666666,42.36805555555556],[-94.15444444444445,42.349722222222226],[-93.95666666666666,42.32777777777778],[-93.75972222222222,42.305277777777775],[-93.5611111111111,42.282222222222224],[-93.36,42.25861111111111],[-93.16222222222223,42.235],[-92.92555555555556,42.20638888888889],[-92.72444444444444,42.181666666666665],[-92.56805555555555,42.161944444444444],[-92.29055555555556,42.12694444444445],[-92.17277777777778,42.111666666666665],[-92.09527777777777,42.10166666666667],[-91.9786111111111,42.08638888888889],[-91.89805555555556,42.075833333333335],[-91.7825,42.06055555555555],[-91.7025,42.05],[-91.58749999999999,42.03444444444444],[-91.50888888888889,42.02388888888889],[-91.39277777777778,42.00805555555556],[-91.31138888888889,41.996944444444445],[-91.19722222222222,41.98111111111111],[-91.15805555555556,41.975833333333334],[-91.00527777777778,41.95444444444445],[-90.80944444444444,41.926944444444445],[-90.73027777777779,41.91583333333333],[-90.61555555555555,41.899166666666666],[-90.53666666666666,41.8875],[-90.42500000000001,41.87166666666667],[-90.31472222222222,41.855000000000004],[-90.2325,41.843611111111116],[-90.12305555555555,41.82638888888889],[-90.0425,41.81527777777777],[-89.93333333333334,41.79833333333333],[-89.83444444444444,41.784166666666664],[-89.7425,41.769999999999996],[-89.64305555555556,41.755],[-89.55277777777778,41.74027777777778],[-89.47666666666667,41.72944444444445],[-89.3625,41.71222222222222],[-89.28527777777778,41.69972222222222],[-89.17305555555556,41.68111111111111],[-89.0975,41.67027777777778],[-88.98277777777778,41.65277777777778],[-88.90611111111112,41.63972222222222],[-88.79416666666667,41.6225],[-88.7175,41.60944444444445],[-88.60527777777777,41.591944444444444],[-88.52805555555555,41.578611111111115],[-88.41694444444445,41.56083333333333],[-88.34083333333332,41.547777777777775],[-88.22972222222222,41.53],[-88.15,41.51611111111111],[-88.04861111111111,41.50111111111111],[-87.95583333333333,41.48361111111111],[-87.87777777777777,41.47138888888889],[-87.76638888888888,41.45138888888889],[-87.68944444444445,41.43833333333333],[-87.5038888888889,41.40555555555555],[-87.39027777777778,41.38638888888889],[-87.3175,41.37361111111111],[-87.20555555555556,41.35416666666667],[-87.13055555555555,41.34055555555556],[-87.01916666666666,41.321111111111115],[-86.94444444444444,41.30722222222222],[-86.83138888888888,41.2875],[-86.75805555555556,41.274166666666666],[-86.63,41.25111111111111],[-86.55499999999999,41.237500000000004],[-86.4888888888889,41.22555555555556],[-86.36777777777777,41.20333333333333],[-86.29666666666667,41.19],[-86.18416666666667,41.16916666666666],[-86.10888888888888,41.155277777777776],[-86.06888888888888,41.147777777777776],[-85.99638888888889,41.134166666666665],[-85.92194444444445,41.12],[-85.88305555555554,41.11277777777778],[-85.81,41.098888888888894],[-85.73472222222222,41.08444444444444],[-85.69611111111111,41.077222222222225],[-85.62277777777777,41.06305555555555],[-85.54944444444445,41.049166666666665],[-85.43388888888889,41.026944444444446],[-85.3625,41.01305555555555],[-85.24916666666667,40.99111111111111],[-85.1375,40.96333333333334],[-85.06805555555555,40.942499999999995],[-84.99916666666667,40.92166666666667],[-84.95944444444444,40.909444444444446],[-84.88916666666667,40.88805555555555],[-84.81888888888888,40.86638888888889],[-84.78138888888888,40.85472222222222],[-84.70361111111112,40.83083333333334],[-84.64250000000001,40.811388888888885],[-84.53416666666666,40.76222222222222],[-84.47305555555556,40.73361111111111],[-84.44472222222223,40.720555555555556],[-84.37222222222222,40.68722222222222],[-84.30722222222222,40.65611111111111],[-84.28361111111111,40.64388888888889],[-84.21388888888889,40.60666666666667],[-84.15194444444445,40.574444444444445],[-84.12888888888888,40.56222222222222],[-84.05638888888889,40.52444444444444],[-83.99305555555556,40.49166666666667],[-83.96944444444445,40.47944444444445],[-83.89722222222223,40.442499999999995],[-83.83388888888888,40.41],[-83.71972222222223,40.35],[-83.67472222222223,40.32555555555556],[-83.65666666666667,40.315555555555555],[-83.56472222222222,40.26444444444444],[-83.52194444444444,40.24],[-83.41027777777778,40.17638888888889],[-83.36749999999999,40.151944444444446],[-83.26138888888889,40.08694444444445],[-83.24527777777777,40.07694444444445],[-83.11472222222221,39.99611111111111],[-83.10277777777777,39.98888888888889],[-82.96944444444445,39.906388888888884],[-82.94777777777779,39.89333333333333],[-82.79944444444445,39.843333333333334],[-82.77055555555556,39.83972222222222],[-82.59027777777777,39.82416666666667],[-82.57333333333332,39.82277777777778],[-82.3938888888889,39.80722222222222],[-82.37722222222222,39.80583333333333],[-82.29527777777777,39.79833333333333],[-82.19833333333334,39.790277777777774],[-82.17888888888889,39.788333333333334],[-82.0975,39.78138888888889],[-82.00027777777778,39.77222222222222],[-81.98333333333333,39.77055555555555],[-81.90111111111112,39.76305555555555],[-81.80527777777777,39.75416666666667],[-81.78555555555555,39.75222222222222],[-81.70361111111112,39.745],[-81.62888888888888,39.737500000000004],[-81.58749999999999,39.73361111111111],[-81.51888888888888,39.72694444444445],[-81.43444444444445,39.71888888888889],[-81.39250000000001,39.715],[-81.31444444444445,39.7075],[-81.23916666666666,39.7],[-81.19805555555556,39.69611111111111],[-81.12305555555555,39.68861111111111],[-81.04638888888888,39.68111111111111],[-81.00138888888888,39.67666666666666],[-80.92500000000001,39.66888888888889],[-80.85249999999999,39.66166666666666],[-80.80972222222222,39.657222222222224],[-80.73777777777778,39.65],[-80.665,39.6425],[-80.62222222222222,39.63805555555555],[-80.55055555555555,39.63055555555555],[-80.48166666666667,39.623333333333335],[-80.4413888888889,39.619166666666665],[-80.36861111111111,39.61138888888889],[-80.29666666666667,39.60388888888889],[-80.25722222222223,39.599722222222226],[-80.18694444444445,39.592222222222226],[-80.11527777777778,39.58444444444444],[-80.07555555555555,39.58027777777778],[-80.00444444444445,39.572500000000005],[-79.93444444444445,39.56472222222222],[-79.89444444444445,39.559999999999995],[-79.82416666666666,39.54972222222222],[-79.72111111111111,39.531666666666666],[-79.65305555555557,39.519444444444446],[-79.55166666666666,39.50111111111111],[-79.48861111111111,39.48972222222222],[-79.42527777777778,39.47833333333333],[-79.39,39.471944444444446],[-79.32777777777777,39.46055555555556],[-79.25416666666666,39.44694444444444],[-79.23111111111112,39.442499999999995],[-79.17611111111111,39.4325],[-79.06916666666666,39.41361111111111],[-79.01472222222222,39.40416666666667],[-78.94388888888889,39.39194444444444],[-78.87527777777777,39.38027777777778],[-78.7825,39.36277777777778],[-78.73944444444444,39.355000000000004],[-78.66666666666667,39.35],[-78.66777777777779,39.341944444444444],[-78.60444444444444,39.330555555555556],[-78.55,39.31666666666667],[-78.53611111111111,39.31805555555556],[-78.47,39.30638888888888],[-78.41666666666667,39.3],[-78.40861111111111,39.29527777777778],[-78.35166666666666,39.27916666666667],[-78.3,39.25],[-78.29527777777777,39.24944444444444],[-78.25138888888888,39.22638888888889],[-78.21666666666667,39.21666666666667],[-78.20083333333334,39.19944444444444],[-78.16527777777779,39.18083333333333],[-78.13333333333334,39.166666666666664],[-78.11,39.15138888888889],[-78.06166666666667,39.126111111111115],[-78.03333333333333,39.11666666666667],[-78.01972222222223,39.10416666666667],[-77.97833333333334,39.08222222222223],[-77.95,39.06666666666667],[-77.93222222222222,39.05777777777777],[-77.88472222222222,39.032222222222224],[-77.84194444444444,39.00944444444445],[-77.79805555555555,38.986111111111114],[-77.76666666666667,38.96666666666667],[-77.7538888888889,38.96666666666667],[-77.70166666666667,38.959722222222226],[-77.66666666666667,38.95],[-77.64722222222223,38.95527777777778],[-77.60805555555555,38.971944444444446],[-77.58333333333333,39],[-77.58166666666666,39.00333333333333],[-77.56666666666666,39.06666666666667],[-77.57388888888889,39.07055555555556],[-77.57805555555555,39.10111111111111],[-77.58333333333333,39.13333333333333],[-77.57111111111111,39.165],[-77.55,39.18333333333333],[-77.49833333333333,39.19],[-77.46666666666667,39.18333333333333],[-77.4563888888889,39.14611111111111],[-77.45,39.13333333333333],[-77.4575,39.09388888888889],[-77.45,39.083333333333336],[-77.45833333333334,39.04611111111111],[-77.46666666666667,39.03333333333333],[-77.4588888888889,39.00333333333333],[-77.46666666666667,38.983333333333334],[-77.45944444444444,38.965],[-77.46000000000001,38.92583333333333]]}
}
