{
  "id": 2047884277,
  "type": "Feature",
  "properties": {
    "geom:area": 0,
    "geom:bbox": "-122.352350,36.796910,-121.909470,37.611470",
    "geom:latitude": 37.251450121572816,
    "geom:longitude": -122.08137132634431,
    "src:alt_label": "swim-approach",
    "src:geom": "swim",
    "swim:elevations": [
      4958,
      4852,
      4611,
      4135,
      3874,
      3770,
      3510,
      3331,
      3216,
      3039,
      2769,
      2671,
      2475,
      2439,
      2429,
      2376,
      2198,
      1975,
      1920,
      1767,
      1630,
      1507,
      1431,
      1282,
      1143,
      1096,
      1071,
      975,
      970,
      823,
      520,
      411,
      264,
      188,
      47
    ],
    "swim:geom": "approach",
    "swim:timestamps": [
      1786217966,
      1786217977,
      1786218003,
      1786218055,
      1786218085,
      1786218105,
      1786218150,
      1786218180,
      1786218196,
      1786218226,
      1786218258,
      1786218273,
      1786218311,
      1786218335,
      1786218338,
      1786218345,
      1786218374,
      1786218404,
      1786218411,
      1786218439,
      1786218468,
      1786218492,
      1786218512,
      1786218543,
      1786218568,
      1786218583,
      1786218615,
      1786218633,
      1786218637,
      1786218672,
      1786218741,
      1786218762,
      1786218801,
      1786218819,
      1786218853
    ],
    "wof:geomhash": "7778ceecff82552db9a1ec83df6d0478",
    "wof:id": 2047884277,
    "wof:repo": "sfomuseum-data-flights-2026-08"
  },
  "bbox": [
    -122.35235,
    36.79691,
    -121.90947,
    37.61147
  ],
  "geometry": {"type":"LineString","coordinates":[[-121.90947,36.79691],[-121.91444,36.81466],[-121.92625,36.85663],[-121.94902,36.93739],[-121.965,36.98206],[-121.97651,37.01184],[-121.9999,37.07265],[-122.01452,37.10997],[-122.02271,37.13072],[-122.03673,37.16659],[-122.05087,37.20254],[-122.05713,37.21857],[-122.07238,37.25695],[-122.08079,37.27801],[-122.08206,37.28119],[-122.08441,37.28692],[-122.09455,37.31277],[-122.10477,37.3401],[-122.10745,37.34698],[-122.11693,37.37069],[-122.12617,37.39626],[-122.12538,37.41791],[-122.1222,37.43541],[-122.12788,37.46212],[-122.13397,37.48328],[-122.13738,37.49637],[-122.14912,37.52141],[-122.1633,37.53167],[-122.16693,37.53352],[-122.1997,37.54727],[-122.2629,37.57396],[-122.27996,37.58106],[-122.31163,37.59441],[-122.32593,37.60033],[-122.35235,37.61147]]}
}
