{
  "id": 2047917623,
  "type": "Feature",
  "properties": {
    "geom:area": 0,
    "geom:bbox": "-122.527560,37.632450,-121.268350,37.973090",
    "geom:latitude": 37.8686290462862,
    "geom:longitude": -121.9947557434347,
    "src:alt_label": "swim-takeoff",
    "src:geom": "swim",
    "swim:elevations": [
      319,
      442,
      589,
      629,
      884,
      1037,
      1269,
      1874,
      2096,
      2242,
      2483,
      2578,
      3038,
      3215,
      3332,
      3434,
      3781,
      4796,
      4877,
      5467,
      5945,
      6322,
      6852,
      6919,
      7127,
      7161
    ],
    "swim:geom": "takeoff",
    "swim:timestamps": [
      1786402733,
      1786402745,
      1786402767,
      1786402772,
      1786402793,
      1786402819,
      1786402854,
      1786402914,
      1786402936,
      1786402954,
      1786402974,
      1786402984,
      1786403025,
      1786403055,
      1786403088,
      1786403106,
      1786403133,
      1786403218,
      1786403224,
      1786403278,
      1786403350,
      1786403391,
      1786403456,
      1786403462,
      1786403488,
      1786403492
    ],
    "wof:geomhash": "018919206f20262f90d20bd2cc28fda0",
    "wof:id": 2047917623,
    "wof:repo": "sfomuseum-data-flights-2026-08"
  },
  "bbox": [
    -122.52756,
    37.63245,
    -121.26835,
    37.97309
  ],
  "geometry": {"type":"LineString","coordinates":[[-122.40596,37.63245],[-122.41647,37.63699],[-122.43823,37.64601],[-122.44367,37.6483],[-122.46544,37.65752],[-122.49252,37.66904],[-122.52677,37.69496],[-122.52756,37.77222],[-122.5196,37.79987],[-122.50009,37.81885],[-122.46904,37.83357],[-122.45316,37.8376],[-122.38042,37.84625],[-122.32468,37.85265],[-122.25779,37.86053],[-122.21858,37.86522],[-122.15802,37.87255],[-121.96167,37.89547],[-121.94733,37.89714],[-121.81529,37.91187],[-121.6377,37.93211],[-121.53201,37.94392],[-121.3625,37.96271],[-121.34669,37.96446],[-121.27945,37.97191],[-121.26835,37.97309]]}
}
