{
  "id": 2047973115,
  "type": "Feature",
  "properties": {
    "geom:area": 0,
    "geom:bbox": "-122.409490,37.632290,-121.472180,38.492740",
    "geom:latitude": 38.06436745511226,
    "geom:longitude": -121.96066340716557,
    "src:alt_label": "swim-takeoff",
    "src:geom": "swim",
    "swim:elevations": [
      402,
      561,
      1027,
      1447,
      1860,
      2402,
      2819,
      3025,
      3295,
      3467,
      3675,
      4167,
      4780,
      4953,
      5353,
      5730,
      5808,
      6254,
      6556,
      6717,
      6879,
      7095,
      7281,
      7403
    ],
    "swim:geom": "takeoff",
    "swim:timestamps": [
      1786709397,
      1786709410,
      1786709451,
      1786709499,
      1786709533,
      1786709572,
      1786709602,
      1786709617,
      1786709651,
      1786709689,
      1786709710,
      1786709754,
      1786709808,
      1786709826,
      1786709869,
      1786709908,
      1786709922,
      1786709964,
      1786709998,
      1786710014,
      1786710034,
      1786710061,
      1786710086,
      1786710100
    ],
    "wof:geomhash": "76b6fdff0283b0671bbb87de0e936884",
    "wof:id": 2047973115,
    "wof:repo": "sfomuseum-data-flights-2026-08"
  },
  "bbox": [
    -122.40949,
    37.63229,
    -121.47218,
    38.49274
  ],
  "geometry": {"type":"LineString","coordinates":[[-122.40354,37.63229],[-122.40949,37.64121],[-122.38414,37.66675],[-122.32615,37.68351],[-122.27701,37.69855],[-122.22424,37.72578],[-122.20705,37.7655],[-122.20126,37.78609],[-122.18701,37.83429],[-122.1678,37.895],[-122.14696,37.92911],[-122.08172,37.98828],[-121.99436,38.06376],[-121.96487,38.0893],[-121.89437,38.15004],[-121.82794,38.20736],[-121.80279,38.22941],[-121.7291,38.29295],[-121.66942,38.34377],[-121.63956,38.36921],[-121.60341,38.39979],[-121.55325,38.43973],[-121.50263,38.47376],[-121.47218,38.49274]]}
}
