{
  "id": 2032076119,
  "type": "Feature",
  "properties": {
    "date:cessation_lower": "2026-08-03",
    "date:cessation_upper": "2026-08-03",
    "date:inception_lower": "2026-08-02",
    "date:inception_upper": "2026-08-02",
    "edtf:cessation": "2026-08-03T08:14:08Z",
    "edtf:inception": "2026-08-02T22:39:00Z",
    "flysfo:actual_timestamp": -1,
    "flysfo:airline": "LH",
    "flysfo:base_airline": "",
    "flysfo:base_flight_number": "4221",
    "flysfo:date": "2026-08-02",
    "flysfo:estimated_timestamp": 1785708000,
    "flysfo:event": "D",
    "flysfo:flight_number": "LH455",
    "flysfo:gate": "G13",
    "flysfo:journey": "SFO-FRA",
    "flysfo:scheduled_timestamp": 1785706800,
    "flysfo:timestamp": 1785708000,
    "geom:area": 0,
    "geom:bbox": "-122.370943,37.617990,7.267284,49.945918",
    "geom:latitude": 43.781954,
    "geom:longitude": -57.5518295,
    "iata:airline": "LH",
    "iata:base_airline": "",
    "icao:aircraft": "B748",
    "icao:airline": "DLH",
    "icao:base_airline": "ANZ",
    "lbl:latitude": 37.61799,
    "lbl:longitude": -122.370943,
    "sfomuseum:aircraft_id": 1159293239,
    "sfomuseum:airline_id": 1159286015,
    "sfomuseum:arrival_id": 102549057,
    "sfomuseum:base_flight_id": "20260802-D-ANZ-4221",
    "sfomuseum:departure_id": 102527513,
    "sfomuseum:flight_id": "20260802-D-DLH-455",
    "sfomuseum:flight_number": [
      "DLH455",
      "LH455"
    ],
    "sfomuseum:placetype": "flight",
    "src:geom": "flysfo",
    "src:geom_alt": [
      "swim-path",
      "swim-takeoff"
    ],
    "swim:tail_number": "DABYG",
    "wof:belongsto": [
      1947304067,
      102527513,
      1947304129,
      102191575,
      85633793,
      102087579,
      85922583,
      554784711,
      85688637,
      1947304159,
      1947304069,
      102085387
    ],
    "wof:concordances": {
      "swim:flight_ref": "153560477"
    },
    "wof:country": "US",
    "wof:created": 1785773642,
    "wof:geomhash": "a63fc4dac3cd4064d907a0b9ef33a7bc",
    "wof:hierarchy": [
      {
        "building_id": 1947304067,
        "campus_id": 102527513,
        "concourse_id": 1947304129,
        "continent_id": 102191575,
        "country_id": 85633793,
        "county_id": 102087579,
        "custom_id": 2032076119,
        "flight_id": 2032076119,
        "locality_id": 85922583,
        "postalcode_id": 554784711,
        "region_id": 85688637,
        "venue_id": 1947304159,
        "wing_id": 1947304069
      },
      {
        "building_id": 1947304067,
        "campus_id": 102527513,
        "concourse_id": 1947304129,
        "continent_id": 102191575,
        "country_id": 85633793,
        "county_id": 102085387,
        "custom_id": 2032076119,
        "flight_id": 2032076119,
        "region_id": 85688637,
        "venue_id": 1947304159,
        "wing_id": 1947304069
      }
    ],
    "wof:id": 2032076119,
    "wof:involves": [
      102527513,
      1159286015,
      1947304159,
      1159283697,
      1159293239,
      102549057
    ],
    "wof:lastmodified": 1785773957,
    "wof:name": "LH455 (SFO-FRA)",
    "wof:parent_id": 1947304159,
    "wof:placetype": "custom",
    "wof:placetype_alt": [
      "flight"
    ],
    "wof:repo": "sfomuseum-data-flights-2026-08",
    "wof:superseded_by": [],
    "wof:supersedes": []
  },
  "bbox": [
    -122.370943,
    37.61799,
    7.267284,
    49.945918
  ],
  "geometry": {"coordinates":[[-122.370943,37.61799],[7.267284,49.945918]],"type":"MultiPoint"}
}
