{
  "id": 2047898767,
  "type": "Feature",
  "properties": {
    "geom:area": 0,
    "geom:bbox": "-122.361430,37.495370,-121.249580,37.615100",
    "geom:latitude": 37.54333798171084,
    "geom:longitude": -121.81257533470739,
    "src:alt_label": "swim-approach",
    "src:geom": "swim",
    "swim:elevations": [
      4427,
      4348,
      3903,
      3783,
      3566,
      3169,
      3165,
      3130,
      3031,
      3006,
      2812,
      2627,
      2604,
      2501,
      2443,
      2232,
      1838,
      1829,
      1802,
      1638,
      1580,
      1426,
      1281,
      1144,
      990,
      822,
      592,
      385,
      265,
      242,
      203,
      107,
      0
    ],
    "swim:geom": "approach",
    "swim:timestamps": [
      1786298187,
      1786298196,
      1786298248,
      1786298261,
      1786298288,
      1786298336,
      1786298342,
      1786298358,
      1786298397,
      1786298402,
      1786298428,
      1786298455,
      1786298462,
      1786298480,
      1786298495,
      1786298528,
      1786298598,
      1786298636,
      1786298641,
      1786298667,
      1786298676,
      1786298698,
      1786298719,
      1786298743,
      1786298766,
      1786298794,
      1786298833,
      1786298878,
      1786298904,
      1786298916,
      1786298927,
      1786298950,
      1786298978
    ],
    "wof:geomhash": "8daec3b6c97638b117572927cae061ea",
    "wof:id": 2047898767,
    "wof:repo": "sfomuseum-data-flights-2026-08"
  },
  "bbox": [
    -122.36143,
    37.49537,
    -121.24958,
    37.6151
  ],
  "geometry": {"type":"LineString","coordinates":[[-121.24958,37.59445],[-121.267,37.5921],[-121.37107,37.58027],[-121.39768,37.57733],[-121.45044,37.57131],[-121.54246,37.56053],[-121.55375,37.55915],[-121.58447,37.55553],[-121.65017,37.54472],[-121.65744,37.54303],[-121.69973,37.533],[-121.74248,37.52267],[-121.75225,37.52032],[-121.77963,37.51373],[-121.80356,37.50795],[-121.85187,37.4964],[-121.95777,37.49537],[-122.01003,37.49865],[-122.01683,37.49906],[-122.0512,37.50106],[-122.06321,37.50176],[-122.09174,37.50426],[-122.11832,37.51258],[-122.14714,37.52476],[-122.17368,37.53627],[-122.20542,37.54971],[-122.24669,37.56704],[-122.28686,37.58392],[-122.30652,37.59219],[-122.31602,37.59619],[-122.32446,37.59976],[-122.3424,37.60736],[-122.36143,37.6151]]}
}
