{
  "id": 2047914383,
  "type": "Feature",
  "properties": {
    "geom:area": 0,
    "geom:bbox": "-122.402700,37.634210,-121.244020,38.069730",
    "geom:latitude": 37.94877656442931,
    "geom:longitude": -121.93499735999885,
    "src:alt_label": "swim-takeoff",
    "src:geom": "swim",
    "swim:elevations": [
      395,
      553,
      612,
      682,
      765,
      903,
      1317,
      1615,
      1811,
      2309,
      2630,
      2906,
      3140,
      3207,
      3232,
      3353,
      3586,
      4035,
      4414,
      4670,
      4829,
      5241,
      5477,
      5662,
      5773,
      6076,
      6166,
      6207,
      6393,
      6539
    ],
    "swim:geom": "takeoff",
    "swim:timestamps": [
      1786406905,
      1786406937,
      1786406946,
      1786406961,
      1786406973,
      1786406987,
      1786407019,
      1786407045,
      1786407063,
      1786407108,
      1786407142,
      1786407172,
      1786407196,
      1786407205,
      1786407211,
      1786407235,
      1786407277,
      1786407334,
      1786407378,
      1786407406,
      1786407426,
      1786407476,
      1786407504,
      1786407522,
      1786407537,
      1786407576,
      1786407594,
      1786407600,
      1786407627,
      1786407648
    ],
    "wof:geomhash": "6265ec7baca12b019fb27249fff488a4",
    "wof:id": 2047914383,
    "wof:repo": "sfomuseum-data-flights-2026-08"
  },
  "bbox": [
    -122.4027,
    37.63421,
    -121.24402,
    38.06973
  ],
  "geometry": {"type":"LineString","coordinates":[[-122.4027,37.63421],[-122.39574,37.6606],[-122.38866,37.66799],[-122.37553,37.68103],[-122.36466,37.69266],[-122.35136,37.70767],[-122.33957,37.74709],[-122.35475,37.77813],[-122.36534,37.80026],[-122.38644,37.85779],[-122.38414,37.90586],[-122.35719,37.94302],[-122.31505,37.95168],[-122.29836,37.95199],[-122.28703,37.95227],[-122.23954,37.95427],[-122.14859,37.9579],[-122.02084,37.96448],[-121.91546,37.97935],[-121.85071,37.98823],[-121.80249,37.99482],[-121.67907,38.01157],[-121.60973,38.02097],[-121.56626,38.02684],[-121.52732,38.0321],[-121.43007,38.04507],[-121.38411,38.05122],[-121.36859,38.0533],[-121.29892,38.06256],[-121.24402,38.06973]]}
}
