{
  "id": 2032092399,
  "type": "Feature",
  "properties": {
    "geom:area": 0,
    "geom:bbox": "-122.408670,37.630530,-121.430910,38.517550",
    "geom:latitude": 38.095924190786285,
    "geom:longitude": -121.96291356294488,
    "src:alt_label": "swim-takeoff",
    "src:geom": "swim",
    "swim:elevations": [
      213,
      560,
      881,
      948,
      1069,
      1164,
      1774,
      2001,
      2457,
      2714,
      2998,
      3170,
      3285,
      3444,
      3520,
      3669,
      4571,
      4590,
      4773,
      4967,
      5050,
      5241,
      5484
    ],
    "swim:geom": "takeoff",
    "swim:timestamps": [
      1785751538,
      1785751570,
      1785751608,
      1785751625,
      1785751659,
      1785751684,
      1785751751,
      1785751775,
      1785751823,
      1785751847,
      1785751877,
      1785751916,
      1785751935,
      1785751970,
      1785751985,
      1785752026,
      1785752165,
      1785752172,
      1785752206,
      1785752234,
      1785752251,
      1785752294,
      1785752345
    ],
    "wof:geomhash": "13f63671c2b10c20d53c0b15ad07a8d4",
    "wof:id": 2032092399,
    "wof:repo": "sfomuseum-data-flights-2026-08"
  },
  "bbox": [
    -122.40867,
    37.63053,
    -121.43091,
    38.51755
  ],
  "geometry": {"type":"LineString","coordinates":[[-122.39781,37.63053],[-122.40867,37.65343],[-122.37663,37.67181],[-122.35862,37.67733],[-122.32024,37.69106],[-122.30126,37.71619],[-122.2665,37.7957],[-122.27019,37.82768],[-122.26118,37.8893],[-122.23063,37.91163],[-122.19409,37.94035],[-122.14447,37.97939],[-122.11774,38.00042],[-122.06906,38.03892],[-122.04675,38.05674],[-121.98412,38.10595],[-121.75572,38.28622],[-121.7439,38.29544],[-121.68611,38.34011],[-121.63716,38.37762],[-121.60834,38.39951],[-121.53061,38.45624],[-121.43091,38.51755]]}
}
