{
  "id": 2032060913,
  "type": "Feature",
  "properties": {
    "geom:area": 0,
    "geom:bbox": "-122.737778,37.628056,-122.008056,47.825833",
    "geom:latitude": 42.932267517246075,
    "geom:longitude": -122.27901290064331,
    "src:alt_label": "swim-path",
    "src:geom": "swim",
    "swim:altitudes": [
      "008",
      "008",
      "024",
      "047",
      "105",
      "125",
      "143",
      "161",
      "174",
      "191",
      "208",
      "223",
      "236",
      "247",
      "259",
      "269",
      "280",
      "289",
      "301",
      "310",
      "317",
      "339",
      "347",
      "354",
      "360C",
      "360C",
      "360C",
      "360C",
      "360C",
      "360C",
      "360C",
      "360C",
      "360C",
      "360C",
      "360C",
      "360C",
      "360C",
      "360C",
      "360C",
      "360C",
      "360C",
      "360C",
      "360C",
      "360C",
      "360C",
      "360C",
      "360C",
      "360C",
      "360C",
      "360C",
      "360C",
      "360C",
      "360C",
      "360",
      "342",
      "319",
      "300",
      "282",
      "243",
      "206",
      "188",
      "172",
      "167",
      "157",
      "149",
      "145",
      "139",
      "123",
      "119",
      "115",
      "110",
      "102",
      "096",
      "089",
      "085",
      "077",
      "073",
      "066",
      "064",
      "060",
      "060",
      "060",
      "060",
      "060",
      "060",
      "060",
      "060",
      "060",
      "060",
      "060",
      "058",
      "057",
      "055",
      "053",
      "050",
      "048",
      "042",
      "039",
      "034",
      "029",
      "025",
      "021",
      "017",
      "013",
      "008",
      "005"
    ],
    "swim:geom": "path",
    "swim:speeds": [
      176,
      175,
      241,
      269,
      333,
      344,
      359,
      367,
      384,
      391,
      395,
      402,
      410,
      425,
      435,
      438,
      446,
      454,
      460,
      464,
      470,
      491,
      492,
      493,
      495,
      497,
      497,
      496,
      496,
      495,
      494,
      494,
      494,
      495,
      495,
      497,
      500,
      501,
      501,
      500,
      494,
      483,
      482,
      484,
      486,
      488,
      490,
      491,
      491,
      491,
      491,
      491,
      493,
      495,
      496,
      492,
      476,
      461,
      436,
      420,
      408,
      397,
      399,
      398,
      393,
      382,
      351,
      341,
      335,
      302,
      298,
      287,
      285,
      267,
      264,
      256,
      257,
      252,
      255,
      237,
      229,
      222,
      225,
      215,
      217,
      219,
      219,
      222,
      221,
      224,
      198,
      196,
      195,
      190,
      186,
      188,
      189,
      176,
      169,
      168,
      162,
      163,
      148,
      150,
      145,
      147
    ],
    "swim:timestamps": [
      1785607031,
      1785607040,
      1785607100,
      1785607160,
      1785607341,
      1785607401,
      1785607461,
      1785607521,
      1785607581,
      1785607641,
      1785607701,
      1785607761,
      1785607821,
      1785607881,
      1785607941,
      1785608002,
      1785608062,
      1785608122,
      1785608182,
      1785608242,
      1785608302,
      1785608482,
      1785608542,
      1785608602,
      1785608723,
      1785608786,
      1785608843,
      1785608963,
      1785609023,
      1785609087,
      1785609147,
      1785609203,
      1785609267,
      1785609327,
      1785609384,
      1785609507,
      1785609627,
      1785609687,
      1785609747,
      1785609808,
      1785609868,
      1785609928,
      1785609988,
      1785610048,
      1785610108,
      1785610168,
      1785610288,
      1785610348,
      1785610408,
      1785610468,
      1785610528,
      1785610589,
      1785610709,
      1785610769,
      1785610889,
      1785610949,
      1785611009,
      1785611069,
      1785611189,
      1785611309,
      1785611369,
      1785611430,
      1785611447,
      1785611490,
      1785611519,
      1785611550,
      1785611579,
      1785611646,
      1785611670,
      1785611706,
      1785611730,
      1785611766,
      1785611790,
      1785611826,
      1785611850,
      1785611887,
      1785611910,
      1785611947,
      1785611970,
      1785612001,
      1785612030,
      1785612061,
      1785612090,
      1785612121,
      1785612150,
      1785612182,
      1785612210,
      1785612271,
      1785612302,
      1785612331,
      1785612362,
      1785612391,
      1785612417,
      1785612451,
      1785612477,
      1785612511,
      1785612537,
      1785612571,
      1785612597,
      1785612631,
      1785612657,
      1785612691,
      1785612718,
      1785612751,
      1785612784,
      1785612811
    ],
    "wof:geomhash": "8aa50e964cbadad3613e44fda31ca05f",
    "wof:id": 2032060913,
    "wof:repo": "sfomuseum-data-flights-2026-08"
  },
  "bbox": [
    -122.73777777777778,
    37.628055555555555,
    -122.00805555555556,
    47.825833333333335
  ],
  "geometry": {"coordinates":[[-122.4,37.63333333333333],[-122.39722222222223,37.628055555555555],[-122.37083333333332,37.66972222222222],[-122.285,37.69416666666666],[-122.18333333333334,37.907777777777774],[-122.16777777777779,38.00277777777778],[-122.15138888888889,38.102222222222224],[-122.13444444444445,38.20444444444445],[-122.11722222222221,38.308611111111105],[-122.11944444444444,38.4325],[-122.12722222222222,38.54388888888889],[-122.135,38.657222222222224],[-122.14250000000001,38.77111111111111],[-122.15083333333334,38.89055555555556],[-122.15972222222223,39.01277777777778],[-122.16638888888889,39.111111111111114],[-122.17527777777778,39.23555555555556],[-122.18416666666667,39.363055555555555],[-122.19444444444444,39.50861111111111],[-122.20361111111112,39.63861111111111],[-122.21277777777777,39.76888888888889],[-122.23166666666667,40.1675],[-122.22277777777778,40.30166666666666],[-122.21361111111112,40.437777777777775],[-122.19472222222223,40.71194444444445],[-122.18305555555555,40.878055555555555],[-122.17527777777778,40.98972222222222],[-122.15555555555557,41.263333333333335],[-122.14555555555556,41.406388888888884],[-122.13611111111112,41.54555555555555],[-122.12666666666667,41.681666666666665],[-122.11666666666666,41.82194444444445],[-122.10666666666665,41.958333333333336],[-122.09638888888888,42.10194444444445],[-122.08611111111111,42.24277777777778],[-122.06583333333333,42.52027777777778],[-122.04555555555555,42.79888888888889],[-122.03527777777778,42.93833333333333],[-122.02527777777777,43.07555555555556],[-122.01472222222222,43.215833333333336],[-122.00805555555556,43.35333333333333],[-122.03583333333333,43.48694444444445],[-122.06666666666666,43.61805555555556],[-122.09861111111111,43.75111111111111],[-122.13027777777778,43.88472222222222],[-122.16250000000001,44.018055555555556],[-122.22777777777777,44.28777777777778],[-122.26027777777777,44.421388888888885],[-122.29277777777777,44.555],[-122.32555555555555,44.68861111111111],[-122.3586111111111,44.82194444444445],[-122.39527777777778,44.969722222222224],[-122.46277777777777,45.23888888888889],[-122.49694444444445,45.373333333333335],[-122.56444444444445,45.64222222222222],[-122.59888888888888,45.77583333333333],[-122.63083333333333,45.906388888888884],[-122.66222222222223,46.03361111111111],[-122.71527777777779,46.285555555555554],[-122.72944444444444,46.52111111111111],[-122.73333333333333,46.63361111111111],[-122.73777777777778,46.74444444444445],[-122.73361111111112,46.77611111111111],[-122.67305555555556,46.84],[-122.62277777777777,46.88583333333333],[-122.5775,46.925],[-122.54666666666667,46.973055555555554],[-122.5038888888889,47.07555555555556],[-122.49527777777777,47.10861111111111],[-122.485,47.163888888888884],[-122.48,47.19277777777778],[-122.47444444444444,47.24333333333333],[-122.46777777777778,47.272777777777776],[-122.46194444444444,47.32027777777778],[-122.4563888888889,47.346944444444446],[-122.45527777777778,47.39194444444444],[-122.45555555555556,47.41861111111111],[-122.45555555555556,47.463055555555556],[-122.45527777777778,47.489444444444445],[-122.45722222222223,47.525555555555556],[-122.45555555555556,47.55638888888888],[-122.45611111111111,47.587500000000006],[-122.45527777777778,47.61805555555556],[-122.45611111111111,47.6475],[-122.45527777777778,47.67777777777778],[-122.45472222222223,47.70944444444445],[-122.45611111111111,47.73972222222222],[-122.4538888888889,47.79611111111111],[-122.415,47.81722222222223],[-122.37138888888889,47.825833333333335],[-122.33,47.81583333333333],[-122.32083333333333,47.79472222222222],[-122.31583333333333,47.769999999999996],[-122.31472222222222,47.7425],[-122.31583333333333,47.71666666666667],[-122.31583333333333,47.69027777777777],[-122.31583333333333,47.663333333333334],[-122.31611111111111,47.63972222222222],[-122.31916666666666,47.61527777777778],[-122.31694444444445,47.593611111111116],[-122.31777777777778,47.57055555555556],[-122.31694444444445,47.54861111111111],[-122.31805555555555,47.52833333333333],[-122.3175,47.50694444444444],[-122.3175,47.481388888888894],[-122.31777777777778,47.46638888888889]],"type":"LineString"}
}
