{
  "id": 2032062621,
  "type": "Feature",
  "properties": {
    "geom:area": 0,
    "geom:bbox": "-122.373056,37.685000,-86.055278,42.074444",
    "geom:latitude": 40.487414988441046,
    "geom:longitude": -104.3644158417326,
    "src:alt_label": "swim-path",
    "src:geom": "swim",
    "swim:altitudes": [
      "013",
      "021",
      "039",
      "042",
      "062",
      "088",
      "107",
      "138",
      "160",
      "193",
      "182",
      "163",
      "161",
      "149",
      "122",
      "100",
      "100",
      "100",
      "100",
      "095",
      "089",
      "071",
      "061",
      "055",
      "040",
      "040",
      "040",
      "040",
      "040",
      "030",
      "023",
      "015",
      "014",
      "008",
      "026",
      "042",
      "066",
      "107",
      "118",
      "137",
      "175",
      "206",
      "219",
      "260",
      "270",
      "270",
      "280",
      "280",
      "288",
      "298",
      "308",
      "308",
      "318",
      "329",
      "329",
      "339",
      "338",
      "347",
      "350C",
      "350C",
      "350C",
      "350C",
      "350C",
      "350C",
      "350C",
      "350C",
      "350C",
      "350C",
      "350C",
      "350C",
      "350C",
      "350C",
      "350C",
      "350C",
      "350C",
      "350C",
      "350C",
      "350C",
      "350C",
      "350C",
      "350C",
      "350C",
      "350C",
      "350C",
      "350C",
      "350C",
      "350C",
      "350C",
      "350C",
      "350C",
      "350C",
      "350C",
      "350C",
      "350C",
      "350C",
      "350C",
      "350C",
      "350C",
      "350C",
      "350C",
      "350C",
      "350C",
      "350C",
      "350C",
      "350C",
      "350C",
      "350C",
      "350C",
      "350C",
      "350C",
      "350C",
      "350C",
      "350C",
      "350C",
      "350C",
      "350C",
      "350C",
      "350C",
      "350C",
      "350C",
      "350C",
      "350C",
      "350C",
      "350C",
      "350C",
      "350C",
      "350C",
      "350C",
      "350C",
      "350C",
      "350C",
      "350C",
      "350C",
      "350C",
      "350C",
      "350C",
      "350C",
      "350C",
      "350C",
      "350C",
      "350C",
      "350C",
      "350C",
      "350C",
      "350C",
      "350C",
      "350C",
      "350C",
      "350C",
      "350C",
      "350C",
      "350C",
      "350C",
      "350C",
      "350C",
      "350C",
      "350C",
      "350C",
      "350C",
      "350C",
      "350C",
      "350C",
      "350C",
      "350C",
      "350C",
      "350C",
      "350C",
      "350C",
      "350C",
      "350C",
      "350C",
      "350C",
      "350C",
      "350C",
      "350C",
      "350C",
      "350C",
      "350C",
      "350C",
      "350C",
      "350C",
      "350C",
      "350C",
      "350C",
      "350C",
      "350C",
      "350C",
      "350C",
      "350C",
      "350C",
      "350C",
      "350C",
      "350C",
      "350C",
      "350C",
      "350C",
      "350C",
      "350C",
      "350C",
      "350C",
      "350C",
      "350C",
      "350C",
      "350C",
      "350C",
      "350C",
      "350C",
      "350C",
      "350C",
      "350C",
      "350C",
      "350C",
      "350C",
      "350C",
      "350C",
      "350C",
      "350C",
      "350C",
      "350C",
      "350C",
      "350C",
      "350C",
      "350C",
      "350C",
      "350C",
      "350C",
      "350C",
      "350C",
      "350C",
      "350C",
      "350C",
      "350C",
      "350C",
      "350C",
      "350C",
      "350C",
      "350C",
      "350C",
      "350C",
      "350C",
      "350C",
      "350C",
      "350C",
      "350C",
      "350C",
      "350C",
      "350C",
      "350C",
      "350C",
      "350C",
      "350C",
      "350C",
      "350C",
      "350C",
      "350C",
      "350C",
      "350C",
      "350C",
      "350C",
      "350",
      "350",
      "344",
      "341",
      "335",
      "331",
      "325",
      "321",
      "312",
      "302",
      "300",
      "283",
      "258",
      "234",
      "210",
      "186",
      "162",
      "116",
      "100",
      "100",
      "100",
      "099",
      "086",
      "083",
      "074",
      "072",
      "065",
      "060C",
      "060",
      "060C",
      "060",
      "060C",
      "060C",
      "060",
      "058C",
      "052",
      "051",
      "047",
      "044",
      "039",
      "034",
      "030",
      "026",
      "022",
      "016",
      "012",
      "008",
      "006"
    ],
    "swim:geom": "path",
    "swim:speeds": [
      174,
      176,
      236,
      240,
      288,
      302,
      327,
      395,
      412,
      440,
      429,
      377,
      381,
      379,
      365,
      364,
      353,
      340,
      331,
      301,
      302,
      299,
      306,
      302,
      301,
      296,
      268,
      234,
      228,
      160,
      159,
      142,
      138,
      140,
      222,
      256,
      275,
      324,
      376,
      396,
      414,
      433,
      449,
      480,
      488,
      486,
      496,
      488,
      505,
      508,
      509,
      511,
      511,
      510,
      511,
      509,
      510,
      508,
      506,
      506,
      506,
      506,
      505,
      504,
      505,
      505,
      506,
      505,
      506,
      506,
      506,
      506,
      506,
      505,
      506,
      506,
      506,
      507,
      507,
      508,
      508,
      508,
      509,
      509,
      509,
      507,
      506,
      506,
      506,
      506,
      506,
      506,
      505,
      504,
      503,
      502,
      501,
      500,
      500,
      500,
      501,
      502,
      502,
      503,
      503,
      503,
      503,
      503,
      501,
      500,
      500,
      500,
      501,
      502,
      503,
      503,
      503,
      503,
      502,
      501,
      501,
      500,
      499,
      498,
      496,
      496,
      495,
      495,
      496,
      496,
      496,
      496,
      496,
      495,
      495,
      495,
      494,
      493,
      493,
      491,
      489,
      489,
      487,
      486,
      486,
      485,
      485,
      483,
      482,
      482,
      480,
      480,
      479,
      480,
      479,
      480,
      480,
      481,
      481,
      482,
      481,
      482,
      480,
      479,
      479,
      479,
      479,
      479,
      478,
      478,
      479,
      480,
      482,
      483,
      483,
      479,
      477,
      476,
      475,
      474,
      474,
      473,
      472,
      474,
      476,
      481,
      477,
      477,
      478,
      478,
      478,
      478,
      479,
      479,
      478,
      478,
      478,
      478,
      478,
      478,
      477,
      477,
      476,
      474,
      473,
      472,
      469,
      466,
      466,
      466,
      466,
      466,
      467,
      463,
      461,
      459,
      458,
      456,
      455,
      453,
      452,
      450,
      451,
      452,
      454,
      458,
      458,
      457,
      457,
      456,
      456,
      455,
      455,
      454,
      453,
      452,
      452,
      451,
      451,
      450,
      450,
      451,
      451,
      452,
      452,
      454,
      454,
      455,
      455,
      455,
      455,
      455,
      456,
      455,
      456,
      455,
      456,
      456,
      458,
      459,
      460,
      459,
      461,
      460,
      461,
      460,
      460,
      462,
      467,
      467,
      467,
      454,
      434,
      416,
      400,
      389,
      366,
      354,
      344,
      313,
      298,
      290,
      291,
      264,
      266,
      255,
      250,
      248,
      249,
      247,
      248,
      248,
      249,
      249,
      233,
      229,
      201,
      200,
      181,
      180,
      154,
      153,
      140,
      129,
      128,
      135,
      130
    ],
    "swim:timestamps": [
      1785594318,
      1785594336,
      1785594396,
      1785594420,
      1785594480,
      1785594540,
      1785594600,
      1785594721,
      1785594785,
      1785594901,
      1785595021,
      1785595117,
      1785595141,
      1785595201,
      1785595321,
      1785595382,
      1785595502,
      1785595562,
      1785595568,
      1785595596,
      1785595622,
      1785595682,
      1785595802,
      1785595860,
      1785595921,
      1785595981,
      1785596041,
      1785596163,
      1785596223,
      1785596403,
      1785596463,
      1785596523,
      1785596533,
      1785596584,
      1785654316,
      1785654376,
      1785654436,
      1785654556,
      1785654616,
      1785654677,
      1785654797,
      1785654917,
      1785654977,
      1785655157,
      1785655217,
      1785655223,
      1785655277,
      1785655283,
      1785655337,
      1785655397,
      1785655457,
      1785655464,
      1785655524,
      1785655577,
      1785655584,
      1785655637,
      1785655644,
      1785655704,
      1785655757,
      1785655817,
      1785655824,
      1785655884,
      1785655937,
      1785655997,
      1785656064,
      1785656117,
      1785656124,
      1785656177,
      1785656237,
      1785656297,
      1785656304,
      1785656357,
      1785656417,
      1785656477,
      1785656537,
      1785656544,
      1785656604,
      1785656658,
      1785656718,
      1785656725,
      1785656778,
      1785656785,
      1785656845,
      1785656898,
      1785656905,
      1785657025,
      1785657085,
      1785657145,
      1785657205,
      1785657265,
      1785657385,
      1785657445,
      1785657505,
      1785657565,
      1785657625,
      1785657685,
      1785657745,
      1785657805,
      1785657865,
      1785657985,
      1785658046,
      1785658106,
      1785658166,
      1785658226,
      1785658286,
      1785658346,
      1785658406,
      1785658466,
      1785658526,
      1785658586,
      1785658646,
      1785658706,
      1785658766,
      1785658826,
      1785658886,
      1785658946,
      1785659006,
      1785659066,
      1785659126,
      1785659186,
      1785659228,
      1785659246,
      1785659288,
      1785659306,
      1785659366,
      1785659408,
      1785659426,
      1785659468,
      1785659486,
      1785659528,
      1785659546,
      1785659588,
      1785659606,
      1785659648,
      1785659666,
      1785659708,
      1785659727,
      1785659768,
      1785659787,
      1785659847,
      1785659888,
      1785659907,
      1785659948,
      1785659967,
      1785660008,
      1785660027,
      1785660068,
      1785660147,
      1785660189,
      1785660207,
      1785660249,
      1785660267,
      1785660309,
      1785660327,
      1785660369,
      1785660387,
      1785660429,
      1785660447,
      1785660489,
      1785660609,
      1785660669,
      1785660729,
      1785660849,
      1785660909,
      1785660969,
      1785661029,
      1785661149,
      1785661209,
      1785661269,
      1785661329,
      1785661389,
      1785661449,
      1785661509,
      1785661569,
      1785661629,
      1785661689,
      1785661749,
      1785661809,
      1785661869,
      1785661929,
      1785661989,
      1785662049,
      1785662109,
      1785662169,
      1785662229,
      1785662270,
      1785662290,
      1785662330,
      1785662350,
      1785662390,
      1785662410,
      1785662450,
      1785662470,
      1785662510,
      1785662530,
      1785662570,
      1785662590,
      1785662630,
      1785662650,
      1785662690,
      1785662750,
      1785662770,
      1785662810,
      1785662870,
      1785662890,
      1785662930,
      1785662990,
      1785663050,
      1785663110,
      1785663230,
      1785663290,
      1785663350,
      1785663410,
      1785663470,
      1785663530,
      1785663591,
      1785663651,
      1785663711,
      1785663771,
      1785663831,
      1785663891,
      1785664011,
      1785664071,
      1785664131,
      1785664191,
      1785664208,
      1785664267,
      1785664311,
      1785664371,
      1785664431,
      1785664448,
      1785664491,
      1785664508,
      1785664568,
      1785664628,
      1785664671,
      1785664688,
      1785664731,
      1785664749,
      1785664791,
      1785664809,
      1785664851,
      1785664869,
      1785664911,
      1785664928,
      1785664971,
      1785664988,
      1785665031,
      1785665048,
      1785665091,
      1785665111,
      1785665151,
      1785665211,
      1785665229,
      1785665271,
      1785665291,
      1785665331,
      1785665391,
      1785665409,
      1785665451,
      1785665468,
      1785665512,
      1785665529,
      1785665572,
      1785665589,
      1785665632,
      1785665650,
      1785665708,
      1785665768,
      1785665828,
      1785665888,
      1785665951,
      1785666008,
      1785666069,
      1785666129,
      1785666190,
      1785666309,
      1785666369,
      1785666410,
      1785666465,
      1785666489,
      1785666536,
      1785666549,
      1785666597,
      1785666610,
      1785666651,
      1785666730,
      1785666771,
      1785666791,
      1785666837,
      1785666851,
      1785666911,
      1785666951,
      1785666972,
      1785667011,
      1785667029,
      1785667071,
      1785667089,
      1785667119,
      1785667149,
      1785667179,
      1785667209,
      1785667239,
      1785667299,
      1785667330,
      1785667365,
      1785667391
    ],
    "wof:geomhash": "f31fdf2f6e3a897f668715a35539d0e6",
    "wof:id": 2032062621,
    "wof:repo": "sfomuseum-data-flights-2026-08"
  },
  "bbox": [
    -122.37305555555555,
    37.684999999999995,
    -86.05527777777777,
    42.074444444444445
  ],
  "geometry": {"coordinates":[[-86.31666666666666,39.7],[-86.33333333333333,39.7],[-86.4,39.68333333333333],[-86.41305555555556,39.6875],[-86.40166666666667,39.76361111111111],[-86.36694444444444,39.84583333333334],[-86.33444444444444,39.930277777777775],[-86.24444444444444,40.132777777777775],[-86.18666666666667,40.255833333333335],[-86.08722222222222,40.46638888888889],[-86.05527777777777,40.7175],[-86.19416666666667,40.855555555555554],[-86.21111111111111,40.86972222222222],[-86.32388888888889,40.961111111111116],[-86.5175,41.10388888888889],[-86.59833333333333,41.18527777777778],[-86.75083333333333,41.348333333333336],[-86.8236111111111,41.42833333333333],[-86.8325,41.43472222222222],[-86.86666666666666,41.46666666666667],[-86.89833333333334,41.49111111111111],[-87.00333333333333,41.506388888888885],[-87.22277777777778,41.54972222222222],[-87.31666666666666,41.583333333333336],[-87.41666666666667,41.63333333333333],[-87.51666666666667,41.666666666666664],[-87.63333333333334,41.65],[-87.79805555555555,41.63444444444444],[-87.85527777777777,41.58916666666667],[-87.8775,41.68527777777778],[-87.83777777777777,41.716944444444444],[-87.80166666666666,41.745555555555555],[-87.8,41.75],[-87.76611111111112,41.77388888888889],[-122.36611111111111,37.684999999999995],[-122.33833333333332,37.74722222222222],[-122.37305555555555,37.8175],[-122.32555555555555,37.96388888888889],[-122.2125,38.009166666666665],[-122.08805555555556,38.059444444444445],[-121.83083333333333,38.16222222222222],[-121.57583333333334,38.26305555555555],[-121.43666666666667,38.3175],[-121.01888888888888,38.56527777777777],[-120.88222222222221,38.649166666666666],[-120.88583333333334,38.645833333333336],[-120.74361111111111,38.73361111111111],[-120.74666666666667,38.72944444444445],[-120.60305555555556,38.81916666666667],[-120.45861111111111,38.906666666666666],[-120.31305555555555,38.99444444444445],[-120.31583333333333,38.99111111111111],[-120.17194444444445,39.07888888888889],[-120.02555555555556,39.16694444444444],[-120.02777777777777,39.16444444444444],[-119.88222222222221,39.25277777777778],[-119.88361111111112,39.251666666666665],[-119.73944444444444,39.33555555555556],[-119.5925,39.42333333333333],[-119.44694444444445,39.50833333333333],[-119.44888888888889,39.505833333333335],[-119.30388888888889,39.59138888888889],[-119.15583333333333,39.67861111111111],[-119.01055555555556,39.76222222222222],[-118.865,39.846111111111114],[-118.70472222222223,39.92222222222222],[-118.70611111111111,39.92166666666667],[-118.54277777777777,39.98861111111111],[-118.37888888888888,40.055],[-118.21805555555555,40.11944444444445],[-118.22416666666666,40.11694444444444],[-118.05444444444444,40.184999999999995],[-117.88527777777779,40.239444444444445],[-117.71861111111112,40.28944444444444],[-117.54666666666667,40.34055555555556],[-117.54944444444445,40.33972222222222],[-117.37805555555555,40.390277777777776],[-117.20222222222222,40.44194444444444],[-117.02416666666666,40.493611111111115],[-117.02722222222222,40.49277777777778],[-116.88222222222221,40.535],[-116.84833333333333,40.54472222222222],[-116.6725,40.595555555555556],[-116.53055555555555,40.63583333333333],[-116.49805555555555,40.64527777777778],[-116.15027777777779,40.744166666666665],[-115.97472222222223,40.793055555555554],[-115.80222222222221,40.840833333333336],[-115.62833333333333,40.88861111111111],[-115.45194444444445,40.93694444444444],[-115.10194444444444,41.03194444444444],[-114.92722222222223,41.07888888888889],[-114.74916666666667,41.126111111111115],[-114.56916666666666,41.17361111111111],[-114.39416666666668,41.219722222222224],[-114.21972222222223,41.265277777777776],[-114.04666666666667,41.309999999999995],[-113.8736111111111,41.35444444444445],[-113.6913888888889,41.38305555555556],[-113.32777777777777,41.43138888888889],[-113.1463888888889,41.455000000000005],[-112.96111111111111,41.47888888888889],[-112.7775,41.50194444444445],[-112.59305555555555,41.525],[-112.40777777777778,41.54805555555556],[-112.22194444444445,41.57055555555556],[-112.03888888888889,41.59277777777778],[-111.89083333333333,41.61],[-111.70694444444445,41.63166666666667],[-111.52305555555556,41.65277777777778],[-111.33916666666666,41.67361111111111],[-111.15333333333334,41.69444444444444],[-110.96916666666667,41.71472222222223],[-110.77,41.73638888888889],[-110.58277777777778,41.756388888888885],[-110.39833333333334,41.77583333333333],[-110.21333333333334,41.79472222222222],[-110.02777777777777,41.81388888888888],[-109.84305555555555,41.83222222222223],[-109.65777777777778,41.85055555555556],[-109.54694444444445,41.86138888888889],[-109.47111111111111,41.868611111111115],[-109.36055555555555,41.87916666666667],[-109.28583333333333,41.88611111111111],[-109.10444444444444,41.903055555555554],[-108.99388888888889,41.913333333333334],[-108.92,41.919999999999995],[-108.80805555555555,41.930277777777775],[-108.73277777777778,41.93694444444444],[-108.6236111111111,41.946666666666665],[-108.54944444444445,41.95333333333333],[-108.44,41.962500000000006],[-108.36527777777778,41.969166666666666],[-108.255,41.978611111111114],[-108.18333333333334,41.984722222222224],[-108.07249999999999,41.99388888888889],[-107.99833333333333,42],[-107.8913888888889,42.00388888888889],[-107.81611111111111,42.00694444444444],[-107.63444444444445,42.01361111111111],[-107.52555555555556,42.0175],[-107.45333333333333,42.019999999999996],[-107.34777777777778,42.02361111111111],[-107.27388888888889,42.02583333333333],[-107.16583333333334,42.02916666666667],[-107.09305555555555,42.03138888888889],[-106.98555555555555,42.03472222222222],[-106.73444444444445,42.04194444444444],[-106.62694444444443,42.044999999999995],[-106.57666666666667,42.046388888888885],[-106.43666666666667,42.05],[-106.40027777777779,42.05027777777777],[-106.25833333333334,42.05444444444444],[-106.22277777777778,42.05361111111111],[-106.08055555555555,42.05833333333333],[-106.04194444444444,42.05916666666666],[-105.90027777777779,42.06222222222222],[-105.86388888888888,42.062777777777775],[-105.7213888888889,42.06583333333333],[-105.36222222222221,42.07194444444445],[-105.1825,42.074444444444445],[-105.00638888888889,42.06527777777777],[-104.65111111111112,42.04361111111111],[-104.47611111111111,42.03194444444444],[-104.2975,42.02027777777778],[-104.12166666666666,42.00833333333333],[-103.76694444444445,41.98777777777778],[-103.58916666666666,41.97805555555556],[-103.41333333333334,41.96805555555556],[-103.23472222222222,41.9575],[-103.05722222222222,41.94694444444444],[-102.88027777777778,41.93611111111111],[-102.69972222222222,41.92472222222222],[-102.51944444444445,41.913333333333334],[-102.34055555555555,41.901666666666664],[-102.16083333333334,41.88944444444444],[-101.97611111111111,41.876666666666665],[-101.80027777777778,41.86416666666667],[-101.62472222222222,41.85138888888889],[-101.44833333333334,41.83861111111111],[-101.27416666666666,41.82555555555556],[-101.09833333333333,41.81194444444444],[-100.92361111111111,41.7975],[-100.74722222222222,41.78138888888889],[-100.56944444444444,41.765277777777776],[-100.45833333333334,41.755],[-100.39305555555556,41.74888888888889],[-100.28611111111111,41.73888888888889],[-100.21611111111112,41.73222222222223],[-100.09388888888888,41.72083333333334],[-100.03888888888889,41.71527777777778],[-99.92,41.70388888888889],[-99.8625,41.69833333333333],[-99.74333333333334,41.68666666666666],[-99.68666666666667,41.68083333333333],[-99.56583333333333,41.66888888888889],[-99.50833333333334,41.66305555555555],[-99.39194444444445,41.651111111111106],[-99.33333333333333,41.644999999999996],[-99.21694444444445,41.63305555555556],[-99.04305555555555,41.615],[-98.98416666666667,41.60861111111111],[-98.86861111111111,41.59638888888889],[-98.69638888888889,41.57777777777778],[-98.63583333333334,41.571111111111115],[-98.5225,41.558611111111105],[-98.35333333333332,41.54],[-98.18527777777778,41.52111111111111],[-98.01277777777777,41.50138888888889],[-97.67694444444444,41.455000000000005],[-97.50805555555556,41.431666666666665],[-97.33722222222222,41.4075],[-97.16666666666667,41.38305555555556],[-96.99777777777778,41.38111111111111],[-96.82694444444444,41.386944444444445],[-96.65944444444445,41.39277777777778],[-96.49083333333333,41.39833333333333],[-96.3236111111111,41.40333333333333],[-96.1675,41.408055555555556],[-96.00027777777778,41.41305555555555],[-95.83444444444444,41.41722222222222],[-95.51027777777777,41.42527777777777],[-95.3436111111111,41.42916666666667],[-95.17694444444444,41.4325],[-95.00555555555556,41.43583333333333],[-94.96444444444445,41.43666666666666],[-94.79472222222222,41.43944444444444],[-94.66888888888889,41.44138888888889],[-94.50055555555555,41.44416666666666],[-94.33222222222221,41.44638888888888],[-94.29027777777777,41.44694444444444],[-94.1588888888889,41.448611111111106],[-94.12194444444444,41.44916666666666],[-93.95444444444445,41.450833333333335],[-93.78805555555556,41.452222222222225],[-93.65555555555557,41.45333333333333],[-93.62027777777777,41.453611111111115],[-93.48805555555556,41.45416666666667],[-93.45416666666667,41.45444444444445],[-93.32194444444444,41.455000000000005],[-93.28833333333333,41.455000000000005],[-93.1525,41.455555555555556],[-93.12055555555555,41.45583333333334],[-92.9863888888889,41.45583333333334],[-92.95166666666667,41.45583333333334],[-92.81527777777778,41.45611111111111],[-92.78444444444445,41.45611111111111],[-92.64666666666668,41.45583333333334],[-92.61583333333333,41.45583333333334],[-92.47694444444444,41.455555555555556],[-92.44583333333334,41.45527777777778],[-92.30833333333334,41.45472222222222],[-92.14027777777778,41.45388888888889],[-92.08944444444444,41.45333333333333],[-91.9713888888889,41.452222222222225],[-91.92166666666667,41.452222222222225],[-91.80222222222221,41.450833333333335],[-91.65194444444445,41.44888888888889],[-91.58416666666666,41.44916666666666],[-91.48055555555555,41.44777777777777],[-91.41416666666667,41.447222222222216],[-91.31027777777777,41.44472222222222],[-91.24055555555556,41.44472222222222],[-91.14083333333333,41.44277777777778],[-91.06916666666666,41.44222222222222],[-90.97166666666666,41.440555555555555],[-90.89916666666667,41.43944444444444],[-90.72777777777777,41.436388888888885],[-90.55361111111111,41.43277777777777],[-90.38138888888888,41.42944444444444],[-90.20944444444444,41.425555555555555],[-90.03861111111111,41.421388888888885],[-89.87805555555555,41.41722222222222],[-89.72194444444445,41.413333333333334],[-89.5736111111111,41.409166666666664],[-89.43055555555556,41.405],[-89.1588888888889,41.39666666666667],[-89.02805555555555,41.39222222222222],[-88.93333333333334,41.38333333333333],[-88.83333333333333,41.38333333333333],[-88.78277777777778,41.384166666666665],[-88.7,41.38333333333333],[-88.67666666666668,41.38027777777778],[-88.6,41.4],[-88.58333333333333,41.405],[-88.51666666666667,41.43333333333333],[-88.41694444444445,41.466944444444444],[-88.36666666666666,41.483333333333334],[-88.33555555555554,41.49777777777778],[-88.26666666666667,41.516666666666666],[-88.25416666666666,41.528055555555554],[-88.17111111111112,41.55888888888889],[-88.11666666666666,41.583333333333336],[-88.08833333333332,41.58972222222222],[-88.03333333333333,41.61666666666667],[-88.01055555555556,41.61833333333333],[-87.96666666666667,41.63333333333333],[-87.94194444444445,41.64388888888889],[-87.91666666666667,41.65],[-87.89027777777778,41.67527777777777],[-87.86666666666666,41.68333333333333],[-87.8536111111111,41.70444444444445],[-87.83333333333333,41.71666666666667],[-87.8,41.75],[-87.7863888888889,41.757777777777775],[-87.76666666666667,41.78333333333333],[-87.75194444444445,41.785]],"type":"LineString"}
}
