{
  "id": 2048093725,
  "type": "Feature",
  "properties": {
    "geom:area": 0,
    "geom:bbox": "-122.361360,36.724880,-121.880550,37.612310",
    "geom:latitude": 37.22877497802472,
    "geom:longitude": -122.07364338037435,
    "src:alt_label": "swim-approach",
    "src:geom": "swim",
    "swim:elevations": [
      5535,
      5273,
      5179,
      4990,
      4803,
      4330,
      4197,
      4084,
      3888,
      3819,
      3463,
      3407,
      2918,
      2848,
      2471,
      2335,
      2074,
      1962,
      1708,
      1644,
      1525,
      1524,
      1387,
      1158,
      1074,
      945,
      945,
      790,
      748,
      643,
      517,
      460,
      334,
      157,
      77,
      0
    ],
    "swim:geom": "approach",
    "swim:timestamps": [
      1787300109,
      1787300142,
      1787300154,
      1787300176,
      1787300194,
      1787300240,
      1787300264,
      1787300292,
      1787300332,
      1787300343,
      1787300394,
      1787300402,
      1787300455,
      1787300462,
      1787300508,
      1787300530,
      1787300568,
      1787300587,
      1787300625,
      1787300653,
      1787300698,
      1787300708,
      1787300741,
      1787300782,
      1787300790,
      1787300841,
      1787300859,
      1787300888,
      1787300900,
      1787300927,
      1787300958,
      1787300973,
      1787301005,
      1787301055,
      1787301077,
      1787301096
    ],
    "wof:geomhash": "1c82c526c194706033ca886e6e3841ff",
    "wof:id": 2048093725,
    "wof:repo": "sfomuseum-data-flights-2026-08"
  },
  "bbox": [
    -122.36136,
    36.72488,
    -121.88055,
    37.61231
  ],
  "geometry": {"type":"LineString","coordinates":[[-121.88055,36.72488],[-121.90336,36.77491],[-121.90866,36.79438],[-121.91852,36.829],[-121.92613,36.85716],[-121.94571,36.92865],[-121.95731,36.964],[-121.97246,37.00168],[-121.99279,37.0538],[-121.99839,37.068],[-122.02291,37.13051],[-122.02642,37.13946],[-122.05814,37.20071],[-122.06414,37.2081],[-122.10092,37.25463],[-122.11901,37.27725],[-122.14625,37.31647],[-122.14184,37.3385],[-122.1197,37.3781],[-122.10382,37.40562],[-122.08169,37.44547],[-122.07773,37.4531],[-122.08763,37.47916],[-122.11149,37.50517],[-122.11806,37.50929],[-122.16097,37.52875],[-122.17633,37.53511],[-122.20268,37.54633],[-122.21298,37.55062],[-122.23445,37.55968],[-122.25967,37.57029],[-122.27078,37.57496],[-122.29522,37.58522],[-122.33074,37.6002],[-122.34649,37.60675],[-122.36136,37.61231]]}
}
