{
  "id": 2032116553,
  "type": "Feature",
  "properties": {
    "geom:area": 0,
    "geom:bbox": "-122.352570,36.736100,-121.888140,37.609200",
    "geom:latitude": 37.2263876948105,
    "geom:longitude": -122.06956598346967,
    "src:alt_label": "swim-approach",
    "src:geom": "swim",
    "swim:elevations": [
      4643,
      4511,
      4135,
      3610,
      3157,
      3071,
      2986,
      2563,
      2477,
      2464,
      2389,
      2197,
      2167,
      1896,
      1762,
      1692,
      1633,
      1356,
      1243,
      867,
      758,
      607,
      489,
      406,
      229,
      115,
      40
    ],
    "swim:geom": "approach",
    "swim:timestamps": [
      1785950982,
      1785951001,
      1785951037,
      1785951104,
      1785951174,
      1785951204,
      1785951224,
      1785951291,
      1785951306,
      1785951355,
      1785951388,
      1785951412,
      1785951421,
      1785951473,
      1785951492,
      1785951505,
      1785951513,
      1785951565,
      1785951578,
      1785951627,
      1785951657,
      1785951683,
      1785951708,
      1785951729,
      1785951774,
      1785951801,
      1785951819
    ],
    "wof:geomhash": "628d2665d23e413c6e3f320a193bfffe",
    "wof:id": 2032116553,
    "wof:repo": "sfomuseum-data-flights-2026-08"
  },
  "bbox": [
    -122.35257,
    36.7361,
    -121.88814,
    37.6092
  ],
  "geometry": {"type":"LineString","coordinates":[[-121.88814,36.7361],[-121.90051,36.76435],[-121.91675,36.82187],[-121.94579,36.92585],[-121.98283,37.02849],[-121.99865,37.06923],[-122.00877,37.09506],[-122.0417,37.17871],[-122.04908,37.19783],[-122.07244,37.2574],[-122.08843,37.29784],[-122.10028,37.32776],[-122.10466,37.33884],[-122.12517,37.39884],[-122.11812,37.42016],[-122.11114,37.43402],[-122.10711,37.44212],[-122.11062,37.49711],[-122.12144,37.50865],[-122.17981,37.53651],[-122.21152,37.54991],[-122.2382,37.56125],[-122.26116,37.5708],[-122.2795,37.57859],[-122.31623,37.59407],[-122.33799,37.60306],[-122.35257,37.6092]]}
}
