{
  "id": 2047882907,
  "type": "Feature",
  "properties": {
    "geom:area": 0,
    "geom:bbox": "-122.358060,37.492620,-121.256820,37.614180",
    "geom:latitude": 37.542605493785764,
    "geom:longitude": -121.8145323623432,
    "src:alt_label": "swim-approach",
    "src:geom": "swim",
    "swim:elevations": [
      4402,
      4181,
      3883,
      3639,
      3385,
      3141,
      3075,
      3046,
      2906,
      2885,
      2749,
      2600,
      2470,
      2277,
      2193,
      2143,
      1903,
      1838,
      1745,
      1620,
      1410,
      1247,
      965,
      896,
      738,
      486,
      366,
      263,
      211,
      129,
      73,
      0
    ],
    "swim:geom": "approach",
    "swim:timestamps": [
      1786223758,
      1786223782,
      1786223812,
      1786223840,
      1786223869,
      1786223896,
      1786223927,
      1786223940,
      1786223967,
      1786223970,
      1786223994,
      1786224020,
      1786224042,
      1786224077,
      1786224093,
      1786224101,
      1786224146,
      1786224160,
      1786224207,
      1786224226,
      1786224250,
      1786224270,
      1786224323,
      1786224339,
      1786224370,
      1786224418,
      1786224447,
      1786224471,
      1786224488,
      1786224510,
      1786224526,
      1786224541
    ],
    "wof:geomhash": "ddeb6e4be2e523dbf0523b771b983c77",
    "wof:id": 2047882907,
    "wof:repo": "sfomuseum-data-flights-2026-08"
  },
  "bbox": [
    -122.35806,
    37.49262,
    -121.25682,
    37.61418
  ],
  "geometry": {"type":"LineString","coordinates":[[-121.25682,37.59347],[-121.30755,37.58704],[-121.3689,37.58044],[-121.42433,37.57426],[-121.48131,37.56771],[-121.53571,37.56131],[-121.59437,37.55436],[-121.61809,37.55093],[-121.66402,37.54149],[-121.66901,37.54031],[-121.70732,37.53117],[-121.74935,37.52106],[-121.78526,37.51243],[-121.83923,37.49944],[-121.86312,37.49409],[-121.87546,37.49262],[-121.9433,37.49466],[-121.96405,37.49582],[-122.03296,37.49993],[-122.05749,37.50137],[-122.08965,37.50361],[-122.11263,37.51055],[-122.17118,37.53519],[-122.18831,37.54241],[-122.22202,37.55669],[-122.26866,37.57629],[-122.29364,37.58681],[-122.31146,37.59436],[-122.3234,37.59937],[-122.33822,37.60551],[-122.34869,37.61004],[-122.35806,37.61418]]}
}
