{
  "id": 2047993521,
  "type": "Feature",
  "properties": {
    "geom:area": 0,
    "geom:bbox": "-122.853670,37.420920,-122.131640,38.515930",
    "geom:latitude": 37.82684931340897,
    "geom:longitude": -122.50530132786666,
    "src:alt_label": "swim-approach",
    "src:geom": "swim",
    "swim:elevations": [
      8446,
      8249,
      8030,
      7592,
      7473,
      7012,
      6640,
      6206,
      6023,
      5641,
      5389,
      5062,
      4672,
      4382,
      4067,
      3978,
      3656,
      3476,
      3356,
      3353,
      3353,
      3353,
      3353,
      3353,
      3077,
      2894,
      2705,
      2663,
      2502,
      2395,
      2260,
      1997,
      1786,
      1636,
      1526,
      1230,
      1219,
      972,
      915,
      914,
      911,
      703,
      624,
      514,
      295,
      175,
      74,
      43
    ],
    "swim:geom": "approach",
    "swim:timestamps": [
      1786914757,
      1786914774,
      1786914796,
      1786914835,
      1786914847,
      1786914887,
      1786914918,
      1786914954,
      1786914972,
      1786915007,
      1786915042,
      1786915071,
      1786915103,
      1786915132,
      1786915163,
      1786915173,
      1786915219,
      1786915255,
      1786915279,
      1786915306,
      1786915321,
      1786915333,
      1786915361,
      1786915393,
      1786915436,
      1786915463,
      1786915496,
      1786915502,
      1786915528,
      1786915543,
      1786915564,
      1786915614,
      1786915646,
      1786915667,
      1786915684,
      1786915733,
      1786915746,
      1786915795,
      1786915826,
      1786915857,
      1786915860,
      1786915905,
      1786915922,
      1786915950,
      1786916004,
      1786916034,
      1786916061,
      1786916071
    ],
    "wof:geomhash": "bc53bb2a353c03094ab9c87d33b55e33",
    "wof:id": 2047993521,
    "wof:repo": "sfomuseum-data-flights-2026-08"
  },
  "bbox": [
    -122.85367,
    37.42092,
    -122.13164,
    38.51593
  ],
  "geometry": {"type":"LineString","coordinates":[[-122.85367,38.51593],[-122.84525,38.48675],[-122.83334,38.44783],[-122.81271,38.37882],[-122.80635,38.3574],[-122.78626,38.28914],[-122.77066,38.23522],[-122.75284,38.17421],[-122.74429,38.14434],[-122.72787,38.088],[-122.71176,38.03267],[-122.69839,37.98668],[-122.68432,37.93795],[-122.66618,37.89624],[-122.62929,37.85792],[-122.61653,37.8459],[-122.56021,37.79285],[-122.5191,37.75401],[-122.49315,37.72942],[-122.46567,37.70373],[-122.45282,37.69156],[-122.44183,37.68115],[-122.41716,37.65796],[-122.38952,37.63199],[-122.35706,37.59393],[-122.34366,37.56736],[-122.32468,37.53641],[-122.32121,37.53079],[-122.31064,37.50561],[-122.31496,37.49001],[-122.32193,37.46894],[-122.28999,37.43406],[-122.2502,37.42844],[-122.22362,37.42427],[-122.20256,37.42092],[-122.14549,37.42647],[-122.13832,37.43823],[-122.13164,37.48692],[-122.15231,37.51212],[-122.17256,37.53287],[-122.1751,37.53431],[-122.21731,37.55243],[-122.23295,37.55899],[-122.25785,37.56934],[-122.30277,37.58825],[-122.32623,37.59834],[-122.34748,37.60719],[-122.35453,37.61014]]}
}
