{
  "id": 2047898677,
  "type": "Feature",
  "properties": {
    "geom:area": 0,
    "geom:bbox": "-122.351389,37.500000,-81.883056,41.388056",
    "geom:latitude": 38.95698077453753,
    "geom:longitude": -102.02784853349472,
    "src:alt_label": "swim-path",
    "src:geom": "swim",
    "swim:altitudes": [
      "018",
      "022",
      "030",
      "034",
      "043",
      "054",
      "058",
      "081",
      "085",
      "106",
      "108",
      "118",
      "121",
      "139",
      "158",
      "179",
      "196",
      "199",
      "213",
      "216",
      "229",
      "232",
      "243",
      "246",
      "256",
      "258",
      "266",
      "268",
      "276",
      "278",
      "290",
      "302",
      "314",
      "326",
      "326",
      "334",
      "340C",
      "340C",
      "340C",
      "340C",
      "340C",
      "340C",
      "340C",
      "340C",
      "340C",
      "340C",
      "340C",
      "340C",
      "340C",
      "340C",
      "340C",
      "340C",
      "340C",
      "340C",
      "340C",
      "340C",
      "340C",
      "340C",
      "340C",
      "340C",
      "340C",
      "340C",
      "340C",
      "340C",
      "340C",
      "340C",
      "340C",
      "340C",
      "340C",
      "340C",
      "340C",
      "340C",
      "340C",
      "340C",
      "340C",
      "340C",
      "340C",
      "340C",
      "340C",
      "340C",
      "340C",
      "340C",
      "340C",
      "340C",
      "340C",
      "340C",
      "340C",
      "340C",
      "340C",
      "340C",
      "340C",
      "340C",
      "340C",
      "340C",
      "340C",
      "340C",
      "340C",
      "340C",
      "340C",
      "340C",
      "340C",
      "340C",
      "340C",
      "340C",
      "340C",
      "340C",
      "340C",
      "340C",
      "340C",
      "340C",
      "340C",
      "340C",
      "340C",
      "340C",
      "340C",
      "340C",
      "340C",
      "340C",
      "340C",
      "340C",
      "340C",
      "340C",
      "340C",
      "340C",
      "340C",
      "340C",
      "340C",
      "340C",
      "340C",
      "340C",
      "340C",
      "340C",
      "340C",
      "340C",
      "340C",
      "340C",
      "340C",
      "340C",
      "340C",
      "340C",
      "340C",
      "340C",
      "340C",
      "340C",
      "340C",
      "340C",
      "340C",
      "340C",
      "340C",
      "340C",
      "340C",
      "340C",
      "340C",
      "340C",
      "340C",
      "340C",
      "340C",
      "340C",
      "340C",
      "340C",
      "340C",
      "340C",
      "340C",
      "340C",
      "340C",
      "340C",
      "340C",
      "340C",
      "340C",
      "340C",
      "340C",
      "340C",
      "340C",
      "340C",
      "340C",
      "340C",
      "340C",
      "340C",
      "340C",
      "340C",
      "340C",
      "340C",
      "340C",
      "340C",
      "340C",
      "340C",
      "340C",
      "340C",
      "340C",
      "340C",
      "340C",
      "340C",
      "340C",
      "340C",
      "340C",
      "340C",
      "340C",
      "340C",
      "340C",
      "340C",
      "340C",
      "340C",
      "340C",
      "340C",
      "340C",
      "340",
      "348",
      "358C",
      "360C",
      "360C",
      "360C",
      "360C",
      "360C",
      "360C",
      "360C",
      "360C",
      "360C",
      "360C",
      "360C",
      "360C",
      "360C",
      "360C",
      "360C",
      "360C",
      "360C",
      "360C",
      "360C",
      "360C",
      "360C",
      "360C",
      "360C",
      "360C",
      "360C",
      "360C",
      "360C",
      "360C",
      "360C",
      "360C",
      "360C",
      "360C",
      "360C",
      "360C",
      "360C",
      "360C",
      "360C",
      "360C",
      "360C",
      "360C",
      "360C",
      "360C",
      "360C",
      "360C",
      "360C",
      "360C",
      "360C",
      "360C",
      "360C",
      "360C",
      "360C",
      "360C",
      "360C",
      "360C",
      "360C",
      "360C",
      "360C",
      "360C",
      "360C",
      "360C",
      "360C",
      "360C",
      "360C",
      "360C",
      "360C",
      "360C",
      "360C",
      "360C",
      "360C",
      "360C",
      "360C",
      "360C",
      "360C",
      "360C",
      "360C",
      "360C",
      "360C",
      "360C",
      "360C",
      "360C",
      "360C",
      "360C",
      "360C",
      "360C",
      "360C",
      "360C",
      "360C",
      "360C",
      "360C",
      "360C",
      "360C",
      "360C",
      "360C",
      "360C",
      "360C",
      "360C",
      "360C",
      "360C",
      "360C",
      "360C",
      "360C",
      "360C",
      "360C",
      "360C",
      "360C",
      "360C",
      "360C",
      "360C",
      "360C",
      "360C",
      "360C",
      "360C",
      "360C",
      "360C",
      "360C",
      "360C",
      "360C",
      "360C",
      "360C",
      "360C",
      "360C",
      "360C",
      "360C",
      "360C",
      "360C",
      "360",
      "358",
      "354",
      "348",
      "345",
      "341C",
      "340C",
      "340C",
      "340C",
      "340C",
      "340",
      "331",
      "322C",
      "320C",
      "320C",
      "320",
      "313",
      "297",
      "286",
      "263",
      "259",
      "235",
      "221",
      "197",
      "179",
      "177",
      "160",
      "157",
      "141",
      "138",
      "119",
      "104",
      "097",
      "083",
      "073",
      "063",
      "050",
      "041",
      "030",
      "020",
      "019",
      "011",
      "002"
    ],
    "swim:geom": "path",
    "swim:speeds": [
      178,
      192,
      220,
      227,
      233,
      254,
      257,
      261,
      265,
      275,
      281,
      329,
      338,
      366,
      381,
      386,
      390,
      391,
      399,
      401,
      407,
      408,
      411,
      412,
      418,
      419,
      427,
      430,
      435,
      437,
      439,
      439,
      440,
      439,
      439,
      437,
      436,
      432,
      430,
      426,
      424,
      420,
      421,
      420,
      419,
      420,
      419,
      419,
      418,
      416,
      418,
      418,
      418,
      418,
      420,
      420,
      422,
      420,
      424,
      421,
      425,
      423,
      425,
      425,
      425,
      425,
      423,
      423,
      422,
      422,
      421,
      422,
      421,
      422,
      422,
      422,
      422,
      422,
      421,
      420,
      420,
      420,
      419,
      420,
      419,
      419,
      419,
      419,
      419,
      419,
      420,
      420,
      421,
      422,
      424,
      425,
      427,
      430,
      431,
      432,
      432,
      431,
      431,
      430,
      430,
      429,
      429,
      429,
      429,
      430,
      430,
      431,
      432,
      433,
      434,
      436,
      438,
      439,
      439,
      439,
      438,
      434,
      432,
      433,
      432,
      431,
      430,
      428,
      430,
      432,
      433,
      433,
      433,
      433,
      432,
      434,
      435,
      437,
      440,
      441,
      441,
      440,
      438,
      436,
      435,
      434,
      434,
      434,
      434,
      435,
      435,
      436,
      438,
      439,
      439,
      437,
      437,
      437,
      437,
      437,
      437,
      438,
      437,
      437,
      437,
      435,
      435,
      433,
      431,
      431,
      430,
      430,
      430,
      430,
      430,
      430,
      430,
      430,
      430,
      430,
      430,
      430,
      431,
      432,
      432,
      433,
      435,
      434,
      435,
      434,
      434,
      434,
      434,
      433,
      433,
      433,
      433,
      433,
      432,
      432,
      431,
      431,
      431,
      432,
      431,
      432,
      433,
      431,
      431,
      431,
      430,
      430,
      429,
      429,
      428,
      427,
      426,
      425,
      425,
      425,
      424,
      424,
      424,
      425,
      425,
      424,
      423,
      424,
      424,
      424,
      424,
      424,
      424,
      424,
      425,
      427,
      431,
      431,
      432,
      431,
      432,
      432,
      432,
      430,
      430,
      430,
      423,
      419,
      416,
      415,
      416,
      417,
      418,
      419,
      419,
      418,
      417,
      416,
      416,
      416,
      417,
      417,
      418,
      418,
      418,
      419,
      419,
      419,
      418,
      418,
      419,
      420,
      421,
      419,
      418,
      417,
      418,
      420,
      421,
      422,
      423,
      423,
      422,
      421,
      420,
      423,
      425,
      427,
      430,
      431,
      432,
      427,
      431,
      425,
      426,
      424,
      426,
      424,
      425,
      424,
      425,
      424,
      424,
      424,
      425,
      424,
      425,
      424,
      425,
      425,
      425,
      425,
      426,
      426,
      426,
      426,
      426,
      426,
      426,
      425,
      425,
      424,
      424,
      424,
      424,
      424,
      424,
      424,
      424,
      425,
      426,
      426,
      427,
      427,
      428,
      428,
      428,
      428,
      429,
      430,
      430,
      431,
      432,
      432,
      433,
      434,
      435,
      436,
      436,
      436,
      446,
      450,
      436,
      437,
      423,
      396,
      385,
      370,
      373,
      361,
      365,
      351,
      356,
      348,
      337,
      292,
      288,
      277,
      266,
      259,
      233,
      211,
      191,
      192,
      160,
      158
    ],
    "swim:timestamps": [
      1786273748,
      1786273766,
      1786273804,
      1786273811,
      1786273826,
      1786273864,
      1786273871,
      1786273924,
      1786273931,
      1786273984,
      1786273991,
      1786274044,
      1786274051,
      1786274111,
      1786274171,
      1786274231,
      1786274285,
      1786274291,
      1786274345,
      1786274352,
      1786274405,
      1786274412,
      1786274465,
      1786274472,
      1786274525,
      1786274532,
      1786274585,
      1786274592,
      1786274645,
      1786274652,
      1786274712,
      1786274772,
      1786274832,
      1786274885,
      1786274892,
      1786274945,
      1786275001,
      1786275061,
      1786275121,
      1786275181,
      1786275241,
      1786275268,
      1786275301,
      1786275328,
      1786275373,
      1786275388,
      1786275426,
      1786275448,
      1786275493,
      1786275508,
      1786275546,
      1786275569,
      1786275606,
      1786275629,
      1786275666,
      1786275689,
      1786275727,
      1786275750,
      1786275787,
      1786275810,
      1786275847,
      1786275870,
      1786275902,
      1786275930,
      1786275967,
      1786275990,
      1786276027,
      1786276051,
      1786276087,
      1786276111,
      1786276143,
      1786276171,
      1786276203,
      1786276231,
      1786276263,
      1786276291,
      1786276323,
      1786276351,
      1786276383,
      1786276411,
      1786276443,
      1786276472,
      1786276503,
      1786276532,
      1786276563,
      1786276592,
      1786276623,
      1786276652,
      1786276683,
      1786276712,
      1786276744,
      1786276772,
      1786276804,
      1786276832,
      1786276864,
      1786276892,
      1786276924,
      1786276952,
      1786276984,
      1786277010,
      1786277070,
      1786277104,
      1786277130,
      1786277165,
      1786277190,
      1786277225,
      1786277250,
      1786277285,
      1786277310,
      1786277345,
      1786277370,
      1786277405,
      1786277430,
      1786277465,
      1786277490,
      1786277551,
      1786277611,
      1786277671,
      1786277731,
      1786277791,
      1786277851,
      1786277911,
      1786277971,
      1786278031,
      1786278091,
      1786278152,
      1786278212,
      1786278272,
      1786278332,
      1786278392,
      1786278452,
      1786278512,
      1786278573,
      1786278633,
      1786278693,
      1786278753,
      1786278813,
      1786278873,
      1786278933,
      1786278993,
      1786279053,
      1786279113,
      1786279173,
      1786279233,
      1786279294,
      1786279354,
      1786279414,
      1786279474,
      1786279534,
      1786279594,
      1786279654,
      1786279714,
      1786279774,
      1786279834,
      1786279894,
      1786279954,
      1786280015,
      1786280075,
      1786280135,
      1786280195,
      1786280255,
      1786280327,
      1786280375,
      1786280435,
      1786280447,
      1786280495,
      1786280507,
      1786280555,
      1786280615,
      1786280627,
      1786280675,
      1786280687,
      1786280747,
      1786280796,
      1786280808,
      1786280856,
      1786280868,
      1786280916,
      1786280976,
      1786280988,
      1786281036,
      1786281048,
      1786281108,
      1786281156,
      1786281168,
      1786281228,
      1786281288,
      1786281336,
      1786281348,
      1786281397,
      1786281408,
      1786281457,
      1786281468,
      1786281517,
      1786281528,
      1786281577,
      1786281588,
      1786281637,
      1786281648,
      1786281709,
      1786281769,
      1786281829,
      1786281889,
      1786281949,
      1786282009,
      1786282069,
      1786282129,
      1786282189,
      1786282249,
      1786282309,
      1786282369,
      1786282429,
      1786282490,
      1786282550,
      1786282610,
      1786282670,
      1786282730,
      1786282790,
      1786282910,
      1786282970,
      1786283030,
      1786283090,
      1786283150,
      1786283211,
      1786283271,
      1786283331,
      1786283389,
      1786283449,
      1786283509,
      1786283569,
      1786283629,
      1786283689,
      1786283749,
      1786283809,
      1786283869,
      1786283929,
      1786283992,
      1786284050,
      1786284110,
      1786284172,
      1786284230,
      1786284290,
      1786284350,
      1786284410,
      1786284470,
      1786284530,
      1786284590,
      1786284650,
      1786284713,
      1786284771,
      1786284831,
      1786284891,
      1786284951,
      1786285011,
      1786285071,
      1786285143,
      1786285193,
      1786285253,
      1786285263,
      1786285314,
      1786285374,
      1786285383,
      1786285434,
      1786285444,
      1786285504,
      1786285564,
      1786285624,
      1786285684,
      1786285744,
      1786285804,
      1786285924,
      1786285984,
      1786286044,
      1786286165,
      1786286225,
      1786286285,
      1786286345,
      1786286405,
      1786286465,
      1786286525,
      1786286585,
      1786286645,
      1786286705,
      1786286765,
      1786286825,
      1786286886,
      1786286946,
      1786287006,
      1786287066,
      1786287126,
      1786287165,
      1786287186,
      1786287225,
      1786287246,
      1786287285,
      1786287306,
      1786287346,
      1786287366,
      1786287406,
      1786287426,
      1786287466,
      1786287486,
      1786287526,
      1786287546,
      1786287586,
      1786287667,
      1786287706,
      1786287727,
      1786287766,
      1786287787,
      1786287826,
      1786287847,
      1786287886,
      1786287907,
      1786287946,
      1786287967,
      1786288006,
      1786288027,
      1786288066,
      1786288087,
      1786288126,
      1786288147,
      1786288186,
      1786288207,
      1786288247,
      1786288267,
      1786288307,
      1786288328,
      1786288367,
      1786288388,
      1786288427,
      1786288448,
      1786288487,
      1786288508,
      1786288547,
      1786288568,
      1786288607,
      1786288628,
      1786288667,
      1786288727,
      1786288787,
      1786288847,
      1786288907,
      1786288967,
      1786289028,
      1786289088,
      1786289148,
      1786289220,
      1786289280,
      1786289340,
      1786289365,
      1786289389,
      1786289449,
      1786289460,
      1786289520,
      1786289569,
      1786289640,
      1786289690,
      1786289700,
      1786289749,
      1786289760,
      1786289810,
      1786289821,
      1786289881,
      1786289941,
      1786290001,
      1786290061,
      1786290110,
      1786290170,
      1786290241,
      1786290290,
      1786290361,
      1786290410,
      1786290421,
      1786290481,
      1786290542
    ],
    "wof:geomhash": "c0bfe7329b5f2c5b53c1548236fa38d6",
    "wof:id": 2047898677,
    "wof:repo": "sfomuseum-data-flights-2026-08"
  },
  "bbox": [
    -122.35138888888888,
    37.5,
    -81.88305555555554,
    41.38805555555555
  ],
  "geometry": {"type":"LineString","coordinates":[[-81.88305555555554,41.38805555555555],[-81.90138888888889,41.38027777777778],[-81.93861111111111,41.36972222222222],[-81.95277777777778,41.365],[-81.97555555555556,41.35638888888889],[-82.02111111111111,41.343333333333334],[-82.0375,41.338055555555556],[-82.10944444444443,41.315],[-82.1261111111111,41.30972222222222],[-82.20333333333333,41.28527777777778],[-82.22055555555556,41.27972222222222],[-82.30472222222222,41.245555555555555],[-82.32583333333334,41.23722222222222],[-82.44277777777778,41.189722222222215],[-82.57527777777777,41.154444444444444],[-82.70944444444444,41.119166666666665],[-82.82222222222222,41.095],[-82.84944444444444,41.09055555555556],[-82.965,41.07027777777778],[-82.99388888888889,41.065],[-83.11222222222221,41.04388888888889],[-83.13944444444445,41.038888888888884],[-83.25888888888889,41.0175],[-83.2863888888889,41.0125],[-83.40805555555556,40.99055555555556],[-83.43611111111112,40.98555555555556],[-83.56055555555555,40.963055555555556],[-83.58972222222222,40.9575],[-83.71472222222222,40.93472222222222],[-83.7461111111111,40.928888888888885],[-83.88972222222223,40.90138888888889],[-84.03166666666667,40.84388888888889],[-84.17833333333334,40.77583333333333],[-84.31472222222222,40.71194444444445],[-84.3125,40.713055555555556],[-84.44916666666667,40.649166666666666],[-84.55472222222222,40.60472222222222],[-84.73222222222222,40.58444444444444],[-84.88666666666667,40.571111111111115],[-85.03999999999999,40.558055555555555],[-85.19083333333333,40.544999999999995],[-85.25888888888889,40.53916666666667],[-85.34333333333333,40.53138888888889],[-85.41083333333334,40.52583333333333],[-85.505,40.51694444444444],[-85.56083333333333,40.511944444444445],[-85.64333333333335,40.504444444444445],[-85.71194444444444,40.498333333333335],[-85.80805555555555,40.48888888888889],[-85.86333333333333,40.48361111111111],[-85.95722222222223,40.474722222222226],[-86.01388888888889,40.46944444444445],[-86.10972222222222,40.46],[-86.16666666666667,40.45444444444445],[-86.26166666666667,40.445277777777775],[-86.32055555555556,40.44],[-86.41388888888889,40.430277777777775],[-86.4713888888889,40.42388888888889],[-86.56694444444445,40.415],[-86.62583333333333,40.40861111111111],[-86.72055555555556,40.399166666666666],[-86.78083333333333,40.39388888888889],[-86.8586111111111,40.385],[-86.93416666666667,40.3775],[-87.00138888888888,40.37027777777778],[-87.08805555555556,40.361111111111114],[-87.15972222222223,40.35333333333333],[-87.24138888888889,40.344722222222224],[-87.31083333333333,40.33722222222222],[-87.39027777777778,40.328611111111115],[-87.46277777777777,40.32083333333334],[-87.51666666666667,40.315],[-87.61888888888888,40.30361111111111],[-87.67333333333333,40.297777777777775],[-87.77194444444444,40.28666666666666],[-87.82444444444444,40.280833333333334],[-87.92305555555556,40.269444444444446],[-87.97527777777778,40.26361111111111],[-88.07416666666666,40.2525],[-88.12555555555555,40.24666666666667],[-88.22444444444444,40.23527777777778],[-88.27638888888889,40.22916666666667],[-88.3736111111111,40.217777777777776],[-88.42805555555556,40.21138888888889],[-88.52444444444444,40.2],[-88.57805555555555,40.19361111111111],[-88.66833333333334,40.18277777777777],[-88.72805555555556,40.175555555555555],[-88.81777777777778,40.164722222222224],[-88.87722222222222,40.1575],[-88.96638888888889,40.146388888888886],[-89.03111111111112,40.13861111111111],[-89.11999999999999,40.12777777777778],[-89.18194444444445,40.12],[-89.27444444444444,40.108333333333334],[-89.33638888888889,40.10055555555556],[-89.42722222222223,40.08555555555556],[-89.48777777777778,40.06722222222223],[-89.57333333333332,40.04083333333333],[-89.63333333333334,40.02194444444444],[-89.7775,39.97666666666667],[-89.865,39.94916666666666],[-89.92305555555556,39.93111111111111],[-90.00805555555556,39.903888888888886],[-90.065,39.88583333333333],[-90.15138888888889,39.85805555555556],[-90.21000000000001,39.839444444444446],[-90.2936111111111,39.8125],[-90.35138888888888,39.79416666666666],[-90.43777777777778,39.76638888888889],[-90.49722222222222,39.746944444444445],[-90.58333333333333,39.719166666666666],[-90.64361111111111,39.69972222222222],[-90.72555555555556,39.672777777777775],[-90.78777777777778,39.652499999999996],[-90.93388888888889,39.60472222222222],[-91.07888888888888,39.55722222222222],[-91.22361111111111,39.509166666666665],[-91.36722222222221,39.461666666666666],[-91.51222222222222,39.41277777777778],[-91.65527777777778,39.365],[-91.79916666666666,39.31638888888889],[-91.93972222222223,39.26861111111111],[-92.07194444444444,39.20527777777778],[-92.19916666666667,39.13527777777778],[-92.325,39.06722222222223],[-92.4475,39.005],[-92.575,38.94194444444444],[-92.70861111111111,38.87972222222222],[-92.84388888888888,38.82361111111111],[-92.97972222222222,38.76777777777777],[-93.11555555555555,38.71361111111111],[-93.2611111111111,38.67194444444444],[-93.40694444444445,38.63916666666667],[-93.55583333333333,38.60916666666667],[-93.70805555555556,38.58305555555556],[-93.8875,38.58027777777778],[-94.0436111111111,38.58722222222222],[-94.2,38.594166666666666],[-94.35777777777777,38.600833333333334],[-94.51194444444444,38.6175],[-94.66361111111112,38.647777777777776],[-94.8125,38.68111111111111],[-94.96111111111111,38.71527777777778],[-95.10666666666665,38.749722222222225],[-95.25416666666666,38.78805555555555],[-95.37305555555555,38.82083333333334],[-95.5213888888889,38.85944444444445],[-95.67361111111111,38.878055555555555],[-95.83,38.88722222222222],[-95.985,38.88944444444444],[-96.14055555555557,38.890277777777776],[-96.29777777777778,38.89111111111111],[-96.45472222222223,38.891666666666666],[-96.61138888888888,38.89222222222222],[-96.76555555555555,38.89277777777778],[-96.92111111111112,38.89277777777778],[-97.07527777777777,38.89277777777778],[-97.23166666666667,38.89222222222222],[-97.38722222222223,38.89194444444444],[-97.5425,38.89111111111111],[-97.74,38.88972222222222],[-97.87083333333332,38.888888888888886],[-98.02583333333334,38.8875],[-98.05083333333333,38.88722222222222],[-98.17888888888889,38.88583333333333],[-98.20472222222223,38.885555555555555],[-98.3325,38.884166666666665],[-98.48222222222222,38.882222222222225],[-98.51,38.88194444444444],[-98.635,38.88],[-98.66305555555556,38.879444444444445],[-98.81361111111111,38.87722222222222],[-98.9413888888889,38.875],[-98.96861111111112,38.874722222222225],[-99.09416666666667,38.87222222222222],[-99.11916666666666,38.871944444444445],[-99.24527777777777,38.86944444444445],[-99.39805555555556,38.86638888888889],[-99.42527777777778,38.86555555555556],[-99.55166666666666,38.863055555555555],[-99.5775,38.862500000000004],[-99.73138888888889,38.85888888888889],[-99.85222222222221,38.855555555555554],[-99.88583333333334,38.85472222222222],[-100.03861111111111,38.850833333333334],[-100.19416666666667,38.84666666666667],[-100.31694444444445,38.84305555555556],[-100.3475,38.842222222222226],[-100.46722222222222,38.83861111111111],[-100.50305555555556,38.837500000000006],[-100.62388888888889,38.83388888888889],[-100.65611111111112,38.83277777777778],[-100.77527777777777,38.82888888888889],[-100.80805555555555,38.82777777777778],[-100.96027777777778,38.822500000000005],[-100.99138888888889,38.82166666666667],[-101.11138888888888,38.81722222222223],[-101.1463888888889,38.81583333333333],[-101.29861111111111,38.81027777777778],[-101.44972222222222,38.80444444444444],[-101.60388888888889,38.79833333333333],[-101.75638888888889,38.79222222222222],[-101.90944444444445,38.785555555555554],[-102.0611111111111,38.77916666666667],[-102.21444444444445,38.7725],[-102.36861111111111,38.765277777777776],[-102.51888888888888,38.757777777777775],[-102.67277777777778,38.75055555555556],[-102.81694444444445,38.74333333333333],[-102.9675,38.73555555555556],[-103.1211111111111,38.7275],[-103.27166666666666,38.71944444444445],[-103.42416666666666,38.71083333333333],[-103.5786111111111,38.702222222222225],[-103.72944444444444,38.69361111111111],[-103.87888888888888,38.68472222222222],[-104.0275,38.675555555555555],[-104.32944444444443,38.656666666666666],[-104.48138888888889,38.64722222222222],[-104.62916666666666,38.6375],[-104.78,38.62722222222222],[-104.93083333333334,38.61694444444444],[-105.08222222222221,38.60611111111111],[-105.2325,38.595555555555556],[-105.3825,38.585],[-105.50888888888889,38.573055555555555],[-105.65833333333335,38.56222222222222],[-105.80777777777777,38.550555555555555],[-105.95666666666666,38.54],[-106.10555555555555,38.52833333333333],[-106.25611111111111,38.51638888888889],[-106.4063888888889,38.50361111111111],[-106.5586111111111,38.49194444444444],[-106.71027777777778,38.47944444444445],[-106.86166666666666,38.46666666666667],[-107.04333333333334,38.4525],[-107.1675,38.44916666666666],[-107.31972222222223,38.45138888888889],[-107.5025,38.45388888888889],[-107.62444444444444,38.45277777777778],[-107.77777777777777,38.4525],[-107.93,38.45277777777778],[-108.08027777777778,38.4525],[-108.23277777777778,38.45194444444445],[-108.38277777777778,38.450833333333335],[-108.53,38.45027777777778],[-108.67666666666668,38.44972222222222],[-108.85305555555556,38.448611111111106],[-108.96944444444445,38.44777777777777],[-109.11805555555554,38.44611111111111],[-109.26777777777778,38.44416666666666],[-109.41444444444446,38.44222222222222],[-109.56388888888888,38.44],[-109.71222222222222,38.437777777777775],[-109.89027777777778,38.43444444444444],[-110.035,38.43138888888889],[-110.18333333333334,38.42916666666667],[-110.18333333333334,38.42916666666667],[-110.33,38.427499999999995],[-110.48,38.425555555555555],[-110.47972222222222,38.425555555555555],[-110.62777777777777,38.42333333333333],[-110.62777777777777,38.42333333333333],[-110.77527777777777,38.42055555555555],[-110.92444444444445,38.418055555555554],[-111.08361111111111,38.415],[-111.23138888888889,38.41166666666666],[-111.37833333333333,38.40861111111111],[-111.5261111111111,38.405277777777776],[-111.82249999999999,38.397777777777776],[-111.96916666666667,38.39388888888889],[-112.11888888888888,38.38944444444444],[-112.41222222222223,38.380833333333335],[-112.56083333333333,38.376111111111115],[-112.70527777777778,38.37111111111111],[-112.85388888888889,38.36611111111111],[-113.00111111111111,38.36083333333333],[-113.14972222222222,38.35916666666667],[-113.29972222222221,38.3575],[-113.44861111111112,38.35583333333334],[-113.59777777777778,38.35444444444445],[-113.7461111111111,38.352222222222224],[-113.89250000000001,38.35027777777778],[-114.04083333333332,38.34805555555556],[-114.18277777777779,38.37916666666667],[-114.35249999999999,38.430277777777775],[-114.49444444444444,38.472500000000004],[-114.6388888888889,38.515],[-114.78166666666667,38.55611111111111],[-114.86972222222222,38.57611111111112],[-114.92888888888889,38.56916666666667],[-115.01833333333333,38.55694444444444],[-115.07666666666667,38.547777777777775],[-115.16250000000001,38.53472222222222],[-115.22194444444445,38.52388888888889],[-115.30888888888889,38.509166666666665],[-115.36916666666666,38.5],[-115.4563888888889,38.48638888888889],[-115.51472222222222,38.47638888888889],[-115.60333333333332,38.46333333333334],[-115.66111111111111,38.4525],[-115.75,38.43833333333333],[-115.80694444444444,38.42833333333333],[-115.89694444444446,38.413333333333334],[-116.10083333333333,38.37916666666667],[-116.19250000000001,38.36361111111111],[-116.24861111111112,38.35388888888889],[-116.33916666666666,38.33861111111111],[-116.39694444444446,38.328611111111115],[-116.48555555555555,38.31333333333333],[-116.54333333333334,38.30333333333333],[-116.63444444444445,38.2875],[-116.69,38.27777777777778],[-116.78,38.26222222222222],[-116.83777777777777,38.25194444444445],[-116.92805555555556,38.236111111111114],[-116.98472222222222,38.226111111111116],[-117.07388888888889,38.21027777777778],[-117.12972222222221,38.20027777777778],[-117.21083333333334,38.18583333333333],[-117.26694444444445,38.17583333333333],[-117.3561111111111,38.15972222222222],[-117.41000000000001,38.14972222222222],[-117.4975,38.13388888888889],[-117.55333333333333,38.12361111111111],[-117.64500000000001,38.106944444444444],[-117.69861111111112,38.09722222222222],[-117.78999999999999,38.08027777777778],[-117.84472222222222,38.07],[-117.93666666666667,38.05305555555555],[-117.99333333333334,38.0425],[-118.08222222222221,38.02583333333333],[-118.13861111111112,38.015277777777776],[-118.22972222222222,37.99805555555556],[-118.28805555555556,37.98722222222222],[-118.3775,37.97027777777778],[-118.43333333333334,37.95944444444445],[-118.49527777777777,37.947222222222216],[-118.67166666666667,37.91361111111111],[-118.82,37.88944444444444],[-118.97083333333333,37.87222222222222],[-119.13472222222222,37.85333333333333],[-119.28361111111111,37.836111111111116],[-119.43611111111112,37.81805555555556],[-119.58805555555556,37.79972222222222],[-119.73972222222223,37.781666666666666],[-119.89027777777778,37.763333333333335],[-120.07388888888889,37.74055555555556],[-120.22416666666666,37.721944444444446],[-120.3,37.71666666666667],[-120.35,37.7],[-120.5,37.68333333333333],[-120.53388888888888,37.68416666666666],[-120.68111111111112,37.66694444444444],[-120.8,37.65],[-120.9538888888889,37.63388888888889],[-121.06666666666666,37.61666666666667],[-121.08277777777778,37.61694444444444],[-121.18333333333334,37.6],[-121.20861111111111,37.6],[-121.31666666666666,37.583333333333336],[-121.33166666666666,37.58444444444444],[-121.45,37.57138888888889],[-121.56666666666666,37.55777777777777],[-121.66972222222223,37.54],[-121.76472222222222,37.5175],[-121.85,37.5],[-121.93333333333334,37.5],[-122.0436111111111,37.50055555555556],[-122.11666666666666,37.516666666666666],[-122.19111111111111,37.54333333333333],[-122.25,37.56666666666667],[-122.25277777777778,37.569722222222225],[-122.30222222222221,37.59055555555556],[-122.35138888888888,37.611111111111114]]}
}
