{
  "id": 2047879517,
  "type": "Feature",
  "properties": {
    "geom:area": 0,
    "geom:bbox": "-122.535833,33.283333,-111.806667,37.666667",
    "geom:latitude": 34.50655659253613,
    "geom:longitude": -117.57963697593644,
    "src:alt_label": "swim-path",
    "src:geom": "swim",
    "swim:altitudes": [
      "006",
      "012",
      "033",
      "038",
      "051",
      "085",
      "113",
      "148",
      "171",
      "200",
      "251",
      "272",
      "298",
      "319",
      "327",
      "330C",
      "330C",
      "330C",
      "330C",
      "330C",
      "330C",
      "330C",
      "330C",
      "330C",
      "330C",
      "330C",
      "330C",
      "330",
      "330",
      "330",
      "330",
      "330",
      "330",
      "319",
      "290",
      "278",
      "249",
      "230",
      "228",
      "204",
      "202",
      "178",
      "175",
      "152",
      "148",
      "133",
      "127",
      "125",
      "113",
      "110",
      "100",
      "099",
      "085",
      "083",
      "075",
      "074",
      "065",
      "063",
      "057",
      "045",
      "034",
      "025",
      "017",
      "010",
      "003",
      "003",
      "016",
      "028",
      "047",
      "078",
      "114",
      "134",
      "152",
      "176",
      "199",
      "213",
      "231",
      "252",
      "272",
      "290",
      "310C",
      "310C",
      "310C",
      "310C",
      "310C",
      "310C",
      "310C",
      "310C",
      "310C",
      "310C",
      "310C",
      "310C",
      "310C",
      "310C",
      "310",
      "310",
      "310",
      "310",
      "310",
      "310",
      "310",
      "310",
      "309",
      "297",
      "283",
      "265",
      "233",
      "223",
      "213",
      "203",
      "193",
      "184",
      "179",
      "169",
      "159",
      "149",
      "142",
      "139",
      "132",
      "129",
      "121",
      "119",
      "111",
      "110",
      "107",
      "105",
      "097",
      "094",
      "090",
      "090",
      "089",
      "085",
      "078",
      "074",
      "065",
      "056",
      "049",
      "042",
      "040",
      "034",
      "031",
      "027",
      "022",
      "018",
      "016",
      "011"
    ],
    "swim:geom": "path",
    "swim:speeds": [
      136,
      146,
      203,
      212,
      268,
      287,
      322,
      334,
      337,
      353,
      391,
      404,
      416,
      415,
      418,
      444,
      459,
      459,
      480,
      460,
      461,
      459,
      459,
      458,
      457,
      456,
      455,
      454,
      419,
      415,
      412,
      433,
      449,
      449,
      457,
      457,
      439,
      428,
      423,
      420,
      414,
      415,
      407,
      394,
      385,
      344,
      302,
      295,
      291,
      285,
      281,
      267,
      267,
      262,
      261,
      259,
      252,
      247,
      236,
      229,
      201,
      173,
      157,
      132,
      130,
      128,
      154,
      205,
      257,
      276,
      284,
      320,
      350,
      381,
      400,
      411,
      416,
      418,
      431,
      440,
      440,
      439,
      440,
      442,
      443,
      444,
      446,
      446,
      446,
      446,
      446,
      447,
      452,
      451,
      449,
      448,
      449,
      467,
      471,
      472,
      472,
      473,
      473,
      432,
      402,
      379,
      364,
      357,
      348,
      342,
      339,
      319,
      316,
      306,
      306,
      305,
      306,
      303,
      304,
      301,
      303,
      300,
      297,
      292,
      282,
      281,
      278,
      272,
      260,
      241,
      239,
      231,
      234,
      241,
      225,
      225,
      214,
      214,
      186,
      177,
      172,
      159,
      151,
      152,
      152,
      153
    ],
    "swim:timestamps": [
      1786152972,
      1786152994,
      1786153054,
      1786153062,
      1786153114,
      1786153174,
      1786153234,
      1786153294,
      1786153351,
      1786153411,
      1786153531,
      1786153591,
      1786153651,
      1786153711,
      1786153772,
      1786153832,
      1786153892,
      1786153952,
      1786154012,
      1786154075,
      1786154192,
      1786154255,
      1786154312,
      1786154376,
      1786154436,
      1786154493,
      1786154553,
      1786154616,
      1786154673,
      1786154733,
      1786154796,
      1786154853,
      1786154916,
      1786154976,
      1786155033,
      1786155093,
      1786155157,
      1786155214,
      1786155220,
      1786155274,
      1786155280,
      1786155334,
      1786155341,
      1786155394,
      1786155403,
      1786155466,
      1786155514,
      1786155526,
      1786155574,
      1786155586,
      1786155634,
      1786155640,
      1786155694,
      1786155703,
      1786155754,
      1786155764,
      1786155815,
      1786155826,
      1786155875,
      1786155935,
      1786155995,
      1786156055,
      1786156115,
      1786156175,
      1786156235,
      1786156245,
      1786159384,
      1786159432,
      1786159492,
      1786159552,
      1786159612,
      1786159672,
      1786159732,
      1786159792,
      1786159852,
      1786159912,
      1786159973,
      1786160033,
      1786160093,
      1786160153,
      1786160213,
      1786160273,
      1786160333,
      1786160393,
      1786160453,
      1786160513,
      1786160573,
      1786160634,
      1786160694,
      1786160754,
      1786160814,
      1786160874,
      1786160940,
      1786161000,
      1786161054,
      1786161114,
      1786161121,
      1786161181,
      1786161234,
      1786161294,
      1786161301,
      1786161355,
      1786161361,
      1786161421,
      1786161481,
      1786161542,
      1786161715,
      1786161775,
      1786161835,
      1786161895,
      1786161955,
      1786162003,
      1786162027,
      1786162087,
      1786162147,
      1786162207,
      1786162260,
      1786162267,
      1786162320,
      1786162327,
      1786162380,
      1786162387,
      1786162440,
      1786162447,
      1786162501,
      1786162507,
      1786162561,
      1786162573,
      1786162621,
      1786162633,
      1786162681,
      1786162693,
      1786162741,
      1786162754,
      1786162820,
      1786162860,
      1786162879,
      1786162920,
      1786162939,
      1786162980,
      1786163000,
      1786163040,
      1786163060,
      1786163100,
      1786163114,
      1786163162
    ],
    "wof:geomhash": "148f39d12abab5deead8e7160f5f5999",
    "wof:id": 2047879517,
    "wof:repo": "sfomuseum-data-flights-2026-08"
  },
  "bbox": [
    -122.53583333333333,
    33.28333333333333,
    -111.80666666666666,
    37.666666666666664
  ],
  "geometry": {"type":"LineString","coordinates":[[-122.38333333333334,37.61666666666667],[-122.39750000000001,37.62833333333333],[-122.45777777777778,37.654444444444444],[-122.46666666666667,37.666666666666664],[-122.53583333333333,37.65888888888889],[-122.52888888888889,37.58527777777778],[-122.485,37.50805555555556],[-122.4075,37.440555555555555],[-122.34527777777777,37.386944444444445],[-122.24944444444445,37.31888888888889],[-122.04916666666666,37.171388888888885],[-121.94416666666667,37.09388888888889],[-121.83805555555556,37.01305555555555],[-121.735,36.93388888888889],[-121.63361111111112,36.84916666666667],[-121.52444444444444,36.757777777777775],[-121.41277777777778,36.66444444444444],[-121.30416666666666,36.572500000000005],[-121.19055555555556,36.47888888888889],[-121.05666666666666,36.36472222222223],[-120.84222222222222,36.18055555555555],[-120.73083333333334,36.08444444444444],[-120.62777777777777,35.99527777777778],[-120.51722222222222,35.89861111111111],[-120.41027777777778,35.80555555555555],[-120.32888888888888,35.73444444444444],[-120.21722222222222,35.63638888888889],[-120.11277777777777,35.544444444444444],[-120.01388888888889,35.456944444444446],[-119.91777777777779,35.37166666666667],[-119.82111111111111,35.28527777777778],[-119.73527777777778,35.193888888888885],[-119.64,35.091944444444444],[-119.54777777777778,34.992222222222225],[-119.4563888888889,34.89361111111111],[-119.36527777777778,34.79111111111111],[-119.275,34.68861111111111],[-119.18416666666667,34.58361111111111],[-119.18333333333334,34.583333333333336],[-119.10166666666666,34.489444444444445],[-119.1,34.483333333333334],[-119.02055555555556,34.3975],[-119.01666666666667,34.38333333333333],[-118.94166666666668,34.30722222222222],[-118.93333333333334,34.3],[-118.85,34.21666666666667],[-118.80027777777778,34.155],[-118.78333333333333,34.15],[-118.73527777777778,34.09527777777778],[-118.71666666666667,34.083333333333336],[-118.67222222222223,34.03805555555555],[-118.66666666666667,34.03333333333333],[-118.58638888888889,34.02222222222222],[-118.56666666666666,34.016666666666666],[-118.49972222222222,34.01416666666667],[-118.48333333333333,34.016666666666666],[-118.41638888888889,34.01722222222222],[-118.4,34.016666666666666],[-118.33694444444444,34.029444444444444],[-118.26027777777777,34.03722222222222],[-118.215,34.00194444444445],[-118.25055555555555,33.9675],[-118.30277777777778,33.96222222222222],[-118.34805555555555,33.9575],[-118.39,33.95333333333333],[-118.4,33.95],[-118.45,33.95],[-118.48861111111111,33.93833333333333],[-118.54305555555555,33.893055555555556],[-118.58694444444444,33.83027777777778],[-118.55222222222221,33.757777777777775],[-118.49666666666667,33.690555555555555],[-118.36944444444444,33.652499999999996],[-118.24638888888889,33.64472222222222],[-118.11638888888888,33.64472222222222],[-117.98,33.64472222222222],[-117.84083333333332,33.64416666666666],[-117.70583333333333,33.62222222222222],[-117.56722222222221,33.588055555555556],[-117.42722222222223,33.55333333333333],[-117.28666666666666,33.518055555555556],[-117.14166666666668,33.50388888888889],[-116.99444444444444,33.501666666666665],[-116.84638888888888,33.499722222222225],[-116.69611111111111,33.499722222222225],[-116.54777777777778,33.49916666666667],[-116.39972222222222,33.49805555555556],[-116.24916666666667,33.49722222222222],[-116.09944444444444,33.49611111111111],[-115.95,33.49472222222222],[-115.80333333333333,33.49305555555556],[-115.6525,33.49138888888889],[-115.51888888888888,33.48972222222222],[-115.36972222222222,33.48861111111111],[-115.20444444444445,33.48527777777778],[-115.05555555555556,33.48277777777778],[-115.04333333333334,33.48277777777778],[-114.88944444444445,33.480000000000004],[-114.74444444444444,33.477222222222224],[-114.58694444444444,33.47416666666667],[-114.57388888888889,33.473888888888894],[-114.43138888888889,33.47083333333334],[-114.41777777777779,33.470555555555556],[-114.2713888888889,33.467222222222226],[-114.13611111111112,33.46388888888889],[-114.01,33.448055555555555],[-113.67833333333334,33.38138888888889],[-113.56361111111111,33.358333333333334],[-113.45194444444445,33.33527777777778],[-113.34194444444444,33.31666666666667],[-113.23083333333334,33.297777777777775],[-113.13333333333334,33.28333333333333],[-113.1,33.28333333333333],[-112.98333333333333,33.28333333333333],[-112.88333333333334,33.28333333333333],[-112.78333333333333,33.28333333333333],[-112.71944444444445,33.290277777777774],[-112.68333333333334,33.3],[-112.61944444444444,33.29944444444444],[-112.58333333333333,33.3],[-112.51361111111112,33.30916666666666],[-112.48333333333333,33.31666666666667],[-112.41555555555556,33.318333333333335],[-112.4,33.31666666666667],[-112.32194444444444,33.32694444444445],[-112.3,33.333333333333336],[-112.23222222222222,33.335],[-112.2,33.333333333333336],[-112.1438888888889,33.34305555555556],[-112.11666666666666,33.35],[-112.065,33.34722222222222],[-112.03333333333333,33.35],[-111.98916666666666,33.34638888888889],[-111.96666666666667,33.35],[-111.86666666666666,33.35],[-111.83444444444444,33.344166666666666],[-111.81666666666666,33.35],[-111.80666666666666,33.39],[-111.81666666666666,33.416666666666664],[-111.84222222222222,33.42638888888889],[-111.86666666666666,33.43333333333333],[-111.89777777777779,33.43083333333333],[-111.91666666666667,33.43333333333333],[-111.94777777777779,33.43083333333333],[-111.96666666666667,33.43333333333333],[-111.99972222222222,33.43111111111111]]}
}
