{
  "id": 2032092411,
  "type": "Feature",
  "properties": {
    "geom:area": 0,
    "geom:bbox": "-122.526667,34.197778,-118.372500,37.665556",
    "geom:latitude": 35.848434072992106,
    "geom:longitude": -120.58901051953005,
    "src:alt_label": "swim-path",
    "src:geom": "swim",
    "swim:altitudes": [
      "005",
      "014",
      "033",
      "041",
      "066",
      "094",
      "123",
      "145",
      "172",
      "193",
      "209",
      "239",
      "255",
      "268",
      "282",
      "290C",
      "290C",
      "290C",
      "290C",
      "290C",
      "290C",
      "290C",
      "290C",
      "290C",
      "290C",
      "290",
      "290",
      "290",
      "286",
      "267",
      "245",
      "202",
      "160",
      "144",
      "126",
      "114",
      "112",
      "107",
      "090",
      "074",
      "060",
      "060",
      "045",
      "039",
      "030",
      "017",
      "009"
    ],
    "swim:geom": "path",
    "swim:speeds": [
      139,
      140,
      152,
      241,
      280,
      294,
      320,
      324,
      329,
      337,
      348,
      392,
      400,
      412,
      416,
      423,
      428,
      455,
      475,
      473,
      473,
      474,
      473,
      473,
      472,
      471,
      470,
      447,
      445,
      439,
      430,
      405,
      383,
      359,
      353,
      339,
      335,
      313,
      310,
      299,
      294,
      295,
      287,
      251,
      237,
      175,
      145
    ],
    "swim:timestamps": [
      1785799600,
      1785799632,
      1785799692,
      1785799752,
      1785799812,
      1785799872,
      1785799934,
      1785799992,
      1785800054,
      1785800114,
      1785800174,
      1785800293,
      1785800354,
      1785800414,
      1785800474,
      1785800534,
      1785800595,
      1785800655,
      1785800715,
      1785800775,
      1785800835,
      1785800895,
      1785800953,
      1785801015,
      1785801075,
      1785801195,
      1785801256,
      1785801314,
      1785801436,
      1785801494,
      1785801556,
      1785801674,
      1785801794,
      1785801855,
      1785801917,
      1785801957,
      1785801977,
      1785802037,
      1785802097,
      1785802155,
      1785802214,
      1785802277,
      1785802337,
      1785802397,
      1785802457,
      1785802517,
      1785802577
    ],
    "wof:geomhash": "b30d165fd616a4e10234784d7a17e489",
    "wof:id": 2032092411,
    "wof:repo": "sfomuseum-data-flights-2026-08"
  },
  "bbox": [
    -122.52666666666667,
    34.19777777777777,
    -118.37249999999999,
    37.66555555555556
  ],
  "geometry": {"type":"LineString","coordinates":[[-122.38333333333334,37.61666666666667],[-122.39750000000001,37.628055555555555],[-122.44472222222223,37.64861111111111],[-122.51166666666667,37.66555555555556],[-122.52666666666667,37.599722222222226],[-122.4888888888889,37.52444444444444],[-122.41916666666667,37.443888888888885],[-122.35055555555554,37.3875],[-122.26138888888889,37.30916666666666],[-122.18027777777779,37.23833333333334],[-122.11444444444444,37.18],[-121.9225,37.02972222222222],[-121.81444444444445,36.93472222222222],[-121.71611111111112,36.849722222222226],[-121.61472222222221,36.765277777777776],[-121.51305555555555,36.67944444444444],[-121.41111111111111,36.59138888888889],[-121.30138888888888,36.49722222222222],[-121.18305555555555,36.40083333333333],[-121.0786111111111,36.301111111111105],[-120.97500000000001,36.2],[-120.87166666666666,36.098888888888894],[-120.78583333333333,36.01444444444444],[-120.66472222222222,35.89527777777778],[-120.56305555555555,35.794444444444444],[-120.3736111111111,35.605555555555554],[-120.26944444444445,35.50527777777778],[-120.16888888888889,35.40888888888889],[-119.97444444444444,35.221111111111114],[-119.87472222222222,35.12444444444444],[-119.78361111111111,35.03583333333333],[-119.59722222222221,34.86055555555556],[-119.39444444444445,34.72555555555556],[-119.29805555555555,34.6625],[-119.19472222222223,34.606944444444444],[-119.11666666666666,34.56666666666667],[-119.09305555555555,34.56194444444444],[-119.00638888888889,34.513888888888886],[-118.92805555555556,34.45722222222223],[-118.85,34.4],[-118.76666666666667,34.35],[-118.70861111111111,34.288333333333334],[-118.64361111111111,34.22972222222222],[-118.56777777777778,34.20138888888889],[-118.48666666666666,34.19944444444444],[-118.42166666666667,34.198611111111106],[-118.37249999999999,34.19777777777777]]}
}
