{
  "id": 2032073209,
  "type": "Feature",
  "properties": {
    "geom:area": 0,
    "geom:bbox": "-122.352860,36.722510,-121.878850,37.605290",
    "geom:latitude": 37.21389049078271,
    "geom:longitude": -122.15206178710676,
    "src:alt_label": "swim-approach",
    "src:geom": "swim",
    "swim:elevations": [
      5378,
      5329,
      4900,
      4801,
      4596,
      4397,
      4186,
      4111,
      3896,
      3647,
      3384,
      3220,
      2993,
      2854,
      2519,
      2475,
      2315,
      2209,
      2040,
      1870,
      1829,
      1829,
      1829,
      1829,
      1829,
      1829,
      1533,
      1373,
      1313,
      1220,
      1089,
      932,
      914,
      914,
      777,
      676,
      381,
      241,
      127,
      96
    ],
    "swim:geom": "approach",
    "swim:timestamps": [
      1785676887,
      1785676894,
      1785676945,
      1785676960,
      1785677004,
      1785677032,
      1785677069,
      1785677080,
      1785677110,
      1785677147,
      1785677184,
      1785677207,
      1785677240,
      1785677259,
      1785677308,
      1785677314,
      1785677337,
      1785677361,
      1785677382,
      1785677413,
      1785677457,
      1785677488,
      1785677518,
      1785677521,
      1785677569,
      1785677582,
      1785677622,
      1785677662,
      1785677674,
      1785677709,
      1785677754,
      1785677777,
      1785677817,
      1785677825,
      1785677862,
      1785677882,
      1785677956,
      1785677994,
      1785678022,
      1785678033
    ],
    "wof:geomhash": "fb3ff0cfb00caa368e5084fc32e9178d",
    "wof:id": 2032073209,
    "wof:repo": "sfomuseum-data-flights-2026-08"
  },
  "bbox": [
    -122.35286,
    36.72251,
    -121.87885,
    37.60529
  ],
  "geometry": {"coordinates":[[-121.87885,36.72251],[-121.88476,36.73112],[-121.91312,36.80954],[-121.91971,36.83296],[-121.93738,36.89592],[-121.94846,36.93295],[-121.98465,36.96793],[-121.99703,36.97797],[-122.02819,37.00317],[-122.0673,37.03407],[-122.10496,37.06392],[-122.12905,37.08276],[-122.16174,37.10858],[-122.18169,37.12425],[-122.23067,37.16212],[-122.23639,37.16651],[-122.25976,37.18441],[-122.28255,37.20195],[-122.3028,37.21766],[-122.32532,37.24398],[-122.34129,37.28843],[-122.35286,37.32068],[-122.34854,37.35093],[-122.34535,37.35377],[-122.28406,37.37087],[-122.26766,37.37439],[-122.21408,37.38752],[-122.17021,37.41226],[-122.15714,37.41988],[-122.12519,37.43903],[-122.1244,37.4744],[-122.13904,37.49084],[-122.16395,37.51872],[-122.16888,37.52427],[-122.19873,37.5447],[-122.2164,37.55206],[-122.28284,37.57998],[-122.3128,37.59254],[-122.33474,37.60176],[-122.34301,37.60529]],"type":"LineString"}
}
