{
  "id": 2032102229,
  "type": "Feature",
  "properties": {
    "geom:area": 0,
    "geom:bbox": "-122.333333,26.097778,-80.032222,37.687500",
    "geom:latitude": 33.26078545301421,
    "geom:longitude": -100.5607153810121,
    "src:alt_label": "swim-path",
    "src:geom": "swim",
    "swim:altitudes": [
      "025",
      "042",
      "062",
      "101",
      "101",
      "102",
      "120",
      "123",
      "139",
      "159",
      "160",
      "175",
      "198",
      "217",
      "225",
      "230",
      "230",
      "231",
      "239",
      "242",
      "252",
      "264",
      "270",
      "271",
      "280",
      "287",
      "290",
      "290",
      "299",
      "305",
      "310",
      "311",
      "315",
      "316",
      "320C",
      "320C",
      "320C",
      "320C",
      "320C",
      "320C",
      "320C",
      "320C",
      "320C",
      "320C",
      "320C",
      "320C",
      "320C",
      "320C",
      "320C",
      "320C",
      "320C",
      "320C",
      "320C",
      "320C",
      "320C",
      "320C",
      "320C",
      "320C",
      "320C",
      "320C",
      "320C",
      "320C",
      "320C",
      "320C",
      "320C",
      "320C",
      "320C",
      "320C",
      "320C",
      "320C",
      "320C",
      "320C",
      "320C",
      "320C",
      "320C",
      "320C",
      "320C",
      "320C",
      "320C",
      "320C",
      "320C",
      "320C",
      "320C",
      "320C",
      "320C",
      "320C",
      "320C",
      "320C",
      "320C",
      "320C",
      "320C",
      "320C",
      "320C",
      "320C",
      "320C",
      "320C",
      "320C",
      "320C",
      "320C",
      "320C",
      "320C",
      "320C",
      "320C",
      "320C",
      "320C",
      "320C",
      "320C",
      "320C",
      "320C",
      "320C",
      "320C",
      "320C",
      "320C",
      "320C",
      "320C",
      "320C",
      "320C",
      "320C",
      "320C",
      "320C",
      "320C",
      "320C",
      "320C",
      "320C",
      "320C",
      "320C",
      "320C",
      "323",
      "333",
      "340C",
      "340C",
      "340C",
      "340C",
      "340C",
      "340C",
      "340C",
      "340C",
      "340C",
      "340C",
      "340C",
      "340C",
      "340C",
      "340C",
      "340C",
      "340C",
      "340C",
      "340C",
      "340C",
      "340C",
      "340C",
      "340C",
      "340C",
      "340C",
      "340C",
      "340C",
      "340C",
      "340C",
      "340C",
      "340C",
      "340C",
      "340C",
      "340C",
      "340C",
      "340C",
      "340C",
      "340C",
      "340C",
      "340C",
      "340C",
      "340C",
      "340C",
      "340C",
      "340C",
      "340C",
      "340C",
      "340C",
      "340C",
      "340C",
      "340C",
      "340C",
      "340C",
      "340C",
      "340C",
      "340C",
      "340C",
      "340C",
      "340C",
      "340C",
      "340C",
      "340C",
      "340C",
      "340C",
      "340C",
      "340C",
      "340C",
      "340C",
      "340C",
      "340C",
      "340C",
      "340C",
      "340C",
      "340C",
      "340C",
      "340C",
      "340C",
      "340C",
      "340C",
      "340C",
      "340C",
      "340C",
      "340C",
      "340C",
      "340C",
      "340C",
      "340C",
      "340C",
      "340C",
      "340C",
      "340C",
      "340C",
      "340C",
      "340C",
      "340C",
      "340C",
      "340C",
      "340C",
      "340C",
      "340C",
      "340C",
      "340C",
      "340C",
      "340C",
      "340C",
      "340C",
      "340C",
      "340C",
      "340C",
      "340C",
      "340C",
      "340C",
      "340C",
      "340C",
      "340C",
      "340C",
      "340C",
      "340C",
      "340C",
      "340C",
      "340C",
      "340C",
      "340C",
      "340C",
      "340C",
      "340C",
      "340C",
      "340C",
      "340C",
      "340C",
      "340C",
      "340C",
      "340C",
      "340C",
      "340C",
      "340C",
      "340C",
      "340C",
      "340C",
      "340C",
      "340C",
      "340",
      "340",
      "340",
      "340",
      "348",
      "350",
      "358C",
      "360C",
      "360C",
      "360C",
      "360C",
      "360C",
      "360C",
      "360C",
      "360C",
      "360C",
      "360C",
      "360C",
      "360C",
      "360C",
      "360C",
      "360C",
      "360C",
      "360C",
      "360C",
      "360C",
      "360C",
      "360C",
      "360C",
      "360C",
      "360C",
      "360C",
      "360C",
      "360C",
      "360C",
      "360C",
      "360C",
      "360C",
      "360C",
      "360C",
      "360C",
      "360C",
      "360C",
      "360C",
      "360C",
      "360C",
      "360C",
      "360C",
      "360C",
      "360C",
      "360C",
      "360C",
      "360C",
      "360C",
      "360C",
      "360C",
      "360C",
      "360C",
      "360C",
      "360C",
      "360C",
      "360C",
      "360C",
      "360C",
      "360C",
      "360C",
      "360C",
      "360C",
      "360C",
      "360C",
      "360C",
      "360C",
      "360C",
      "360C",
      "360C",
      "360C",
      "360C",
      "360",
      "360",
      "360",
      "360",
      "360",
      "346",
      "316",
      "265",
      "221",
      "204",
      "197",
      "184",
      "173",
      "161",
      "154",
      "142",
      "137",
      "123",
      "112",
      "110",
      "107",
      "103",
      "089",
      "078",
      "067",
      "064",
      "059",
      "046",
      "044",
      "036",
      "035",
      "025",
      "023",
      "015",
      "006",
      "005"
    ],
    "swim:geom": "path",
    "swim:speeds": [
      237,
      274,
      286,
      307,
      313,
      334,
      345,
      343,
      354,
      358,
      357,
      369,
      373,
      377,
      387,
      410,
      415,
      412,
      416,
      413,
      419,
      422,
      428,
      429,
      433,
      436,
      448,
      448,
      453,
      459,
      462,
      463,
      468,
      470,
      470,
      470,
      470,
      469,
      469,
      469,
      468,
      468,
      468,
      467,
      467,
      467,
      467,
      467,
      467,
      467,
      465,
      464,
      464,
      462,
      461,
      460,
      455,
      458,
      455,
      456,
      455,
      455,
      455,
      455,
      455,
      456,
      456,
      457,
      456,
      457,
      456,
      456,
      455,
      455,
      454,
      455,
      453,
      453,
      451,
      452,
      449,
      449,
      450,
      449,
      449,
      448,
      449,
      447,
      448,
      446,
      447,
      445,
      445,
      444,
      445,
      445,
      446,
      446,
      448,
      448,
      448,
      449,
      450,
      449,
      451,
      450,
      451,
      452,
      452,
      453,
      453,
      455,
      454,
      456,
      455,
      456,
      455,
      456,
      455,
      455,
      455,
      456,
      457,
      456,
      456,
      458,
      460,
      467,
      468,
      463,
      463,
      463,
      463,
      463,
      464,
      465,
      466,
      466,
      467,
      468,
      467,
      467,
      467,
      466,
      466,
      466,
      466,
      466,
      466,
      467,
      469,
      468,
      466,
      466,
      466,
      467,
      470,
      471,
      472,
      472,
      472,
      471,
      469,
      468,
      466,
      464,
      462,
      462,
      462,
      462,
      463,
      466,
      469,
      472,
      471,
      471,
      469,
      468,
      467,
      466,
      464,
      463,
      462,
      462,
      461,
      462,
      461,
      462,
      462,
      463,
      463,
      463,
      463,
      463,
      464,
      464,
      465,
      465,
      465,
      465,
      466,
      466,
      466,
      466,
      466,
      466,
      465,
      465,
      465,
      464,
      464,
      463,
      462,
      462,
      462,
      461,
      461,
      460,
      460,
      460,
      460,
      461,
      460,
      461,
      462,
      462,
      463,
      462,
      462,
      462,
      462,
      461,
      461,
      460,
      460,
      459,
      459,
      459,
      458,
      458,
      458,
      459,
      459,
      458,
      457,
      456,
      455,
      455,
      456,
      456,
      456,
      456,
      454,
      453,
      449,
      448,
      447,
      447,
      447,
      447,
      446,
      447,
      447,
      447,
      446,
      446,
      446,
      446,
      444,
      445,
      445,
      443,
      440,
      444,
      440,
      441,
      441,
      443,
      449,
      447,
      444,
      446,
      444,
      446,
      445,
      444,
      443,
      442,
      442,
      442,
      441,
      441,
      441,
      441,
      441,
      442,
      442,
      442,
      442,
      443,
      442,
      443,
      443,
      443,
      444,
      444,
      443,
      442,
      441,
      440,
      439,
      438,
      437,
      436,
      438,
      439,
      440,
      440,
      440,
      439,
      439,
      439,
      439,
      439,
      439,
      439,
      439,
      440,
      445,
      446,
      447,
      448,
      447,
      438,
      437,
      436,
      430,
      424,
      422,
      421,
      420,
      419,
      418,
      418,
      417,
      416,
      415,
      415,
      415,
      415,
      415,
      416,
      431,
      438,
      400,
      398,
      390,
      387,
      372,
      361,
      354,
      350,
      344,
      345,
      313,
      296,
      249,
      243,
      245,
      246,
      245,
      242,
      243,
      240,
      236,
      238,
      232,
      203,
      193,
      193,
      164,
      162
    ],
    "swim:timestamps": [
      1785846244,
      1785846304,
      1785846364,
      1785846476,
      1785846484,
      1785846554,
      1785846604,
      1785846614,
      1785846664,
      1785846724,
      1785846734,
      1785846794,
      1785846854,
      1785846914,
      1785846965,
      1785847025,
      1785847085,
      1785847094,
      1785847145,
      1785847154,
      1785847205,
      1785847275,
      1785847325,
      1785847335,
      1785847385,
      1785847446,
      1785847506,
      1785847515,
      1785847575,
      1785847635,
      1785847686,
      1785847695,
      1785847746,
      1785847755,
      1785847815,
      1785847866,
      1785847875,
      1785847926,
      1785847936,
      1785847996,
      1785848056,
      1785848107,
      1785848116,
      1785848167,
      1785848227,
      1785848236,
      1785848287,
      1785848296,
      1785848356,
      1785848416,
      1785848476,
      1785848527,
      1785848548,
      1785848587,
      1785848608,
      1785848648,
      1785848711,
      1785848729,
      1785848771,
      1785848789,
      1785848849,
      1785848892,
      1785848952,
      1785848969,
      1785849012,
      1785849029,
      1785849072,
      1785849089,
      1785849132,
      1785849149,
      1785849192,
      1785849209,
      1785849269,
      1785849312,
      1785849329,
      1785849372,
      1785849390,
      1785849432,
      1785849450,
      1785849493,
      1785849570,
      1785849630,
      1785849673,
      1785849690,
      1785849733,
      1785849750,
      1785849793,
      1785849810,
      1785849853,
      1785849870,
      1785849913,
      1785849930,
      1785849973,
      1785849990,
      1785850033,
      1785850050,
      1785850093,
      1785850154,
      1785850274,
      1785850291,
      1785850334,
      1785850351,
      1785850411,
      1785850454,
      1785850471,
      1785850514,
      1785850531,
      1785850574,
      1785850591,
      1785850634,
      1785850651,
      1785850694,
      1785850711,
      1785850754,
      1785850771,
      1785850815,
      1785850831,
      1785850875,
      1785850935,
      1785850995,
      1785851055,
      1785851115,
      1785851175,
      1785851235,
      1785851295,
      1785851355,
      1785851415,
      1785851536,
      1785851596,
      1785851716,
      1785851776,
      1785851836,
      1785851896,
      1785851956,
      1785852077,
      1785852137,
      1785852197,
      1785852257,
      1785852317,
      1785852377,
      1785852497,
      1785852557,
      1785852617,
      1785852677,
      1785852738,
      1785852798,
      1785852858,
      1785852918,
      1785852978,
      1785853098,
      1785853218,
      1785853278,
      1785853519,
      1785853579,
      1785853639,
      1785853702,
      1785853822,
      1785853882,
      1785853942,
      1785854002,
      1785854062,
      1785854123,
      1785854183,
      1785854243,
      1785854303,
      1785854363,
      1785854423,
      1785854483,
      1785854543,
      1785854603,
      1785854723,
      1785854844,
      1785854904,
      1785855024,
      1785855084,
      1785855144,
      1785855264,
      1785855324,
      1785855384,
      1785855444,
      1785855504,
      1785855565,
      1785855625,
      1785855685,
      1785855720,
      1785855745,
      1785855781,
      1785855805,
      1785855841,
      1785855865,
      1785855901,
      1785855925,
      1785855961,
      1785855985,
      1785856021,
      1785856081,
      1785856141,
      1785856165,
      1785856201,
      1785856225,
      1785856261,
      1785856286,
      1785856321,
      1785856346,
      1785856406,
      1785856442,
      1785856466,
      1785856502,
      1785856526,
      1785856586,
      1785856622,
      1785856646,
      1785856682,
      1785856706,
      1785856742,
      1785856766,
      1785856802,
      1785856826,
      1785856862,
      1785856922,
      1785856946,
      1785856982,
      1785857007,
      1785857042,
      1785857103,
      1785857127,
      1785857163,
      1785857187,
      1785857223,
      1785857247,
      1785857283,
      1785857307,
      1785857343,
      1785857427,
      1785857463,
      1785857487,
      1785857547,
      1785857583,
      1785857607,
      1785857643,
      1785857667,
      1785857764,
      1785857824,
      1785857884,
      1785857944,
      1785858004,
      1785858064,
      1785858124,
      1785858244,
      1785858304,
      1785858365,
      1785858425,
      1785858485,
      1785858545,
      1785858665,
      1785858725,
      1785858785,
      1785858845,
      1785858905,
      1785858966,
      1785859026,
      1785859086,
      1785859146,
      1785859206,
      1785859266,
      1785859326,
      1785859398,
      1785859458,
      1785859506,
      1785859518,
      1785859578,
      1785859627,
      1785859639,
      1785859687,
      1785859699,
      1785859759,
      1785859819,
      1785859867,
      1785859879,
      1785859939,
      1785859987,
      1785859999,
      1785860047,
      1785860059,
      1785860107,
      1785860179,
      1785860228,
      1785860288,
      1785860300,
      1785860348,
      1785860408,
      1785860420,
      1785860468,
      1785860480,
      1785860528,
      1785860540,
      1785860588,
      1785860600,
      1785860648,
      1785860660,
      1785860708,
      1785860720,
      1785860780,
      1785860829,
      1785860840,
      1785860900,
      1785860961,
      1785861021,
      1785861081,
      1785861141,
      1785861201,
      1785861261,
      1785861321,
      1785861381,
      1785861561,
      1785861622,
      1785861682,
      1785861802,
      1785861862,
      1785861922,
      1785861982,
      1785862042,
      1785862102,
      1785862162,
      1785862222,
      1785862287,
      1785862343,
      1785862403,
      1785862467,
      1785862523,
      1785862583,
      1785862647,
      1785862703,
      1785862763,
      1785862828,
      1785862883,
      1785862944,
      1785863008,
      1785863064,
      1785863124,
      1785863188,
      1785863244,
      1785863304,
      1785863368,
      1785863428,
      1785863489,
      1785863549,
      1785863609,
      1785863669,
      1785863729,
      1785863789,
      1785863849,
      1785863909,
      1785864029,
      1785864148,
      1785864209,
      1785864221,
      1785864270,
      1785864286,
      1785864330,
      1785864347,
      1785864390,
      1785864401,
      1785864450,
      1785864510,
      1785864521,
      1785864570,
      1785864581,
      1785864630,
      1785864690,
      1785864750,
      1785864762,
      1785864810,
      1785864870,
      1785864887,
      1785864930,
      1785864942,
      1785864990,
      1785865007,
      1785865051,
      1785865111,
      1785865122
    ],
    "wof:geomhash": "4a94ea42b78dca75d8d5581cea644f18",
    "wof:id": 2032102229,
    "wof:repo": "sfomuseum-data-flights-2026-08"
  },
  "bbox": [
    -122.33333333333333,
    26.097777777777775,
    -80.03222222222222,
    37.6875
  ],
  "geometry": {"type":"LineString","coordinates":[[-80.05472222222222,26.097777777777775],[-80.03222222222222,26.15888888888889],[-80.0786111111111,26.223888888888887],[-80.24138888888889,26.274444444444445],[-80.24972222222222,26.278055555555554],[-80.36416666666666,26.309444444444445],[-80.45138888888889,26.33277777777778],[-80.46638888888889,26.33833333333333],[-80.53138888888888,26.39527777777778],[-80.5961111111111,26.4775],[-80.60444444444444,26.49138888888889],[-80.67111111111112,26.576666666666668],[-80.7375,26.663888888888888],[-80.80305555555556,26.7525],[-80.86388888888888,26.829166666666666],[-80.93222222222222,26.91916666666667],[-81.00972222222222,27.02],[-81.0175,27.030555555555555],[-81.06833333333333,27.096944444444443],[-81.09055555555555,27.127222222222223],[-81.16027777777778,27.21611111111111],[-81.23388888888888,27.31277777777778],[-81.30555555555556,27.404722222222222],[-81.31055555555555,27.411388888888887],[-81.385,27.509166666666665],[-81.46388888888889,27.610000000000003],[-81.535,27.71861111111111],[-81.535,27.71861111111111],[-81.59722222222221,27.83111111111111],[-81.6738888888889,27.966944444444444],[-81.73,28.06222222222222],[-81.74027777777778,28.079722222222223],[-81.7961111111111,28.16888888888889],[-81.81444444444445,28.1925],[-81.92416666666666,28.280277777777776],[-82.01944444444445,28.341388888888886],[-82.04333333333334,28.356944444444444],[-82.13861111111112,28.416666666666668],[-82.16250000000001,28.43166666666667],[-82.28333333333333,28.5075],[-82.39277777777778,28.57638888888889],[-82.49805555555555,28.642222222222223],[-82.51416666666667,28.6525],[-82.61722222222221,28.716666666666665],[-82.73694444444445,28.791111111111114],[-82.75583333333333,28.802777777777777],[-82.85194444444444,28.862222222222222],[-82.87638888888888,28.8775],[-82.99805555555555,28.952777777777776],[-83.11999999999999,29.028055555555554],[-83.24083333333333,29.101944444444445],[-83.33805555555556,29.161388888888887],[-83.3625,29.17638888888889],[-83.45861111111111,29.235277777777778],[-83.50694444444444,29.264722222222222],[-83.57777777777777,29.308055555555555],[-83.6975,29.380555555555556],[-83.74694444444445,29.410555555555554],[-83.81805555555555,29.453055555555554],[-83.86555555555555,29.482499999999998],[-83.98472222222222,29.554444444444446],[-84.05666666666666,29.59722222222222],[-84.1763888888889,29.66888888888889],[-84.22583333333334,29.699444444444445],[-84.29666666666667,29.74138888888889],[-84.34666666666666,29.77138888888889],[-84.4175,29.81388888888889],[-84.46583333333334,29.842499999999998],[-84.54055555555556,29.88722222222222],[-84.58666666666666,29.91444444444444],[-84.66194444444444,29.959166666666665],[-84.70722222222223,29.98611111111111],[-84.82638888888889,30.05638888888889],[-84.90055555555556,30.10027777777778],[-84.94722222222222,30.1275],[-85.01972222222223,30.17027777777778],[-85.06527777777778,30.196944444444444],[-85.13972222222223,30.240555555555556],[-85.18277777777779,30.265833333333333],[-85.26083333333334,30.31138888888889],[-85.41972222222223,30.403888888888886],[-85.53916666666666,30.473333333333333],[-85.63583333333334,30.529166666666665],[-85.65861111111111,30.542222222222225],[-85.75333333333333,30.5975],[-85.77722222222222,30.611111111111114],[-85.87138888888889,30.665277777777778],[-85.89472222222223,30.678611111111113],[-85.99222222222222,30.734444444444446],[-86.01611111111112,30.748055555555556],[-86.1125,30.801944444444445],[-86.1363888888889,30.811111111111114],[-86.2461111111111,30.8375],[-86.27416666666666,30.843333333333334],[-86.38444444444445,30.865833333333335],[-86.41388888888889,30.871944444444445],[-86.5275,30.89472222222222],[-86.66944444444445,30.923055555555557],[-86.9475,30.97833333333333],[-86.99277777777777,30.9875],[-87.09305555555555,31.0075],[-87.13361111111112,31.01527777777778],[-87.27416666666666,31.04277777777778],[-87.35805555555555,31.059166666666666],[-87.41694444444445,31.070555555555554],[-87.5325,31.092777777777776],[-87.56027777777777,31.098333333333333],[-87.67611111111111,31.12027777777778],[-87.70361111111112,31.125555555555557],[-87.80972222222222,31.14611111111111],[-87.84583333333333,31.153055555555554],[-87.95527777777778,31.17361111111111],[-87.98777777777778,31.179722222222225],[-88.09888888888888,31.200833333333332],[-88.13,31.206666666666667],[-88.24444444444444,31.228055555555553],[-88.27277777777778,31.233333333333334],[-88.38805555555557,31.254722222222224],[-88.53055555555555,31.28111111111111],[-88.67361111111111,31.307222222222222],[-88.81972222222223,31.334166666666665],[-88.96361111111112,31.360277777777778],[-89.10888888888888,31.386388888888888],[-89.25361111111111,31.41222222222222],[-89.39694444444446,31.43777777777778],[-89.54527777777777,31.46388888888889],[-89.69111111111111,31.489444444444445],[-89.98972222222223,31.541111111111114],[-90.1388888888889,31.566666666666666],[-90.43611111111112,31.616944444444446],[-90.58333333333333,31.641944444444444],[-90.73222222222222,31.666666666666668],[-90.88222222222221,31.691111111111113],[-91.03027777777778,31.715555555555554],[-91.32638888888889,31.763333333333332],[-91.4775,31.78777777777778],[-91.62527777777777,31.811111111111114],[-91.7761111111111,31.834999999999997],[-91.92472222222223,31.858055555555556],[-92.075,31.88138888888889],[-92.37555555555555,31.927500000000002],[-92.52388888888889,31.95],[-92.67500000000001,31.972777777777775],[-92.82222222222222,32.00555555555555],[-92.97055555555556,32.038333333333334],[-93.11777777777777,32.07055555555556],[-93.25833333333334,32.10138888888889],[-93.40583333333333,32.13361111111111],[-93.55388888888889,32.16555555555556],[-93.87472222222222,32.23416666666667],[-94.1738888888889,32.2975],[-94.32083333333333,32.32833333333333],[-94.91277777777778,32.45055555555556],[-95.06361111111111,32.48111111111111],[-95.21222222222222,32.51111111111111],[-95.35777777777777,32.540277777777774],[-95.66361111111112,32.600833333333334],[-95.81472222222222,32.630833333333335],[-95.965,32.65972222222222],[-96.11777777777777,32.68944444444444],[-96.27,32.71888888888889],[-96.41972222222223,32.74722222222222],[-96.56972222222223,32.77583333333333],[-96.71888888888888,32.803888888888885],[-96.86777777777777,32.831944444444446],[-97.01916666666666,32.86],[-97.16694444444445,32.886944444444445],[-97.32444444444444,32.91972222222222],[-97.47583333333334,32.95194444444445],[-97.625,32.98305555555556],[-97.9213888888889,33.04388888888889],[-98.22361111111111,33.10527777777778],[-98.37527777777777,33.13611111111111],[-98.6675,33.19416666666666],[-98.82,33.22416666666667],[-98.97111111111111,33.25388888888889],[-99.2725,33.3125],[-99.42527777777778,33.341944444444444],[-99.57638888888889,33.37083333333334],[-99.72472222222223,33.39861111111111],[-99.87583333333333,33.42722222222222],[-100.02,33.45416666666667],[-100.16861111111112,33.48166666666667],[-100.31944444444444,33.50944444444445],[-100.40333333333334,33.52472222222222],[-100.4675,33.53666666666666],[-100.55194444444444,33.551944444444445],[-100.61694444444444,33.56388888888888],[-100.70166666666667,33.57916666666667],[-100.76722222222222,33.590833333333336],[-100.85444444444444,33.60638888888889],[-100.91888888888889,33.617777777777775],[-101.005,33.63333333333333],[-101.07055555555556,33.644999999999996],[-101.15555555555557,33.65972222222222],[-101.30833333333334,33.68666666666666],[-101.4588888888889,33.71277777777778],[-101.525,33.72416666666667],[-101.61222222222221,33.739444444444445],[-101.67666666666668,33.750277777777775],[-101.76444444444445,33.765277777777776],[-101.8275,33.77611111111111],[-101.91527777777779,33.79111111111111],[-101.98194444444445,33.802499999999995],[-102.13277777777778,33.82805555555556],[-102.22,33.8425],[-102.28611111111111,33.85333333333333],[-102.39611111111111,33.87166666666667],[-102.43694444444445,33.87833333333333],[-102.60749999999999,33.906388888888884],[-102.7,33.921388888888885],[-102.7575,33.93083333333333],[-102.85138888888888,33.94583333333333],[-102.90972222222223,33.95527777777778],[-103.00166666666667,33.97],[-103.06055555555555,33.97944444444445],[-103.14722222222223,33.99333333333333],[-103.21083333333334,34.00333333333333],[-103.29916666666666,34.01722222222222],[-103.44861111111112,34.04055555555556],[-103.51305555555555,34.050555555555555],[-103.60305555555556,34.06472222222222],[-103.66222222222223,34.073888888888895],[-103.75333333333333,34.08777777777778],[-103.90777777777778,34.11138888888889],[-103.96694444444445,34.12027777777778],[-104.06027777777777,34.13444444444444],[-104.12027777777777,34.14361111111111],[-104.21222222222222,34.157222222222224],[-104.27166666666666,34.16611111111111],[-104.36555555555555,34.18],[-104.42222222222223,34.18833333333333],[-104.51694444444445,34.202222222222225],[-104.72583333333334,34.23277777777778],[-104.82277777777777,34.246944444444445],[-104.87666666666667,34.25472222222222],[-105.03027777777778,34.276666666666664],[-105.12444444444444,34.29],[-105.17833333333334,34.2975],[-105.27638888888889,34.311388888888885],[-105.33083333333333,34.31916666666667],[-105.58138888888888,34.353611111111114],[-105.73305555555555,34.37777777777778],[-105.88222222222221,34.406666666666666],[-106.03166666666667,34.43527777777778],[-106.18194444444445,34.46388888888889],[-106.33333333333333,34.49277777777778],[-106.48361111111112,34.52111111111111],[-106.78138888888888,34.57666666666667],[-106.93277777777779,34.60444444444445],[-107.08388888888888,34.632222222222225],[-107.23277777777778,34.659444444444446],[-107.38277777777778,34.686388888888885],[-107.51083333333334,34.70916666666667],[-107.80305555555556,34.76111111111111],[-107.95055555555555,34.786944444444444],[-108.09944444444444,34.812777777777775],[-108.25972222222222,34.84055555555556],[-108.40805555555556,34.865833333333335],[-108.55499999999999,34.89055555555556],[-108.70472222222223,34.91611111111111],[-108.85194444444444,34.940555555555555],[-109.00083333333333,34.96527777777778],[-109.14916666666667,34.98972222222222],[-109.29888888888888,35.01416666666667],[-109.44555555555556,35.03777777777778],[-109.6111111111111,35.07083333333334],[-109.75833333333334,35.0925],[-109.89194444444445,35.10888888888889],[-109.90583333333333,35.11527777777778],[-110.05333333333333,35.138333333333335],[-110.18555555555555,35.15472222222222],[-110.1975,35.157222222222224],[-110.33555555555554,35.17777777777778],[-110.37388888888889,35.18527777777778],[-110.52222222222223,35.2075],[-110.66833333333334,35.22944444444445],[-110.77888888888889,35.245],[-110.81861111111111,35.25083333333333],[-110.96611111111112,35.272777777777776],[-111.07583333333334,35.288888888888884],[-111.11527777777778,35.29472222222222],[-111.2075,35.30833333333333],[-111.26222222222222,35.316111111111105],[-111.37388888888889,35.33222222222223],[-111.56083333333333,35.35916666666667],[-111.67500000000001,35.375277777777775],[-111.82416666666666,35.396388888888886],[-111.85499999999999,35.400555555555556],[-111.97222222222223,35.41694444444444],[-112.11222222222221,35.44583333333333],[-112.14777777777779,35.453611111111115],[-112.26138888888889,35.4775],[-112.2925,35.48416666666667],[-112.40694444444445,35.50833333333333],[-112.43611111111112,35.51416666666667],[-112.55333333333333,35.538888888888884],[-112.58305555555555,35.544999999999995],[-112.69500000000001,35.568333333333335],[-112.73138888888889,35.57555555555556],[-112.83972222222222,35.59805555555556],[-112.87722222222222,35.60583333333334],[-113.01694444444445,35.63444444444444],[-113.13,35.6575],[-113.16388888888889,35.66416666666667],[-113.30805555555555,35.69333333333333],[-113.45222222222222,35.722500000000004],[-113.59861111111111,35.751666666666665],[-113.74944444444445,35.781666666666666],[-113.89527777777778,35.81027777777778],[-114.04055555555556,35.83861111111111],[-114.18583333333333,35.86694444444444],[-114.33083333333333,35.89472222222222],[-114.4775,35.922777777777775],[-114.9113888888889,36.01694444444444],[-115.04416666666667,36.07472222222223],[-115.17777777777778,36.13305555555556],[-115.44416666666667,36.24861111111111],[-115.5825,36.30833333333333],[-115.72333333333333,36.368611111111115],[-115.85583333333332,36.425555555555555],[-115.97166666666666,36.474722222222226],[-116.10749999999999,36.532222222222224],[-116.24138888888889,36.58888888888889],[-116.37666666666667,36.645833333333336],[-116.53833333333333,36.71333333333334],[-116.64694444444446,36.75861111111111],[-116.77472222222222,36.825833333333335],[-116.89777777777779,36.936388888888885],[-116.98194444444445,37.01277777777778],[-117.08472222222221,37.10527777777778],[-117.20944444444444,37.217222222222226],[-117.29444444444444,37.29111111111111],[-117.43833333333333,37.32833333333333],[-117.58888888888889,37.349722222222226],[-117.74055555555556,37.37027777777778],[-117.8888888888889,37.39],[-118.03472222222221,37.409444444444446],[-118.18027777777779,37.42861111111111],[-118.31416666666667,37.44638888888888],[-118.46916666666667,37.46638888888889],[-118.61527777777778,37.48527777777778],[-118.75916666666667,37.50361111111111],[-118.89972222222222,37.52111111111111],[-119.04222222222222,37.53861111111111],[-119.18666666666667,37.55638888888888],[-119.32805555555555,37.57361111111111],[-119.49805555555555,37.594166666666666],[-119.64361111111111,37.611666666666665],[-119.7575,37.625],[-119.90166666666667,37.64194444444444],[-120.04638888888888,37.65861111111111],[-120.19694444444445,37.67611111111111],[-120.50416666666666,37.6875],[-120.81666666666666,37.65],[-120.93166666666667,37.63722222222222],[-120.98333333333333,37.63333333333333],[-121.06638888888888,37.61972222222222],[-121.11666666666666,37.61666666666667],[-121.20833333333334,37.60027777777778],[-121.25,37.6],[-121.32916666666667,37.585],[-121.36666666666666,37.583333333333336],[-121.4475,37.57194444444445],[-121.5586111111111,37.55888888888889],[-121.58333333333333,37.55],[-121.6525,37.54472222222222],[-121.66666666666667,37.53333333333333],[-121.73388888888888,37.525],[-121.81611111111111,37.50555555555555],[-121.90027777777779,37.492222222222225],[-121.91666666666667,37.5],[-121.9825,37.4975],[-122.06555555555555,37.50222222222222],[-122.1,37.5],[-122.14277777777778,37.52333333333333],[-122.16666666666667,37.53333333333333],[-122.2125,37.55277777777778],[-122.23333333333333,37.56666666666667],[-122.26888888888888,37.57611111111112],[-122.31944444444444,37.59777777777778],[-122.33333333333333,37.6]]}
}
