{
  "id": 2047917661,
  "type": "Feature",
  "properties": {
    "geom:area": 0,
    "geom:bbox": "-122.387222,32.680278,-104.733333,39.833333",
    "geom:latitude": 36.19138656039168,
    "geom:longitude": -114.50987709496219,
    "src:alt_label": "swim-path",
    "src:geom": "swim",
    "swim:altitudes": [
      "058",
      "070",
      "085",
      "107",
      "123",
      "146",
      "157",
      "172",
      "186",
      "203",
      "219",
      "234",
      "242",
      "252",
      "261",
      "278",
      "297",
      "306",
      "318C",
      "320C",
      "320C",
      "320C",
      "320C",
      "320",
      "330",
      "340C",
      "340C",
      "340C",
      "340C",
      "340C",
      "340C",
      "340C",
      "340C",
      "340C",
      "340C",
      "340C",
      "340C",
      "340C",
      "340C",
      "340C",
      "340C",
      "340C",
      "340C",
      "340C",
      "340C",
      "340C",
      "340C",
      "340C",
      "340C",
      "340C",
      "340C",
      "340C",
      "340C",
      "340C",
      "340C",
      "340C",
      "340C",
      "340C",
      "340C",
      "340C",
      "340C",
      "340C",
      "340C",
      "340C",
      "340C",
      "340C",
      "340C",
      "340C",
      "340C",
      "340C",
      "340C",
      "340C",
      "340C",
      "340C",
      "340C",
      "340C",
      "340C",
      "340C",
      "340C",
      "340C",
      "340C",
      "340C",
      "340C",
      "340C",
      "340C",
      "340C",
      "340C",
      "340",
      "340",
      "340",
      "340",
      "340",
      "340",
      "340",
      "327",
      "314",
      "301C",
      "300C",
      "300C",
      "300C",
      "300C",
      "300C",
      "300",
      "283",
      "260C",
      "260C",
      "255",
      "245",
      "240C",
      "240C",
      "240C",
      "240C",
      "238",
      "227",
      "211",
      "195",
      "179",
      "161",
      "141",
      "117",
      "103",
      "095",
      "072",
      "063",
      "057",
      "042",
      "029",
      "025",
      "017",
      "008",
      "120",
      "033",
      "046",
      "074",
      "099C",
      "099",
      "099",
      "100C",
      "099",
      "100C",
      "099",
      "100C",
      "100C",
      "098C",
      "095",
      "083",
      "078",
      "070",
      "070",
      "070",
      "070",
      "061",
      "044",
      "042",
      "031",
      "020",
      "020",
      "020",
      "015",
      "008",
      "002",
      "100"
    ],
    "swim:geom": "path",
    "swim:speeds": [
      203,
      235,
      263,
      307,
      307,
      315,
      311,
      323,
      348,
      359,
      375,
      386,
      410,
      428,
      442,
      446,
      434,
      436,
      435,
      446,
      453,
      455,
      456,
      456,
      456,
      453,
      453,
      452,
      452,
      453,
      454,
      454,
      455,
      457,
      459,
      459,
      453,
      452,
      464,
      452,
      457,
      456,
      454,
      456,
      456,
      457,
      454,
      455,
      456,
      456,
      455,
      455,
      454,
      454,
      451,
      446,
      450,
      450,
      450,
      459,
      458,
      460,
      461,
      462,
      463,
      464,
      464,
      465,
      465,
      465,
      466,
      466,
      466,
      465,
      465,
      465,
      469,
      471,
      475,
      476,
      476,
      477,
      477,
      477,
      478,
      478,
      478,
      478,
      478,
      478,
      479,
      479,
      479,
      478,
      473,
      472,
      471,
      467,
      464,
      462,
      460,
      459,
      458,
      455,
      441,
      438,
      436,
      430,
      427,
      424,
      423,
      424,
      426,
      420,
      407,
      403,
      385,
      370,
      360,
      334,
      333,
      294,
      279,
      258,
      233,
      235,
      206,
      192,
      167,
      147,
      146,
      172,
      250,
      286,
      313,
      314,
      318,
      317,
      316,
      317,
      316,
      317,
      316,
      318,
      314,
      317,
      313,
      308,
      306,
      307,
      271,
      218,
      214,
      209,
      210,
      211,
      201,
      189,
      161,
      134,
      124,
      121
    ],
    "swim:timestamps": [
      1786402874,
      1786402922,
      1786402976,
      1786403051,
      1786403090,
      1786403150,
      1786403171,
      1786403231,
      1786403291,
      1786403351,
      1786403411,
      1786403472,
      1786403532,
      1786403592,
      1786403652,
      1786403712,
      1786403772,
      1786403832,
      1786403892,
      1786403952,
      1786404012,
      1786404072,
      1786404132,
      1786404193,
      1786404253,
      1786404313,
      1786404373,
      1786404433,
      1786404493,
      1786404553,
      1786404613,
      1786404673,
      1786404733,
      1786404793,
      1786404853,
      1786404914,
      1786404974,
      1786405034,
      1786405088,
      1786405094,
      1786405148,
      1786405208,
      1786405274,
      1786405328,
      1786405389,
      1786405449,
      1786405635,
      1786405695,
      1786405755,
      1786405809,
      1786405869,
      1786405875,
      1786405929,
      1786405935,
      1786405995,
      1786406170,
      1786406290,
      1786406296,
      1786406309,
      1786406356,
      1786406369,
      1786406398,
      1786406458,
      1786406476,
      1786406518,
      1786406578,
      1786406602,
      1786406662,
      1786406723,
      1786406751,
      1786406783,
      1786406811,
      1786406843,
      1786406871,
      1786406903,
      1786406931,
      1786406963,
      1786406991,
      1786407023,
      1786407051,
      1786407083,
      1786407111,
      1786407143,
      1786407171,
      1786407203,
      1786407232,
      1786407263,
      1786407292,
      1786407323,
      1786407352,
      1786407383,
      1786407412,
      1786407444,
      1786407472,
      1786407504,
      1786407532,
      1786407564,
      1786407592,
      1786407624,
      1786407652,
      1786407684,
      1786407744,
      1786407804,
      1786407864,
      1786407924,
      1786407984,
      1786408044,
      1786408105,
      1786408165,
      1786408225,
      1786408285,
      1786408345,
      1786408405,
      1786408465,
      1786408525,
      1786408585,
      1786408645,
      1786408705,
      1786408766,
      1786408830,
      1786408886,
      1786408946,
      1786409066,
      1786409126,
      1786409186,
      1786409246,
      1786409306,
      1786409314,
      1786409366,
      1786409426,
      1786409487,
      1786430533,
      1786430593,
      1786430653,
      1786430713,
      1786430720,
      1786430780,
      1786430833,
      1786430840,
      1786430893,
      1786430901,
      1786430953,
      1786431013,
      1786431073,
      1786431082,
      1786431133,
      1786431142,
      1786431193,
      1786431202,
      1786431253,
      1786431313,
      1786431373,
      1786431433,
      1786431442,
      1786431493,
      1786431553,
      1786431613,
      1786431673,
      1786431733,
      1786431793,
      1786431853,
      1786431913
    ],
    "wof:geomhash": "696af44035faacdfa1dba7822b33cae9",
    "wof:id": 2047917661,
    "wof:repo": "sfomuseum-data-flights-2026-08"
  },
  "bbox": [
    -122.38722222222223,
    32.680277777777775,
    -104.73333333333333,
    39.833333333333336
  ],
  "geometry": {"type":"LineString","coordinates":[[-104.73333333333333,39.833333333333336],[-104.8,39.833333333333336],[-104.88333333333334,39.81666666666667],[-105.01555555555555,39.80222222222222],[-105.08333333333333,39.78333333333333],[-105.2,39.78333333333333],[-105.23444444444445,39.76861111111111],[-105.34638888888888,39.763888888888886],[-105.46972222222223,39.77972222222222],[-105.59722222222221,39.79694444444444],[-105.71444444444445,39.77055555555555],[-105.83444444444444,39.71666666666667],[-105.955,39.653055555555554],[-106.08027777777778,39.58638888888889],[-106.2038888888889,39.520833333333336],[-106.33777777777777,39.44888888888889],[-106.48333333333333,39.37027777777778],[-106.61,39.30222222222222],[-106.73833333333333,39.231944444444444],[-106.8625,39.155833333333334],[-106.99138888888889,39.077222222222225],[-107.11916666666666,38.998333333333335],[-107.2475,38.91916666666666],[-107.37472222222222,38.84027777777778],[-107.50138888888888,38.76111111111111],[-107.62694444444443,38.68277777777777],[-107.75222222222222,38.60472222222222],[-107.8786111111111,38.525555555555556],[-108.00305555555556,38.44611111111111],[-108.10305555555556,38.382777777777775],[-108.22805555555556,38.30305555555555],[-108.35444444444444,38.221944444444446],[-108.47972222222222,38.14138888888889],[-108.62666666666667,38.04666666666667],[-108.75361111111111,37.965],[-108.87555555555555,37.885],[-109,37.80416666666667],[-109.12055555555555,37.72527777777778],[-109.21055555555556,37.66611111111111],[-109.24194444444444,37.64527777777778],[-109.33361111111111,37.58444444444444],[-109.45611111111111,37.50388888888889],[-109.60805555555555,37.403055555555554],[-109.69861111111112,37.342222222222226],[-109.82055555555556,37.26],[-109.94250000000001,37.17722222222222],[-110.33055555555555,36.91638888888889],[-110.43972222222223,36.825],[-110.53416666666666,36.724444444444444],[-110.61055555555555,36.64277777777778],[-110.70527777777778,36.54138888888889],[-110.72305555555556,36.52194444444444],[-110.79527777777777,36.44027777777777],[-110.81416666666667,36.419444444444444],[-110.90166666666667,36.31666666666667],[-111.11583333333333,36.01361111111111],[-111.30916666666667,35.82277777777778],[-111.335,35.812777777777775],[-111.36027777777777,35.80361111111111],[-111.47916666666667,35.76],[-111.50833333333334,35.74916666666667],[-111.56611111111111,35.72777777777778],[-111.71111111111111,35.67388888888889],[-111.76583333333333,35.65361111111111],[-111.85472222222222,35.62],[-111.9975,35.566111111111105],[-112.05555555555556,35.54416666666666],[-112.20083333333334,35.48916666666667],[-112.34305555555555,35.43555555555555],[-112.42833333333334,35.403055555555554],[-112.4875,35.38027777777778],[-112.57333333333332,35.34777777777778],[-112.63305555555554,35.32472222222223],[-112.71722222222222,35.29222222222222],[-112.77361111111111,35.27055555555555],[-112.85777777777777,35.238055555555555],[-112.91944444444445,35.21416666666667],[-112.98361111111112,35.18944444444444],[-113.09027777777777,35.147777777777776],[-113.13083333333333,35.132222222222225],[-113.2213888888889,35.096944444444446],[-113.27916666666667,35.07416666666667],[-113.36999999999999,35.03861111111111],[-113.42583333333334,35.016666666666666],[-113.51527777777778,34.98111111111111],[-113.57138888888889,34.95916666666667],[-113.66000000000001,34.924166666666665],[-113.71472222222222,34.902499999999996],[-113.80666666666666,34.865833333333335],[-113.86361111111111,34.843333333333334],[-113.9675,34.80166666666666],[-114.02444444444444,34.77861111111111],[-114.11166666666666,34.74388888888889],[-114.16638888888889,34.72166666666667],[-114.25527777777778,34.68611111111111],[-114.31083333333333,34.66361111111111],[-114.39055555555557,34.626666666666665],[-114.44305555555556,34.59166666666667],[-114.51,34.54333333333333],[-114.55805555555555,34.50861111111111],[-114.62472222222222,34.46027777777778],[-114.74,34.37638888888889],[-114.85694444444444,34.29083333333333],[-114.97166666666666,34.206944444444446],[-115.08027777777778,34.126666666666665],[-115.19083333333333,34.04527777777778],[-115.29805555555555,33.965833333333336],[-115.40611111111112,33.88611111111111],[-115.51194444444444,33.80777777777777],[-115.61638888888888,33.73027777777778],[-115.7213888888889,33.651111111111106],[-115.8261111111111,33.57194444444445],[-115.93,33.490833333333335],[-116.03277777777778,33.41138888888889],[-116.15277777777779,33.363055555555555],[-116.275,33.315555555555555],[-116.38805555555557,33.26916666666666],[-116.49861111111112,33.223888888888894],[-116.60333333333332,33.18083333333333],[-116.68333333333334,33.1],[-116.71944444444445,33.02722222222222],[-116.75583333333333,32.95027777777778],[-116.82444444444444,32.805277777777775],[-116.85694444444444,32.73694444444445],[-116.89527777777778,32.68333333333333],[-116.97027777777778,32.680277777777775],[-117.03944444444444,32.69694444444444],[-117.05,32.7],[-117.095,32.71055555555556],[-117.14194444444445,32.721944444444446],[-117.1875,32.73305555555556],[-122.3775,37.66611111111111],[-122.33972222222222,37.72],[-122.36166666666666,37.79388888888889],[-122.38583333333334,37.876666666666665],[-122.38722222222223,37.90333333333333],[-122.32527777777777,37.969722222222224],[-122.25861111111111,38.00361111111111],[-122.22888888888889,38.0175],[-122.16555555555556,38.05027777777777],[-122.135,38.066111111111105],[-122.07,38.09777777777778],[-121.97611111111111,38.144999999999996],[-121.91083333333334,38.21527777777778],[-121.9,38.25],[-121.88277777777778,38.3],[-121.86666666666666,38.333333333333336],[-121.85555555555555,38.382777777777775],[-121.85,38.416666666666664],[-121.82416666666666,38.48027777777778],[-121.79805555555555,38.559999999999995],[-121.77888888888889,38.62111111111111],[-121.76083333333334,38.67916666666667],[-121.75,38.68333333333333],[-121.74722222222222,38.725],[-121.73138888888889,38.7825],[-121.7,38.82888888888889],[-121.63305555555554,38.82666666666667],[-121.60333333333332,38.78722222222222],[-121.60055555555554,38.74805555555556],[-121.60111111111111,38.71416666666667],[-121.60166666666666,38.676944444444445]]}
}
