{
  "id": 2048078873,
  "type": "Feature",
  "properties": {
    "geom:area": 0,
    "geom:bbox": "-122.835220,37.536830,-122.054970,38.385110",
    "geom:latitude": 37.82044632574991,
    "geom:longitude": -122.46352818401802,
    "src:alt_label": "swim-approach",
    "src:geom": "swim",
    "swim:elevations": [
      7620,
      7271,
      6792,
      6746,
      6429,
      5881,
      5782,
      5500,
      5223,
      4801,
      4427,
      4246,
      3933,
      3808,
      3569,
      3352,
      3353,
      3353,
      3353,
      3117,
      2924,
      2776,
      2654,
      2569,
      2399,
      2028,
      1643,
      1524,
      1241,
      1219,
      1192,
      1004,
      805,
      707,
      406,
      361,
      244,
      119
    ],
    "swim:geom": "approach",
    "swim:timestamps": [
      1787228950,
      1787228983,
      1787229027,
      1787229031,
      1787229063,
      1787229117,
      1787229127,
      1787229155,
      1787229184,
      1787229224,
      1787229260,
      1787229279,
      1787229319,
      1787229347,
      1787229384,
      1787229413,
      1787229428,
      1787229476,
      1787229498,
      1787229532,
      1787229565,
      1787229594,
      1787229614,
      1787229631,
      1787229674,
      1787229717,
      1787229755,
      1787229787,
      1787229837,
      1787229846,
      1787229893,
      1787229928,
      1787229957,
      1787229967,
      1787230015,
      1787230027,
      1787230053,
      1787230082
    ],
    "wof:geomhash": "83a33a5c3702fd3909926128c7770754",
    "wof:id": 2048078873,
    "wof:repo": "sfomuseum-data-flights-2026-08"
  },
  "bbox": [
    -122.83522,
    37.53683,
    -122.05497,
    38.38511
  ],
  "geometry": {"type":"LineString","coordinates":[[-122.83522,38.38511],[-122.81164,38.32985],[-122.78174,38.25863],[-122.77873,38.25147],[-122.76083,38.20127],[-122.73566,38.11476],[-122.73133,38.09981],[-122.71865,38.05682],[-122.70606,38.01312],[-122.68872,37.95264],[-122.66954,37.90085],[-122.64928,37.87704],[-122.60027,37.83051],[-122.56719,37.79939],[-122.52765,37.76192],[-122.49725,37.73323],[-122.48252,37.71959],[-122.43703,37.67674],[-122.41471,37.659],[-122.36491,37.6585],[-122.31499,37.65688],[-122.27274,37.65],[-122.24504,37.64174],[-122.22176,37.63438],[-122.1656,37.61681],[-122.10993,37.59925],[-122.06234,37.58058],[-122.05497,37.55006],[-122.10592,37.53683],[-122.11568,37.53985],[-122.16907,37.55399],[-122.20426,37.5647],[-122.23068,37.57324],[-122.23931,37.57607],[-122.28088,37.58854],[-122.29081,37.59161],[-122.31328,37.59828],[-122.33653,37.60528]]}
}
