{
  "id": 2048067475,
  "type": "Feature",
  "properties": {
    "geom:area": 0,
    "geom:bbox": "-122.543080,36.741340,-121.468900,37.667520",
    "geom:latitude": 37.21332208840144,
    "geom:longitude": -122.0740039924203,
    "src:alt_label": "swim-takeoff",
    "src:geom": "swim",
    "swim:elevations": [
      438,
      648,
      995,
      1123,
      1232,
      1473,
      1950,
      2195,
      2714,
      3032,
      3329,
      3550,
      4000,
      4113,
      4579,
      4781,
      5057,
      5641,
      5923,
      6193,
      6348,
      6910,
      7020,
      7379,
      7620,
      7654,
      7968,
      8277,
      8330,
      8536
    ],
    "swim:geom": "takeoff",
    "swim:timestamps": [
      1787124508,
      1787124525,
      1787124563,
      1787124585,
      1787124604,
      1787124643,
      1787124689,
      1787124710,
      1787124747,
      1787124767,
      1787124806,
      1787124836,
      1787124868,
      1787124880,
      1787124920,
      1787124939,
      1787124960,
      1787125011,
      1787125041,
      1787125066,
      1787125082,
      1787125135,
      1787125146,
      1787125192,
      1787125223,
      1787125231,
      1787125272,
      1787125314,
      1787125324,
      1787125356
    ],
    "wof:geomhash": "8a3bd8c8ebc43ef75d7932ad3dee7d71",
    "wof:id": 2048067475,
    "wof:repo": "sfomuseum-data-flights-2026-08"
  },
  "bbox": [
    -122.54308,
    36.74134,
    -121.4689,
    37.66752
  ],
  "geometry": {"type":"LineString","coordinates":[[-122.41578,37.6365],[-122.43156,37.64339],[-122.46538,37.65805],[-122.48783,37.66706],[-122.5114,37.66752],[-122.54308,37.63491],[-122.51992,37.58165],[-122.50749,37.55573],[-122.48517,37.51057],[-122.46799,37.48698],[-122.41833,37.44808],[-122.37355,37.4153],[-122.32539,37.38027],[-122.30692,37.36659],[-122.24218,37.31862],[-122.2121,37.29654],[-122.17709,37.27093],[-122.09273,37.20856],[-122.04138,37.17026],[-121.99831,37.13818],[-121.97241,37.11888],[-121.87988,37.04984],[-121.85982,37.03479],[-121.77703,36.97289],[-121.72112,36.93149],[-121.70575,36.92063],[-121.62781,36.86394],[-121.54772,36.80383],[-121.53037,36.78994],[-121.4689,36.74134]]}
}
