{
  "id": 2047941471,
  "type": "Feature",
  "properties": {
    "geom:area": 0,
    "geom:bbox": "-122.376944,32.739444,-117.213889,37.619444",
    "geom:latitude": 35.05623052984514,
    "geom:longitude": -120.07722789614891,
    "src:alt_label": "swim-path",
    "src:geom": "swim",
    "swim:altitudes": [
      "009",
      "028",
      "033",
      "058",
      "087",
      "112",
      "139",
      "166",
      "191",
      "213",
      "233",
      "251",
      "269",
      "282",
      "296",
      "306",
      "323",
      "337",
      "350",
      "360C",
      "360C",
      "360C",
      "360C",
      "360C",
      "360C",
      "360C",
      "360C",
      "360C",
      "360C",
      "360C",
      "360C",
      "360C",
      "360C",
      "360C",
      "360C",
      "360C",
      "360C",
      "360C",
      "360C",
      "360C",
      "360C",
      "344",
      "311",
      "289",
      "270",
      "250",
      "230",
      "214",
      "196",
      "174",
      "154",
      "136",
      "117",
      "102",
      "092",
      "079",
      "080",
      "072",
      "059",
      "050",
      "044",
      "029",
      "021",
      "012",
      "005",
      "001"
    ],
    "swim:geom": "path",
    "swim:speeds": [
      171,
      226,
      222,
      273,
      290,
      324,
      346,
      364,
      377,
      393,
      406,
      418,
      427,
      434,
      446,
      458,
      462,
      461,
      461,
      462,
      464,
      464,
      463,
      462,
      462,
      463,
      463,
      463,
      458,
      444,
      442,
      442,
      458,
      460,
      461,
      462,
      463,
      464,
      465,
      466,
      466,
      466,
      466,
      458,
      439,
      425,
      416,
      396,
      381,
      372,
      368,
      358,
      345,
      342,
      316,
      267,
      245,
      246,
      248,
      243,
      221,
      228,
      199,
      161,
      151,
      109
    ],
    "swim:timestamps": [
      1786563046,
      1786563096,
      1786563107,
      1786563167,
      1786563227,
      1786563287,
      1786563347,
      1786563407,
      1786563467,
      1786563527,
      1786563587,
      1786563647,
      1786563707,
      1786563768,
      1786563828,
      1786563888,
      1786563948,
      1786564008,
      1786564068,
      1786564128,
      1786564188,
      1786564248,
      1786564308,
      1786564368,
      1786564429,
      1786564489,
      1786564549,
      1786564609,
      1786564669,
      1786564729,
      1786564789,
      1786564849,
      1786564909,
      1786564969,
      1786565031,
      1786565090,
      1786565150,
      1786565210,
      1786565270,
      1786565330,
      1786565390,
      1786565451,
      1786565512,
      1786565572,
      1786565632,
      1786565692,
      1786565752,
      1786565812,
      1786565872,
      1786565932,
      1786565992,
      1786566052,
      1786566111,
      1786566171,
      1786566231,
      1786566291,
      1786566351,
      1786566413,
      1786566473,
      1786566533,
      1786566593,
      1786566653,
      1786566711,
      1786566773,
      1786566834,
      1786566894
    ],
    "wof:geomhash": "c9047186dbf8b96ef2c696e27ad3a6e6",
    "wof:id": 2047941471,
    "wof:repo": "sfomuseum-data-flights-2026-08"
  },
  "bbox": [
    -122.37694444444443,
    32.739444444444445,
    -117.21388888888889,
    37.61944444444445
  ],
  "geometry": {"type":"LineString","coordinates":[[-117.21388888888889,32.739444444444445],[-117.26666666666667,32.766666666666666],[-117.2713888888889,32.7725],[-117.3425,32.81472222222222],[-117.41833333333334,32.86388888888889],[-117.50166666666667,32.9175],[-117.59277777777777,32.97638888888889],[-117.68833333333333,33.0375],[-117.7761111111111,33.109722222222224],[-117.86166666666666,33.19333333333333],[-117.9563888888889,33.27305555555555],[-118.05527777777777,33.355555555555554],[-118.1563888888889,33.44],[-118.23916666666666,33.509166666666665],[-118.34555555555555,33.59722222222222],[-118.46361111111112,33.68416666666666],[-118.58472222222221,33.7675],[-118.70361111111112,33.84916666666667],[-118.82388888888889,33.93138888888889],[-118.94361111111111,34.01305555555555],[-119.06416666666667,34.095],[-119.18555555555555,34.17833333333333],[-119.30611111111111,34.25944444444445],[-119.42500000000001,34.33888888888889],[-119.54416666666667,34.42027777777778],[-119.6563888888889,34.51166666666666],[-119.76805555555555,34.602222222222224],[-119.89111111111112,34.70166666666667],[-120.0025,34.78805555555555],[-120.14444444444445,34.82805555555556],[-120.28833333333333,34.86361111111111],[-120.42944444444444,34.90416666666667],[-120.52416666666666,35.005],[-120.60972222222222,35.11388888888889],[-120.68027777777779,35.20416666666667],[-120.76416666666667,35.311388888888885],[-120.85055555555554,35.42166666666667],[-120.93611111111112,35.53055555555555],[-121.02277777777778,35.63944444444444],[-121.10972222222222,35.74916666666667],[-121.19638888888889,35.85805555555556],[-121.25333333333333,35.983333333333334],[-121.29222222222222,36.10861111111111],[-121.34166666666667,36.23111111111111],[-121.3938888888889,36.34527777777778],[-121.44861111111112,36.455000000000005],[-121.52416666666666,36.55361111111111],[-121.6375,36.614444444444445],[-121.74916666666667,36.669999999999995],[-121.8761111111111,36.73444444444444],[-121.91833333333334,36.828611111111115],[-121.94555555555556,36.92527777777777],[-121.98333333333333,37.016666666666666],[-122.01666666666667,37.1],[-122.05,37.2],[-122.1,37.266666666666666],[-122.16666666666667,37.3],[-122.24805555555555,37.32638888888889],[-122.26805555555555,37.38166666666667],[-122.19500000000001,37.41416666666667],[-122.16250000000001,37.473055555555554],[-122.17444444444445,37.528888888888886],[-122.23333333333333,37.56666666666667],[-122.29027777777777,37.58305555555556],[-122.33583333333333,37.602222222222224],[-122.37694444444443,37.61944444444445]]}
}
