{
  "id": 2032088789,
  "type": "Feature",
  "properties": {
    "geom:area": 0,
    "geom:bbox": "-122.405500,37.627780,-121.326340,38.375920",
    "geom:latitude": 37.99629461949449,
    "geom:longitude": -121.87523220851538,
    "src:alt_label": "swim-takeoff",
    "src:geom": "swim",
    "swim:elevations": [
      183,
      472,
      580,
      610,
      871,
      1063,
      1248,
      1507,
      1669,
      1716,
      2049,
      2470,
      2929,
      3200,
      3316,
      3530,
      3658,
      3996,
      4025,
      4468,
      4605,
      4861,
      4905,
      5027,
      5199,
      5488,
      5696,
      6156
    ],
    "swim:geom": "takeoff",
    "swim:timestamps": [
      1785755823,
      1785755843,
      1785755867,
      1785755893,
      1785755927,
      1785755950,
      1785755966,
      1785755989,
      1785756005,
      1785756010,
      1785756042,
      1785756083,
      1785756130,
      1785756162,
      1785756186,
      1785756237,
      1785756254,
      1785756293,
      1785756300,
      1785756358,
      1785756375,
      1785756406,
      1785756413,
      1785756430,
      1785756453,
      1785756494,
      1785756518,
      1785756586
    ],
    "wof:geomhash": "d3b390a9bb32214f713b2897c2c1e097",
    "wof:id": 2032088789,
    "wof:repo": "sfomuseum-data-flights-2026-08"
  },
  "bbox": [
    -122.4055,
    37.62778,
    -121.32634,
    38.37592
  ],
  "geometry": {"type":"LineString","coordinates":[[-122.39125,37.62778],[-122.4055,37.63886],[-122.39944,37.65663],[-122.37222,37.66653],[-122.32888,37.67986],[-122.29685,37.69037],[-122.27254,37.69848],[-122.23891,37.70964],[-122.21672,37.71916],[-122.21107,37.72324],[-122.17876,37.75765],[-122.13211,37.79738],[-122.07253,37.8412],[-122.03057,37.87184],[-121.99779,37.8959],[-121.92336,37.95351],[-121.9034,37.97708],[-121.85641,38.03302],[-121.84686,38.04067],[-121.74653,38.10629],[-121.71548,38.12647],[-121.66076,38.16198],[-121.64863,38.16979],[-121.61797,38.18956],[-121.57524,38.21712],[-121.50105,38.26484],[-121.45538,38.29412],[-121.32634,38.37592]]}
}
