{
  "id": 2047898795,
  "type": "Feature",
  "properties": {
    "geom:area": 0,
    "geom:bbox": "-122.369444,37.533333,-122.166667,37.618611",
    "geom:latitude": 37.57693188094502,
    "geom:longitude": -122.26766181816704,
    "src:alt_label": "swim-path",
    "src:geom": "swim",
    "swim:altitudes": [
      "040",
      "039",
      "023",
      "015",
      "013",
      "006",
      "110"
    ],
    "swim:geom": "path",
    "swim:speeds": [
      201,
      203,
      185,
      170,
      170,
      156,
      135
    ],
    "swim:timestamps": [
      1786335642,
      1786335651,
      1786335711,
      1786335761,
      1786335771,
      1786335831,
      1786335891
    ],
    "wof:geomhash": "af239a41cb762854d66aa04519dc08e6",
    "wof:id": 2047898795,
    "wof:repo": "sfomuseum-data-flights-2026-08"
  },
  "bbox": [
    -122.36944444444444,
    37.53333333333333,
    -122.16666666666667,
    37.618611111111115
  ],
  "geometry": {"type":"LineString","coordinates":[[-122.16666666666667,37.53333333333333],[-122.1675,37.53361111111111],[-122.22472222222223,37.55777777777777],[-122.26666666666667,37.583333333333336],[-122.27888888888889,37.58083333333334],[-122.32666666666667,37.60055555555556],[-122.36944444444444,37.618611111111115]]}
}
