{
  "id": 2032120843,
  "type": "Feature",
  "properties": {
    "geom:area": 0,
    "geom:bbox": "-122.526560,37.625250,-121.313500,38.510940",
    "geom:latitude": 38.09563131893844,
    "geom:longitude": -122.01922064058519,
    "src:alt_label": "swim-takeoff",
    "src:geom": "swim",
    "swim:elevations": [
      244,
      438,
      777,
      915,
      1048,
      1111,
      1313,
      1641,
      1924,
      2294,
      2539,
      2913,
      3006,
      3290,
      3413,
      3719,
      4045,
      4166,
      4663,
      4853,
      5001,
      5127,
      5456,
      5550,
      5863,
      6032,
      6278,
      6509,
      6669,
      6805,
      6826,
      7188,
      7226,
      7317,
      7634,
      7764,
      7832
    ],
    "swim:geom": "takeoff",
    "swim:timestamps": [
      1785997570,
      1785997585,
      1785997618,
      1785997630,
      1785997648,
      1785997658,
      1785997697,
      1785997737,
      1785997763,
      1785997792,
      1785997813,
      1785997842,
      1785997849,
      1785997885,
      1785997899,
      1785997937,
      1785997975,
      1785997985,
      1785998031,
      1785998047,
      1785998062,
      1785998075,
      1785998117,
      1785998126,
      1785998151,
      1785998173,
      1785998209,
      1785998236,
      1785998263,
      1785998281,
      1785998284,
      1785998335,
      1785998343,
      1785998360,
      1785998423,
      1785998443,
      1785998460
    ],
    "wof:geomhash": "db1f2878a04d16a06830a22fd0c24460",
    "wof:id": 2032120843,
    "wof:repo": "sfomuseum-data-flights-2026-08"
  },
  "bbox": [
    -122.52656,
    37.62525,
    -121.3135,
    38.51094
  ],
  "geometry": {"type":"LineString","coordinates":[[-122.39028,37.62525],[-122.40323,37.63067],[-122.43116,37.64272],[-122.44185,37.6473],[-122.45807,37.6541],[-122.46799,37.65833],[-122.51109,37.67847],[-122.52518,37.72645],[-122.52656,37.76119],[-122.51906,37.80036],[-122.50517,37.82746],[-122.48478,37.86582],[-122.4794,37.87555],[-122.45099,37.92272],[-122.43179,37.9376],[-122.36315,37.96568],[-122.28909,37.9948],[-122.26889,38.00248],[-122.1778,38.03772],[-122.14642,38.04982],[-122.11534,38.06182],[-122.08987,38.07164],[-122.00709,38.11294],[-121.99027,38.12284],[-121.94326,38.14986],[-121.90065,38.17451],[-121.83131,38.21459],[-121.77811,38.24526],[-121.7256,38.2754],[-121.68956,38.29614],[-121.68349,38.29959],[-121.58014,38.35883],[-121.56457,38.36776],[-121.52867,38.3883],[-121.39409,38.46497],[-121.35035,38.4896],[-121.3135,38.51094]]}
}
