{
  "id": 2032101121,
  "type": "Feature",
  "properties": {
    "geom:area": 0,
    "geom:bbox": "-122.333333,35.903333,-115.168056,37.687778",
    "geom:latitude": 37.183595757204735,
    "geom:longitude": -118.59588128266255,
    "src:alt_label": "swim-path",
    "src:geom": "swim",
    "swim:altitudes": [
      "031",
      "045",
      "047",
      "058",
      "070",
      "099",
      "119",
      "140",
      "163",
      "189",
      "211",
      "230",
      "247",
      "267",
      "287",
      "300C",
      "300C",
      "300C",
      "300C",
      "300C",
      "300C",
      "300C",
      "300C",
      "301C",
      "301C",
      "301C",
      "300C",
      "300C",
      "300C",
      "300C",
      "300C",
      "300C",
      "300C",
      "300C",
      "300C",
      "300C",
      "301C",
      "300C",
      "300C",
      "300C",
      "299C",
      "300C",
      "300C",
      "300C",
      "300C",
      "300C",
      "300C",
      "300C",
      "300C",
      "300C",
      "300C",
      "300C",
      "300C",
      "300C",
      "300C",
      "300",
      "300",
      "300",
      "266",
      "250",
      "242",
      "229",
      "224",
      "202",
      "186",
      "179",
      "166",
      "157",
      "146",
      "137",
      "125",
      "109",
      "110",
      "101",
      "095",
      "087",
      "081",
      "080",
      "074",
      "068",
      "062",
      "055",
      "046",
      "040",
      "030",
      "026",
      "016",
      "011",
      "007",
      "004"
    ],
    "swim:geom": "path",
    "swim:speeds": [
      159,
      212,
      235,
      268,
      278,
      280,
      312,
      333,
      347,
      358,
      371,
      383,
      392,
      396,
      396,
      390,
      419,
      441,
      456,
      457,
      459,
      462,
      465,
      466,
      467,
      468,
      467,
      465,
      464,
      463,
      461,
      456,
      455,
      454,
      454,
      454,
      455,
      455,
      455,
      454,
      454,
      454,
      454,
      454,
      454,
      455,
      455,
      455,
      455,
      456,
      456,
      456,
      456,
      457,
      458,
      458,
      458,
      459,
      452,
      425,
      422,
      410,
      411,
      398,
      382,
      383,
      366,
      364,
      352,
      350,
      334,
      290,
      249,
      245,
      247,
      243,
      243,
      243,
      243,
      240,
      242,
      240,
      216,
      210,
      200,
      204,
      194,
      158,
      143,
      135
    ],
    "swim:timestamps": [
      1785861232,
      1785861286,
      1785861309,
      1785861335,
      1785861369,
      1785861429,
      1785861489,
      1785861549,
      1785861610,
      1785861670,
      1785861730,
      1785861790,
      1785861850,
      1785861910,
      1785861970,
      1785862030,
      1785862090,
      1785862119,
      1785862179,
      1785862210,
      1785862239,
      1785862271,
      1785862299,
      1785862331,
      1785862359,
      1785862391,
      1785862419,
      1785862451,
      1785862479,
      1785862511,
      1785862539,
      1785862631,
      1785862659,
      1785862691,
      1785862720,
      1785862751,
      1785862780,
      1785862811,
      1785862840,
      1785862871,
      1785862900,
      1785862931,
      1785862992,
      1785863020,
      1785863052,
      1785863080,
      1785863112,
      1785863140,
      1785863172,
      1785863200,
      1785863232,
      1785863260,
      1785863320,
      1785863380,
      1785863440,
      1785863501,
      1785863561,
      1785863741,
      1785863861,
      1785863891,
      1785863921,
      1785863956,
      1785863981,
      1785864041,
      1785864076,
      1785864101,
      1785864131,
      1785864161,
      1785864191,
      1785864221,
      1785864256,
      1785864316,
      1785864372,
      1785864432,
      1785864462,
      1785864491,
      1785864522,
      1785864551,
      1785864642,
      1785864672,
      1785864702,
      1785864737,
      1785864797,
      1785864822,
      1785864857,
      1785864882,
      1785864942,
      1785864972,
      1785865003,
      1785865032
    ],
    "wof:geomhash": "47c7173743ae3c6ee13171d11d6b8361",
    "wof:id": 2032101121,
    "wof:repo": "sfomuseum-data-flights-2026-08"
  },
  "bbox": [
    -122.33333333333333,
    35.90333333333333,
    -115.16805555555555,
    37.687777777777775
  ],
  "geometry": {"type":"LineString","coordinates":[[-115.16805555555555,36.07611111111112],[-115.22611111111111,36.07472222222223],[-115.24944444444445,36.06944444444445],[-115.27305555555556,36.041666666666664],[-115.28916666666666,36.003055555555555],[-115.3325,35.93388888888889],[-115.42555555555556,35.90833333333333],[-115.53666666666666,35.90611111111111],[-115.65472222222223,35.90333333333333],[-115.76666666666667,35.93555555555555],[-115.8625,36.003055555555555],[-115.96444444444445,36.073055555555555],[-116.05805555555555,36.13722222222222],[-116.16222222222223,36.20861111111111],[-116.27166666666666,36.28333333333333],[-116.36583333333333,36.35805555555556],[-116.45194444444445,36.44555555555555],[-116.50583333333333,36.5],[-116.60583333333332,36.600833333333334],[-116.64500000000001,36.640277777777776],[-116.70666666666666,36.70194444444445],[-116.74722222222222,36.7425],[-116.80722222222222,36.802499999999995],[-116.84888888888888,36.84388888888889],[-116.91083333333334,36.905277777777776],[-116.95194444444445,36.94583333333333],[-117.01194444444444,37.00527777777778],[-117.05333333333333,37.046388888888885],[-117.11361111111111,37.10583333333334],[-117.15416666666667,37.14527777777778],[-117.21583333333334,37.20611111111111],[-117.35583333333332,37.34277777777778],[-117.39777777777779,37.38166666666667],[-117.45972222222223,37.439166666666665],[-117.50527777777778,37.472500000000004],[-117.59388888888888,37.49861111111111],[-117.65972222222223,37.503055555555555],[-117.7538888888889,37.51277777777778],[-117.81888888888888,37.51888888888889],[-117.91388888888889,37.526944444444446],[-117.97583333333334,37.531666666666666],[-118.07027777777778,37.53916666666667],[-118.22888888888889,37.55166666666666],[-118.29305555555555,37.55638888888888],[-118.37666666666667,37.562777777777775],[-118.45305555555557,37.56861111111112],[-118.5461111111111,37.57555555555556],[-118.61055555555555,37.580555555555556],[-118.70583333333333,37.587500000000006],[-118.76944444444445,37.592222222222226],[-118.86583333333333,37.59916666666667],[-118.95333333333333,37.60527777777778],[-119.11333333333333,37.61638888888889],[-119.27194444444444,37.6275],[-119.435,37.63861111111111],[-119.59444444444443,37.649166666666666],[-119.72277777777778,37.657777777777774],[-120.20416666666667,37.687777777777775],[-120.52305555555556,37.68555555555555],[-120.61666666666666,37.666666666666664],[-120.67277777777778,37.668055555555554],[-120.78333333333333,37.65],[-120.815,37.651111111111106],[-120.95444444444445,37.634166666666665],[-121.05,37.61666666666667],[-121.08666666666666,37.61666666666667],[-121.16666666666667,37.6],[-121.22611111111111,37.59777777777778],[-121.3,37.583333333333336],[-121.34972222222221,37.58222222222223],[-121.41666666666667,37.56666666666667],[-121.53333333333333,37.56666666666667],[-121.61666666666666,37.55],[-121.7,37.56666666666667],[-121.73361111111112,37.57361111111111],[-121.76666666666667,37.55],[-121.795,37.531666666666666],[-121.81666666666666,37.5],[-121.92361111111111,37.46138888888889],[-121.96666666666667,37.45],[-122.00666666666666,37.465833333333336],[-122.05,37.483333333333334],[-122.11666666666666,37.516666666666666],[-122.14777777777779,37.525277777777774],[-122.18333333333334,37.53333333333333],[-122.21000000000001,37.55166666666666],[-122.26916666666666,37.57666666666667],[-122.3,37.583333333333336],[-122.31833333333333,37.59722222222222],[-122.33333333333333,37.6]]}
}
