{
  "id": 2032086133,
  "type": "Feature",
  "properties": {
    "geom:area": 0,
    "geom:bbox": "-122.336111,37.416667,-83.355278,42.465556",
    "geom:latitude": 40.28837756806973,
    "geom:longitude": -103.02764208344234,
    "src:alt_label": "swim-path",
    "src:geom": "swim",
    "swim:altitudes": [
      "038",
      "060",
      "071",
      "070",
      "070",
      "070",
      "086",
      "104",
      "115",
      "118",
      "130",
      "132",
      "148",
      "179",
      "194",
      "210",
      "224",
      "231",
      "239",
      "245",
      "256",
      "263",
      "267",
      "276",
      "280",
      "285",
      "293",
      "298",
      "304",
      "308",
      "318C",
      "320C",
      "320",
      "320",
      "323",
      "334",
      "340C",
      "340C",
      "340C",
      "340C",
      "340C",
      "340C",
      "340C",
      "340C",
      "340C",
      "340C",
      "340C",
      "340C",
      "340C",
      "340C",
      "340C",
      "340C",
      "340C",
      "340C",
      "340C",
      "340C",
      "340C",
      "340C",
      "340C",
      "340C",
      "340C",
      "340C",
      "340C",
      "340C",
      "340C",
      "340C",
      "340C",
      "340C",
      "340C",
      "340C",
      "340C",
      "340C",
      "340C",
      "340C",
      "340C",
      "340C",
      "340C",
      "340C",
      "340C",
      "340C",
      "340C",
      "340C",
      "340C",
      "340C",
      "340C",
      "340C",
      "340C",
      "340C",
      "340C",
      "340C",
      "340C",
      "340C",
      "340C",
      "340C",
      "340C",
      "340C",
      "340C",
      "340C",
      "340C",
      "340C",
      "340C",
      "340C",
      "340C",
      "340C",
      "340C",
      "340C",
      "340C",
      "340C",
      "340C",
      "340C",
      "340C",
      "340C",
      "340C",
      "340C",
      "340C",
      "340C",
      "340C",
      "340C",
      "340C",
      "340C",
      "340C",
      "340C",
      "340C",
      "340C",
      "340C",
      "340C",
      "340C",
      "340C",
      "340C",
      "340C",
      "340C",
      "340C",
      "340C",
      "340C",
      "340C",
      "340C",
      "340C",
      "340C",
      "340C",
      "340C",
      "340C",
      "340C",
      "340C",
      "340C",
      "340C",
      "340C",
      "340C",
      "340C",
      "340C",
      "340C",
      "340C",
      "340C",
      "340C",
      "340C",
      "340C",
      "340C",
      "340C",
      "340C",
      "340C",
      "340C",
      "340C",
      "340C",
      "340C",
      "340C",
      "340C",
      "340C",
      "340C",
      "340C",
      "340C",
      "340C",
      "340C",
      "340C",
      "340C",
      "340C",
      "340C",
      "340C",
      "340C",
      "340C",
      "340C",
      "340C",
      "340C",
      "340C",
      "340C",
      "340C",
      "340C",
      "340C",
      "340C",
      "340C",
      "340C",
      "340C",
      "340C",
      "340C",
      "340C",
      "340C",
      "340C",
      "340C",
      "340C",
      "340C",
      "340C",
      "340C",
      "340C",
      "340C",
      "340C",
      "340C",
      "340C",
      "340C",
      "340C",
      "340C",
      "340C",
      "340C",
      "340C",
      "340C",
      "340C",
      "340C",
      "340C",
      "340C",
      "340C",
      "340C",
      "340C",
      "340C",
      "340C",
      "340C",
      "340C",
      "340C",
      "340C",
      "340C",
      "340C",
      "340C",
      "340C",
      "340C",
      "340C",
      "340C",
      "340C",
      "340C",
      "340C",
      "340C",
      "340C",
      "340C",
      "340C",
      "340C",
      "340C",
      "340C",
      "340C",
      "340C",
      "340C",
      "340C",
      "340C",
      "340C",
      "340C",
      "340C",
      "340C",
      "340C",
      "340C",
      "340C",
      "340C",
      "340C",
      "340C",
      "340C",
      "340C",
      "340C",
      "340C",
      "340C",
      "340C",
      "340C",
      "340C",
      "340C",
      "340C",
      "340C",
      "340C",
      "340C",
      "340C",
      "340C",
      "340C",
      "340C",
      "340C",
      "340C",
      "340C",
      "340C",
      "340C",
      "340C",
      "340C",
      "340C",
      "340C",
      "340C",
      "340C",
      "340C",
      "340C",
      "340C",
      "340C",
      "340C",
      "340C",
      "340C",
      "340C",
      "340C",
      "340C",
      "340C",
      "340C",
      "340C",
      "340C",
      "340C",
      "340",
      "340",
      "340",
      "340",
      "310",
      "300",
      "281",
      "232",
      "217",
      "195",
      "173",
      "155",
      "136",
      "118",
      "101",
      "099",
      "078",
      "070",
      "069",
      "060",
      "050",
      "040",
      "029",
      "004"
    ],
    "swim:geom": "path",
    "swim:speeds": [
      239,
      264,
      296,
      282,
      278,
      280,
      279,
      291,
      339,
      347,
      372,
      375,
      387,
      406,
      415,
      419,
      427,
      428,
      429,
      430,
      435,
      439,
      442,
      450,
      456,
      458,
      458,
      458,
      458,
      459,
      460,
      459,
      459,
      458,
      457,
      456,
      453,
      453,
      452,
      453,
      452,
      451,
      449,
      451,
      454,
      456,
      458,
      460,
      459,
      457,
      459,
      455,
      454,
      450,
      447,
      447,
      448,
      448,
      448,
      448,
      449,
      448,
      447,
      442,
      440,
      437,
      438,
      439,
      437,
      436,
      435,
      434,
      434,
      434,
      435,
      437,
      438,
      439,
      439,
      438,
      437,
      435,
      434,
      433,
      433,
      433,
      434,
      436,
      436,
      435,
      435,
      435,
      434,
      434,
      433,
      433,
      432,
      432,
      431,
      430,
      429,
      429,
      429,
      429,
      429,
      429,
      429,
      430,
      429,
      430,
      430,
      430,
      430,
      431,
      430,
      430,
      429,
      428,
      426,
      428,
      424,
      421,
      421,
      422,
      420,
      423,
      420,
      423,
      420,
      419,
      410,
      417,
      410,
      417,
      412,
      417,
      416,
      417,
      417,
      418,
      417,
      418,
      417,
      420,
      417,
      422,
      418,
      419,
      421,
      419,
      419,
      421,
      419,
      419,
      419,
      418,
      419,
      417,
      418,
      415,
      418,
      415,
      411,
      413,
      412,
      413,
      413,
      416,
      418,
      420,
      421,
      421,
      417,
      415,
      410,
      411,
      412,
      416,
      417,
      419,
      420,
      421,
      422,
      421,
      423,
      421,
      422,
      421,
      421,
      421,
      421,
      421,
      420,
      420,
      422,
      421,
      422,
      423,
      424,
      424,
      423,
      423,
      423,
      422,
      422,
      421,
      421,
      420,
      420,
      419,
      418,
      417,
      417,
      417,
      417,
      417,
      418,
      418,
      418,
      418,
      419,
      420,
      420,
      419,
      418,
      418,
      419,
      420,
      420,
      421,
      424,
      426,
      427,
      427,
      427,
      426,
      426,
      425,
      424,
      425,
      427,
      428,
      430,
      412,
      411,
      411,
      412,
      413,
      413,
      413,
      414,
      412,
      411,
      414,
      411,
      411,
      412,
      412,
      413,
      415,
      415,
      415,
      416,
      415,
      415,
      415,
      414,
      414,
      412,
      412,
      407,
      399,
      399,
      397,
      395,
      407,
      408,
      410,
      411,
      411,
      396,
      396,
      396,
      396,
      396,
      378,
      378,
      382,
      383,
      385,
      384,
      370,
      374,
      376,
      377,
      378,
      378,
      379,
      380,
      380,
      380,
      384,
      402,
      407,
      415,
      423,
      426,
      410,
      388,
      384,
      374,
      364,
      354,
      348,
      318,
      280,
      247,
      238,
      237,
      224,
      226,
      210,
      183,
      157
    ],
    "swim:timestamps": [
      1785789131,
      1785789192,
      1785789259,
      1785789319,
      1785789372,
      1785789379,
      1785789439,
      1785789492,
      1785789552,
      1785789559,
      1785789612,
      1785789619,
      1785789672,
      1785789793,
      1785789853,
      1785789913,
      1785789973,
      1785789992,
      1785790033,
      1785790052,
      1785790112,
      1785790153,
      1785790172,
      1785790232,
      1785790273,
      1785790292,
      1785790334,
      1785790353,
      1785790394,
      1785790413,
      1785790473,
      1785790533,
      1785790593,
      1785790653,
      1785790713,
      1785790773,
      1785790833,
      1785790893,
      1785790954,
      1785791014,
      1785791074,
      1785791134,
      1785791254,
      1785791314,
      1785791374,
      1785791434,
      1785791615,
      1785791673,
      1785791733,
      1785791795,
      1785791853,
      1785791913,
      1785791973,
      1785792033,
      1785792093,
      1785792153,
      1785792214,
      1785792274,
      1785792334,
      1785792394,
      1785792574,
      1785792634,
      1785792694,
      1785792814,
      1785792874,
      1785792995,
      1785793115,
      1785793295,
      1785793415,
      1785793475,
      1785793535,
      1785793595,
      1785793656,
      1785793716,
      1785793776,
      1785793836,
      1785793896,
      1785793956,
      1785794016,
      1785794076,
      1785794136,
      1785794196,
      1785794256,
      1785794316,
      1785794377,
      1785794437,
      1785794497,
      1785794555,
      1785794615,
      1785794629,
      1785794689,
      1785794735,
      1785794749,
      1785794795,
      1785794809,
      1785794855,
      1785794869,
      1785794915,
      1785794929,
      1785794989,
      1785795049,
      1785795096,
      1785795110,
      1785795156,
      1785795170,
      1785795216,
      1785795230,
      1785795276,
      1785795290,
      1785795336,
      1785795350,
      1785795396,
      1785795410,
      1785795456,
      1785795530,
      1785795576,
      1785795590,
      1785795650,
      1785795696,
      1785795710,
      1785795756,
      1785795817,
      1785795877,
      1785795931,
      1785795937,
      1785795991,
      1785795997,
      1785796051,
      1785796057,
      1785796117,
      1785796171,
      1785796177,
      1785796231,
      1785796237,
      1785796291,
      1785796297,
      1785796357,
      1785796411,
      1785796417,
      1785796477,
      1785796531,
      1785796537,
      1785796592,
      1785796598,
      1785796652,
      1785796658,
      1785796712,
      1785796772,
      1785796778,
      1785796832,
      1785796892,
      1785796898,
      1785796952,
      1785796958,
      1785797012,
      1785797018,
      1785797072,
      1785797078,
      1785797132,
      1785797138,
      1785797192,
      1785797252,
      1785797258,
      1785797313,
      1785797319,
      1785797373,
      1785797379,
      1785797439,
      1785797499,
      1785797559,
      1785797613,
      1785797619,
      1785797679,
      1785797733,
      1785797793,
      1785797799,
      1785797853,
      1785797919,
      1785797979,
      1785798040,
      1785798094,
      1785798154,
      1785798160,
      1785798214,
      1785798280,
      1785798334,
      1785798340,
      1785798394,
      1785798460,
      1785798514,
      1785798520,
      1785798574,
      1785798580,
      1785798640,
      1785798694,
      1785798700,
      1785798761,
      1785798815,
      1785798875,
      1785798881,
      1785798935,
      1785798941,
      1785798995,
      1785799055,
      1785799061,
      1785799115,
      1785799175,
      1785799235,
      1785799241,
      1785799295,
      1785799361,
      1785799415,
      1785799421,
      1785799482,
      1785799536,
      1785799542,
      1785799596,
      1785799602,
      1785799656,
      1785799722,
      1785799782,
      1785799842,
      1785799902,
      1785799956,
      1785800016,
      1785800076,
      1785800136,
      1785800197,
      1785800257,
      1785800317,
      1785800377,
      1785800437,
      1785800497,
      1785800557,
      1785800617,
      1785800677,
      1785800737,
      1785800797,
      1785800857,
      1785800918,
      1785800978,
      1785801038,
      1785801158,
      1785801218,
      1785801278,
      1785801338,
      1785801398,
      1785801458,
      1785801518,
      1785801578,
      1785801626,
      1785801639,
      1785801699,
      1785801746,
      1785801759,
      1785801819,
      1785801879,
      1785801927,
      1785801939,
      1785801987,
      1785801999,
      1785802059,
      1785802107,
      1785802119,
      1785802179,
      1785802227,
      1785802287,
      1785802299,
      1785802347,
      1785802359,
      1785802420,
      1785802467,
      1785802480,
      1785802540,
      1785802600,
      1785802648,
      1785802660,
      1785802720,
      1785802768,
      1785802780,
      1785802828,
      1785802840,
      1785802900,
      1785802948,
      1785802960,
      1785803068,
      1785803080,
      1785803128,
      1785803141,
      1785803188,
      1785803201,
      1785803261,
      1785803308,
      1785803368,
      1785803489,
      1785803549,
      1785803609,
      1785803669,
      1785803729,
      1785803849,
      1785803909,
      1785803969,
      1785804029,
      1785804089,
      1785804149,
      1785804169,
      1785804210,
      1785804331,
      1785804386,
      1785804450,
      1785804510,
      1785804570,
      1785804630,
      1785804690,
      1785804757,
      1785804810,
      1785804991,
      1785805052,
      1785805111,
      1785805172,
      1785805231,
      1785805291,
      1785805351,
      1785805531
    ],
    "wof:geomhash": "62d7319f4246ea7b96347899844d50bb",
    "wof:id": 2032086133,
    "wof:repo": "sfomuseum-data-flights-2026-08"
  },
  "bbox": [
    -122.33611111111111,
    37.416666666666664,
    -83.35527777777777,
    42.46555555555556
  ],
  "geometry": {"type":"LineString","coordinates":[[-83.35527777777777,42.31166666666666],[-83.38027777777778,42.36944444444445],[-83.49083333333333,42.40861111111111],[-83.58999999999999,42.410555555555554],[-83.67722222222223,42.413333333333334],[-83.69250000000001,42.413888888888884],[-83.79805555555555,42.41722222222222],[-83.89055555555557,42.419444444444444],[-84.01194444444444,42.422777777777775],[-84.035,42.42305555555555],[-84.14916666666667,42.42638888888889],[-84.17055555555557,42.42722222222222],[-84.29444444444444,42.430277777777775],[-84.59583333333333,42.4375],[-84.74472222222222,42.44166666666666],[-84.9038888888889,42.44555555555555],[-85.06388888888888,42.44888888888889],[-85.13222222222221,42.45027777777778],[-85.2275,42.452222222222225],[-85.29388888888889,42.45333333333333],[-85.45805555555556,42.45638888888889],[-85.55527777777777,42.45805555555556],[-85.62694444444443,42.45916666666667],[-85.79527777777777,42.46194444444445],[-85.90055555555556,42.46333333333334],[-85.96916666666667,42.46416666666667],[-86.07,42.46555555555556],[-86.14333333333335,42.46361111111111],[-86.24583333333334,42.450833333333335],[-86.31611111111111,42.44194444444444],[-86.48666666666666,42.42027777777778],[-86.65611111111112,42.39833333333333],[-86.80916666666667,42.37833333333333],[-86.97444444444444,42.35638888888889],[-87.14361111111111,42.33361111111111],[-87.34222222222222,42.306666666666665],[-87.50805555555556,42.28388888888889],[-87.67166666666667,42.26083333333333],[-87.83916666666666,42.23722222222222],[-88.00333333333333,42.211666666666666],[-88.165,42.18194444444444],[-88.3261111111111,42.151666666666664],[-88.64944444444446,42.09055555555556],[-88.81194444444444,42.059444444444445],[-88.97583333333334,42.02777777777778],[-89.13972222222223,41.995555555555555],[-89.63166666666666,41.89833333333333],[-89.77722222222222,41.86638888888889],[-89.95805555555556,41.83027777777778],[-90.12055555555555,41.79888888888889],[-90.28611111111111,41.76305555555555],[-90.44777777777779,41.72944444444445],[-90.61,41.695277777777775],[-90.77083333333333,41.666666666666664],[-90.93166666666667,41.638888888888886],[-91.09444444444443,41.61055555555556],[-91.25722222222223,41.58222222222223],[-91.41861111111112,41.55277777777778],[-91.58027777777778,41.524166666666666],[-91.74472222222222,41.50527777777778],[-92.25805555555556,41.45722222222223],[-92.42222222222223,41.44083333333333],[-92.58611111111111,41.42444444444444],[-92.90444444444445,41.39138888888889],[-93.06472222222222,41.374722222222225],[-93.38277777777778,41.34055555555556],[-93.70166666666667,41.30555555555555],[-94.17944444444444,41.25111111111111],[-94.49083333333333,41.214444444444446],[-94.64833333333334,41.19555555555555],[-94.80638888888889,41.17638888888889],[-94.96444444444445,41.157222222222224],[-95.12222222222222,41.13777777777778],[-95.28083333333333,41.117777777777775],[-95.44,41.097500000000004],[-95.60111111111111,41.07694444444445],[-95.75861111111111,41.056666666666665],[-95.92,41.03527777777778],[-96.08194444444445,41.013888888888886],[-96.24055555555556,40.9925],[-96.40027777777779,40.97083333333334],[-96.55638888888889,40.94944444444444],[-96.7125,40.92777777777778],[-96.86972222222222,40.91166666666666],[-97.02666666666667,40.89666666666667],[-97.185,40.88138888888889],[-97.345,40.865833333333335],[-97.495,40.85027777777778],[-97.65333333333334,40.83638888888889],[-97.69027777777778,40.83111111111111],[-97.85,40.81472222222222],[-97.96944444444445,40.80222222222222],[-98.00666666666666,40.79833333333333],[-98.125,40.78583333333333],[-98.16194444444444,40.78194444444444],[-98.28333333333333,40.76916666666666],[-98.32027777777778,40.765277777777776],[-98.4388888888889,40.75222222222222],[-98.47472222222223,40.748333333333335],[-98.62944444444443,40.73111111111111],[-98.78555555555555,40.71388888888889],[-98.90333333333334,40.70527777777778],[-98.94027777777778,40.703611111111115],[-99.06194444444444,40.698611111111106],[-99.09777777777778,40.69694444444444],[-99.2175,40.69138888888889],[-99.2538888888889,40.689722222222215],[-99.37416666666665,40.68416666666666],[-99.40916666666668,40.6825],[-99.53111111111112,40.67666666666666],[-99.56833333333333,40.67472222222222],[-99.68722222222223,40.66888888888889],[-99.72555555555556,40.66694444444444],[-99.84527777777777,40.66083333333333],[-100.03805555555556,40.65083333333333],[-100.15527777777778,40.668055555555554],[-100.19416666666667,40.676944444444445],[-100.345,40.71138888888889],[-100.45333333333333,40.73638888888889],[-100.49333333333334,40.745],[-100.60138888888888,40.77111111111111],[-100.75361111111111,40.80694444444444],[-100.87777777777777,40.83694444444445],[-101.02027777777778,40.86527777777778],[-101.0286111111111,40.86638888888889],[-101.17277777777778,40.8875],[-101.17888888888889,40.89194444444444],[-101.32249999999999,40.91416666666667],[-101.32888888888888,40.91611111111111],[-101.48083333333334,40.92583333333333],[-101.6236111111111,40.915277777777774],[-101.63194444444444,40.91305555555555],[-101.77555555555556,40.89722222222222],[-101.78166666666667,40.89722222222222],[-101.92750000000001,40.87916666666667],[-101.93222222222222,40.88111111111111],[-102.08388888888888,40.865],[-102.23166666666667,40.84666666666667],[-102.23583333333333,40.84861111111111],[-102.38722222222223,40.83166666666667],[-102.53583333333333,40.812777777777775],[-102.53722222222223,40.81472222222222],[-102.68833333333333,40.795833333333334],[-102.69055555555556,40.79722222222222],[-102.84166666666667,40.77833333333333],[-102.8425,40.77972222222222],[-102.99472222222222,40.76083333333333],[-103.14833333333334,40.742222222222225],[-103.14833333333334,40.744166666666665],[-103.30111111111111,40.723888888888894],[-103.4525,40.70638888888889],[-103.45166666666667,40.70777777777778],[-103.60277777777777,40.68888888888888],[-103.60416666666666,40.68944444444444],[-103.75277777777778,40.669999999999995],[-103.75222222222222,40.671388888888885],[-103.90361111111112,40.6625],[-103.93388888888889,40.663333333333334],[-104.05444444444444,40.657222222222224],[-104.08333333333333,40.657222222222224],[-104.205,40.65083333333333],[-104.35444444444444,40.64555555555555],[-104.38194444444444,40.646388888888886],[-104.5038888888889,40.64222222222222],[-104.5325,40.641666666666666],[-104.65805555555556,40.63805555555555],[-104.68361111111112,40.63861111111111],[-104.83416666666666,40.632222222222225],[-104.98527777777778,40.609722222222224],[-105.13611111111112,40.58861111111111],[-105.25805555555556,40.571111111111115],[-105.28694444444444,40.566944444444445],[-105.43472222222222,40.54555555555555],[-105.55472222222222,40.52722222222222],[-105.70083333333334,40.50555555555555],[-105.72722222222222,40.50222222222222],[-105.84861111111111,40.4825],[-106.02527777777777,40.45722222222223],[-106.17416666666666,40.43416666666666],[-106.3325,40.41],[-106.45,40.39083333333333],[-106.60111111111111,40.367222222222225],[-106.60749999999999,40.36694444444444],[-106.75111111111111,40.344166666666666],[-106.90833333333335,40.31916666666667],[-107.05222222222221,40.29527777777778],[-107.05833333333334,40.294999999999995],[-107.20111111111112,40.27194444444444],[-107.36,40.24583333333334],[-107.50166666666667,40.223055555555554],[-107.50972222222222,40.221111111111114],[-107.65055555555556,40.1975],[-107.67666666666668,40.19305555555555],[-107.825,40.168055555555554],[-107.94916666666667,40.14694444444444],[-107.97833333333334,40.14222222222222],[-108.12694444444443,40.11666666666667],[-108.2538888888889,40.095],[-108.41444444444446,40.06666666666667],[-108.42722222222223,40.06444444444444],[-108.55305555555556,40.0425],[-108.57277777777777,40.03916666666667],[-108.69361111111111,40.01777777777777],[-108.83999999999999,39.99166666666667],[-108.86722222222221,39.986666666666665],[-108.98694444444445,39.96527777777778],[-109.13333333333334,39.93888888888888],[-109.30888888888889,39.906666666666666],[-109.30916666666667,39.906666666666666],[-109.45361111111112,39.88027777777778],[-109.60055555555554,39.85305555555556],[-109.74694444444445,39.82555555555556],[-109.74388888888889,39.82611111111112],[-109.89027777777778,39.79861111111111],[-110.03777777777778,39.770833333333336],[-110.03777777777778,39.770833333333336],[-110.18388888888889,39.74277777777778],[-110.18388888888889,39.74277777777778],[-110.3286111111111,39.715],[-110.47555555555556,39.686388888888885],[-110.62333333333332,39.657777777777774],[-110.76777777777778,39.629444444444445],[-110.91444444444446,39.60027777777778],[-111.0611111111111,39.571111111111115],[-111.20444444444445,39.54222222222222],[-111.34305555555555,39.51416666666667],[-111.48805555555556,39.48444444444444],[-111.63444444444445,39.45444444444445],[-111.78194444444445,39.424166666666665],[-111.92861111111111,39.39361111111111],[-112.07527777777777,39.363055555555555],[-112.22472222222223,39.331388888888895],[-112.37222222222222,39.3],[-112.51972222222223,39.26861111111111],[-112.66694444444445,39.23694444444445],[-112.82305555555556,39.20305555555556],[-112.96916666666667,39.17111111111111],[-113.11444444444444,39.13916666666667],[-113.25944444444444,39.10722222222223],[-113.40583333333333,39.074444444444445],[-113.55194444444444,39.04194444444444],[-113.69861111111112,39.00861111111111],[-113.99111111111111,38.94222222222222],[-114.13361111111112,38.909444444444446],[-114.27416666666666,38.87694444444445],[-114.41444444444446,38.844166666666666],[-114.55388888888889,38.811388888888885],[-114.69388888888889,38.77861111111111],[-114.83583333333333,38.745],[-114.9738888888889,38.71222222222222],[-115.08888888888889,38.68472222222222],[-115.11361111111111,38.67861111111111],[-115.25305555555556,38.644999999999996],[-115.36694444444444,38.61694444444444],[-115.39416666666668,38.61055555555556],[-115.53333333333333,38.57666666666667],[-115.67222222222223,38.5425],[-115.7875,38.51777777777777],[-115.8125,38.50805555555556],[-115.9263888888889,38.47972222222222],[-115.95416666666667,38.47277777777778],[-116.09555555555555,38.4375],[-116.2088888888889,38.40888888888889],[-116.23555555555555,38.40222222222222],[-116.37583333333333,38.36666666666667],[-116.48777777777778,38.33833333333334],[-116.62666666666667,38.30277777777778],[-116.65277777777779,38.296388888888885],[-116.76305555555555,38.26777777777777],[-116.79083333333332,38.26083333333333],[-116.92833333333334,38.22527777777778],[-117.03388888888888,38.19777777777777],[-117.06,38.191111111111105],[-117.18972222222223,38.15694444444444],[-117.31083333333333,38.12388888888889],[-117.38305555555554,38.05555555555555],[-117.39666666666668,38.03583333333333],[-117.46416666666667,37.93722222222222],[-117.52111111111111,37.85444444444445],[-117.53361111111111,37.836111111111116],[-117.58638888888889,37.75805555555556],[-117.59888888888888,37.73972222222222],[-117.66416666666667,37.643055555555556],[-117.71805555555555,37.56361111111111],[-117.73027777777779,37.545833333333334],[-117.91305555555556,37.44972222222222],[-117.93722222222223,37.4575],[-118.01583333333333,37.515],[-118.03444444444445,37.530277777777776],[-118.11055555555555,37.59388888888889],[-118.1275,37.60805555555556],[-118.25194444444445,37.63138888888889],[-118.35888888888888,37.63583333333333],[-118.49,37.64138888888889],[-118.75472222222223,37.651111111111106],[-118.90166666666667,37.656388888888884],[-119.0363888888889,37.66083333333333],[-119.16888888888889,37.66555555555556],[-119.30111111111111,37.66972222222222],[-119.56972222222223,37.67777777777778],[-119.70277777777778,37.681666666666665],[-119.83583333333333,37.684999999999995],[-119.97666666666667,37.68888888888888],[-120.12027777777777,37.692499999999995],[-120.26611111111112,37.69611111111111],[-120.31666666666666,37.7],[-120.41555555555556,37.697222222222216],[-120.71666666666667,37.666666666666664],[-120.83333333333333,37.65],[-120.97722222222222,37.63138888888889],[-121.10666666666665,37.61388888888889],[-121.22416666666666,37.59777777777778],[-121.34666666666666,37.58305555555556],[-121.465,37.569722222222225],[-121.6,37.55],[-121.68388888888889,37.53666666666666],[-121.785,37.46083333333333],[-121.85,37.416666666666664],[-121.93333333333334,37.43333333333333],[-122,37.46666666666667],[-122.06222222222222,37.48916666666667],[-122.12722222222222,37.516666666666666],[-122.19,37.543055555555554],[-122.33611111111111,37.60472222222222]]}
}
