{
  "id": 2032131221,
  "type": "Feature",
  "properties": {
    "geom:area": 0,
    "geom:bbox": "-122.800990,37.437650,-122.107630,38.339130",
    "geom:latitude": 37.76254983859946,
    "geom:longitude": -122.46296287697977,
    "src:alt_label": "swim-approach",
    "src:geom": "swim",
    "swim:elevations": [
      7145,
      6964,
      6552,
      6512,
      5901,
      5526,
      5325,
      4713,
      4485,
      4435,
      4160,
      3718,
      3491,
      3351,
      3209,
      3133,
      2805,
      2501,
      2465,
      2134,
      2134,
      2087,
      1919,
      1676,
      1584,
      1537,
      1453,
      1437,
      1355,
      1201,
      1061,
      989,
      943,
      930,
      358,
      0
    ],
    "swim:geom": "approach",
    "swim:timestamps": [
      1786037157,
      1786037175,
      1786037218,
      1786037221,
      1786037284,
      1786037321,
      1786037342,
      1786037407,
      1786037433,
      1786037437,
      1786037462,
      1786037508,
      1786037534,
      1786037562,
      1786037603,
      1786037620,
      1786037663,
      1786037698,
      1786037701,
      1786037755,
      1786037787,
      1786037801,
      1786037822,
      1786037852,
      1786037867,
      1786037886,
      1786037937,
      1786037941,
      1786037960,
      1786037982,
      1786038002,
      1786038018,
      1786038026,
      1786038031,
      1786038152,
      1786038234
    ],
    "wof:geomhash": "7b98df08b10abff23cbe6549ab8438b5",
    "wof:id": 2032131221,
    "wof:repo": "sfomuseum-data-flights-2026-08"
  },
  "bbox": [
    -122.80099,
    37.43765,
    -122.10763,
    38.33913
  ],
  "geometry": {"type":"LineString","coordinates":[[-122.80099,38.33913],[-122.79153,38.30699],[-122.76967,38.23257],[-122.76816,38.22742],[-122.73722,38.12059],[-122.71982,38.06068],[-122.70984,38.02608],[-122.68,37.92265],[-122.65841,37.88642],[-122.65363,37.88129],[-122.62068,37.84983],[-122.56191,37.79408],[-122.52833,37.76246],[-122.49245,37.72856],[-122.44504,37.6843],[-122.42664,37.66699],[-122.38059,37.62365],[-122.34787,37.58438],[-122.34584,37.58069],[-122.31171,37.5155],[-122.28888,37.47765],[-122.2772,37.46237],[-122.24958,37.44783],[-122.19897,37.43908],[-122.1743,37.43765],[-122.14577,37.44706],[-122.10956,37.49774],[-122.10763,37.50127],[-122.10803,37.51944],[-122.12854,37.52926],[-122.15116,37.53266],[-122.16855,37.53535],[-122.17742,37.53774],[-122.18212,37.53953],[-122.29523,37.58757],[-122.35797,37.61376]]}
}
