{
  "id": 2032130613,
  "type": "Feature",
  "properties": {
    "geom:area": 0,
    "geom:bbox": "-122.357360,37.427390,-121.245930,37.613660",
    "geom:latitude": 37.52294366316468,
    "geom:longitude": -121.80724878135764,
    "src:alt_label": "swim-approach",
    "src:geom": "swim",
    "swim:elevations": [
      4644,
      4395,
      4117,
      3499,
      3450,
      3372,
      3142,
      3015,
      2967,
      2966,
      2710,
      2475,
      2284,
      2131,
      2135,
      2134,
      2123,
      1953,
      1831,
      1829,
      1625,
      1599,
      1140,
      1101,
      1001,
      849,
      793,
      664,
      525,
      454,
      212,
      98,
      29
    ],
    "swim:geom": "approach",
    "swim:timestamps": [
      1786046308,
      1786046335,
      1786046364,
      1786046428,
      1786046433,
      1786046441,
      1786046475,
      1786046496,
      1786046534,
      1786046550,
      1786046597,
      1786046637,
      1786046665,
      1786046697,
      1786046708,
      1786046745,
      1786046760,
      1786046785,
      1786046811,
      1786046829,
      1786046878,
      1786046881,
      1786046935,
      1786046942,
      1786046962,
      1786046993,
      1786047003,
      1786047033,
      1786047062,
      1786047076,
      1786047131,
      1786047162,
      1786047182
    ],
    "wof:geomhash": "82126db1f6eedd19306d55ae321879da",
    "wof:id": 2032130613,
    "wof:repo": "sfomuseum-data-flights-2026-08"
  },
  "bbox": [
    -122.35736,
    37.42739,
    -121.24593,
    37.61366
  ],
  "geometry": {"type":"LineString","coordinates":[[-121.24593,37.5949],[-121.30242,37.58771],[-121.36308,37.58112],[-121.49101,37.56669],[-121.50094,37.56548],[-121.51702,37.56357],[-121.58421,37.55561],[-121.62414,37.55055],[-121.6845,37.53413],[-121.70182,37.52044],[-121.72873,37.4718],[-121.75524,37.43266],[-121.7929,37.42739],[-121.83743,37.43058],[-121.85222,37.43172],[-121.90311,37.43572],[-121.92378,37.43737],[-121.95697,37.44496],[-121.98899,37.45783],[-122.00962,37.46672],[-122.0692,37.49221],[-122.07285,37.49377],[-122.13733,37.52098],[-122.145,37.52421],[-122.16537,37.53282],[-122.19579,37.54559],[-122.20497,37.54955],[-122.23391,37.56167],[-122.26115,37.57319],[-122.27405,37.57865],[-122.3201,37.59795],[-122.34295,37.60767],[-122.35736,37.61366]]}
}
