{
  "id": 2047973433,
  "type": "Feature",
  "properties": {
    "geom:area": 0,
    "geom:bbox": "-122.584330,37.274510,-121.285190,37.683950",
    "geom:latitude": 37.47552300258867,
    "geom:longitude": -122.0212705922075,
    "src:alt_label": "swim-takeoff",
    "src:geom": "swim",
    "swim:elevations": [
      536,
      793,
      889,
      951,
      1584,
      2359,
      2810,
      3419,
      3949,
      4500,
      4654,
      5163,
      5714,
      6422,
      6768,
      7332,
      7623,
      8036,
      8243,
      8704,
      9115,
      9258,
      9529,
      10019,
      10058,
      10058,
      10058
    ],
    "swim:geom": "takeoff",
    "swim:timestamps": [
      1786749566,
      1786749587,
      1786749608,
      1786749648,
      1786749685,
      1786749717,
      1786749741,
      1786749777,
      1786749808,
      1786749837,
      1786749845,
      1786749873,
      1786749910,
      1786749953,
      1786749977,
      1786750015,
      1786750036,
      1786750068,
      1786750083,
      1786750127,
      1786750165,
      1786750184,
      1786750205,
      1786750256,
      1786750274,
      1786750294,
      1786750326
    ],
    "wof:geomhash": "1dca19f5762c7b2fb77f010caf79e4ca",
    "wof:id": 2047973433,
    "wof:repo": "sfomuseum-data-flights-2026-08"
  },
  "bbox": [
    -122.58433,
    37.27451,
    -121.28519,
    37.68395
  ],
  "geometry": {"type":"LineString","coordinates":[[-122.39575,37.62781],[-122.41302,37.63567],[-122.43483,37.6455],[-122.48258,37.66563],[-122.52915,37.68395],[-122.57134,37.67361],[-122.58433,37.64672],[-122.55856,37.60496],[-122.50307,37.58544],[-122.44662,37.57212],[-122.43028,37.56822],[-122.37395,37.55443],[-122.29663,37.53492],[-122.2042,37.51141],[-122.15067,37.49786],[-122.06325,37.47566],[-122.01425,37.46317],[-121.93675,37.44325],[-121.90051,37.43388],[-121.79319,37.40653],[-121.69663,37.38174],[-121.64703,37.369],[-121.59211,37.35489],[-121.46123,37.32129],[-121.41816,37.3097],[-121.36704,37.29642],[-121.28519,37.27451]]}
}
