{
  "id": 2047978509,
  "type": "Feature",
  "properties": {
    "geom:area": 0,
    "geom:bbox": "-122.362070,36.723620,-121.879430,37.614110",
    "geom:latitude": 37.21978004599075,
    "geom:longitude": -122.09483962831666,
    "src:alt_label": "swim-approach",
    "src:geom": "swim",
    "swim:elevations": [
      5377,
      5043,
      4834,
      4661,
      4302,
      4090,
      3954,
      3687,
      3571,
      3442,
      3361,
      3261,
      3051,
      2886,
      2651,
      2470,
      2363,
      2114,
      1921,
      1798,
      1667,
      1582,
      1373,
      1312,
      1242,
      1090,
      792,
      610,
      454,
      325,
      218,
      112,
      124
    ],
    "swim:geom": "approach",
    "swim:timestamps": [
      1786814007,
      1786814035,
      1786814055,
      1786814074,
      1786814123,
      1786814152,
      1786814170,
      1786814210,
      1786814237,
      1786814276,
      1786814293,
      1786814311,
      1786814357,
      1786814380,
      1786814420,
      1786814452,
      1786814472,
      1786814502,
      1786814530,
      1786814566,
      1786814594,
      1786814611,
      1786814665,
      1786814679,
      1786814704,
      1786814735,
      1786814779,
      1786814803,
      1786814840,
      1786814876,
      1786814901,
      1786814937,
      1786814966
    ],
    "wof:geomhash": "491aa1c40e0bde0825b55f5e3b3c491e",
    "wof:id": 2047978509,
    "wof:repo": "sfomuseum-data-flights-2026-08"
  },
  "bbox": [
    -122.36207,
    36.72362,
    -121.87943,
    37.61411
  ],
  "geometry": {"type":"LineString","coordinates":[[-121.87943,36.72362],[-121.90135,36.76796],[-121.91097,36.80205],[-121.91968,36.83281],[-121.94187,36.91267],[-121.95481,36.9565],[-121.96549,36.98339],[-121.98737,37.03979],[-122.00139,37.07569],[-122.02051,37.12399],[-122.03482,37.14011],[-122.05399,37.15566],[-122.10216,37.19487],[-122.12566,37.21377],[-122.16718,37.24682],[-122.2001,37.27339],[-122.21891,37.28945],[-122.21881,37.32235],[-122.19266,37.34608],[-122.15863,37.37546],[-122.1399,37.4018],[-122.13838,37.42168],[-122.13339,37.48135],[-122.13576,37.49687],[-122.1522,37.51749],[-122.17841,37.53636],[-122.22081,37.5538],[-122.24213,37.56293],[-122.27258,37.57569],[-122.2995,37.58692],[-122.31624,37.59395],[-122.34088,37.60423],[-122.36207,37.61411]]}
}
