{
  "id": 2032058937,
  "type": "Feature",
  "properties": {
    "geom:area": 0,
    "geom:bbox": "-122.409710,37.376990,-122.077000,37.651570",
    "geom:latitude": 37.50375719384848,
    "geom:longitude": -122.23091695585433,
    "src:alt_label": "swim-approach",
    "src:geom": "swim",
    "swim:elevations": [
      3353,
      3366,
      3291,
      3082,
      2917,
      2692,
      2404,
      2211,
      2134,
      2092,
      1970,
      1956,
      1788,
      1620,
      1524,
      1524,
      1524,
      1426,
      1194,
      1161,
      1013,
      852,
      781,
      674,
      576,
      464,
      426,
      247,
      213,
      89,
      0
    ],
    "swim:geom": "approach",
    "swim:timestamps": [
      1785567622,
      1785567631,
      1785567653,
      1785567684,
      1785567708,
      1785567739,
      1785567775,
      1785567803,
      1785567824,
      1785567864,
      1785567897,
      1785567900,
      1785567937,
      1785567971,
      1785568012,
      1785568021,
      1785568045,
      1785568067,
      1785568099,
      1785568112,
      1785568150,
      1785568181,
      1785568201,
      1785568226,
      1785568255,
      1785568284,
      1785568297,
      1785568342,
      1785568352,
      1785568385,
      1785568404
    ],
    "wof:geomhash": "cf6037f1d36345db1da30d3670fd8075",
    "wof:id": 2032058937,
    "wof:repo": "sfomuseum-data-flights-2026-08"
  },
  "bbox": [
    -122.40971,
    37.37699,
    -122.077,
    37.65157
  ],
  "geometry": {"coordinates":[[-122.40971,37.65157],[-122.40045,37.64283],[-122.37949,37.62305],[-122.35824,37.59088],[-122.34262,37.56625],[-122.32228,37.53348],[-122.29955,37.49652],[-122.28196,37.4675],[-122.26887,37.44622],[-122.23394,37.4114],[-122.19211,37.39567],[-122.18828,37.39429],[-122.1411,37.37699],[-122.09877,37.3862],[-122.08017,37.42787],[-122.077,37.43708],[-122.07945,37.46185],[-122.09513,37.48055],[-122.11956,37.50711],[-122.13017,37.51565],[-122.16523,37.53265],[-122.19284,37.54442],[-122.21141,37.55226],[-122.23226,37.56096],[-122.25337,37.56988],[-122.27341,37.57835],[-122.28196,37.58195],[-122.31466,37.59565],[-122.32176,37.59861],[-122.34457,37.60825],[-122.35748,37.61369]],"type":"LineString"}
}
