{
  "id": 2047931727,
  "type": "Feature",
  "properties": {
    "geom:area": 0,
    "geom:bbox": "-122.011020,37.821110,-121.253050,37.964130",
    "geom:latitude": 37.89469005709684,
    "geom:longitude": -121.6324787797076,
    "src:alt_label": "swim-takeoff",
    "src:geom": "swim",
    "swim:elevations": [
      3326,
      3508,
      3754,
      3960,
      4228,
      4816,
      5184,
      5365,
      5686,
      6244,
      6331
    ],
    "swim:geom": "takeoff",
    "swim:timestamps": [
      1786469869,
      1786469897,
      1786469937,
      1786469961,
      1786469985,
      1786470045,
      1786470083,
      1786470100,
      1786470126,
      1786470194,
      1786470205
    ],
    "wof:geomhash": "d089bd17e5413a3ce09edbc8f15c875e",
    "wof:id": 2047931727,
    "wof:repo": "sfomuseum-data-flights-2026-08"
  },
  "bbox": [
    -122.01102,
    37.82111,
    -121.25305,
    37.96413
  ],
  "geometry": {"type":"LineString","coordinates":[[-122.01102,37.82111],[-121.95709,37.83494],[-121.87271,37.8508],[-121.82082,37.86062],[-121.7687,37.87015],[-121.63284,37.89479],[-121.54439,37.91103],[-121.50279,37.91872],[-121.4431,37.92958],[-121.27899,37.95944],[-121.25305,37.96413]]}
}
