{
  "id": 2032058369,
  "type": "Feature",
  "properties": {
    "geom:area": 0,
    "geom:bbox": "-122.347060,36.748510,-121.895920,37.606970",
    "geom:latitude": 37.22591191305309,
    "geom:longitude": -122.06831808280991,
    "src:alt_label": "swim-approach",
    "src:geom": "swim",
    "swim:elevations": [
      5507,
      5275,
      5114,
      4713,
      4504,
      4360,
      4047,
      3907,
      3713,
      3556,
      3371,
      3024,
      2781,
      2645,
      2294,
      2092,
      1954,
      1663,
      1485,
      1437,
      1144,
      1019,
      883,
      823,
      619,
      543,
      431,
      350,
      304,
      272,
      116,
      81
    ],
    "swim:geom": "approach",
    "swim:timestamps": [
      1785622341,
      1785622369,
      1785622388,
      1785622435,
      1785622462,
      1785622478,
      1785622516,
      1785622532,
      1785622556,
      1785622574,
      1785622595,
      1785622639,
      1785622670,
      1785622686,
      1785622730,
      1785622754,
      1785622774,
      1785622814,
      1785622855,
      1785622862,
      1785622917,
      1785622935,
      1785622964,
      1785622982,
      1785623030,
      1785623051,
      1785623083,
      1785623106,
      1785623124,
      1785623133,
      1785623185,
      1785623194
    ],
    "wof:geomhash": "ef1f52e5e18dc02d180558554c741f04",
    "wof:id": 2032058369,
    "wof:repo": "sfomuseum-data-flights-2026-08"
  },
  "bbox": [
    -122.34706,
    36.74851,
    -121.89592,
    37.60697
  ],
  "geometry": {"coordinates":[[-121.89592,36.74851],[-121.90777,36.79078],[-121.9159,36.81956],[-121.93543,36.88945],[-121.94622,36.92782],[-121.9531,36.95157],[-121.97329,37.00396],[-121.98226,37.02696],[-121.9951,37.05986],[-122.00456,37.08423],[-122.01562,37.11251],[-122.03856,37.17073],[-122.05451,37.21128],[-122.06263,37.23178],[-122.08459,37.28778],[-122.09289,37.31892],[-122.09527,37.34469],[-122.09979,37.39454],[-122.10372,37.44019],[-122.10435,37.44798],[-122.13592,37.49759],[-122.14882,37.5126],[-122.17286,37.53419],[-122.19204,37.54218],[-122.23545,37.56004],[-122.25137,37.56678],[-122.27548,37.57688],[-122.29113,37.58341],[-122.30235,37.58817],[-122.30819,37.59062],[-122.34179,37.60482],[-122.34706,37.60697]],"type":"LineString"}
}
