{
  "id": 2047995737,
  "type": "Feature",
  "properties": {
    "date:inception_lower": "2026-08-16",
    "date:inception_upper": "2026-08-16",
    "edtf:cessation": "",
    "edtf:inception": "2026-08-16",
    "flysfo:actual_timestamp": -1,
    "flysfo:airline": "BA",
    "flysfo:base_airline": "",
    "flysfo:base_flight_number": "5769",
    "flysfo:date": "2026-08-16",
    "flysfo:estimated_timestamp": 1786885200,
    "flysfo:event": "D",
    "flysfo:flight_number": "BA5769",
    "flysfo:gate": "B26",
    "flysfo:journey": "SFO-ORD",
    "flysfo:scheduled_timestamp": 1786885200,
    "flysfo:timestamp": 1786885200,
    "geom:area": 0,
    "geom:bbox": "0.000000,0.000000,0.000000,0.000000",
    "geom:latitude": 0,
    "geom:longitude": 0,
    "iata:airline": "BA",
    "iata:base_airline": "",
    "icao:airline": "BAW",
    "icao:base_airline": "BAW",
    "lbl:latitude": 37.61799,
    "lbl:longitude": -122.370943,
    "sfomuseum:airline_id": 1159284021,
    "sfomuseum:arrival_id": 102533631,
    "sfomuseum:base_flight_id": "20260816-D-BAW-5769",
    "sfomuseum:departure_id": 102527513,
    "sfomuseum:flight_id": "20260816-D-BAW-5769",
    "sfomuseum:flight_number": [
      "BAW5769",
      "BA5769"
    ],
    "sfomuseum:placetype": "flight",
    "src:geom": "flysfo",
    "wof:belongsto": [],
    "wof:country": "US",
    "wof:created": 1786983670,
    "wof:geomhash": "58fe0ac52aab9ea6af40709b179f7a28",
    "wof:hierarchy": [
      {
        "custom_id": 2047995737,
        "flight_id": 2047995737
      }
    ],
    "wof:id": 2047995737,
    "wof:involves": [
      102533631,
      102527513,
      1159284021,
      1947304283,
      1159284021
    ],
    "wof:lastmodified": 1786983670,
    "wof:name": "BA5769 (SFO-ORD)",
    "wof:parent_id": -1,
    "wof:placetype": "custom",
    "wof:placetype_alt": [
      "flight"
    ],
    "wof:repo": "sfomuseum-data-flights-2026-08",
    "wof:superseded_by": [],
    "wof:supersedes": []
  },
  "bbox": [
    0,
    0,
    0,
    0
  ],
  "geometry": {"type":"MultiPoint","coordinates":[[0,0],[0,0]]}
}
