{
  "id": 2032084135,
  "type": "Feature",
  "properties": {
    "geom:area": 0,
    "geom:bbox": "-122.344980,37.435280,-121.255020,37.608410",
    "geom:latitude": 37.53328954926501,
    "geom:longitude": -121.80847986543748,
    "src:alt_label": "swim-approach",
    "src:geom": "swim",
    "swim:elevations": [
      4786,
      4495,
      4269,
      4136,
      3681,
      3615,
      3327,
      2912,
      2856,
      2739,
      2626,
      2438,
      2438,
      2438,
      2438,
      2438,
      2346,
      2285,
      2230,
      2130,
      1860,
      1767,
      1572,
      1396,
      1168,
      1077,
      948,
      764,
      610,
      494,
      426,
      286,
      106,
      56
    ],
    "swim:geom": "approach",
    "swim:timestamps": [
      1785754595,
      1785754631,
      1785754660,
      1785754681,
      1785754733,
      1785754740,
      1785754773,
      1785754817,
      1785754832,
      1785754858,
      1785754878,
      1785754913,
      1785754940,
      1785754971,
      1785754989,
      1785755008,
      1785755064,
      1785755086,
      1785755105,
      1785755124,
      1785755160,
      1785755177,
      1785755203,
      1785755237,
      1785755277,
      1785755294,
      1785755318,
      1785755353,
      1785755386,
      1785755416,
      1785755436,
      1785755467,
      1785755517,
      1785755522
    ],
    "wof:geomhash": "7626a02ccb7f83c559348cc1d6e3a940",
    "wof:id": 2032084135,
    "wof:repo": "sfomuseum-data-flights-2026-08"
  },
  "bbox": [
    -122.34498,
    37.43528,
    -121.25502,
    37.60841
  ],
  "geometry": {"type":"LineString","coordinates":[[-121.25502,37.59363],[-121.32007,37.58589],[-121.37102,37.58012],[-121.40563,37.5762],[-121.48821,37.56669],[-121.49923,37.56546],[-121.55058,37.55936],[-121.61835,37.56117],[-121.64105,37.56596],[-121.67813,37.57264],[-121.70534,37.56652],[-121.74009,37.53879],[-121.76618,37.51657],[-121.79624,37.49112],[-121.81456,37.47562],[-121.83275,37.46014],[-121.90048,37.43533],[-121.92815,37.43528],[-121.94981,37.44232],[-121.96917,37.44996],[-122.00815,37.46626],[-122.02564,37.47365],[-122.05283,37.48521],[-122.08777,37.49996],[-122.13043,37.51811],[-122.14705,37.52509],[-122.17275,37.53591],[-122.2079,37.55078],[-122.2378,37.56333],[-122.26244,37.57376],[-122.27998,37.58113],[-122.3042,37.59134],[-122.34122,37.60688],[-122.34498,37.60841]]}
}
