{
  "id": 2047941415,
  "type": "Feature",
  "properties": {
    "geom:area": 0,
    "geom:bbox": "-122.852000,37.420200,-122.121320,38.512670",
    "geom:latitude": 37.83294200167708,
    "geom:longitude": -122.50626950111598,
    "src:alt_label": "swim-approach",
    "src:geom": "swim",
    "swim:elevations": [
      7468,
      7029,
      6819,
      6431,
      6402,
      5988,
      5744,
      5668,
      5449,
      5167,
      5030,
      4724,
      4517,
      4328,
      4119,
      3975,
      3627,
      3627,
      3506,
      3437,
      3353,
      3298,
      3237,
      2939,
      2760,
      2726,
      2376,
      2290,
      2053,
      1880,
      1777,
      1578,
      1556,
      1354,
      1181,
      1159,
      925,
      780,
      646,
      638,
      581,
      546,
      138,
      56
    ],
    "swim:geom": "approach",
    "swim:timestamps": [
      1786540728,
      1786540768,
      1786540788,
      1786540826,
      1786540830,
      1786540866,
      1786540899,
      1786540909,
      1786540938,
      1786540975,
      1786540993,
      1786541035,
      1786541065,
      1786541090,
      1786541123,
      1786541141,
      1786541206,
      1786541241,
      1786541269,
      1786541283,
      1786541335,
      1786541367,
      1786541378,
      1786541427,
      1786541457,
      1786541462,
      1786541516,
      1786541531,
      1786541567,
      1786541595,
      1786541615,
      1786541665,
      1786541674,
      1786541706,
      1786541731,
      1786541735,
      1786541773,
      1786541798,
      1786541821,
      1786541826,
      1786541833,
      1786541846,
      1786541944,
      1786541973
    ],
    "wof:geomhash": "0973d3ec837a345d7c7831b6a8bb928e",
    "wof:id": 2047941415,
    "wof:repo": "sfomuseum-data-flights-2026-08"
  },
  "bbox": [
    -122.852,
    37.4202,
    -122.12132,
    38.51267
  ],
  "geometry": {"type":"LineString","coordinates":[[-122.852,38.51267],[-122.83038,38.43932],[-122.81997,38.40354],[-122.80037,38.33674],[-122.79858,38.33057],[-122.78036,38.26864],[-122.76424,38.21334],[-122.75938,38.19686],[-122.74598,38.15016],[-122.72857,38.09052],[-122.72015,38.06143],[-122.70039,37.99333],[-122.68692,37.94652],[-122.67442,37.90767],[-122.63562,37.86463],[-122.61316,37.84326],[-122.53314,37.76716],[-122.49566,37.73166],[-122.46876,37.70639],[-122.456,37.69456],[-122.40638,37.6479],[-122.37669,37.61992],[-122.36834,37.60971],[-122.33857,37.55944],[-122.32041,37.5298],[-122.31735,37.52484],[-122.28514,37.47211],[-122.2756,37.45842],[-122.23173,37.43996],[-122.19515,37.4283],[-122.16992,37.4202],[-122.12132,37.44286],[-122.12227,37.45186],[-122.1359,37.481],[-122.14916,37.50327],[-122.1513,37.50685],[-122.17854,37.53564],[-122.20565,37.54742],[-122.22985,37.55759],[-122.23473,37.55965],[-122.24155,37.56253],[-122.25577,37.5687],[-122.33063,37.60004],[-122.35081,37.60852]]}
}
