{
  "id": 2047917949,
  "type": "Feature",
  "properties": {
    "geom:area": 0,
    "geom:bbox": "-122.394250,37.626500,-121.433160,38.516460",
    "geom:latitude": 38.09053897094156,
    "geom:longitude": -121.93431345975289,
    "src:alt_label": "swim-takeoff",
    "src:geom": "swim",
    "swim:elevations": [
      213,
      1272,
      2802,
      3048,
      3078,
      3109,
      3325,
      3677,
      4081,
      4133,
      4284,
      4663,
      4858,
      5273,
      6462,
      6658,
      6824
    ],
    "swim:geom": "takeoff",
    "swim:timestamps": [
      1786365743,
      1786365864,
      1786366015,
      1786366043,
      1786366052,
      1786366061,
      1786366097,
      1786366127,
      1786366165,
      1786366172,
      1786366193,
      1786366252,
      1786366269,
      1786366313,
      1786366438,
      1786366462,
      1786366483
    ],
    "wof:geomhash": "e5e57bf9e2b15541ca6882682c411b71",
    "wof:id": 2047917949,
    "wof:repo": "sfomuseum-data-flights-2026-08"
  },
  "bbox": [
    -122.39425,
    37.6265,
    -121.43316,
    38.51646
  ],
  "geometry": {"type":"LineString","coordinates":[[-122.39425,37.6265],[-122.31312,37.68624],[-122.21644,37.85121],[-122.18414,37.88206],[-122.17286,37.89233],[-122.16089,37.90322],[-122.11044,37.94834],[-122.06583,37.98838],[-122.01025,38.03868],[-122.00006,38.04801],[-121.96629,38.07789],[-121.868,38.16455],[-121.83721,38.19183],[-121.76053,38.26042],[-121.53039,38.45536],[-121.47852,38.48868],[-121.43316,38.51646]]}
}
