{
  "id": 2047902211,
  "type": "Feature",
  "properties": {
    "geom:area": 0,
    "geom:bbox": "-126.683333,37.633333,-122.400000,38.633333",
    "geom:latitude": 38.00665670198878,
    "geom:longitude": -124.56361166328429,
    "src:alt_label": "swim-path",
    "src:geom": "swim",
    "swim:altitudes": [
      "004",
      "019",
      "032",
      "037C",
      "039",
      "044C",
      "050",
      "062C",
      "070",
      "084C",
      "093",
      "104C",
      "108",
      "114C",
      "115",
      "125C",
      "132",
      "148C",
      "151",
      "163C",
      "170",
      "187C",
      "197",
      "206C",
      "213",
      "221C",
      "228",
      "235C",
      "240",
      "248C",
      "254",
      "262C",
      "265",
      "273C",
      "276",
      "284C",
      "286",
      "291C",
      "296",
      "302C",
      "305",
      "309C",
      "313",
      "320",
      "320C",
      "320",
      "320C",
      "320",
      "320C",
      "320",
      "320C",
      "320",
      "320C",
      "320",
      "320C",
      "320",
      "320C",
      "320",
      "320C",
      "320",
      "320C",
      "320"
    ],
    "swim:geom": "path",
    "swim:speeds": [
      191,
      193,
      194,
      210,
      244,
      260,
      288,
      300,
      304,
      310,
      307,
      320,
      332,
      350,
      370,
      380,
      397,
      410,
      408,
      420,
      425,
      430,
      419,
      420,
      419,
      430,
      426,
      430,
      435,
      440,
      443,
      450,
      449,
      460,
      457,
      460,
      465,
      460,
      473,
      480,
      478,
      480,
      483,
      490,
      484,
      490,
      484,
      480,
      483,
      490,
      483,
      480,
      483,
      480,
      483,
      480,
      483,
      490,
      484,
      480,
      485,
      480
    ],
    "swim:timestamps": [
      1786273391,
      1786273430,
      1786273490,
      1786273525,
      1786273550,
      1786273585,
      1786273610,
      1786273645,
      1786273670,
      1786273706,
      1786273730,
      1786273765,
      1786273790,
      1786273826,
      1786273850,
      1786273885,
      1786273910,
      1786273946,
      1786273970,
      1786274006,
      1786274030,
      1786274066,
      1786274090,
      1786274126,
      1786274150,
      1786274186,
      1786274210,
      1786274246,
      1786274270,
      1786274306,
      1786274330,
      1786274366,
      1786274390,
      1786274426,
      1786274450,
      1786274486,
      1786274510,
      1786274546,
      1786274570,
      1786274607,
      1786274630,
      1786274666,
      1786274690,
      1786274727,
      1786274750,
      1786274786,
      1786274810,
      1786274847,
      1786274870,
      1786274907,
      1786274930,
      1786274967,
      1786274990,
      1786275027,
      1786275050,
      1786275087,
      1786275110,
      1786275147,
      1786275170,
      1786275207,
      1786275230,
      1786275267
    ],
    "wof:geomhash": "9ac598ec05ccff022781b6a6a69aa946",
    "wof:id": 2047902211,
    "wof:repo": "sfomuseum-data-flights-2026-08"
  },
  "bbox": [
    -126.68333333333334,
    37.63333333333333,
    -122.4,
    38.63333333333333
  ],
  "geometry": {"type":"LineString","coordinates":[[-122.4,37.63333333333333],[-122.43111111111112,37.644444444444446],[-122.49111111111111,37.66972222222222],[-122.51666666666667,37.666666666666664],[-122.57,37.67916666666667],[-122.61666666666666,37.666666666666664],[-122.66888888888889,37.68472222222222],[-122.71666666666667,37.68333333333333],[-122.77583333333334,37.691111111111105],[-122.83333333333333,37.68333333333333],[-122.88527777777779,37.69777777777777],[-122.93333333333334,37.7],[-122.9975,37.70472222222222],[-123.06666666666666,37.7],[-123.0975,37.71666666666667],[-123.16666666666667,37.71666666666667],[-123.23527777777778,37.73388888888889],[-123.33333333333333,37.733333333333334],[-123.37666666666667,37.75083333333333],[-123.45,37.75],[-123.5261111111111,37.76888888888889],[-123.6,37.766666666666666],[-123.67111111111112,37.78611111111111],[-123.75,37.78333333333333],[-123.81777777777778,37.80333333333333],[-123.9,37.8],[-123.96527777777779,37.82055555555556],[-124.05,37.81666666666667],[-124.11638888888888,37.83777777777778],[-124.2,37.833333333333336],[-124.2713888888889,37.855555555555554],[-124.38333333333334,37.86666666666667],[-124.42833333333334,37.87305555555555],[-124.55,37.88333333333333],[-124.58944444444444,37.89083333333333],[-124.7,37.9],[-124.74777777777778,37.92027777777778],[-124.83333333333333,37.93333333333333],[-124.89972222222222,37.97777777777778],[-125,38.016666666666666],[-125.05166666666666,38.035555555555554],[-125.13333333333334,38.06666666666667],[-125.205,38.09305555555556],[-125.31666666666666,38.13333333333333],[-125.35833333333333,38.150555555555556],[-125.46666666666667,38.18333333333333],[-125.51222222222222,38.20777777777778],[-125.61666666666666,38.25],[-125.66833333333334,38.26583333333333],[-125.78333333333333,38.3],[-125.84472222222222,38.33083333333334],[-125.93333333333334,38.36666666666667],[-125.97611111111111,38.37916666666667],[-126.05,38.4],[-126.13305555555554,38.436388888888885],[-126.25,38.46666666666667],[-126.31027777777777,38.50083333333333],[-126.36666666666666,38.516666666666666],[-126.46583333333334,38.55694444444444],[-126.55,38.583333333333336],[-126.62333333333332,38.61361111111111],[-126.68333333333334,38.63333333333333]]}
}
