{
  "id": 2047942879,
  "type": "Feature",
  "properties": {
    "geom:area": 0,
    "geom:bbox": "-122.533333,37.616667,-85.671389,48.235278",
    "geom:latitude": 45.12471475074617,
    "geom:longitude": -105.09116809517735,
    "src:alt_label": "swim-path",
    "src:geom": "swim",
    "swim:altitudes": [
      "006",
      "021",
      "030",
      "039",
      "054",
      "064",
      "080",
      "090",
      "104",
      "109",
      "116",
      "138",
      "158",
      "185",
      "204",
      "222",
      "231",
      "245",
      "258",
      "272",
      "282",
      "292",
      "299",
      "306",
      "310",
      "315",
      "320",
      "325",
      "329",
      "330",
      "330",
      "330",
      "330",
      "330",
      "330",
      "330",
      "330",
      "330",
      "332",
      "338",
      "344",
      "345",
      "349",
      "351",
      "353",
      "355",
      "358",
      "360",
      "360",
      "360",
      "360",
      "360",
      "360",
      "360",
      "360",
      "360",
      "360",
      "360",
      "360",
      "360",
      "360",
      "361",
      "365",
      "368C",
      "370C",
      "370C",
      "370C",
      "370C",
      "370C",
      "370C",
      "370C",
      "370C",
      "370C",
      "370C",
      "370C",
      "370C",
      "370C",
      "370C",
      "370C",
      "370C",
      "370C",
      "370C",
      "370C",
      "370C",
      "370C",
      "370C",
      "370C",
      "370C",
      "370C",
      "370C",
      "370C",
      "370C",
      "370C",
      "370C",
      "370C",
      "370C",
      "370C",
      "370C",
      "370C",
      "370C",
      "370C",
      "370C",
      "370C",
      "370C",
      "370C",
      "370C",
      "370C",
      "370C",
      "370C",
      "370C",
      "370C",
      "370C",
      "370C",
      "370C",
      "370C",
      "370C",
      "370C",
      "370C",
      "370C",
      "370C",
      "370C",
      "370C",
      "370C",
      "370C",
      "370C",
      "370C",
      "370C",
      "370C",
      "370C",
      "370C",
      "370C",
      "370C",
      "370C",
      "370C",
      "370C",
      "370C",
      "370C",
      "370C",
      "370C",
      "370C",
      "370C",
      "370C",
      "370C",
      "370C",
      "370C",
      "370C",
      "370C",
      "370C",
      "370C",
      "370C",
      "370C",
      "370C",
      "370C",
      "370C",
      "370C",
      "370C",
      "370C",
      "370C",
      "370C",
      "370C",
      "370C",
      "370C",
      "370C",
      "370C",
      "370C",
      "370C",
      "370C",
      "370C",
      "370C",
      "370C",
      "370C",
      "370C",
      "370C",
      "370C",
      "370C",
      "370C",
      "370C",
      "370C",
      "370C",
      "370C",
      "370C",
      "370C",
      "370C",
      "370C",
      "370C",
      "370C",
      "370C",
      "370C",
      "370C",
      "370C",
      "370C",
      "370C",
      "370C",
      "370C",
      "370C",
      "370C",
      "370C",
      "370C",
      "370C",
      "370C",
      "370C",
      "370C",
      "370C",
      "370C",
      "370C",
      "370C",
      "370C",
      "370C",
      "370C",
      "370C",
      "370C",
      "370C",
      "370C",
      "370C",
      "370C",
      "370C",
      "370C",
      "370C",
      "370C",
      "370C",
      "370C",
      "370C",
      "370C",
      "370C",
      "370C",
      "370C",
      "370C",
      "370C",
      "370C",
      "370C",
      "370C",
      "370C",
      "370C",
      "370C",
      "370C",
      "370C",
      "370C",
      "370C",
      "370C",
      "370C",
      "370C",
      "370C",
      "370C",
      "370C",
      "370C",
      "370C",
      "370C"
    ],
    "swim:geom": "path",
    "swim:speeds": [
      154,
      190,
      227,
      255,
      277,
      288,
      293,
      302,
      302,
      332,
      357,
      373,
      384,
      388,
      397,
      406,
      415,
      423,
      432,
      437,
      448,
      457,
      465,
      473,
      466,
      471,
      466,
      470,
      465,
      467,
      465,
      466,
      464,
      464,
      465,
      466,
      466,
      466,
      467,
      466,
      459,
      462,
      459,
      461,
      462,
      473,
      465,
      469,
      471,
      472,
      467,
      466,
      467,
      467,
      470,
      473,
      474,
      475,
      475,
      476,
      475,
      476,
      476,
      476,
      473,
      473,
      478,
      479,
      479,
      478,
      479,
      479,
      479,
      479,
      479,
      477,
      480,
      482,
      481,
      480,
      481,
      482,
      478,
      484,
      486,
      485,
      486,
      487,
      490,
      474,
      472,
      483,
      495,
      505,
      500,
      480,
      480,
      484,
      483,
      480,
      481,
      478,
      477,
      479,
      483,
      472,
      473,
      482,
      484,
      483,
      484,
      488,
      487,
      484,
      484,
      482,
      481,
      482,
      483,
      482,
      481,
      481,
      481,
      482,
      488,
      496,
      498,
      498,
      500,
      502,
      504,
      504,
      506,
      506,
      507,
      511,
      511,
      511,
      512,
      513,
      514,
      515,
      516,
      517,
      517,
      517,
      520,
      521,
      521,
      523,
      523,
      522,
      520,
      519,
      520,
      521,
      521,
      519,
      519,
      520,
      523,
      525,
      523,
      523,
      523,
      518,
      517,
      520,
      518,
      516,
      515,
      517,
      519,
      520,
      524,
      527,
      528,
      519,
      517,
      515,
      512,
      515,
      518,
      521,
      526,
      527,
      527,
      526,
      526,
      526,
      528,
      530,
      529,
      533,
      534,
      534,
      534,
      536,
      538,
      539,
      541,
      540,
      538,
      538,
      541,
      547,
      547,
      547,
      548,
      552,
      552,
      553,
      552,
      556,
      559,
      560,
      561,
      561,
      562,
      565,
      569,
      569,
      568,
      570,
      569,
      566,
      564,
      559,
      558,
      553,
      550,
      549,
      549,
      548,
      547,
      544,
      541,
      543,
      543,
      542,
      542,
      544,
      544,
      544,
      543,
      543,
      544
    ],
    "swim:timestamps": [
      1786573664,
      1786573707,
      1786573756,
      1786573767,
      1786573816,
      1786573828,
      1786573876,
      1786573888,
      1786573936,
      1786573947,
      1786573996,
      1786574056,
      1786574116,
      1786574176,
      1786574236,
      1786574296,
      1786574356,
      1786574416,
      1786574477,
      1786574537,
      1786574597,
      1786574657,
      1786574717,
      1786574747,
      1786574777,
      1786574808,
      1786574837,
      1786574868,
      1786574897,
      1786574928,
      1786574957,
      1786574988,
      1786575029,
      1786575048,
      1786575089,
      1786575108,
      1786575150,
      1786575168,
      1786575210,
      1786575228,
      1786575270,
      1786575288,
      1786575330,
      1786575348,
      1786575390,
      1786575408,
      1786575450,
      1786575468,
      1786575510,
      1786575529,
      1786575570,
      1786575589,
      1786575630,
      1786575649,
      1786575690,
      1786575709,
      1786575750,
      1786575769,
      1786575810,
      1786575829,
      1786575871,
      1786575889,
      1786575931,
      1786575949,
      1786575991,
      1786576009,
      1786576051,
      1786576069,
      1786576111,
      1786576129,
      1786576171,
      1786576189,
      1786576231,
      1786576250,
      1786576310,
      1786576370,
      1786576430,
      1786576490,
      1786576550,
      1786576610,
      1786576670,
      1786576730,
      1786576790,
      1786576850,
      1786576910,
      1786576971,
      1786577031,
      1786577091,
      1786577151,
      1786577211,
      1786577271,
      1786577331,
      1786577391,
      1786577451,
      1786577511,
      1786577571,
      1786577631,
      1786577691,
      1786577752,
      1786577812,
      1786577872,
      1786577932,
      1786577992,
      1786578052,
      1786578112,
      1786578172,
      1786578232,
      1786578292,
      1786578352,
      1786578412,
      1786578473,
      1786578533,
      1786578593,
      1786578653,
      1786578713,
      1786578773,
      1786578833,
      1786578893,
      1786578953,
      1786579013,
      1786579073,
      1786579133,
      1786579194,
      1786579254,
      1786579314,
      1786579374,
      1786579434,
      1786579494,
      1786579554,
      1786579614,
      1786579674,
      1786579734,
      1786579794,
      1786579854,
      1786579914,
      1786579975,
      1786580035,
      1786580095,
      1786580155,
      1786580215,
      1786580275,
      1786580335,
      1786580395,
      1786580455,
      1786580515,
      1786580575,
      1786580696,
      1786580756,
      1786580816,
      1786580876,
      1786580936,
      1786580996,
      1786581056,
      1786581116,
      1786581176,
      1786581236,
      1786581296,
      1786581356,
      1786581416,
      1786581477,
      1786581536,
      1786581597,
      1786581656,
      1786581716,
      1786581777,
      1786581837,
      1786581897,
      1786581957,
      1786582017,
      1786582077,
      1786582137,
      1786582197,
      1786582258,
      1786582317,
      1786582377,
      1786582437,
      1786582497,
      1786582618,
      1786582678,
      1786582738,
      1786582798,
      1786582858,
      1786582918,
      1786582978,
      1786583038,
      1786583098,
      1786583158,
      1786583218,
      1786583279,
      1786583339,
      1786583399,
      1786583459,
      1786583519,
      1786583579,
      1786583639,
      1786583699,
      1786583759,
      1786583819,
      1786583879,
      1786583939,
      1786584000,
      1786584060,
      1786584120,
      1786584180,
      1786584240,
      1786584300,
      1786584360,
      1786584420,
      1786584480,
      1786584540,
      1786584600,
      1786584660,
      1786584721,
      1786584781,
      1786584841,
      1786584901,
      1786584961,
      1786585021,
      1786585081,
      1786585141,
      1786585201,
      1786585261,
      1786585321,
      1786585381,
      1786585454,
      1786585514,
      1786585574,
      1786585634,
      1786585694,
      1786585754,
      1786585814,
      1786585874,
      1786585934,
      1786585994,
      1786586054,
      1786586114,
      1786586174,
      1786586235,
      1786586295,
      1786586355,
      1786586415,
      1786586475,
      1786586535,
      1786586595,
      1786586655,
      1786586715,
      1786586775
    ],
    "wof:geomhash": "4d9921cdd0191698e4579e6577fdcd77",
    "wof:id": 2047942879,
    "wof:repo": "sfomuseum-data-flights-2026-08"
  },
  "bbox": [
    -122.53333333333333,
    37.61666666666667,
    -85.6713888888889,
    48.23527777777778
  ],
  "geometry": {"type":"LineString","coordinates":[[-122.38333333333334,37.61666666666667],[-122.41666666666667,37.63333333333333],[-122.46000000000001,37.656388888888884],[-122.48333333333333,37.666666666666664],[-122.52416666666666,37.70527777777778],[-122.53333333333333,37.733333333333334],[-122.52444444444444,37.785555555555554],[-122.5,37.81666666666667],[-122.44416666666667,37.835],[-122.4,37.85],[-122.35166666666666,37.89555555555555],[-122.2525,37.964444444444446],[-122.15222222222222,38.03361111111111],[-122.02777777777777,38.119166666666665],[-121.92222222222223,38.19166666666666],[-121.81361111111111,38.26583333333333],[-121.72500000000001,38.32638888888889],[-121.61055555555555,38.40416666666667],[-121.49,38.481388888888894],[-121.39277777777778,38.577222222222225],[-121.2975,38.68333333333333],[-121.20166666666667,38.78944444444444],[-121.10444444444444,38.896388888888886],[-121.05527777777777,38.94916666666666],[-121.00805555555556,39.0025],[-120.9575,39.05305555555555],[-120.91083333333334,39.10861111111111],[-120.8611111111111,39.16],[-120.81444444444445,39.21361111111111],[-120.76583333333333,39.26583333333333],[-120.71777777777778,39.31888888888889],[-120.66888888888889,39.370555555555555],[-120.60111111111111,39.445277777777775],[-120.57388888888889,39.47638888888889],[-120.51138888888889,39.555],[-120.48416666666667,39.58777777777778],[-120.42166666666667,39.66277777777778],[-120.39361111111111,39.69611111111111],[-120.33083333333333,39.7725],[-120.30333333333333,39.80555555555555],[-120.24138888888889,39.88],[-120.21388888888889,39.91305555555555],[-120.15083333333334,39.98861111111111],[-120.12277777777777,40.02055555555555],[-120.06722222222221,40.08833333333334],[-120.03055555555555,40.13194444444444],[-119.97333333333333,40.2],[-119.93777777777778,40.24194444444444],[-119.88138888888888,40.30916666666666],[-119.84583333333333,40.35111111111111],[-119.78888888888889,40.41833333333333],[-119.75222222222222,40.46138888888889],[-119.69527777777778,40.52833333333333],[-119.65944444444445,40.57],[-119.60194444444444,40.6375],[-119.56527777777778,40.680277777777775],[-119.5075,40.74777777777778],[-119.46972222222223,40.791666666666664],[-119.40833333333335,40.863055555555555],[-119.37388888888889,40.90277777777778],[-119.31333333333333,40.972500000000004],[-119.27555555555556,41.01638888888889],[-119.21694444444445,41.08388888888889],[-119.17972222222222,41.12638888888889],[-119.12166666666666,41.19305555555555],[-119.08416666666666,41.23583333333333],[-119.02388888888889,41.30472222222222],[-118.98611111111111,41.34805555555556],[-118.9263888888889,41.41555555555556],[-118.8888888888889,41.458333333333336],[-118.82722222222222,41.528055555555554],[-118.78999999999999,41.57027777777778],[-118.73,41.63777777777778],[-118.69111111111111,41.68138888888889],[-118.59194444444444,41.79277777777778],[-118.49361111111111,41.90277777777778],[-118.39361111111111,42.013888888888886],[-118.2936111111111,42.125],[-118.19333333333334,42.23527777777778],[-118.09194444444444,42.34666666666667],[-117.99055555555556,42.4575],[-117.8875,42.566944444444445],[-117.73916666666666,42.643055555555556],[-117.57972222222222,42.70805555555556],[-117.41861111111112,42.77333333333333],[-117.25111111111111,42.84055555555556],[-117.09555555555555,42.90277777777778],[-116.92555555555556,42.97027777777778],[-116.7675,43.032777777777774],[-116.60222222222221,43.09777777777778],[-116.44916666666667,43.1575],[-116.28111111111112,43.22277777777778],[-116.12055555555555,43.28472222222222],[-115.93861111111111,43.35138888888889],[-115.75944444444444,43.376111111111115],[-115.56833333333333,43.39666666666667],[-115.39555555555556,43.414722222222224],[-115.20416666666667,43.43472222222222],[-115.0286111111111,43.4525],[-114.84055555555555,43.47138888888889],[-114.66583333333334,43.48861111111111],[-114.48222222222222,43.506388888888885],[-114.30499999999999,43.52333333333333],[-114.12027777777777,43.54055555555556],[-113.93972222222223,43.55722222222222],[-113.7611111111111,43.57333333333334],[-113.57972222222222,43.589444444444446],[-113.39611111111111,43.605555555555554],[-113.21333333333334,43.62111111111111],[-113.0286111111111,43.63666666666666],[-112.84472222222222,43.651944444444446],[-112.65861111111111,43.66694444444444],[-112.47611111111111,43.68138888888889],[-112.29333333333334,43.695277777777775],[-112.10833333333333,43.70944444444445],[-111.92833333333334,43.72277777777778],[-111.74416666666667,43.736111111111114],[-111.56,43.74916666666667],[-111.37833333333333,43.76166666666666],[-111.19500000000001,43.774166666666666],[-111.01333333333334,43.78611111111111],[-110.83194444444445,43.797777777777775],[-110.64833333333334,43.80916666666666],[-110.46166666666667,43.82083333333334],[-110.2875,43.85805555555556],[-110.13527777777779,43.94277777777778],[-109.98472222222222,44.02777777777778],[-109.835,44.11222222222222],[-109.68083333333334,44.19888888888889],[-109.5275,44.284166666666664],[-109.36277777777777,44.37555555555556],[-109.20916666666668,44.46027777777778],[-109.05055555555555,44.54722222222222],[-108.89416666666668,44.632777777777775],[-108.73527777777778,44.71888888888889],[-108.57694444444444,44.80444444444444],[-108.41527777777779,44.89111111111111],[-108.255,44.97666666666667],[-108.08972222222222,45.064166666666665],[-107.9263888888889,45.150555555555556],[-107.76166666666667,45.23694444444445],[-107.59861111111111,45.32194444444445],[-107.43222222222222,45.40833333333333],[-107.26777777777778,45.49305555555556],[-107.10305555555556,45.5775],[-106.93583333333333,45.66277777777778],[-106.60333333333332,45.830555555555556],[-106.43194444444445,45.91638888888889],[-106.26388888888889,46],[-106.09194444444444,46.085],[-105.92305555555556,46.168055555555554],[-105.7525,46.25138888888889],[-105.58055555555555,46.335],[-105.41111111111111,46.416666666666664],[-105.23722222222223,46.5],[-105.065,46.58222222222223],[-104.88416666666667,46.668055555555554],[-104.71416666666667,46.74805555555556],[-104.53888888888889,46.830000000000005],[-104.36472222222221,46.91083333333333],[-104.19194444444445,46.990833333333335],[-104.01305555555555,47.073055555555555],[-103.84222222222222,47.15083333333333],[-103.66611111111112,47.23083333333334],[-103.48833333333333,47.31083333333333],[-103.31611111111111,47.38777777777778],[-103.13722222222223,47.4675],[-102.95972222222223,47.545833333333334],[-102.78333333333333,47.623333333333335],[-102.60499999999999,47.70111111111111],[-102.42944444444444,47.77722222222222],[-102.24805555555555,47.85527777777778],[-102.06888888888888,47.93194444444444],[-101.88416666666667,48.01027777777778],[-101.69833333333334,48.08888888888889],[-101.51361111111112,48.16638888888889],[-101.31861111111111,48.23527777777778],[-100.89888888888889,48.21388888888889],[-100.69083333333333,48.18861111111111],[-100.48166666666667,48.16277777777778],[-100.27194444444444,48.13638888888889],[-100.06083333333333,48.10944444444445],[-99.85194444444444,48.08583333333333],[-99.63444444444445,48.07694444444445],[-99.41555555555556,48.06805555555556],[-99.19611111111111,48.058611111111105],[-98.97888888888889,48.049166666666665],[-98.76027777777777,48.038888888888884],[-98.54444444444444,48.02861111111111],[-98.32333333333332,48.0175],[-98.10416666666666,48.005833333333335],[-97.88444444444445,47.994166666666665],[-97.66305555555556,47.98166666666667],[-97.44222222222223,47.96888888888889],[-97.22027777777778,47.955555555555556],[-97.00027777777778,47.94194444444444],[-96.77833333333334,47.92777777777778],[-96.55749999999999,47.913333333333334],[-96.33305555555555,47.89805555555556],[-96.11444444444444,47.882777777777775],[-95.88777777777779,47.86638888888889],[-95.66611111111112,47.85027777777778],[-95.44527777777778,47.83361111111111],[-95.22277777777778,47.81638888888889],[-95.00166666666667,47.79861111111111],[-94.77638888888889,47.780277777777776],[-94.55138888888888,47.76138888888889],[-94.33166666666666,47.7425],[-94.10666666666665,47.72277777777778],[-93.87944444444443,47.7025],[-93.655,47.68194444444444],[-93.42583333333334,47.660555555555554],[-93.1975,47.63861111111111],[-92.96583333333334,47.615833333333335],[-92.73416666666667,47.59277777777778],[-92.5075,47.569722222222225],[-92.32194444444444,47.55027777777777],[-92.04916666666666,47.521388888888886],[-91.86388888888888,47.50138888888889],[-91.63527777777779,47.476111111111116],[-91.40472222222223,47.45055555555556],[-91.17750000000001,47.42444444444444],[-90.90166666666667,47.39222222222222],[-90.71638888888889,47.37027777777778],[-90.44416666666667,47.337500000000006],[-90.21638888888889,47.309444444444445],[-89.94722222222222,47.27583333333333],[-89.72166666666666,47.246944444444445],[-89.49972222222222,47.21805555555556],[-89.28027777777778,47.189166666666665],[-89.08277777777778,47.16277777777778],[-88.86222222222221,47.132777777777775],[-88.64472222222223,47.10277777777778],[-88.42750000000001,47.072500000000005],[-88.20916666666668,47.04138888888889],[-87.99416666666667,47.010555555555555],[-87.77777777777777,46.97888888888889],[-87.56472222222222,46.9475],[-87.34888888888888,46.915],[-87.13222222222221,46.88194444444444],[-86.9225,46.84055555555556],[-86.71111111111111,46.7925],[-86.50222222222222,46.74472222222222],[-86.29444444444444,46.696666666666665],[-86.08611111111111,46.647777777777776],[-85.87888888888888,46.598888888888894],[-85.6713888888889,46.54944444444444]]}
}
