{
  "id": 2032058897,
  "type": "Feature",
  "properties": {
    "geom:area": 0,
    "geom:bbox": "-122.356460,36.728640,-121.882830,37.610940",
    "geom:latitude": 37.225679369449445,
    "geom:longitude": -122.06917489095845,
    "src:alt_label": "swim-approach",
    "src:geom": "swim",
    "swim:elevations": [
      5295,
      4999,
      4657,
      4269,
      4183,
      3684,
      3420,
      3234,
      3229,
      3066,
      2916,
      2717,
      2482,
      2239,
      2169,
      2111,
      1963,
      1744,
      1602,
      1309,
      1253,
      1215,
      1180,
      963,
      913,
      829,
      687,
      542,
      395,
      333,
      242,
      138,
      31
    ],
    "swim:geom": "approach",
    "swim:timestamps": [
      1785615099,
      1785615128,
      1785615164,
      1785615207,
      1785615215,
      1785615268,
      1785615296,
      1785615327,
      1785615332,
      1785615380,
      1785615411,
      1785615437,
      1785615468,
      1785615501,
      1785615510,
      1785615522,
      1785615544,
      1785615580,
      1785615610,
      1785615658,
      1785615666,
      1785615715,
      1785615726,
      1785615765,
      1785615795,
      1785615819,
      1785615856,
      1785615890,
      1785615928,
      1785615945,
      1785615972,
      1785615996,
      1785616026
    ],
    "wof:geomhash": "7e83469c3d032116c210569946c15d95",
    "wof:id": 2032058897,
    "wof:repo": "sfomuseum-data-flights-2026-08"
  },
  "bbox": [
    -122.35646,
    36.72864,
    -121.88283,
    37.61094
  ],
  "geometry": {"coordinates":[[-121.88283,36.72864],[-121.90389,36.77696],[-121.92079,36.83708],[-121.94039,36.90669],[-121.94415,36.92024],[-121.97292,37.00291],[-121.98985,37.04665],[-122.00758,37.09196],[-122.01069,37.09981],[-122.03598,37.16272],[-122.04923,37.19781],[-122.05996,37.22656],[-122.07386,37.26157],[-122.08788,37.29698],[-122.09168,37.3066],[-122.09686,37.31928],[-122.10621,37.34207],[-122.11942,37.37541],[-122.12496,37.402],[-122.11064,37.44459],[-122.108,37.45184],[-122.10094,37.49393],[-122.1074,37.50173],[-122.14203,37.52051],[-122.16856,37.53174],[-122.1889,37.54053],[-122.2193,37.55324],[-122.24741,37.56512],[-122.27799,37.578],[-122.29229,37.58403],[-122.31301,37.59272],[-122.33379,37.60149],[-122.35646,37.61094]],"type":"LineString"}
}
