{
  "id": 2048051397,
  "type": "Feature",
  "properties": {
    "geom:area": 0,
    "geom:bbox": "-122.762690,37.432280,-122.113970,38.484190",
    "geom:latitude": 37.819237853564616,
    "geom:longitude": -122.4845468239266,
    "src:alt_label": "swim-approach",
    "src:geom": "swim",
    "swim:elevations": [
      7620,
      7498,
      7075,
      6871,
      6464,
      6131,
      5879,
      5760,
      5311,
      4974,
      4706,
      4445,
      4185,
      4026,
      3875,
      3473,
      3400,
      3356,
      3353,
      3353,
      3353,
      3260,
      3065,
      2819,
      2797,
      2645,
      2528,
      2438,
      2163,
      2094,
      1814,
      1584,
      1401,
      1028,
      972,
      761,
      638,
      460,
      384,
      286,
      126,
      115,
      185
    ],
    "swim:geom": "approach",
    "swim:timestamps": [
      1787065372,
      1787065387,
      1787065430,
      1787065450,
      1787065491,
      1787065527,
      1787065553,
      1787065565,
      1787065611,
      1787065648,
      1787065678,
      1787065699,
      1787065737,
      1787065755,
      1787065772,
      1787065822,
      1787065852,
      1787065871,
      1787065908,
      1787065939,
      1787065959,
      1787065994,
      1787066022,
      1787066066,
      1787066070,
      1787066096,
      1787066116,
      1787066135,
      1787066180,
      1787066190,
      1787066235,
      1787066272,
      1787066295,
      1787066336,
      1787066354,
      1787066395,
      1787066419,
      1787066457,
      1787066476,
      1787066504,
      1787066548,
      1787066551,
      1787066583
    ],
    "wof:geomhash": "f14f7ec13bfca46dbd7dc82ff668a824",
    "wof:id": 2048051397,
    "wof:repo": "sfomuseum-data-flights-2026-08"
  },
  "bbox": [
    -122.76269,
    37.43228,
    -122.11397,
    38.48419
  ],
  "geometry": {"type":"LineString","coordinates":[[-122.69542,38.48419],[-122.70228,38.45769],[-122.72281,38.38456],[-122.73241,38.35033],[-122.75151,38.28209],[-122.76269,38.22169],[-122.75395,38.17802],[-122.74836,38.15805],[-122.72619,38.08247],[-122.70893,38.02341],[-122.69523,37.9762],[-122.68603,37.9438],[-122.65976,37.88831],[-122.6376,37.86594],[-122.61487,37.84421],[-122.55133,37.78446],[-122.51467,37.74998],[-122.49292,37.7294],[-122.45178,37.69073],[-122.41736,37.65832],[-122.39621,37.63843],[-122.36356,37.60694],[-122.34871,37.57771],[-122.32266,37.53098],[-122.32046,37.52726],[-122.30382,37.50032],[-122.29084,37.48012],[-122.27771,37.46126],[-122.22186,37.44163],[-122.2081,37.43905],[-122.14609,37.43228],[-122.11646,37.46201],[-122.11397,37.48699],[-122.14399,37.52082],[-122.16284,37.52994],[-122.20567,37.54742],[-122.23016,37.55773],[-122.26749,37.57345],[-122.28518,37.58096],[-122.30646,37.58993],[-122.33727,37.60282],[-122.33969,37.60383],[-122.36041,37.613]]}
}
