{
  "id": 2048077561,
  "type": "Feature",
  "properties": {
    "geom:area": 0,
    "geom:bbox": "-122.758450,37.415020,-122.099630,38.435720",
    "geom:latitude": 37.813650376281316,
    "geom:longitude": -122.46759385841487,
    "src:alt_label": "swim-approach",
    "src:geom": "swim",
    "swim:elevations": [
      7620,
      7498,
      7089,
      7038,
      6914,
      6511,
      6445,
      6106,
      5843,
      5530,
      5418,
      5096,
      4933,
      4834,
      4530,
      4310,
      4142,
      3913,
      3581,
      3401,
      3354,
      3353,
      3353,
      3353,
      3353,
      3135,
      2965,
      2700,
      2440,
      2324,
      2010,
      1782,
      1518,
      1299,
      1220,
      1219,
      1219,
      1014,
      977,
      898,
      734,
      582,
      475,
      461,
      288,
      209,
      120,
      27
    ],
    "swim:geom": "approach",
    "swim:timestamps": [
      1787214893,
      1787214906,
      1787214951,
      1787214957,
      1787214972,
      1787215019,
      1787215027,
      1787215070,
      1787215101,
      1787215137,
      1787215152,
      1787215188,
      1787215206,
      1787215221,
      1787215257,
      1787215284,
      1787215304,
      1787215336,
      1787215377,
      1787215404,
      1787215410,
      1787215453,
      1787215478,
      1787215518,
      1787215533,
      1787215586,
      1787215608,
      1787215640,
      1787215675,
      1787215687,
      1787215726,
      1787215751,
      1787215793,
      1787215829,
      1787215854,
      1787215885,
      1787215900,
      1787215946,
      1787215956,
      1787216003,
      1787216034,
      1787216066,
      1787216098,
      1787216101,
      1787216152,
      1787216177,
      1787216199,
      1787216229
    ],
    "wof:geomhash": "e514ffb0d45021134b1471339fc10b79",
    "wof:id": 2048077561,
    "wof:repo": "sfomuseum-data-flights-2026-08"
  },
  "bbox": [
    -122.75845,
    37.41502,
    -122.09963,
    38.43572
  ],
  "geometry": {"type":"LineString","coordinates":[[-122.55044,38.43572],[-122.56864,38.41786],[-122.63103,38.35727],[-122.63903,38.34946],[-122.6585,38.33061],[-122.71878,38.27185],[-122.73035,38.2606],[-122.75845,38.19767],[-122.74612,38.14982],[-122.72955,38.09321],[-122.7227,38.06977],[-122.70625,38.01327],[-122.69857,37.98692],[-122.69212,37.96448],[-122.67485,37.90995],[-122.64668,37.87441],[-122.62169,37.85061],[-122.58393,37.81498],[-122.5356,37.76937],[-122.50529,37.74073],[-122.49861,37.73439],[-122.45355,37.69208],[-122.4309,37.67079],[-122.39464,37.63662],[-122.38042,37.62318],[-122.34409,37.57161],[-122.33275,37.54936],[-122.31672,37.51638],[-122.29303,37.48121],[-122.28584,37.4705],[-122.25893,37.43433],[-122.22687,37.42477],[-122.17067,37.41502],[-122.13097,37.42827],[-122.11777,37.45137],[-122.10285,37.47822],[-122.09963,37.4919],[-122.13658,37.51863],[-122.14591,37.52251],[-122.18813,37.54047],[-122.21564,37.55174],[-122.24194,37.56275],[-122.26601,37.5729],[-122.26813,37.5738],[-122.30444,37.58909],[-122.32165,37.59619],[-122.33594,37.60233],[-122.35569,37.61054]]}
}
