{
  "id": 2047990717,
  "type": "Feature",
  "properties": {
    "date:inception_lower": "2026-08-16",
    "date:inception_upper": "2026-08-16",
    "edtf:cessation": "",
    "edtf:inception": "2026-08-16",
    "flysfo:actual_timestamp": -1,
    "flysfo:airline": "NZ",
    "flysfo:base_airline": "",
    "flysfo:base_flight_number": "9456",
    "flysfo:date": "2026-08-16",
    "flysfo:estimated_timestamp": 1786893960,
    "flysfo:event": "A",
    "flysfo:flight_number": "NZ9456",
    "flysfo:gate": "E2",
    "flysfo:journey": "GEG-SFO",
    "flysfo:scheduled_timestamp": 1786894200,
    "flysfo:timestamp": 1786894200,
    "geom:area": 0,
    "geom:bbox": "-117.531916,0.000000,0.000000,47.625686",
    "geom:latitude": 23.812843,
    "geom:longitude": -58.765958,
    "iata:airline": "NZ",
    "iata:base_airline": "",
    "icao:airline": "ANZ",
    "icao:base_airline": "ANZ",
    "lbl:latitude": 37.618678,
    "lbl:longitude": -122.385955,
    "sfomuseum:airline_id": 1159283697,
    "sfomuseum:arrival_id": 102527513,
    "sfomuseum:base_flight_id": "20260816-A-ANZ-9456",
    "sfomuseum:departure_id": 102533331,
    "sfomuseum:flight_id": "20260816-A-ANZ-9456",
    "sfomuseum:flight_number": [
      "ANZ9456",
      "NZ9456"
    ],
    "sfomuseum:placetype": "flight",
    "src:geom": "flysfo",
    "wof:belongsto": [
      1947304067,
      102527513,
      1947304451,
      102191575,
      85633793,
      102087579,
      85922583,
      554784711,
      85688637,
      1947304481,
      1947304447,
      102085387
    ],
    "wof:country": "US",
    "wof:created": 1786983030,
    "wof:geomhash": "686e76f472b523579d844b4a88e02a81",
    "wof:hierarchy": [
      {
        "building_id": 1947304067,
        "campus_id": 102527513,
        "concourse_id": 1947304451,
        "continent_id": 102191575,
        "country_id": 85633793,
        "county_id": 102087579,
        "custom_id": 2047990717,
        "flight_id": 2047990717,
        "locality_id": 85922583,
        "postalcode_id": 554784711,
        "region_id": 85688637,
        "venue_id": 1947304481,
        "wing_id": 1947304447
      },
      {
        "building_id": 1947304067,
        "campus_id": 102527513,
        "concourse_id": 1947304451,
        "continent_id": 102191575,
        "country_id": 85633793,
        "county_id": 102085387,
        "custom_id": 2047990717,
        "flight_id": 2047990717,
        "region_id": 85688637,
        "venue_id": 1947304481,
        "wing_id": 1947304447
      }
    ],
    "wof:id": 2047990717,
    "wof:involves": [
      102527513,
      102533331,
      1159283697,
      1947304481,
      1159283697
    ],
    "wof:lastmodified": 1786983030,
    "wof:name": "NZ9456 (GEG-SFO)",
    "wof:parent_id": 1947304481,
    "wof:placetype": "custom",
    "wof:placetype_alt": [
      "flight"
    ],
    "wof:repo": "sfomuseum-data-flights-2026-08",
    "wof:superseded_by": [],
    "wof:supersedes": []
  },
  "bbox": [
    -117.531916,
    0,
    0,
    47.625686
  ],
  "geometry": {"type":"MultiPoint","coordinates":[[-117.531916,47.625686],[0,0]]}
}
