{
  "id": 2048083615,
  "type": "Feature",
  "properties": {
    "geom:area": 0,
    "geom:bbox": "-122.392920,37.627220,-121.451420,38.502630",
    "geom:latitude": 38.04983102331092,
    "geom:longitude": -121.9203998006657,
    "src:alt_label": "swim-takeoff",
    "src:geom": "swim",
    "swim:elevations": [
      274,
      366,
      1049,
      1193,
      1405,
      2042,
      2288,
      2979,
      3204,
      3360,
      3752,
      4138,
      4388,
      4706,
      4751,
      5208,
      5289,
      5846,
      6088,
      6275,
      6594,
      6820,
      7114,
      7329
    ],
    "swim:geom": "takeoff",
    "swim:timestamps": [
      1787237428,
      1787237432,
      1787237483,
      1787237506,
      1787237529,
      1787237574,
      1787237591,
      1787237636,
      1787237655,
      1787237682,
      1787237716,
      1787237747,
      1787237767,
      1787237815,
      1787237822,
      1787237874,
      1787237881,
      1787237931,
      1787237956,
      1787237977,
      1787238013,
      1787238040,
      1787238075,
      1787238104
    ],
    "wof:geomhash": "d8395f412c5a9aaf1d72c456c3092c4f",
    "wof:id": 2048083615,
    "wof:repo": "sfomuseum-data-flights-2026-08"
  },
  "bbox": [
    -122.39292,
    37.62722,
    -121.45142,
    38.50263
  ],
  "geometry": {"type":"LineString","coordinates":[[-122.38944,37.62722],[-122.39292,37.62914],[-122.3796,37.66517],[-122.35136,37.67068],[-122.31864,37.68],[-122.25021,37.7049],[-122.22407,37.71515],[-122.17297,37.76319],[-122.15223,37.78584],[-122.12132,37.81993],[-122.07863,37.86723],[-122.03822,37.91209],[-122.01224,37.94077],[-121.94512,38.01459],[-121.93457,38.02607],[-121.85433,38.11356],[-121.84439,38.12449],[-121.76508,38.21121],[-121.72546,38.25445],[-121.69191,38.29101],[-121.63346,38.35462],[-121.58825,38.4035],[-121.5179,38.46201],[-121.45142,38.50263]]}
}
