{
  "id": 2047979269,
  "type": "Feature",
  "properties": {
    "geom:area": 0,
    "geom:bbox": "-122.757000,37.381990,-122.072130,38.396780",
    "geom:latitude": 37.77388688393668,
    "geom:longitude": -122.4464955478022,
    "src:alt_label": "swim-approach",
    "src:geom": "swim",
    "swim:elevations": [
      7590,
      7251,
      7014,
      6699,
      6374,
      6136,
      5772,
      5410,
      5309,
      4954,
      4682,
      4239,
      3957,
      3828,
      3675,
      3487,
      3415,
      3353,
      3353,
      3353,
      3353,
      3353,
      3349,
      3195,
      3134,
      2820,
      2562,
      2445,
      2156,
      1930,
      1829,
      1803,
      1680,
      1518,
      1365,
      1189,
      1093,
      946,
      794,
      734,
      516,
      396,
      301,
      245,
      142
    ],
    "swim:geom": "approach",
    "swim:timestamps": [
      1786796445,
      1786796478,
      1786796500,
      1786796531,
      1786796564,
      1786796588,
      1786796626,
      1786796668,
      1786796679,
      1786796713,
      1786796740,
      1786796786,
      1786796813,
      1786796826,
      1786796866,
      1786796903,
      1786796938,
      1786796962,
      1786796998,
      1786797026,
      1786797047,
      1786797064,
      1786797107,
      1786797146,
      1786797155,
      1786797195,
      1786797227,
      1786797247,
      1786797286,
      1786797314,
      1786797352,
      1786797365,
      1786797394,
      1786797436,
      1786797469,
      1786797502,
      1786797528,
      1786797553,
      1786797588,
      1786797601,
      1786797652,
      1786797687,
      1786797706,
      1786797722,
      1786797751
    ],
    "wof:geomhash": "35ed7edeea7f6974dc0438d321f7700f",
    "wof:id": 2047979269,
    "wof:repo": "sfomuseum-data-flights-2026-08"
  },
  "bbox": [
    -122.757,
    37.38199,
    -122.07213,
    38.39678
  ],
  "geometry": {"type":"LineString","coordinates":[[-122.59058,38.39678],[-122.63722,38.35152],[-122.66922,38.32038],[-122.71288,38.27781],[-122.75304,38.2316],[-122.757,38.19087],[-122.73928,38.12762],[-122.71962,38.05947],[-122.71442,38.04169],[-122.69917,37.98872],[-122.68664,37.94513],[-122.65067,37.87849],[-122.6153,37.84494],[-122.59755,37.8281],[-122.54817,37.78133],[-122.50639,37.74196],[-122.47032,37.70767],[-122.44996,37.6859],[-122.41609,37.65456],[-122.38948,37.63145],[-122.37202,37.61259],[-122.36084,37.59517],[-122.33436,37.55222],[-122.31081,37.51367],[-122.30502,37.50416],[-122.28048,37.46401],[-122.26052,37.43129],[-122.24889,37.41214],[-122.20585,37.39206],[-122.1694,37.38667],[-122.11905,37.38199],[-122.10343,37.3878],[-122.0835,37.41572],[-122.07213,37.45876],[-122.09456,37.48606],[-122.12039,37.51061],[-122.14541,37.52201],[-122.17094,37.53286],[-122.2028,37.5464],[-122.21413,37.55113],[-122.2565,37.5689],[-122.28431,37.58072],[-122.30005,37.58729],[-122.31204,37.59224],[-122.33429,37.60162]]}
}
