{
  "id": 2047993629,
  "type": "Feature",
  "properties": {
    "date:cessation_lower": "2026-08-16",
    "date:cessation_upper": "2026-08-16",
    "date:inception_lower": "1970-01-01",
    "date:inception_upper": "1970-01-01",
    "edtf:cessation": "2026-08-16T07:15:32-07:00",
    "edtf:inception": "1970-01-01T00:00:00Z",
    "flysfo:actual_timestamp": -1,
    "flysfo:airline": "UA",
    "flysfo:base_airline": "",
    "flysfo:base_flight_number": "7205",
    "flysfo:date": "2026-08-16",
    "flysfo:estimated_timestamp": 1786915320,
    "flysfo:event": "A",
    "flysfo:flight_number": "UA889",
    "flysfo:gate": "G1",
    "flysfo:journey": "PEK-SFO",
    "flysfo:scheduled_timestamp": 1786915200,
    "flysfo:timestamp": 1786915320,
    "geom:area": 0,
    "geom:bbox": "0.000000,0.000000,116.586155,40.068469",
    "geom:latitude": 20.0342345,
    "geom:longitude": 58.2930775,
    "iata:airline": "UA",
    "iata:base_airline": "",
    "icao:aircraft": "B772",
    "icao:airline": "UAL",
    "icao:base_airline": "CCA",
    "lbl:latitude": 37.617321,
    "lbl:longitude": -122.389477,
    "sfomuseum:aircraft_id": 1159289985,
    "sfomuseum:airline_id": 1159285413,
    "sfomuseum:arrival_id": 102527513,
    "sfomuseum:base_flight_id": "20260816-A-CCA-7205",
    "sfomuseum:departure_id": 102550367,
    "sfomuseum:flight_id": "20260816-A-UAL-889",
    "sfomuseum:flight_number": [
      "UAL889",
      "UA889"
    ],
    "sfomuseum:placetype": "flight",
    "src:geom": "flysfo",
    "src:geom_alt": [
      "swim-approach"
    ],
    "swim:tail_number": "N209UA",
    "wof:belongsto": [
      1947304067,
      102527513,
      1947304129,
      102191575,
      85633793,
      102087579,
      85922583,
      554784711,
      85688637,
      1947304155,
      1947304069,
      102085387
    ],
    "wof:country": "US",
    "wof:created": 1786983430,
    "wof:geomhash": "5282a648843f6a3d8ed2a707a3c223e3",
    "wof:hierarchy": [
      {
        "building_id": 1947304067,
        "campus_id": 102527513,
        "concourse_id": 1947304129,
        "continent_id": 102191575,
        "country_id": 85633793,
        "county_id": 102087579,
        "custom_id": 2047993629,
        "flight_id": 2047993629,
        "locality_id": 85922583,
        "postalcode_id": 554784711,
        "region_id": 85688637,
        "venue_id": 1947304155,
        "wing_id": 1947304069
      },
      {
        "building_id": 1947304067,
        "campus_id": 102527513,
        "concourse_id": 1947304129,
        "continent_id": 102191575,
        "country_id": 85633793,
        "county_id": 102085387,
        "custom_id": 2047993629,
        "flight_id": 2047993629,
        "region_id": 85688637,
        "venue_id": 1947304155,
        "wing_id": 1947304069
      }
    ],
    "wof:id": 2047993629,
    "wof:involves": [
      1159289985,
      102527513,
      102550367,
      1159285413,
      1947304155,
      1159283605
    ],
    "wof:lastmodified": 1786984054,
    "wof:name": "UA889 (PEK-SFO)",
    "wof:parent_id": 1947304155,
    "wof:placetype": "custom",
    "wof:placetype_alt": [
      "flight"
    ],
    "wof:repo": "sfomuseum-data-flights-2026-08",
    "wof:superseded_by": [],
    "wof:supersedes": []
  },
  "bbox": [
    0,
    0,
    116.586155,
    40.068469
  ],
  "geometry": {"type":"MultiPoint","coordinates":[[116.586155,40.068469],[0,0]]}
}
