{
  "id": 2047929805,
  "type": "Feature",
  "properties": {
    "geom:area": 0,
    "geom:bbox": "-122.738056,38.450278,-121.658889,47.484444",
    "geom:latitude": 43.13547384349341,
    "geom:longitude": -122.20583538118017,
    "src:alt_label": "swim-path",
    "src:geom": "swim",
    "swim:altitudes": [
      "211",
      "229",
      "247",
      "276",
      "289",
      "303",
      "332",
      "340C",
      "340C",
      "340C",
      "340C",
      "340C",
      "340C",
      "340C",
      "340C",
      "340C",
      "340C",
      "340C",
      "340C",
      "340C",
      "340C",
      "340C",
      "340C",
      "340C",
      "340C",
      "340C",
      "340C",
      "340C",
      "340C",
      "340C",
      "340C",
      "340C",
      "340C",
      "340C",
      "340C",
      "340C",
      "340C",
      "340C",
      "340C",
      "340C",
      "340C",
      "340C",
      "340C",
      "340C",
      "340C",
      "340C",
      "340C",
      "340C",
      "340C",
      "340",
      "340",
      "340",
      "340",
      "339",
      "329",
      "312",
      "290",
      "270",
      "251",
      "228",
      "209",
      "190",
      "174",
      "160",
      "155",
      "136",
      "125",
      "122",
      "105",
      "100",
      "089",
      "087",
      "076",
      "075",
      "068",
      "059",
      "056",
      "047",
      "038",
      "036",
      "026",
      "019",
      "018",
      "011",
      "010",
      "003",
      "003"
    ],
    "swim:geom": "path",
    "swim:speeds": [
      400,
      421,
      432,
      456,
      467,
      470,
      473,
      473,
      475,
      475,
      476,
      474,
      475,
      478,
      480,
      481,
      482,
      484,
      486,
      482,
      480,
      478,
      478,
      479,
      478,
      478,
      478,
      478,
      478,
      476,
      470,
      465,
      465,
      467,
      465,
      464,
      463,
      461,
      462,
      464,
      464,
      463,
      462,
      455,
      442,
      438,
      436,
      434,
      434,
      436,
      435,
      434,
      433,
      433,
      438,
      440,
      443,
      430,
      417,
      407,
      394,
      382,
      369,
      355,
      356,
      339,
      327,
      331,
      330,
      293,
      276,
      279,
      259,
      264,
      215,
      199,
      200,
      193,
      193,
      194,
      181,
      153,
      154,
      148,
      151,
      150,
      132
    ],
    "swim:timestamps": [
      1786497971,
      1786498027,
      1786498087,
      1786498207,
      1786498267,
      1786498332,
      1786498447,
      1786498512,
      1786498567,
      1786498627,
      1786498692,
      1786498747,
      1786498807,
      1786498872,
      1786498928,
      1786498988,
      1786499048,
      1786499168,
      1786499228,
      1786499293,
      1786499348,
      1786499408,
      1786499473,
      1786499528,
      1786499588,
      1786499653,
      1786499708,
      1786499773,
      1786499833,
      1786499893,
      1786499953,
      1786500074,
      1786500134,
      1786500194,
      1786500254,
      1786500314,
      1786500374,
      1786500434,
      1786500494,
      1786500554,
      1786500614,
      1786500674,
      1786500734,
      1786500794,
      1786500854,
      1786500914,
      1786500975,
      1786501035,
      1786501095,
      1786501155,
      1786501215,
      1786501275,
      1786501335,
      1786501395,
      1786501455,
      1786501515,
      1786501575,
      1786501635,
      1786501695,
      1786501755,
      1786501815,
      1786501875,
      1786501936,
      1786501976,
      1786501996,
      1786502054,
      1786502103,
      1786502116,
      1786502176,
      1786502229,
      1786502289,
      1786502296,
      1786502349,
      1786502356,
      1786502410,
      1786502464,
      1786502476,
      1786502536,
      1786502584,
      1786502596,
      1786502656,
      1786502704,
      1786502716,
      1786502765,
      1786502776,
      1786502836,
      1786502896
    ],
    "wof:geomhash": "b6b18e97b217e7fe6768bc9280448280",
    "wof:id": 2047929805,
    "wof:repo": "sfomuseum-data-flights-2026-08"
  },
  "bbox": [
    -122.73805555555556,
    38.45027777777778,
    -121.6588888888889,
    47.48444444444444
  ],
  "geometry": {"type":"LineString","coordinates":[[-122.11666666666666,38.45027777777778],[-122.12833333333333,38.559999999999995],[-122.13666666666667,38.68138888888889],[-122.15416666666667,38.931666666666665],[-122.16277777777778,39.06305555555555],[-122.17,39.20027777777778],[-122.19111111111111,39.45861111111111],[-122.19944444444445,39.59388888888889],[-122.20944444444444,39.727222222222224],[-122.21861111111112,39.85888888888889],[-122.23,40.01361111111111],[-122.235,40.11833333333333],[-122.22500000000001,40.27027777777778],[-122.21583333333334,40.402499999999996],[-122.20666666666666,40.535555555555554],[-122.1975,40.66861111111111],[-122.18805555555556,40.80444444444444],[-122.16916666666667,41.07277777777778],[-122.16000000000001,41.20916666666667],[-122.15055555555556,41.34305555555556],[-122.14250000000001,41.45527777777778],[-122.13305555555554,41.58722222222222],[-122.12166666666666,41.746944444444445],[-122.11388888888888,41.85527777777778],[-122.10444444444444,41.988055555555555],[-122.09277777777777,42.152499999999996],[-122.085,42.26277777777778],[-122.07527777777777,42.39416666666666],[-122.06555555555555,42.52833333333333],[-122.05555555555556,42.659166666666664],[-122.04583333333333,42.78861111111111],[-122.02722222222222,43.04611111111111],[-122.01722222222222,43.176944444444445],[-122.00638888888889,43.32972222222222],[-122.02888888888889,43.45638888888889],[-122.0586111111111,43.58277777777778],[-122.08777777777777,43.71027777777778],[-122.11722222222221,43.83583333333333],[-122.09305555555555,43.95861111111111],[-121.98027777777779,44.05888888888889],[-121.86777777777777,44.1575],[-121.76916666666666,44.24333333333333],[-121.6588888888889,44.34527777777778],[-121.66833333333334,44.466944444444444],[-121.73722222222223,44.58166666666667],[-121.80472222222222,44.69138888888889],[-121.93583333333333,44.784166666666664],[-122.07638888888889,44.84861111111111],[-122.16722222222222,44.93472222222222],[-122.22611111111111,45.04805555555556],[-122.28444444444445,45.16111111111111],[-122.3425,45.27305555555555],[-122.40083333333334,45.385],[-122.45944444444444,45.4975],[-122.51944444444445,45.61138888888889],[-122.58027777777778,45.72638888888889],[-122.61555555555555,45.84638888888889],[-122.64527777777778,45.965],[-122.67333333333333,46.07833333333333],[-122.69972222222222,46.20611111111111],[-122.7213888888889,46.31583333333333],[-122.72611111111111,46.421388888888885],[-122.72944444444444,46.51638888888889],[-122.73388888888888,46.594166666666666],[-122.73277777777778,46.61611111111111],[-122.73805555555556,46.71944444444445],[-122.72805555555556,46.7925],[-122.71277777777777,46.806666666666665],[-122.62555555555555,46.875277777777775],[-122.54666666666667,46.93083333333333],[-122.46388888888889,46.987500000000004],[-122.45944444444444,46.99333333333333],[-122.40861111111111,47.05333333333333],[-122.40444444444445,47.058055555555555],[-122.36138888888888,47.11027777777778],[-122.33583333333333,47.157222222222224],[-122.33305555555555,47.16638888888889],[-122.32,47.218611111111116],[-122.31944444444444,47.26416666666667],[-122.31972222222223,47.2725],[-122.31916666666666,47.32222222222222],[-122.31916666666666,47.359722222222224],[-122.31861111111111,47.367222222222225],[-122.31888888888888,47.401944444444446],[-122.31833333333333,47.408055555555556],[-122.31805555555555,47.44888888888889],[-122.31805555555555,47.48444444444444]]}
}
