{
  "id": 2047902981,
  "type": "Feature",
  "properties": {
    "geom:area": 0,
    "geom:bbox": "-123.503530,37.025530,-122.391830,37.661700",
    "geom:latitude": 37.3771748538546,
    "geom:longitude": -122.95489006032484,
    "src:alt_label": "swim-takeoff",
    "src:geom": "swim",
    "swim:elevations": [
      183,
      337,
      393,
      922,
      953,
      1203,
      1312,
      1464,
      1899,
      2336,
      2435,
      2894,
      3052,
      3359,
      3416,
      3563,
      3782,
      4153,
      4347,
      4720,
      4778,
      5126,
      5174,
      5656,
      5913,
      6187,
      6248
    ],
    "swim:geom": "takeoff",
    "swim:timestamps": [
      1786278402,
      1786278422,
      1786278430,
      1786278478,
      1786278483,
      1786278525,
      1786278546,
      1786278574,
      1786278616,
      1786278655,
      1786278666,
      1786278712,
      1786278730,
      1786278774,
      1786278787,
      1786278816,
      1786278847,
      1786278891,
      1786278914,
      1786278954,
      1786278963,
      1786279016,
      1786279023,
      1786279088,
      1786279125,
      1786279165,
      1786279177
    ],
    "wof:geomhash": "228a67fda5d4c986d444979fa2d6a935",
    "wof:id": 2047902981,
    "wof:repo": "sfomuseum-data-flights-2026-08"
  },
  "bbox": [
    -123.50353,
    37.02553,
    -122.39183,
    37.6617
  ],
  "geometry": {"type":"LineString","coordinates":[[-122.39183,37.62556],[-122.41068,37.63346],[-122.41809,37.63666],[-122.46733,37.6592],[-122.47168,37.66108],[-122.52221,37.6617],[-122.54613,37.64746],[-122.57976,37.6261],[-122.63222,37.59154],[-122.68245,37.56033],[-122.69623,37.55134],[-122.75455,37.51349],[-122.77777,37.49842],[-122.83758,37.45925],[-122.85643,37.44727],[-122.89995,37.41954],[-122.94842,37.38812],[-123.01737,37.3435],[-123.0557,37.31868],[-123.12047,37.27646],[-123.13517,37.2669],[-123.22311,37.20963],[-123.23543,37.20156],[-123.34762,37.12798],[-123.41164,37.08603],[-123.482,37.03972],[-123.50353,37.02553]]}
}
