{
  "id": 2047911695,
  "type": "Feature",
  "properties": {
    "geom:area": 0,
    "geom:bbox": "-122.350278,35.585556,-73.381111,40.616667",
    "geom:latitude": 37.17781528989038,
    "geom:longitude": -96.95036230855119,
    "src:alt_label": "swim-path",
    "src:geom": "swim",
    "swim:altitudes": [
      "005",
      "028",
      "054",
      "082",
      "109",
      "123",
      "148",
      "171",
      "191",
      "211",
      "228",
      "230",
      "242",
      "259",
      "273",
      "287",
      "302",
      "316",
      "331",
      "345",
      "357",
      "360C",
      "360C",
      "360C",
      "360C",
      "360C",
      "360C",
      "360C",
      "360C",
      "360C",
      "360C",
      "360C",
      "360C",
      "360C",
      "360C",
      "360C",
      "360C",
      "360C",
      "360C",
      "360C",
      "360C",
      "360C",
      "360C",
      "360C",
      "360C",
      "360C",
      "360C",
      "360C",
      "360C",
      "360C",
      "360C",
      "360C",
      "360C",
      "360C",
      "360C",
      "360C",
      "360C",
      "360C",
      "360C",
      "360C",
      "360C",
      "360C",
      "360C",
      "360C",
      "360C",
      "360C",
      "360C",
      "360C",
      "360C",
      "360C",
      "360C",
      "360C",
      "360C",
      "360C",
      "360C",
      "360C",
      "360C",
      "360C",
      "360C",
      "360C",
      "360C",
      "360C",
      "360C",
      "360C",
      "360C",
      "360C",
      "360C",
      "360C",
      "360C",
      "360C",
      "360C",
      "360C",
      "360C",
      "360C",
      "360C",
      "360C",
      "360C",
      "360C",
      "360C",
      "360C",
      "360C",
      "360C",
      "360C",
      "360C",
      "360C",
      "360C",
      "360C",
      "360C",
      "360C",
      "360C",
      "360C",
      "360C",
      "360C",
      "360C",
      "360C",
      "360C",
      "360C",
      "360C",
      "360C",
      "360C",
      "360C",
      "360C",
      "360C",
      "360C",
      "360C",
      "360C",
      "360C",
      "360C",
      "360C",
      "360C",
      "360C",
      "360C",
      "360C",
      "360C",
      "360C",
      "360C",
      "360C",
      "360C",
      "360C",
      "360C",
      "360C",
      "360C",
      "360C",
      "360C",
      "360C",
      "360C",
      "360C",
      "360C",
      "360C",
      "360C",
      "360C",
      "360C",
      "360C",
      "360C",
      "360C",
      "360C",
      "360C",
      "360C",
      "360C",
      "360C",
      "360C",
      "360C",
      "360C",
      "360C",
      "360C",
      "360C",
      "360C",
      "360C",
      "360C",
      "360C",
      "360C",
      "360C",
      "360C",
      "360C",
      "360C",
      "360C",
      "360C",
      "360C",
      "360C",
      "360C",
      "360C",
      "360C",
      "360C",
      "360C",
      "360C",
      "360C",
      "360C",
      "360C",
      "360C",
      "360C",
      "360C",
      "360C",
      "360C",
      "360C",
      "360C",
      "360C",
      "360C",
      "360C",
      "360C",
      "360C",
      "360C",
      "360C",
      "360C",
      "360C",
      "360C",
      "360C",
      "360C",
      "360C",
      "360C",
      "360C",
      "360C",
      "360C",
      "360C",
      "360C",
      "360C",
      "360C",
      "360C",
      "360C",
      "360C",
      "360C",
      "360C",
      "360C",
      "360C",
      "360C",
      "360C",
      "360C",
      "360C",
      "360C",
      "360C",
      "360C",
      "360C",
      "360C",
      "360C",
      "360C",
      "360C",
      "360C",
      "360C",
      "360C",
      "360C",
      "360C",
      "360C",
      "360C",
      "360C",
      "360C",
      "360C",
      "360C",
      "360C",
      "360C",
      "360C",
      "360C",
      "360C",
      "360C",
      "360C",
      "360C",
      "360C",
      "360C",
      "360C",
      "360C",
      "360C",
      "360C",
      "360C",
      "360C",
      "360C",
      "360C",
      "360C",
      "360C",
      "360C",
      "360C",
      "360C",
      "360C",
      "360C",
      "360C",
      "360C",
      "360C",
      "360C",
      "360C",
      "360C",
      "360C",
      "360C",
      "360C",
      "360C",
      "360C",
      "360C",
      "360C",
      "360C",
      "360C",
      "360C",
      "360C",
      "360C",
      "360C",
      "360C",
      "360C",
      "360C",
      "360C",
      "360C",
      "360C",
      "360C",
      "360C",
      "360C",
      "360C",
      "360C",
      "360C",
      "360C",
      "360C",
      "360C",
      "360C",
      "360C",
      "360C",
      "360C",
      "360C",
      "360C",
      "360C",
      "360C",
      "360C",
      "360C",
      "360C",
      "360C",
      "360C",
      "360C",
      "360C",
      "360C",
      "360C",
      "360C",
      "360C",
      "360C",
      "360C",
      "360C",
      "360C",
      "360C",
      "360C",
      "360C",
      "360C",
      "360C",
      "360C",
      "360C",
      "360C",
      "360C",
      "360C",
      "360C",
      "360C",
      "360",
      "360",
      "360",
      "360",
      "360",
      "360",
      "360",
      "360",
      "360",
      "360",
      "360",
      "360",
      "360",
      "360",
      "365",
      "368",
      "380C",
      "380C",
      "380C",
      "380C",
      "380C",
      "380C",
      "380C",
      "380C",
      "380C",
      "380C",
      "380C",
      "380C",
      "380C",
      "380C",
      "380C",
      "380C",
      "380C",
      "380C",
      "380C",
      "380C",
      "380C",
      "380C",
      "380C",
      "380C",
      "380C",
      "380C",
      "380C",
      "380C",
      "380C",
      "380C",
      "380C",
      "380C",
      "380C",
      "380C",
      "380C",
      "380C",
      "380C",
      "380C",
      "380C",
      "380C",
      "380C",
      "380C",
      "380C",
      "380C",
      "380C",
      "380C",
      "380C",
      "380C",
      "380C",
      "380C",
      "380C",
      "380C",
      "380C",
      "380C",
      "380C",
      "380C",
      "380C",
      "380C",
      "380C",
      "380C",
      "380C",
      "380C",
      "380C",
      "380C",
      "380C",
      "380C",
      "380C",
      "380C",
      "380C",
      "380C",
      "380C",
      "380C",
      "380C",
      "380C",
      "380C",
      "380C",
      "380C",
      "380C",
      "380C",
      "380C",
      "380C",
      "380C",
      "380C",
      "380C",
      "380C",
      "380C",
      "380C",
      "380C",
      "380C",
      "380C",
      "380C",
      "380C",
      "380C",
      "380C",
      "380C",
      "380C",
      "380C",
      "380C",
      "380C",
      "380C",
      "380C",
      "380C",
      "380C",
      "380C",
      "380C",
      "380C",
      "380C",
      "380C",
      "380C",
      "380C",
      "380C",
      "380C",
      "380C",
      "380C",
      "380C",
      "380C",
      "380C",
      "380C",
      "380C",
      "380C",
      "380C",
      "380C",
      "380C",
      "380C",
      "380C",
      "380C",
      "380C",
      "380C",
      "380C",
      "380C",
      "380C",
      "380C",
      "380C",
      "380C",
      "380C",
      "380C",
      "380C",
      "380C",
      "380C",
      "380C",
      "380C",
      "380C",
      "380C",
      "380C",
      "380",
      "379",
      "363",
      "351",
      "324",
      "314",
      "289",
      "287",
      "264",
      "245",
      "240",
      "227",
      "221",
      "208",
      "201",
      "187",
      "179",
      "164",
      "144",
      "137",
      "124",
      "113",
      "110",
      "104",
      "097",
      "091",
      "082",
      "079",
      "071",
      "070",
      "062",
      "049",
      "045",
      "038",
      "035",
      "027",
      "025",
      "016",
      "010",
      "002"
    ],
    "swim:geom": "path",
    "swim:speeds": [
      169,
      231,
      283,
      302,
      313,
      379,
      402,
      417,
      434,
      443,
      429,
      434,
      434,
      450,
      459,
      465,
      464,
      463,
      464,
      460,
      453,
      450,
      448,
      448,
      450,
      452,
      451,
      450,
      451,
      452,
      452,
      452,
      451,
      449,
      446,
      445,
      444,
      434,
      433,
      432,
      429,
      432,
      429,
      433,
      438,
      438,
      440,
      439,
      440,
      441,
      441,
      442,
      441,
      442,
      443,
      442,
      443,
      443,
      445,
      443,
      444,
      442,
      443,
      442,
      443,
      442,
      442,
      441,
      441,
      440,
      441,
      440,
      440,
      438,
      439,
      438,
      438,
      438,
      439,
      438,
      439,
      438,
      438,
      437,
      437,
      437,
      437,
      437,
      438,
      438,
      439,
      439,
      440,
      438,
      440,
      440,
      440,
      440,
      440,
      439,
      439,
      439,
      437,
      438,
      435,
      437,
      433,
      436,
      432,
      429,
      430,
      428,
      428,
      428,
      428,
      428,
      429,
      429,
      430,
      432,
      432,
      433,
      433,
      435,
      431,
      434,
      435,
      434,
      434,
      433,
      433,
      433,
      431,
      432,
      431,
      429,
      429,
      429,
      427,
      429,
      426,
      426,
      424,
      425,
      424,
      424,
      424,
      424,
      425,
      426,
      426,
      427,
      428,
      428,
      428,
      428,
      428,
      429,
      429,
      430,
      431,
      432,
      433,
      432,
      432,
      432,
      433,
      434,
      435,
      437,
      439,
      441,
      443,
      445,
      444,
      446,
      445,
      447,
      445,
      448,
      449,
      458,
      450,
      455,
      451,
      454,
      451,
      454,
      452,
      453,
      451,
      452,
      451,
      452,
      451,
      451,
      451,
      451,
      451,
      451,
      451,
      451,
      451,
      451,
      451,
      451,
      452,
      452,
      452,
      452,
      452,
      452,
      453,
      453,
      452,
      452,
      452,
      452,
      452,
      452,
      451,
      451,
      450,
      451,
      450,
      450,
      450,
      450,
      449,
      449,
      448,
      448,
      447,
      447,
      447,
      447,
      447,
      447,
      447,
      447,
      447,
      449,
      450,
      450,
      452,
      451,
      453,
      453,
      454,
      454,
      455,
      454,
      455,
      455,
      455,
      455,
      455,
      454,
      452,
      452,
      452,
      452,
      453,
      453,
      454,
      455,
      456,
      458,
      459,
      460,
      460,
      459,
      459,
      458,
      459,
      458,
      459,
      457,
      459,
      457,
      459,
      457,
      459,
      459,
      459,
      459,
      459,
      459,
      459,
      458,
      459,
      458,
      458,
      459,
      458,
      458,
      458,
      458,
      457,
      458,
      458,
      457,
      458,
      457,
      458,
      457,
      456,
      457,
      456,
      457,
      456,
      455,
      455,
      455,
      455,
      455,
      455,
      455,
      455,
      455,
      455,
      454,
      454,
      453,
      452,
      452,
      452,
      451,
      451,
      451,
      450,
      450,
      450,
      449,
      449,
      449,
      449,
      449,
      449,
      449,
      450,
      450,
      451,
      451,
      451,
      452,
      453,
      454,
      456,
      459,
      462,
      461,
      464,
      463,
      465,
      465,
      455,
      454,
      454,
      452,
      453,
      452,
      451,
      451,
      451,
      451,
      450,
      450,
      450,
      450,
      450,
      447,
      450,
      447,
      450,
      448,
      450,
      448,
      451,
      449,
      451,
      450,
      450,
      451,
      450,
      451,
      450,
      452,
      450,
      453,
      450,
      451,
      454,
      451,
      454,
      451,
      451,
      454,
      456,
      454,
      454,
      453,
      453,
      452,
      452,
      451,
      451,
      450,
      449,
      448,
      448,
      447,
      447,
      447,
      447,
      447,
      447,
      447,
      447,
      448,
      448,
      448,
      448,
      449,
      449,
      449,
      448,
      448,
      448,
      448,
      448,
      448,
      449,
      449,
      450,
      450,
      451,
      451,
      451,
      451,
      452,
      452,
      452,
      452,
      452,
      452,
      453,
      454,
      455,
      455,
      454,
      453,
      453,
      451,
      449,
      447,
      437,
      446,
      442,
      443,
      445,
      444,
      446,
      446,
      446,
      446,
      446,
      446,
      446,
      446,
      447,
      446,
      446,
      445,
      445,
      444,
      444,
      444,
      444,
      444,
      444,
      430,
      421,
      422,
      406,
      397,
      397,
      397,
      397,
      413,
      437,
      446,
      446,
      448,
      448,
      447,
      446,
      444,
      443,
      445,
      446,
      447,
      452,
      459,
      464,
      462,
      462,
      451,
      429,
      421,
      413,
      399,
      393,
      392,
      386,
      386,
      380,
      379,
      350,
      343,
      342,
      287,
      262,
      249,
      249,
      243,
      238,
      231,
      234,
      234,
      230,
      232,
      224,
      225,
      230,
      212,
      201,
      190,
      152,
      143
    ],
    "swim:timestamps": [
      1786396839,
      1786396916,
      1786396973,
      1786397036,
      1786397093,
      1786397153,
      1786397213,
      1786397274,
      1786397334,
      1786397394,
      1786397454,
      1786397514,
      1786397574,
      1786397634,
      1786397694,
      1786397754,
      1786397814,
      1786397874,
      1786397934,
      1786397995,
      1786398055,
      1786398115,
      1786398178,
      1786398238,
      1786398298,
      1786398359,
      1786398419,
      1786398479,
      1786398539,
      1786398599,
      1786398671,
      1786398731,
      1786398791,
      1786398851,
      1786398971,
      1786399032,
      1786399092,
      1786399272,
      1786399332,
      1786399392,
      1786399427,
      1786399452,
      1786399487,
      1786399512,
      1786399547,
      1786399572,
      1786399607,
      1786399632,
      1786399667,
      1786399728,
      1786399788,
      1786399825,
      1786399848,
      1786399885,
      1786399908,
      1786399945,
      1786399968,
      1786400005,
      1786400028,
      1786400065,
      1786400088,
      1786400125,
      1786400148,
      1786400185,
      1786400208,
      1786400245,
      1786400268,
      1786400306,
      1786400328,
      1786400378,
      1786400388,
      1786400438,
      1786400449,
      1786400498,
      1786400509,
      1786400558,
      1786400569,
      1786400618,
      1786400629,
      1786400678,
      1786400689,
      1786400738,
      1786400749,
      1786400798,
      1786400809,
      1786400858,
      1786400869,
      1786400919,
      1786400929,
      1786400979,
      1786400989,
      1786401039,
      1786401049,
      1786401095,
      1786401109,
      1786401159,
      1786401170,
      1786401219,
      1786401230,
      1786401275,
      1786401290,
      1786401335,
      1786401350,
      1786401395,
      1786401410,
      1786401455,
      1786401470,
      1786401515,
      1786401530,
      1786401575,
      1786401590,
      1786401650,
      1786401695,
      1786401710,
      1786401770,
      1786401813,
      1786401831,
      1786401873,
      1786401891,
      1786401951,
      1786401993,
      1786402011,
      1786402053,
      1786402071,
      1786402104,
      1786402113,
      1786402131,
      1786402165,
      1786402191,
      1786402225,
      1786402251,
      1786402285,
      1786402311,
      1786402345,
      1786402353,
      1786402371,
      1786402405,
      1786402413,
      1786402431,
      1786402465,
      1786402491,
      1786402525,
      1786402552,
      1786402594,
      1786402612,
      1786402645,
      1786402654,
      1786402729,
      1786402789,
      1786402849,
      1786402910,
      1786402972,
      1786403030,
      1786403090,
      1786403150,
      1786403210,
      1786403270,
      1786403330,
      1786403390,
      1786403450,
      1786403510,
      1786403570,
      1786403631,
      1786403691,
      1786403751,
      1786403811,
      1786403871,
      1786403931,
      1786403991,
      1786404051,
      1786404111,
      1786404171,
      1786404231,
      1786404291,
      1786404321,
      1786404351,
      1786404382,
      1786404412,
      1786404442,
      1786404472,
      1786404532,
      1786404562,
      1786404592,
      1786404622,
      1786404652,
      1786404682,
      1786404712,
      1786404742,
      1786404772,
      1786404802,
      1786404832,
      1786404862,
      1786404892,
      1786404922,
      1786404952,
      1786404982,
      1786405012,
      1786405042,
      1786405072,
      1786405102,
      1786405133,
      1786405163,
      1786405193,
      1786405223,
      1786405253,
      1786405283,
      1786405313,
      1786405343,
      1786405373,
      1786405403,
      1786405433,
      1786405463,
      1786405493,
      1786405553,
      1786405613,
      1786405643,
      1786405673,
      1786405703,
      1786405733,
      1786405763,
      1786405793,
      1786405824,
      1786405853,
      1786405884,
      1786405914,
      1786405944,
      1786405974,
      1786406004,
      1786406034,
      1786406064,
      1786406094,
      1786406124,
      1786406154,
      1786406184,
      1786406214,
      1786406244,
      1786406274,
      1786406305,
      1786406334,
      1786406365,
      1786406394,
      1786406425,
      1786406482,
      1786406514,
      1786406542,
      1786406574,
      1786406602,
      1786406635,
      1786406662,
      1786406695,
      1786406722,
      1786406755,
      1786406782,
      1786406815,
      1786406843,
      1786406875,
      1786406903,
      1786406963,
      1786407023,
      1786407083,
      1786407143,
      1786407203,
      1786407263,
      1786407323,
      1786407383,
      1786407443,
      1786407503,
      1786407564,
      1786407624,
      1786407684,
      1786407744,
      1786407804,
      1786407864,
      1786407924,
      1786407977,
      1786407984,
      1786408037,
      1786408044,
      1786408097,
      1786408104,
      1786408157,
      1786408164,
      1786408217,
      1786408277,
      1786408285,
      1786408337,
      1786408345,
      1786408405,
      1786408457,
      1786408525,
      1786408578,
      1786408645,
      1786408705,
      1786408747,
      1786408765,
      1786408807,
      1786408825,
      1786408867,
      1786408885,
      1786408927,
      1786408938,
      1786408946,
      1786408987,
      1786408998,
      1786409047,
      1786409058,
      1786409066,
      1786409119,
      1786409126,
      1786409168,
      1786409179,
      1786409186,
      1786409239,
      1786409246,
      1786409299,
      1786409306,
      1786409348,
      1786409359,
      1786409366,
      1786409408,
      1786409419,
      1786409426,
      1786409479,
      1786409486,
      1786409528,
      1786409539,
      1786409546,
      1786409588,
      1786409599,
      1786409606,
      1786409648,
      1786409659,
      1786409667,
      1786409708,
      1786409719,
      1786409727,
      1786409768,
      1786409780,
      1786409828,
      1786409840,
      1786409889,
      1786409949,
      1786410020,
      1786410080,
      1786410129,
      1786410140,
      1786410200,
      1786410260,
      1786410320,
      1786410381,
      1786410429,
      1786410441,
      1786410489,
      1786410501,
      1786410549,
      1786410561,
      1786410621,
      1786410670,
      1786410681,
      1786410730,
      1786410741,
      1786410801,
      1786410850,
      1786410861,
      1786410921,
      1786410981,
      1786411030,
      1786411042,
      1786411090,
      1786411102,
      1786411150,
      1786411182,
      1786411210,
      1786411242,
      1786411270,
      1786411303,
      1786411331,
      1786411363,
      1786411391,
      1786411423,
      1786411451,
      1786411483,
      1786411543,
      1786411571,
      1786411603,
      1786411631,
      1786411663,
      1786411691,
      1786411723,
      1786411751,
      1786411783,
      1786411843,
      1786411871,
      1786411903,
      1786411931,
      1786411963,
      1786412023,
      1786412052,
      1786412084,
      1786412112,
      1786412144,
      1786412172,
      1786412204,
      1786412232,
      1786412264,
      1786412292,
      1786412324,
      1786412352,
      1786412384,
      1786412412,
      1786412444,
      1786412472,
      1786412504,
      1786412532,
      1786412564,
      1786412592,
      1786412624,
      1786412652,
      1786412684,
      1786412744,
      1786412773,
      1786412805,
      1786412833,
      1786412865,
      1786412893,
      1786412925,
      1786412953,
      1786412985,
      1786413013,
      1786413045,
      1786413073,
      1786413105,
      1786413133,
      1786413165,
      1786413193,
      1786413225,
      1786413253,
      1786413285,
      1786413345,
      1786413405,
      1786413465,
      1786413525,
      1786413586,
      1786413646,
      1786413706,
      1786413766,
      1786413826,
      1786413886,
      1786413946,
      1786414006,
      1786414066,
      1786414126,
      1786414186,
      1786414246,
      1786414307,
      1786414367,
      1786414377,
      1786414427,
      1786414437,
      1786414497,
      1786414547,
      1786414557,
      1786414607,
      1786414617,
      1786414677,
      1786414727,
      1786414737,
      1786414787,
      1786414797,
      1786414847,
      1786414858,
      1786414907,
      1786414918,
      1786414967,
      1786414978,
      1786415027,
      1786415038,
      1786415088,
      1786415148,
      1786415158,
      1786415208,
      1786415278,
      1786415328,
      1786415338,
      1786415398,
      1786415448,
      1786415458,
      1786415508,
      1786415518,
      1786415568,
      1786415638,
      1786415688,
      1786415699,
      1786415759,
      1786415819,
      1786415879,
      1786415939,
      1786415999,
      1786416059,
      1786416119,
      1786416179,
      1786416239,
      1786416299,
      1786416359,
      1786416463,
      1786416479,
      1786416539,
      1786416554,
      1786416613,
      1786416660,
      1786416673,
      1786416720,
      1786416734,
      1786416780,
      1786416788,
      1786416840,
      1786416848,
      1786416900,
      1786416960,
      1786416968,
      1786417020,
      1786417080,
      1786417088,
      1786417148,
      1786417200,
      1786417260,
      1786417322,
      1786417388,
      1786417440,
      1786417448,
      1786417514,
      1786417561,
      1786417574,
      1786417621,
      1786417634,
      1786417681,
      1786417688,
      1786417749,
      1786417801,
      1786417861
    ],
    "wof:geomhash": "b79322b3630928b47959270a199f4416",
    "wof:id": 2047911695,
    "wof:repo": "sfomuseum-data-flights-2026-08"
  },
  "bbox": [
    -122.35027777777778,
    35.58555555555556,
    -73.38111111111111,
    40.61666666666667
  ],
  "geometry": {"type":"LineString","coordinates":[[-73.78333333333333,40.61666666666667],[-73.80666666666666,40.56722222222223],[-73.72,40.529444444444444],[-73.62166666666666,40.50694444444444],[-73.54472222222222,40.44361111111111],[-73.48666666666666,40.35305555555556],[-73.45972222222223,40.236666666666665],[-73.43138888888889,40.12972222222222],[-73.39833333333334,40.010555555555555],[-73.38111111111111,39.88638888888889],[-73.47333333333333,39.79666666666667],[-73.59472222222222,39.70861111111111],[-73.69500000000001,39.63916666666667],[-73.78611111111111,39.53777777777778],[-73.85499999999999,39.419444444444444],[-73.92916666666667,39.30361111111111],[-74.0363888888889,39.203611111111115],[-74.13972222222223,39.10472222222222],[-74.24416666666667,39.00222222222222],[-74.35055555555554,38.90555555555555],[-74.45611111111111,38.81222222222222],[-74.56194444444444,38.718333333333334],[-74.66722222222222,38.62361111111111],[-74.77305555555556,38.52833333333333],[-74.87722222222222,38.43444444444444],[-74.98222222222222,38.339444444444446],[-75.11611111111111,38.26027777777778],[-75.24361111111111,38.18944444444444],[-75.37249999999999,38.11333333333334],[-75.49888888888889,38.03944444444444],[-75.6563888888889,37.95444444444445],[-75.78833333333333,37.88166666666667],[-75.91944444444445,37.809444444444445],[-76.0425,37.74111111111111],[-76.30416666666666,37.59527777777778],[-76.43083333333334,37.52444444444444],[-76.55666666666666,37.45388888888889],[-76.95944444444444,37.277499999999996],[-77.10055555555554,37.23416666666667],[-77.24694444444445,37.189166666666665],[-77.31888888888888,37.16722222222222],[-77.35805555555555,37.15472222222222],[-77.4563888888889,37.12111111111111],[-77.49527777777777,37.102222222222224],[-77.58388888888888,37.05138888888889],[-77.61833333333333,37.030277777777776],[-77.70583333333333,36.97777777777778],[-77.76305555555555,36.94444444444444],[-77.82972222222222,36.904444444444444],[-77.9525,36.83083333333334],[-78.07444444444444,36.756388888888885],[-78.15722222222223,36.708333333333336],[-78.19694444444445,36.6825],[-78.25916666666667,36.64666666666667],[-78.31972222222223,36.608333333333334],[-78.38027777777778,36.57333333333334],[-78.44305555555556,36.53388888888889],[-78.50138888888888,36.49916666666667],[-78.565,36.46055555555556],[-78.6463888888889,36.41111111111111],[-78.69,36.38444444444444],[-78.76694444444445,36.33722222222222],[-78.81583333333333,36.30722222222222],[-78.8875,36.26305555555555],[-78.9375,36.23222222222223],[-79.00805555555556,36.18861111111111],[-79.05194444444444,36.16138888888889],[-79.1261111111111,36.11555555555556],[-79.17666666666668,36.08416666666667],[-79.24638888888889,36.04083333333333],[-79.29472222222222,36.01083333333333],[-79.38805555555557,35.9525],[-79.41083333333334,35.93805555555555],[-79.505,35.87722222222222],[-79.52888888888889,35.86194444444445],[-79.62166666666666,35.80277777777778],[-79.64555555555556,35.78777777777778],[-79.74083333333333,35.72694444444445],[-79.76416666666667,35.71222222222222],[-79.85111111111111,35.65861111111111],[-79.885,35.640277777777776],[-79.97805555555556,35.599444444444444],[-80.00888888888889,35.593611111111116],[-80.12777777777777,35.58555555555556],[-80.1286111111111,35.58555555555556],[-80.2761111111111,35.58861111111111],[-80.30583333333333,35.591944444444444],[-80.4225,35.60333333333333],[-80.45555555555556,35.606944444444444],[-80.57249999999999,35.620555555555555],[-80.60333333333332,35.62416666666667],[-80.72194444444445,35.6375],[-80.75111111111111,35.64194444444444],[-80.84888888888888,35.659166666666664],[-80.86749999999999,35.663888888888884],[-81.01194444444444,35.69416666666666],[-81.04166666666667,35.69972222222222],[-81.16111111111111,35.71944444444445],[-81.18472222222222,35.723055555555554],[-81.28805555555556,35.73888888888889],[-81.35555555555555,35.74916666666667],[-81.435,35.76111111111111],[-81.50055555555555,35.770833333333336],[-81.58083333333333,35.782777777777774],[-81.64527777777778,35.79277777777778],[-81.72694444444444,35.803888888888885],[-81.78972222222222,35.814166666666665],[-81.87194444444444,35.82611111111112],[-81.93388888888889,35.83555555555556],[-82.01444444444445,35.846944444444446],[-82.07833333333333,35.85666666666667],[-82.22166666666666,35.8775],[-82.30472222222222,35.88972222222222],[-82.36027777777777,35.8975],[-82.50583333333333,35.91833333333333],[-82.59305555555555,35.93083333333333],[-82.65194444444445,35.939166666666665],[-82.73722222222223,35.95111111111111],[-82.79666666666667,35.95944444444445],[-82.94500000000001,35.980000000000004],[-83.03055555555555,35.99194444444444],[-83.06194444444444,35.99611111111111],[-83.18,36.0125],[-83.24027777777778,36.02055555555555],[-83.30277777777778,36.02861111111111],[-83.32916666666667,36.0325],[-83.38611111111112,36.040277777777774],[-83.45083333333334,36.04666666666667],[-83.53444444444445,36.059999999999995],[-83.59555555555555,36.06805555555556],[-83.68444444444445,36.080000000000005],[-83.7425,36.086666666666666],[-83.82888888888888,36.098888888888894],[-83.88694444444445,36.10611111111111],[-83.91555555555556,36.11027777777778],[-83.9725,36.1175],[-84.03055555555555,36.124722222222225],[-84.06222222222222,36.12916666666667],[-84.11805555555554,36.13638888888889],[-84.17500000000001,36.14361111111111],[-84.26055555555556,36.154444444444444],[-84.31972222222223,36.161944444444444],[-84.40361111111112,36.1725],[-84.49055555555556,36.18333333333333],[-84.54722222222222,36.190555555555555],[-84.60527777777777,36.19777777777777],[-84.63388888888889,36.20138888888889],[-84.8086111111111,36.22277777777778],[-84.97694444444444,36.24305555555556],[-85.11972222222222,36.26027777777778],[-85.26527777777778,36.277499999999996],[-85.40916666666668,36.294444444444444],[-85.55611111111111,36.311388888888885],[-85.70138888888889,36.32833333333333],[-85.84583333333333,36.333333333333336],[-85.98972222222223,36.309444444444445],[-86.13416666666667,36.28611111111111],[-86.28027777777778,36.2625],[-86.42666666666668,36.239444444444445],[-86.57222222222222,36.2175],[-86.72055555555556,36.195277777777775],[-86.87027777777777,36.17333333333333],[-86.98861111111111,36.15611111111111],[-87.13944444444445,36.150277777777774],[-87.28611111111111,36.16694444444444],[-87.43444444444445,36.18388888888889],[-87.58166666666666,36.200833333333335],[-87.72888888888889,36.2175],[-87.87944444444443,36.23444444444444],[-88.0275,36.25083333333333],[-88.2025,36.269999999999996],[-88.35222222222221,36.28611111111111],[-88.50583333333333,36.302499999999995],[-88.65777777777778,36.31861111111112],[-88.71888888888888,36.324444444444445],[-88.81277777777777,36.334722222222226],[-88.87138888888889,36.34055555555556],[-88.96388888888889,36.35027777777778],[-89.02444444444444,36.35666666666667],[-89.11833333333333,36.36611111111111],[-89.27472222222222,36.38166666666667],[-89.33027777777778,36.38722222222222],[-89.41250000000001,36.39527777777778],[-89.49111111111111,36.403055555555554],[-89.56583333333333,36.41027777777778],[-89.6463888888889,36.418055555555554],[-89.72194444444445,36.42527777777777],[-89.80055555555555,36.43277777777777],[-89.87555555555555,36.44],[-89.93972222222223,36.44583333333333],[-90.03111111111112,36.45444444444445],[-90.09388888888888,36.46027777777778],[-90.1875,36.46888888888889],[-90.24805555555555,36.474444444444444],[-90.3411111111111,36.48277777777778],[-90.4038888888889,36.48833333333334],[-90.495,36.49666666666667],[-90.55638888888889,36.50194444444445],[-90.65083333333334,36.51027777777778],[-90.71361111111112,36.51583333333333],[-90.80666666666666,36.52388888888889],[-90.86888888888888,36.52916666666667],[-90.96111111111111,36.536944444444444],[-91.02194444444444,36.54222222222222],[-91.11555555555555,36.55],[-91.18055555555556,36.55555555555555],[-91.27361111111111,36.56333333333333],[-91.33472222222221,36.568333333333335],[-91.42694444444444,36.575833333333335],[-91.49,36.58083333333334],[-91.58444444444444,36.58833333333334],[-91.64805555555556,36.593333333333334],[-91.74138888888889,36.600833333333334],[-91.89611111111111,36.61277777777778],[-92.05277777777778,36.624722222222225],[-92.11527777777778,36.629444444444445],[-92.19722222222222,36.635555555555555],[-92.26916666666666,36.64083333333333],[-92.35305555555556,36.64694444444444],[-92.42833333333334,36.652499999999996],[-92.50472222222223,36.658055555555556],[-92.58166666666666,36.66361111111111],[-92.66166666666668,36.66916666666666],[-92.7375,36.67444444444444],[-92.81555555555555,36.68],[-92.8938888888889,36.68527777777778],[-92.96944444444445,36.690555555555555],[-93.04722222222222,36.69583333333333],[-93.12277777777777,36.700833333333335],[-93.215,36.70666666666667],[-93.2761111111111,36.71083333333333],[-93.36888888888888,36.71666666666667],[-93.45083333333334,36.721944444444446],[-93.5225,36.72666666666667],[-93.6036111111111,36.73166666666667],[-93.67777777777778,36.73638888888889],[-93.75972222222222,36.74138888888889],[-93.83083333333333,36.74583333333334],[-93.88861111111112,36.74916666666667],[-93.985,36.755],[-94.04527777777777,36.75833333333333],[-94.13944444444445,36.763888888888886],[-94.29416666666667,36.772777777777776],[-94.35527777777777,36.77611111111111],[-94.45194444444445,36.781666666666666],[-94.54166666666667,36.78638888888889],[-94.60916666666667,36.790277777777774],[-94.70138888888889,36.794999999999995],[-94.76611111111112,36.79861111111111],[-94.85833333333333,36.80333333333333],[-94.92111111111112,36.80638888888888],[-95.01361111111112,36.81111111111111],[-95.07916666666667,36.81444444444444],[-95.1725,36.81916666666667],[-95.23583333333333,36.82194444444445],[-95.33,36.82694444444445],[-95.39416666666668,36.82972222222222],[-95.54944444444445,36.83694444444445],[-95.7038888888889,36.844166666666666],[-95.86222222222221,36.850833333333334],[-96.01722222222222,36.8575],[-96.17944444444444,36.86416666666667],[-96.33583333333333,36.870555555555555],[-96.49222222222222,36.87638888888889],[-96.65111111111112,36.8825],[-96.80833333333334,36.88805555555555],[-96.96666666666667,36.89333333333333],[-97.12833333333333,36.89888888888889],[-97.28833333333333,36.90416666666667],[-97.4475,36.90888888888889],[-97.60638888888889,36.91361111111111],[-97.76666666666667,36.918055555555554],[-97.92666666666668,36.92222222222222],[-98.08472222222221,36.92611111111111],[-98.22638888888889,36.92916666666667],[-98.24444444444444,36.93],[-98.35249999999999,36.93111111111111],[-98.40416666666667,36.933611111111105],[-98.5425,36.93722222222222],[-98.54333333333334,36.936388888888885],[-98.70138888888889,36.94],[-98.70138888888889,36.939722222222215],[-98.85972222222222,36.94277777777778],[-99.01861111111111,36.94555555555555],[-99.02083333333333,36.945277777777775],[-99.17916666666667,36.948055555555555],[-99.18138888888889,36.94777777777777],[-99.33805555555556,36.95],[-99.49777777777778,36.95194444444445],[-99.655,36.95388888888889],[-99.81222222222222,36.955555555555556],[-99.97222222222223,36.956944444444446],[-100.13027777777778,36.958333333333336],[-100.25777777777778,36.95805555555556],[-100.28888888888889,36.95916666666667],[-100.41527777777779,36.959722222222226],[-100.44888888888889,36.96],[-100.57555555555555,36.96027777777778],[-100.60722222222222,36.96055555555556],[-100.73472222222222,36.95944444444445],[-100.76861111111111,36.96083333333333],[-100.7675,36.961111111111116],[-100.89500000000001,36.959722222222226],[-100.89750000000001,36.961111111111116],[-101.05416666666666,36.96027777777778],[-101.05555555555556,36.961111111111116],[-101.08444444444444,36.96083333333333],[-101.21472222222222,36.96083333333333],[-101.24444444444444,36.96055555555556],[-101.37249999999999,36.96027777777778],[-101.37249999999999,36.96027777777778],[-101.40194444444445,36.96027777777778],[-101.52972222222222,36.959722222222226],[-101.5586111111111,36.959722222222226],[-101.6888888888889,36.95888888888889],[-101.7175,36.95861111111111],[-101.84583333333333,36.95777777777778],[-101.84694444444445,36.95777777777778],[-101.87638888888888,36.95777777777778],[-102.00416666666666,36.95666666666667],[-102.00416666666666,36.95666666666667],[-102.03416666666666,36.95638888888889],[-102.16194444444444,36.955000000000005],[-102.18916666666667,36.95472222222222],[-102.31722222222221,36.953611111111115],[-102.31722222222221,36.953611111111115],[-102.34638888888888,36.95333333333333],[-102.47444444444444,36.95166666666667],[-102.47444444444444,36.95166666666667],[-102.50055555555555,36.95138888888889],[-102.60972222222222,36.95],[-102.63972222222223,36.94944444444444],[-102.65611111111112,36.94916666666666],[-102.76527777777778,36.94777777777777],[-102.7961111111111,36.947222222222216],[-102.81361111111111,36.94694444444444],[-102.91888888888889,36.945277777777775],[-102.95138888888889,36.94472222222222],[-103.07694444444444,36.94277777777778],[-103.10805555555555,36.94222222222222],[-103.23138888888889,36.939722222222215],[-103.3888888888889,36.93694444444444],[-103.57805555555555,36.93277777777777],[-103.73583333333333,36.92944444444444],[-103.8625,36.92638888888889],[-103.8938888888889,36.925555555555555],[-104.05111111111111,36.92166666666667],[-104.21111111111111,36.9175],[-104.37055555555555,36.91305555555555],[-104.53083333333333,36.90833333333333],[-104.65916666666668,36.904444444444444],[-104.67750000000001,36.903888888888886],[-104.82166666666666,36.89944444444444],[-104.8411111111111,36.89861111111111],[-104.98833333333333,36.89388888888889],[-105.01472222222222,36.893055555555556],[-105.17500000000001,36.89888888888889],[-105.295,36.920833333333334],[-105.32527777777777,36.92638888888889],[-105.44861111111112,36.94944444444444],[-105.4775,36.955000000000005],[-105.63805555555557,36.985],[-105.7611111111111,37.0075],[-105.78388888888888,37.01166666666666],[-105.93833333333333,37.04],[-106.0911111111111,37.06722222222223],[-106.20666666666666,37.088055555555556],[-106.23611111111111,37.093333333333334],[-106.35916666666667,37.11527777777778],[-106.38694444444445,37.12027777777778],[-106.51277777777777,37.1425],[-106.59916666666666,37.156666666666666],[-106.665,37.169444444444444],[-106.75277777777778,37.18333333333333],[-106.81666666666666,37.19583333333333],[-106.90555555555557,37.21],[-106.96888888888888,37.221944444444446],[-107.05944444444444,37.23527777777778],[-107.12388888888889,37.24861111111111],[-107.215,37.261944444444445],[-107.27694444444444,37.27472222222222],[-107.36694444444444,37.288888888888884],[-107.52166666666666,37.31444444444444],[-107.5825,37.32611111111112],[-107.67555555555556,37.339444444444446],[-107.73611111111111,37.35138888888889],[-107.83027777777778,37.36555555555556],[-107.89027777777778,37.376666666666665],[-107.98583333333333,37.39138888888889],[-108.04694444444445,37.40222222222222],[-108.14111111111112,37.41583333333333],[-108.29722222222222,37.441111111111105],[-108.35499999999999,37.45194444444445],[-108.45277777777778,37.46638888888889],[-108.51,37.47638888888889],[-108.60944444444443,37.49138888888889],[-108.76027777777777,37.51555555555556],[-108.82166666666666,37.525277777777774],[-108.91666666666667,37.54],[-108.97666666666667,37.549166666666665],[-109.0736111111111,37.564166666666665],[-109.13083333333333,37.57277777777778],[-109.22833333333334,37.58777777777778],[-109.285,37.596111111111114],[-109.38416666666667,37.611111111111114],[-109.44027777777778,37.61944444444445],[-109.53777777777778,37.634166666666665],[-109.59166666666667,37.64222222222222],[-109.6913888888889,37.65694444444444],[-109.7775,37.669444444444444],[-109.84722222222221,37.67972222222222],[-109.93083333333334,37.69166666666666],[-109.99888888888889,37.70166666666667],[-110.08361111111111,37.71388888888889],[-110.15527777777778,37.72416666666667],[-110.23916666666666,37.736111111111114],[-110.30944444444444,37.74611111111111],[-110.39250000000001,37.757777777777775],[-110.4625,37.76777777777777],[-110.61861111111111,37.78972222222222],[-110.70027777777779,37.80083333333333],[-110.75694444444444,37.808611111111105],[-110.85722222222222,37.822500000000005],[-110.91166666666668,37.82972222222222],[-111.00944444444444,37.84305555555556],[-111.06805555555555,37.85111111111111],[-111.16722222222222,37.86416666666667],[-111.22277777777778,37.87166666666667],[-111.32,37.88472222222222],[-111.37694444444443,37.89222222222222],[-111.47777777777777,37.90555555555555],[-111.5625,37.916666666666664],[-111.63333333333334,37.92583333333333],[-111.71777777777778,37.93666666666666],[-111.78861111111111,37.94583333333333],[-111.87388888888889,37.95666666666667],[-111.94638888888889,37.96611111111111],[-112.03166666666667,37.97666666666667],[-112.18722222222223,37.99638888888889],[-112.34416666666667,38.01583333333333],[-112.49833333333333,38.03472222222222],[-112.6563888888889,38.053888888888885],[-112.81138888888889,38.072500000000005],[-112.96777777777778,38.09111111111111],[-113.12388888888889,38.10944444444445],[-113.28027777777778,38.1275],[-113.4375,38.14555555555555],[-113.59666666666666,38.16361111111111],[-113.75416666666666,38.18111111111111],[-113.915,38.19888888888889],[-114.07277777777777,38.215833333333336],[-114.23,38.23277777777778],[-114.38694444444445,38.2475],[-114.54583333333333,38.24166666666667],[-114.70305555555557,38.23166666666667],[-114.85916666666667,38.221944444444446],[-114.88777777777779,38.220555555555556],[-115.01277777777777,38.21222222222222],[-115.0436111111111,38.21055555555556],[-115.20138888888889,38.200833333333335],[-115.32555555555555,38.19194444444444],[-115.35722222222222,38.19],[-115.48138888888889,38.18138888888889],[-115.51472222222222,38.180277777777775],[-115.6713888888889,38.16888888888889],[-115.79472222222222,38.15972222222222],[-115.83833333333332,38.156666666666666],[-115.95138888888889,38.14833333333333],[-115.98611111111111,38.14611111111111],[-116.10944444444443,38.136944444444445],[-116.14222222222223,38.13472222222222],[-116.265,38.12555555555556],[-116.29722222222222,38.12305555555555],[-116.4225,38.11361111111111],[-116.45444444444445,38.111111111111114],[-116.57694444444444,38.10166666666667],[-116.60888888888888,38.09916666666667],[-116.73361111111112,38.089444444444446],[-116.88833333333334,38.077222222222225],[-116.92333333333333,38.074444444444445],[-117.0461111111111,38.06472222222222],[-117.2363888888889,38.04888888888889],[-117.35694444444444,38.03861111111111],[-117.35805555555555,38.03861111111111],[-117.50194444444445,38.01972222222222],[-117.60555555555555,37.95166666666667],[-117.60638888888889,37.95111111111111],[-117.70583333333333,37.87361111111111],[-117.70666666666666,37.87305555555555],[-117.83305555555555,37.82472222222223],[-117.98583333333333,37.81916666666667],[-118.14305555555556,37.81472222222222],[-118.14444444444445,37.81472222222222],[-118.30083333333333,37.80972222222222],[-118.46000000000001,37.80416666666667],[-118.61527777777778,37.79861111111111],[-118.7725,37.79277777777778],[-118.94972222222222,37.78361111111111],[-119.1061111111111,37.775277777777774],[-119.26138888888889,37.76694444444444],[-119.41972222222223,37.75833333333333],[-119.57527777777777,37.74944444444444],[-119.73527777777778,37.74027777777778],[-119.89666666666668,37.730555555555554],[-120.16666666666667,37.71666666666667],[-120.22027777777778,37.711111111111116],[-120.38444444444445,37.7],[-120.41666666666667,37.7],[-120.56666666666666,37.68333333333333],[-120.68166666666667,37.666666666666664],[-120.71666666666667,37.666666666666664],[-120.81916666666666,37.650277777777774],[-120.85,37.65],[-120.92888888888889,37.636944444444445],[-120.96666666666667,37.63333333333333],[-121.06027777777777,37.62],[-121.1,37.61666666666667],[-121.19166666666668,37.602222222222224],[-121.31527777777778,37.58638888888889],[-121.35,37.583333333333336],[-121.43416666666667,37.573055555555555],[-121.53972222222222,37.56055555555555],[-121.56666666666666,37.55],[-121.65,37.56666666666667],[-121.70944444444444,37.5825],[-121.79138888888889,37.59305555555556],[-121.8,37.516666666666666],[-121.83333333333333,37.45],[-121.89444444444445,37.46138888888889],[-121.91666666666667,37.46666666666667],[-122.01666666666667,37.46666666666667],[-122.06527777777778,37.49027777777778],[-122.08333333333333,37.5],[-122.135,37.519999999999996],[-122.15,37.53333333333333],[-122.20277777777778,37.54861111111111],[-122.21666666666667,37.55],[-122.26666666666667,37.583333333333336],[-122.30499999999999,37.59166666666667],[-122.35027777777778,37.61055555555556]]}
}
