{
  "id": 2032114987,
  "type": "Feature",
  "properties": {
    "geom:area": 0,
    "geom:bbox": "-122.316389,37.255278,-122.071944,37.596389",
    "geom:latitude": 37.45179536154761,
    "geom:longitude": -122.1669450892017,
    "src:alt_label": "swim-path",
    "src:geom": "swim",
    "swim:altitudes": [
      "094",
      "064",
      "049",
      "038",
      "026",
      "008"
    ],
    "swim:geom": "path",
    "swim:speeds": [
      265,
      245,
      245,
      219,
      195,
      157
    ],
    "swim:timestamps": [
      1785977031,
      1785977147,
      1785977207,
      1785977271,
      1785977331,
      1785977451
    ],
    "wof:geomhash": "82611f78a242e85d9c2fa31653519043",
    "wof:id": 2032114987,
    "wof:repo": "sfomuseum-data-flights-2026-08"
  },
  "bbox": [
    -122.31638888888888,
    37.25527777777778,
    -122.07194444444444,
    37.59638888888889
  ],
  "geometry": {"type":"LineString","coordinates":[[-122.07194444444444,37.25527777777778],[-122.13333333333334,37.4],[-122.15,37.46666666666667],[-122.16666666666667,37.51694444444444],[-122.2125,37.55277777777778],[-122.31638888888888,37.59638888888889]]}
}
