{
  "id": 2032135779,
  "type": "Feature",
  "properties": {
    "geom:area": 0,
    "geom:bbox": "-158.100000,21.233333,-122.427222,37.666944",
    "geom:latitude": 30.212875053077546,
    "geom:longitude": -140.74714647234794,
    "src:alt_label": "swim-path",
    "src:geom": "swim",
    "swim:altitudes": [
      "018",
      "035",
      "046",
      "069",
      "093",
      "107",
      "121",
      "146",
      "168",
      "188",
      "204",
      "223",
      "238",
      "256",
      "269",
      "282",
      "297",
      "312",
      "324",
      "341",
      "360C",
      "360C",
      "360C",
      "360C",
      "360C",
      "360C",
      "360C",
      "360C",
      "360C",
      "360C",
      "360C",
      "360C",
      "360C",
      "380",
      "380",
      "380",
      "380",
      "380",
      "380",
      "380",
      "380",
      "380",
      "380",
      "380",
      "380",
      "380",
      "380",
      "380",
      "380",
      "380",
      "380",
      "380",
      "380T",
      "380T",
      "380T",
      "380T",
      "380T",
      "380T",
      "380T",
      "372T",
      "346T",
      "325T",
      "304T",
      "284T",
      "263T",
      "243T",
      "223T",
      "202T",
      "182T",
      "162T",
      "144T",
      "127T",
      "113T",
      "101T",
      "096T",
      "085T",
      "080T",
      "080T",
      "058T",
      "046T",
      "033T",
      "027T",
      "016T",
      "007T",
      "003"
    ],
    "swim:geom": "path",
    "swim:speeds": [
      177,
      198,
      262,
      271,
      273,
      310,
      354,
      359,
      370,
      388,
      408,
      419,
      428,
      436,
      439,
      451,
      458,
      464,
      470,
      469,
      460,
      459,
      460,
      461,
      461,
      461,
      460,
      460,
      459,
      459,
      458,
      458,
      458,
      440,
      440,
      440,
      440,
      440,
      440,
      440,
      440,
      440,
      440,
      440,
      440,
      440,
      440,
      440,
      430,
      430,
      440,
      440,
      440,
      440,
      440,
      440,
      440,
      440,
      440,
      430,
      420,
      410,
      400,
      390,
      390,
      390,
      380,
      370,
      370,
      360,
      360,
      340,
      340,
      330,
      290,
      280,
      270,
      260,
      250,
      250,
      240,
      210,
      170,
      140,
      140
    ],
    "swim:timestamps": [
      1786051234,
      1786051294,
      1786051354,
      1786051414,
      1786051474,
      1786051534,
      1786051594,
      1786051654,
      1786051715,
      1786051775,
      1786051835,
      1786051895,
      1786051955,
      1786052015,
      1786052075,
      1786052135,
      1786052195,
      1786052279,
      1786052339,
      1786052400,
      1786052520,
      1786052580,
      1786052640,
      1786052700,
      1786052760,
      1786052820,
      1786052880,
      1786052940,
      1786053000,
      1786053060,
      1786053121,
      1786053181,
      1786053241,
      1786065324,
      1786065381,
      1786065441,
      1786065502,
      1786065562,
      1786065622,
      1786065682,
      1786065742,
      1786065802,
      1786065862,
      1786065923,
      1786065983,
      1786066043,
      1786066103,
      1786066163,
      1786066223,
      1786066284,
      1786066343,
      1786066404,
      1786066464,
      1786066524,
      1786066585,
      1786066645,
      1786066705,
      1786066765,
      1786066825,
      1786066885,
      1786066945,
      1786067006,
      1786067066,
      1786067126,
      1786067186,
      1786067246,
      1786067306,
      1786067367,
      1786067426,
      1786067487,
      1786067547,
      1786067607,
      1786067667,
      1786067727,
      1786067787,
      1786067848,
      1786067908,
      1786067968,
      1786068088,
      1786068148,
      1786068209,
      1786068269,
      1786068329,
      1786068389,
      1786068424
    ],
    "wof:geomhash": "5d829112d8c6cb47c844e56eb3290899",
    "wof:id": 2032135779,
    "wof:repo": "sfomuseum-data-flights-2026-08"
  },
  "bbox": [
    -158.1,
    21.233333333333334,
    -122.42722222222223,
    37.66694444444444
  ],
  "geometry": {"type":"LineString","coordinates":[[-122.42722222222223,37.64083333333333],[-122.48777777777778,37.66694444444444],[-122.56861111111111,37.65833333333333],[-122.66027777777778,37.63388888888889],[-122.7525,37.61027777777778],[-122.85194444444444,37.58444444444444],[-122.9675,37.55361111111111],[-123.08749999999999,37.52305555555555],[-123.20916666666668,37.49166666666667],[-123.34472222222222,37.486111111111114],[-123.48694444444445,37.480000000000004],[-123.6325,37.50138888888889],[-123.77805555555555,37.524166666666666],[-123.93083333333334,37.54416666666666],[-124.075,37.50861111111111],[-124.21944444444445,37.45777777777778],[-124.36694444444444,37.40555555555555],[-124.54555555555555,37.342222222222226],[-124.7238888888889,37.27861111111111],[-124.8736111111111,37.224722222222226],[-125.16361111111112,37.11972222222222],[-125.30916666666667,37.06722222222223],[-125.45611111111111,37.01361111111111],[-125.60166666666666,36.96055555555556],[-125.7461111111111,36.9075],[-125.8913888888889,36.85388888888889],[-126.0363888888889,36.80027777777777],[-126.18111111111112,36.74611111111111],[-126.32305555555556,36.69305555555555],[-126.46666666666667,36.63916666666667],[-126.60499999999999,36.58694444444445],[-126.75305555555556,36.530833333333334],[-126.89944444444446,36.4825],[-153.85,24.566666666666666],[-153.95,24.5],[-154.06666666666666,24.433333333333334],[-154.18333333333334,24.366666666666667],[-154.28333333333333,24.3],[-154.4,24.233333333333334],[-154.5,24.15],[-154.6,24.066666666666666],[-154.68333333333334,23.983333333333334],[-154.78333333333333,23.9],[-154.88333333333333,23.8],[-154.98333333333332,23.716666666666665],[-155.06666666666666,23.633333333333333],[-155.16666666666666,23.55],[-155.26666666666668,23.466666666666665],[-155.35,23.383333333333333],[-155.45,23.3],[-155.55,23.216666666666665],[-155.63333333333333,23.133333333333333],[-155.73333333333332,23.033333333333335],[-155.83333333333334,22.95],[-155.91666666666666,22.866666666666667],[-156.01666666666668,22.783333333333335],[-156.11666666666667,22.7],[-156.2,22.616666666666667],[-156.3,22.533333333333335],[-156.38333333333333,22.45],[-156.48333333333332,22.366666666666667],[-156.56666666666666,22.283333333333335],[-156.65,22.2],[-156.73333333333332,22.116666666666667],[-156.81666666666666,22.05],[-156.9,21.966666666666665],[-156.98333333333332,21.9],[-157.06666666666666,21.816666666666666],[-157.15,21.75],[-157.21666666666667,21.666666666666668],[-157.3,21.6],[-157.36666666666667,21.533333333333335],[-157.45,21.483333333333334],[-157.53333333333333,21.433333333333334],[-157.61666666666667,21.383333333333333],[-157.68333333333334,21.35],[-157.76666666666668,21.316666666666666],[-157.83333333333334,21.283333333333335],[-157.98333333333332,21.25],[-158.05,21.233333333333334],[-158.1,21.266666666666666],[-158.06666666666666,21.316666666666666],[-158.01666666666668,21.316666666666666],[-157.96666666666667,21.316666666666666],[-157.95,21.316666666666666]]}
}
