{
  "id": 2032077579,
  "type": "Feature",
  "properties": {
    "geom:area": 0,
    "geom:bbox": "-122.393056,29.947500,-87.833333,43.971389",
    "geom:latitude": 40.662117447961855,
    "geom:longitude": -101.25645518438445,
    "src:alt_label": "swim-path",
    "src:geom": "swim",
    "swim:altitudes": [
      "009",
      "030",
      "051",
      "072",
      "091",
      "107",
      "114",
      "131",
      "148",
      "164",
      "177",
      "193",
      "214",
      "226",
      "236",
      "245",
      "247",
      "253",
      "255",
      "262",
      "264",
      "269",
      "271",
      "275",
      "282",
      "283",
      "290",
      "292",
      "298",
      "301",
      "306",
      "310",
      "317",
      "324",
      "325",
      "330C",
      "330C",
      "330C",
      "330C",
      "330C",
      "330C",
      "331C",
      "330C",
      "331C",
      "330C",
      "330C",
      "330C",
      "330C",
      "330C",
      "330C",
      "330C",
      "330C",
      "330C",
      "330C",
      "330C",
      "330C",
      "330C",
      "330C",
      "330C",
      "330C",
      "330C",
      "330C",
      "330C",
      "330C",
      "330C",
      "330C",
      "330C",
      "330C",
      "330C",
      "330C",
      "330C",
      "330C",
      "330C",
      "330C",
      "330C",
      "330C",
      "330C",
      "330C",
      "330C",
      "330C",
      "330C",
      "330C",
      "330C",
      "330C",
      "330C",
      "330C",
      "330C",
      "330C",
      "330C",
      "330C",
      "330C",
      "330C",
      "330C",
      "330C",
      "330C",
      "330C",
      "330C",
      "330C",
      "330C",
      "330C",
      "330C",
      "330C",
      "329C",
      "330C",
      "331C",
      "331C",
      "330C",
      "330C",
      "330C",
      "330C",
      "330C",
      "330C",
      "330C",
      "330C",
      "330C",
      "330C",
      "330C",
      "330C",
      "330C",
      "330C",
      "330C",
      "331C",
      "331C",
      "330C",
      "330C",
      "330C",
      "330C",
      "330C",
      "330C",
      "330C",
      "330C",
      "330C",
      "330C",
      "330C",
      "330C",
      "330C",
      "331C",
      "330C",
      "330C",
      "330C",
      "330C",
      "331C",
      "330C",
      "330C",
      "330C",
      "330C",
      "330C",
      "330C",
      "330C",
      "330C",
      "330C",
      "330C",
      "330C",
      "330C",
      "330C",
      "330C",
      "330C",
      "330C",
      "330C",
      "330C",
      "331C",
      "330C",
      "330C",
      "330C",
      "330C",
      "330C",
      "330C",
      "330C",
      "330C",
      "330C",
      "330C",
      "330C",
      "330C",
      "330C",
      "330C",
      "330C",
      "330C",
      "330C",
      "330C",
      "330C",
      "330C",
      "330C",
      "330C",
      "330C",
      "330C",
      "330C",
      "330C",
      "330C",
      "330C",
      "330C",
      "330C",
      "330C",
      "330C",
      "330C",
      "330C",
      "330C",
      "330C",
      "330C",
      "330C",
      "330C",
      "330C",
      "330C",
      "330C",
      "330C",
      "330C",
      "330C",
      "330C",
      "330C",
      "330C",
      "331C",
      "331C",
      "330C",
      "330C",
      "330C",
      "330C",
      "330C",
      "330C",
      "330C",
      "330C",
      "330C",
      "330C",
      "330C",
      "328",
      "323",
      "317",
      "302",
      "295",
      "291",
      "275",
      "255",
      "233",
      "212",
      "200",
      "182",
      "165",
      "149",
      "134",
      "130",
      "117",
      "112",
      "107",
      "103",
      "095",
      "091",
      "084",
      "081",
      "079",
      "074",
      "069",
      "062",
      "053",
      "047",
      "041",
      "040",
      "040",
      "040",
      "040",
      "040",
      "037",
      "032",
      "028",
      "024",
      "020",
      "016",
      "012",
      "008",
      "008",
      "011",
      "027",
      "050",
      "059",
      "070",
      "089",
      "096",
      "116",
      "123",
      "139",
      "144",
      "153",
      "172",
      "190",
      "209",
      "223",
      "241",
      "268",
      "283",
      "292",
      "293",
      "306",
      "307",
      "321",
      "321",
      "336",
      "340C",
      "340C",
      "340C",
      "340C",
      "340C",
      "340C",
      "340C",
      "340C",
      "340C",
      "340C",
      "340C",
      "340C",
      "340C",
      "340C",
      "340C",
      "340C",
      "340C",
      "340C",
      "340C",
      "340C",
      "340C",
      "340C",
      "340C",
      "340C",
      "340C",
      "340C",
      "340C",
      "340C",
      "340C",
      "340C",
      "340C",
      "340C",
      "340C",
      "340C",
      "340C",
      "340C",
      "340C",
      "340C",
      "340C",
      "340C",
      "340C",
      "340C",
      "340C",
      "340C",
      "340C",
      "340C",
      "340C",
      "340C",
      "340C",
      "340C",
      "340C",
      "340C",
      "340C",
      "340C",
      "340C",
      "340",
      "340",
      "340",
      "333",
      "331",
      "323",
      "321C",
      "320C",
      "320C",
      "320C",
      "320C",
      "320C",
      "320C",
      "320C",
      "320C",
      "320C",
      "320",
      "316",
      "312",
      "303",
      "297",
      "293",
      "286",
      "282C",
      "280C",
      "280C",
      "280C",
      "280",
      "276",
      "266",
      "260",
      "246",
      "239",
      "224",
      "218",
      "204",
      "200",
      "186",
      "162",
      "150",
      "128",
      "112",
      "110",
      "091",
      "080",
      "066",
      "063",
      "051",
      "037",
      "035",
      "030",
      "030",
      "030",
      "022",
      "015",
      "014",
      "009",
      "001"
    ],
    "swim:geom": "path",
    "swim:speeds": [
      153,
      171,
      265,
      280,
      301,
      317,
      367,
      381,
      388,
      395,
      407,
      410,
      434,
      443,
      450,
      456,
      456,
      463,
      460,
      471,
      464,
      476,
      477,
      484,
      490,
      493,
      495,
      496,
      496,
      496,
      496,
      496,
      496,
      495,
      496,
      496,
      496,
      504,
      511,
      506,
      509,
      508,
      511,
      512,
      511,
      512,
      511,
      511,
      510,
      510,
      510,
      509,
      509,
      509,
      509,
      509,
      509,
      509,
      509,
      510,
      510,
      510,
      509,
      508,
      507,
      506,
      506,
      506,
      507,
      507,
      508,
      510,
      510,
      510,
      508,
      504,
      503,
      504,
      504,
      506,
      508,
      509,
      510,
      510,
      511,
      511,
      510,
      509,
      508,
      506,
      505,
      505,
      504,
      504,
      505,
      505,
      505,
      504,
      503,
      501,
      500,
      498,
      499,
      500,
      504,
      500,
      501,
      500,
      500,
      500,
      500,
      500,
      500,
      498,
      498,
      497,
      495,
      495,
      495,
      495,
      495,
      496,
      496,
      497,
      496,
      495,
      495,
      496,
      496,
      497,
      497,
      498,
      498,
      502,
      498,
      498,
      498,
      491,
      492,
      488,
      487,
      487,
      486,
      484,
      482,
      481,
      482,
      484,
      484,
      484,
      484,
      484,
      486,
      487,
      488,
      488,
      487,
      485,
      481,
      479,
      478,
      474,
      473,
      474,
      475,
      476,
      477,
      477,
      473,
      471,
      469,
      468,
      466,
      465,
      464,
      463,
      461,
      461,
      462,
      463,
      465,
      466,
      468,
      468,
      469,
      468,
      469,
      468,
      470,
      469,
      470,
      469,
      470,
      469,
      470,
      471,
      471,
      471,
      470,
      470,
      469,
      469,
      469,
      469,
      468,
      468,
      468,
      469,
      469,
      469,
      469,
      469,
      468,
      467,
      467,
      467,
      476,
      477,
      477,
      478,
      479,
      479,
      479,
      479,
      479,
      482,
      481,
      476,
      465,
      452,
      423,
      409,
      374,
      365,
      367,
      358,
      338,
      342,
      331,
      327,
      307,
      301,
      294,
      296,
      288,
      292,
      269,
      264,
      257,
      258,
      250,
      252,
      236,
      221,
      212,
      207,
      209,
      166,
      169,
      162,
      165,
      164,
      163,
      137,
      140,
      142,
      140,
      184,
      201,
      261,
      295,
      296,
      313,
      311,
      325,
      321,
      330,
      339,
      331,
      415,
      431,
      440,
      446,
      454,
      483,
      484,
      490,
      490,
      494,
      493,
      487,
      488,
      477,
      471,
      470,
      469,
      466,
      462,
      458,
      458,
      458,
      456,
      456,
      456,
      455,
      454,
      456,
      455,
      456,
      456,
      456,
      456,
      456,
      456,
      456,
      456,
      457,
      457,
      458,
      457,
      457,
      457,
      460,
      460,
      460,
      460,
      460,
      460,
      460,
      460,
      460,
      460,
      460,
      460,
      460,
      458,
      456,
      448,
      444,
      437,
      434,
      430,
      425,
      422,
      420,
      418,
      418,
      418,
      418,
      417,
      415,
      408,
      409,
      428,
      423,
      435,
      446,
      436,
      443,
      434,
      431,
      432,
      428,
      429,
      427,
      427,
      427,
      432,
      445,
      447,
      444,
      444,
      441,
      442,
      440,
      441,
      439,
      439,
      440,
      437,
      431,
      424,
      421,
      417,
      417,
      409,
      400,
      376,
      369,
      330,
      302,
      297,
      295,
      289,
      293,
      290,
      276,
      280,
      273,
      201,
      205,
      166,
      138,
      142,
      147,
      145
    ],
    "swim:timestamps": [
      1785657918,
      1785657978,
      1785658098,
      1785658158,
      1785658218,
      1785658278,
      1785658338,
      1785658398,
      1785658458,
      1785658518,
      1785658578,
      1785658638,
      1785658758,
      1785658818,
      1785658878,
      1785658938,
      1785658958,
      1785658998,
      1785659018,
      1785659058,
      1785659078,
      1785659118,
      1785659138,
      1785659178,
      1785659239,
      1785659258,
      1785659299,
      1785659318,
      1785659359,
      1785659378,
      1785659419,
      1785659438,
      1785659498,
      1785659539,
      1785659558,
      1785659599,
      1785659618,
      1785659659,
      1785659678,
      1785659719,
      1785659739,
      1785659779,
      1785659799,
      1785659859,
      1785659899,
      1785659919,
      1785659959,
      1785659979,
      1785660019,
      1785660039,
      1785660099,
      1785660199,
      1785660219,
      1785660319,
      1785660339,
      1785660379,
      1785660439,
      1785660459,
      1785660499,
      1785660519,
      1785660619,
      1785660639,
      1785660699,
      1785660759,
      1785660819,
      1785660879,
      1785660939,
      1785660999,
      1785661059,
      1785661119,
      1785661179,
      1785661239,
      1785661299,
      1785661359,
      1785661419,
      1785661539,
      1785661599,
      1785661659,
      1785661719,
      1785661779,
      1785661839,
      1785661900,
      1785661960,
      1785662020,
      1785662080,
      1785662140,
      1785662200,
      1785662260,
      1785662320,
      1785662380,
      1785662440,
      1785662500,
      1785662620,
      1785662680,
      1785662740,
      1785662800,
      1785662860,
      1785662920,
      1785662980,
      1785663040,
      1785663100,
      1785663160,
      1785663220,
      1785663280,
      1785663334,
      1785663340,
      1785663394,
      1785663454,
      1785663460,
      1785663514,
      1785663580,
      1785663640,
      1785663700,
      1785663754,
      1785663760,
      1785663814,
      1785663874,
      1785663934,
      1785663940,
      1785663994,
      1785664060,
      1785664114,
      1785664120,
      1785664174,
      1785664240,
      1785664294,
      1785664300,
      1785664354,
      1785664360,
      1785664414,
      1785664420,
      1785664474,
      1785664480,
      1785664540,
      1785664594,
      1785664660,
      1785664720,
      1785664774,
      1785664780,
      1785664834,
      1785664894,
      1785664954,
      1785665014,
      1785665074,
      1785665135,
      1785665195,
      1785665255,
      1785665315,
      1785665435,
      1785665555,
      1785665615,
      1785665675,
      1785665735,
      1785665800,
      1785665855,
      1785665915,
      1785665980,
      1785666040,
      1785666160,
      1785666280,
      1785666340,
      1785666460,
      1785666520,
      1785666580,
      1785666640,
      1785666700,
      1785666760,
      1785666820,
      1785666880,
      1785666940,
      1785667000,
      1785667060,
      1785667120,
      1785667180,
      1785667240,
      1785667300,
      1785667360,
      1785667480,
      1785667541,
      1785667601,
      1785667661,
      1785667721,
      1785667781,
      1785667841,
      1785667901,
      1785667931,
      1785667961,
      1785667991,
      1785668021,
      1785668051,
      1785668081,
      1785668111,
      1785668141,
      1785668171,
      1785668231,
      1785668261,
      1785668321,
      1785668381,
      1785668410,
      1785668441,
      1785668471,
      1785668501,
      1785668531,
      1785668561,
      1785668621,
      1785668651,
      1785668681,
      1785668711,
      1785668741,
      1785668772,
      1785668801,
      1785668832,
      1785668890,
      1785668921,
      1785668950,
      1785668981,
      1785669070,
      1785669101,
      1785669131,
      1785669191,
      1785669251,
      1785669282,
      1785669342,
      1785669372,
      1785669402,
      1785669493,
      1785669522,
      1785669553,
      1785669613,
      1785669673,
      1785669733,
      1785669793,
      1785669853,
      1785669913,
      1785669973,
      1785670000,
      1785670066,
      1785670093,
      1785670121,
      1785670154,
      1785670181,
      1785670214,
      1785670246,
      1785670274,
      1785670301,
      1785670334,
      1785670361,
      1785670394,
      1785670421,
      1785670454,
      1785670481,
      1785670514,
      1785670541,
      1785670574,
      1785670634,
      1785670661,
      1785670755,
      1785670787,
      1785670815,
      1785670847,
      1785670875,
      1785670901,
      1785670935,
      1785670961,
      1785670995,
      1785671027,
      1785671055,
      1785685933,
      1785685970,
      1785686049,
      1785686084,
      1785686109,
      1785686150,
      1785686170,
      1785686210,
      1785686230,
      1785686264,
      1785686290,
      1785686345,
      1785686410,
      1785686470,
      1785686530,
      1785686585,
      1785686645,
      1785686771,
      1785686831,
      1785686885,
      1785686891,
      1785686945,
      1785686951,
      1785687005,
      1785687011,
      1785687066,
      1785687126,
      1785687186,
      1785687251,
      1785687318,
      1785687372,
      1785687384,
      1785687432,
      1785687438,
      1785687444,
      1785687492,
      1785687504,
      1785687552,
      1785687564,
      1785687612,
      1785687624,
      1785687630,
      1785687672,
      1785687690,
      1785687811,
      1785687871,
      1785687931,
      1785687991,
      1785688051,
      1785688111,
      1785688171,
      1785688231,
      1785688291,
      1785688412,
      1785688466,
      1785688586,
      1785688646,
      1785688706,
      1785688766,
      1785688826,
      1785688886,
      1785688946,
      1785689006,
      1785689066,
      1785689126,
      1785689186,
      1785689247,
      1785689307,
      1785689367,
      1785689427,
      1785689487,
      1785689547,
      1785689607,
      1785689667,
      1785689727,
      1785689847,
      1785689907,
      1785689968,
      1785690028,
      1785690088,
      1785690148,
      1785690208,
      1785690268,
      1785690290,
      1785690328,
      1785690350,
      1785690388,
      1785690410,
      1785690448,
      1785690470,
      1785690508,
      1785690531,
      1785690568,
      1785690591,
      1785690628,
      1785690651,
      1785690689,
      1785690711,
      1785690749,
      1785690771,
      1785690831,
      1785690869,
      1785690891,
      1785690929,
      1785690951,
      1785690989,
      1785691011,
      1785691049,
      1785691072,
      1785691109,
      1785691169,
      1785691192,
      1785691229,
      1785691252,
      1785691289,
      1785691312,
      1785691349,
      1785691372,
      1785691432,
      1785691492,
      1785691561,
      1785691612,
      1785691682,
      1785691718,
      1785691853,
      1785691898,
      1785691958,
      1785691973,
      1785692018,
      1785692084,
      1785692093,
      1785692153,
      1785692204,
      1785692213,
      1785692265,
      1785692385,
      1785692394,
      1785692433,
      1785692514
    ],
    "wof:geomhash": "417ffb64053866d6d3119c55de986abc",
    "wof:id": 2032077579,
    "wof:repo": "sfomuseum-data-flights-2026-08"
  },
  "bbox": [
    -122.39305555555556,
    29.9475,
    -87.83333333333333,
    43.97138888888889
  ],
  "geometry": {"coordinates":[[-122.39305555555556,37.62638888888889],[-122.38166666666666,37.66777777777777],[-122.35388888888889,37.77861111111111],[-122.38611111111112,37.85111111111111],[-122.37944444444443,37.93388888888889],[-122.29972222222221,37.99194444444444],[-122.20166666666667,38.05166666666666],[-122.09444444444443,38.117222222222225],[-121.98555555555555,38.18333333333333],[-121.87472222222222,38.250277777777775],[-121.7625,38.31777777777778],[-121.64583333333334,38.38777777777778],[-121.40527777777778,38.53361111111111],[-121.27305555555556,38.61416666666667],[-121.14277777777778,38.69305555555555],[-121.01472222222222,38.77055555555555],[-120.97472222222223,38.79416666666666],[-120.88222222222221,38.85027777777778],[-120.84055555555555,38.87166666666667],[-120.74916666666667,38.92972222222222],[-120.70722222222223,38.95055555555556],[-120.61277777777777,39.01111111111111],[-120.57083333333333,39.03361111111111],[-120.47555555555556,39.09277777777778],[-120.33333333333333,39.176944444444445],[-120.29194444444444,39.2],[-120.19194444444445,39.26027777777778],[-120.14944444444446,39.28388888888889],[-120.06277777777777,39.33583333333333],[-120.00722222222223,39.367222222222225],[-119.92055555555557,39.41888888888889],[-119.86472222222221,39.45],[-119.75083333333333,39.51611111111111],[-119.63555555555556,39.58444444444444],[-119.60916666666667,39.599444444444444],[-119.49222222222222,39.66694444444444],[-119.46472222222222,39.6825],[-119.34527777777777,39.75111111111111],[-119.2863888888889,39.78472222222222],[-119.19638888888889,39.836111111111116],[-119.1388888888889,39.86888888888889],[-119.04472222222222,39.91916666666666],[-118.98361111111112,39.94972222222222],[-118.85805555555555,40.00861111111111],[-118.72277777777778,40.06638888888889],[-118.69444444444444,40.078611111111115],[-118.56166666666667,40.13472222222222],[-118.50027777777778,40.16083333333333],[-118.39888888888889,40.203611111111115],[-118.34027777777777,40.22833333333333],[-118.17666666666668,40.29694444444444],[-117.91611111111112,40.409444444444446],[-117.885,40.42194444444444],[-117.57527777777777,40.52194444444444],[-117.5425,40.532222222222224],[-117.40194444444445,40.57638888888889],[-117.23083333333334,40.63],[-117.19888888888889,40.64],[-117.05472222222222,40.684999999999995],[-117.02361111111111,40.69472222222222],[-116.74138888888889,40.78138888888889],[-116.67166666666667,40.80277777777778],[-116.49916666666667,40.855555555555554],[-116.32694444444444,40.9075],[-116.15305555555557,40.96],[-115.97944444444444,41.011944444444445],[-115.80722222222222,41.06305555555555],[-115.63166666666666,41.11472222222223],[-115.4588888888889,41.16555555555556],[-115.28527777777778,41.215833333333336],[-115.1086111111111,41.26694444444444],[-114.93277777777779,41.31722222222223],[-114.74555555555555,41.37083333333334],[-114.57055555555556,41.42027777777778],[-114.39416666666668,41.47],[-114.04638888888888,41.56666666666667],[-113.87222222222222,41.61472222222223],[-113.69611111111111,41.66277777777778],[-113.52,41.71055555555556],[-113.34277777777777,41.75861111111111],[-113.16277777777778,41.806666666666665],[-112.98222222222222,41.85472222222222],[-112.80416666666666,41.901666666666664],[-112.62277777777777,41.94888888888889],[-112.44361111111111,41.995555555555555],[-112.26166666666667,42.0425],[-112.08027777777778,42.08888888888889],[-111.90138888888889,42.13444444444444],[-111.72027777777778,42.18],[-111.5425,42.224444444444444],[-111.36388888888888,42.26888888888889],[-111.18277777777779,42.31333333333333],[-110.84055555555555,42.39666666666667],[-110.66083333333334,42.44],[-110.47916666666667,42.48361111111111],[-110.29638888888888,42.526666666666664],[-110.11666666666666,42.56916666666667],[-109.93694444444445,42.61083333333333],[-109.75472222222223,42.653055555555554],[-109.57638888888889,42.69416666666666],[-109.39527777777778,42.73527777777778],[-109.21666666666667,42.775555555555556],[-109.035,42.81638888888889],[-108.85138888888888,42.85722222222223],[-108.68611111111112,42.894999999999996],[-108.67055555555557,42.89666666666667],[-108.52666666666667,42.92861111111111],[-108.34527777777777,42.9675],[-108.32638888888889,42.97166666666667],[-108.16222222222223,43.00694444444444],[-107.9625,43.049166666666665],[-107.78138888888888,43.087500000000006],[-107.6,43.12555555555556],[-107.42055555555557,43.1625],[-107.42055555555557,43.1625],[-107.24027777777778,43.19972222222222],[-107.05833333333334,43.236666666666665],[-106.88083333333333,43.2725],[-106.86861111111111,43.275],[-106.68777777777778,43.311388888888885],[-106.50333333333333,43.34777777777778],[-106.32194444444444,43.38361111111111],[-106.32194444444444,43.38333333333333],[-106.13944444444445,43.41888888888889],[-105.95416666666667,43.45472222222222],[-105.77194444444444,43.489444444444445],[-105.77194444444444,43.489444444444445],[-105.58777777777777,43.524166666666666],[-105.58777777777777,43.524166666666666],[-105.40361111111112,43.558611111111105],[-105.40361111111112,43.558611111111105],[-105.21833333333333,43.59305555555556],[-105.21777777777778,43.59305555555556],[-105.02972222222222,43.62833333333333],[-104.84916666666666,43.660555555555554],[-104.66027777777778,43.693888888888885],[-104.47611111111111,43.72694444444445],[-104.2961111111111,43.75888888888889],[-104.29277777777777,43.75805555555556],[-104.11611111111111,43.79055555555556],[-103.93305555555555,43.82222222222222],[-103.74861111111112,43.853611111111114],[-103.56833333333333,43.884166666666665],[-103.38861111111112,43.91444444444444],[-103.20666666666666,43.94444444444444],[-103.02666666666667,43.969722222222224],[-102.83833333333332,43.97138888888889],[-102.65833333333335,43.96666666666667],[-102.2875,43.95583333333334],[-101.91527777777779,43.94361111111111],[-101.73055555555555,43.93694444444444],[-101.54194444444444,43.93],[-101.35583333333332,43.922777777777775],[-101.16972222222223,43.915277777777774],[-100.9825,43.9075],[-100.79666666666667,43.89944444444444],[-100.60805555555555,43.89083333333333],[-100.4238888888889,43.882222222222225],[-100.05916666666667,43.86416666666667],[-99.69611111111111,43.845],[-99.51194444444444,43.835],[-99.15305555555557,43.81444444444444],[-98.97361111111111,43.80361111111111],[-98.78972222222222,43.7925],[-98.58444444444444,43.779444444444444],[-98.40305555555557,43.76777777777777],[-98.22166666666666,43.75555555555555],[-98.03833333333333,43.74305555555556],[-97.85833333333333,43.73083333333334],[-97.68166666666667,43.71805555555556],[-97.5038888888889,43.70527777777778],[-97.32666666666667,43.69194444444444],[-97.15027777777779,43.67861111111111],[-96.97333333333333,43.664722222222224],[-96.7975,43.65083333333333],[-96.625,43.638888888888886],[-96.45111111111112,43.626666666666665],[-96.10333333333332,43.60166666666667],[-95.92777777777778,43.58861111111111],[-95.75194444444445,43.57527777777778],[-95.57277777777777,43.561388888888885],[-95.39555555555556,43.5475],[-95.21805555555555,43.533055555555556],[-95.03861111111111,43.51833333333333],[-94.86166666666666,43.50333333333333],[-94.79777777777778,43.495],[-94.68388888888889,43.48833333333334],[-94.61944444444444,43.478611111111114],[-94.50611111111111,43.47277777777778],[-94.44111111111111,43.465],[-94.32694444444444,43.456944444444446],[-94.26194444444444,43.44972222222222],[-94.15472222222223,43.44138888888889],[-94.04888888888888,43.431666666666665],[-93.87138888888889,43.415277777777774],[-93.80027777777778,43.40861111111111],[-93.61999999999999,43.39138888888889],[-93.44388888888889,43.37416666666667],[-93.33805555555556,43.36388888888889],[-93.26722222222222,43.356944444444444],[-93.16166666666668,43.34638888888889],[-93.0886111111111,43.33916666666667],[-92.98527777777778,43.328611111111115],[-92.91333333333334,43.32138888888889],[-92.735,43.30305555555555],[-92.6325,43.29222222222222],[-92.55944444444444,43.28472222222222],[-92.4525,43.27333333333333],[-92.38388888888889,43.26583333333333],[-92.2775,43.254444444444445],[-92.20527777777778,43.24666666666667],[-92.09972222222221,43.235],[-91.92194444444445,43.21555555555556],[-91.85194444444444,43.20777777777778],[-91.74861111111112,43.19555555555555],[-91.67750000000001,43.183055555555555],[-91.44194444444445,43.11083333333333],[-91.33999999999999,43.07555555555556],[-91.27638888888889,43.05361111111111],[-91.11,42.995555555555555],[-90.94361111111111,42.9375],[-90.84583333333333,42.903055555555554],[-90.68083333333334,42.844722222222224],[-90.61638888888888,42.82194444444445],[-90.51694444444445,42.78666666666666],[-90.28944444444444,42.70527777777778],[-90.19055555555556,42.669444444444444],[-90.12694444444443,42.646388888888886],[-89.97194444444445,42.59],[-89.82249999999999,42.53527777777778],[-89.66583333333334,42.50555555555555],[-89.51472222222222,42.486666666666665],[-89.3736111111111,42.469166666666666],[-89.24,42.45277777777778],[-89.10305555555556,42.43583333333333],[-89.01666666666667,42.416666666666664],[-88.86666666666666,42.4],[-88.84555555555555,42.40333333333333],[-88.76666666666667,42.4],[-88.69805555555556,42.384166666666665],[-88.65,42.38333333333333],[-88.58611111111111,42.36972222222222],[-88.53333333333333,42.35],[-88.48805555555556,42.33555555555556],[-88.45,42.31666666666667],[-88.41333333333334,42.285],[-88.41666666666667,42.25],[-88.42416666666666,42.211666666666666],[-88.43333333333334,42.166666666666664],[-88.43944444444445,42.14055555555556],[-88.45,42.1],[-88.4563888888889,42.072500000000005],[-88.46666666666667,42.03333333333333],[-88.43138888888889,42.01888888888889],[-88.35527777777777,42.00222222222222],[-88.31666666666666,42],[-88.20055555555555,42.0025],[-88.16666666666667,42],[-88.13666666666667,42.0025],[-88.1,42],[-88.07638888888889,42.00277777777778],[-88.05,42],[-88.01527777777778,42.0025],[-87.98333333333333,42],[-87.96388888888889,42.00277777777778],[-87.93333333333334,42],[-87.91416666666667,42.00277777777778],[-87.88333333333334,41.96666666666667],[-87.83333333333333,41.95],[-87.86583333333333,41.87888888888889],[-87.88333333333334,41.833333333333336],[-87.89750000000001,41.80138888888889],[-87.91666666666667,41.733333333333334],[-87.92527777777778,41.71805555555556],[-87.95,41.65],[-87.95472222222223,41.63166666666667],[-87.96666666666667,41.583333333333336],[-87.98472222222222,41.54277777777778],[-88.01694444444445,41.46472222222223],[-88.05583333333333,41.33111111111111],[-88.09444444444443,41.212500000000006],[-88.12833333333333,41.093611111111116],[-88.15833333333335,40.98777777777778],[-88.19333333333334,40.865833333333335],[-88.26138888888889,40.586666666666666],[-88.29388888888889,40.45305555555556],[-88.32222222222222,40.336111111111116],[-88.3261111111111,40.32027777777778],[-88.35527777777777,40.19916666666666],[-88.3586111111111,40.18555555555555],[-88.3875,40.066111111111105],[-88.38694444444445,40.068333333333335],[-88.41861111111112,39.93555555555555],[-88.44972222222222,39.806666666666665],[-88.48,39.67916666666667],[-88.51027777777777,39.55],[-88.54277777777777,39.41166666666666],[-88.56944444444444,39.2975],[-88.58388888888888,39.25],[-88.59861111111111,39.17333333333333],[-88.60111111111111,39.16277777777778],[-88.61083333333333,39.125277777777775],[-88.62777777777777,39.04972222222222],[-88.64194444444445,39.00138888888889],[-88.65666666666667,38.92388888888889],[-88.67055555555557,38.87638888888889],[-88.69,38.780277777777776],[-88.70027777777779,38.75083333333333],[-88.69444444444444,38.76111111111111],[-88.71777777777778,38.660555555555554],[-88.7238888888889,38.63444444444444],[-88.78111111111112,38.38444444444444],[-88.80916666666667,38.26027777777778],[-88.83805555555556,38.134166666666665],[-88.86638888888888,38.00833333333333],[-88.89472222222223,37.884166666666665],[-88.92500000000001,37.748333333333335],[-88.95361111111112,37.62111111111111],[-88.98138888888889,37.49611111111111],[-89.00916666666667,37.37138888888889],[-89.06472222222222,37.12],[-89.08666666666666,37.019999999999996],[-89.14277777777778,36.764722222222225],[-89.17,36.63944444444444],[-89.19805555555556,36.51083333333333],[-89.22666666666667,36.37916666666667],[-89.25444444444445,36.250277777777775],[-89.28166666666667,36.1225],[-89.30888888888889,35.99666666666667],[-89.33611111111111,35.86944444444445],[-89.36305555555555,35.74305555555556],[-89.38861111111112,35.621944444444445],[-89.41555555555556,35.49527777777778],[-89.44194444444445,35.36972222222222],[-89.46861111111112,35.24333333333333],[-89.49527777777777,35.11611111111111],[-89.5213888888889,34.99138888888889],[-89.54722222222222,34.867222222222225],[-89.57305555555556,34.742222222222225],[-89.59805555555555,34.62166666666667],[-89.62277777777777,34.50194444444445],[-89.64694444444446,34.385555555555555],[-89.69500000000001,34.15083333333333],[-89.71833333333333,34.03666666666666],[-89.74194444444444,33.921388888888885],[-89.765,33.806666666666665],[-89.78472222222221,33.70944444444445],[-89.8125,33.57333333333334],[-89.83583333333333,33.45666666666667],[-89.8586111111111,33.34277777777778],[-89.86388888888888,33.32194444444445],[-89.88083333333333,33.23277777777778],[-89.88666666666667,33.211111111111116],[-89.90444444444445,33.11611111111111],[-89.91027777777778,33.094722222222224],[-89.92722222222223,32.99861111111111],[-89.93694444444445,32.95722222222223],[-89.95027777777779,32.88333333333333],[-89.96111111111111,32.83527777777778],[-89.97305555555556,32.76777777777777],[-89.98333333333333,32.719166666666666],[-89.99666666666667,32.65],[-90.00472222222223,32.60861111111111],[-90.01944444444445,32.53333333333333],[-90.0286111111111,32.48638888888889],[-90.04277777777777,32.41555555555556],[-90.05166666666666,32.37111111111111],[-90.07527777777777,32.250277777777775],[-90.08972222222222,32.17611111111111],[-90.09888888888888,32.12972222222222],[-90.11361111111111,32.05333333333333],[-90.12249999999999,32.00805555555556],[-90.13694444444445,31.934166666666666],[-90.14583333333334,31.887777777777778],[-90.16000000000001,31.81361111111111],[-90.16916666666667,31.766944444444444],[-90.18333333333334,31.693333333333335],[-90.20666666666666,31.57361111111111],[-90.21611111111112,31.524166666666666],[-90.23,31.4525],[-90.2363888888889,31.418333333333333],[-90.25222222222222,31.335833333333333],[-90.25611111111111,31.301666666666666],[-90.25194444444445,31.221666666666664],[-90.24916666666667,31.1875],[-90.24138888888889,31.073055555555555],[-90.23166666666667,30.942222222222224],[-90.2225,30.815],[-90.21666666666667,30.730555555555554],[-90.20861111111111,30.618333333333332],[-90.20361111111112,30.565833333333334],[-90.19083333333333,30.3825],[-90.18722222222223,30.316666666666666],[-90.18083333333334,30.237222222222222],[-90.18027777777779,30.22222222222222],[-90.1575,30.16111111111111],[-90.10527777777777,30.08861111111111],[-90.10027777777778,30.083055555555557],[-90.05305555555556,30.019444444444442],[-90.0286111111111,29.96472222222222],[-90.03,29.9625],[-90.075,29.9475],[-90.17027777777778,29.96944444444444],[-90.17361111111111,29.970555555555553],[-90.20583333333333,29.976666666666667],[-90.25722222222223,29.990555555555556]],"type":"LineString"}
}
