{
  "id": 2048051145,
  "type": "Feature",
  "properties": {
    "geom:area": 0,
    "geom:bbox": "-122.724940,37.538440,-122.102580,38.079580",
    "geom:latitude": 37.72593719074378,
    "geom:longitude": -122.40145616267914,
    "src:alt_label": "swim-approach",
    "src:geom": "swim",
    "swim:elevations": [
      5437,
      5241,
      4830,
      4619,
      4469,
      4163,
      3940,
      3536,
      3476,
      3353,
      3345,
      3286,
      3107,
      2975,
      2733,
      2628,
      2503,
      2100,
      1550,
      1445,
      1362,
      1096,
      889,
      661,
      629,
      486,
      287,
      243,
      78,
      0
    ],
    "swim:geom": "approach",
    "swim:timestamps": [
      1787072515,
      1787072536,
      1787072577,
      1787072600,
      1787072622,
      1787072652,
      1787072674,
      1787072723,
      1787072740,
      1787072776,
      1787072793,
      1787072833,
      1787072876,
      1787072904,
      1787072937,
      1787072957,
      1787072973,
      1787073015,
      1787073085,
      1787073111,
      1787073130,
      1787073172,
      1787073205,
      1787073236,
      1787073244,
      1787073271,
      1787073320,
      1787073330,
      1787073371,
      1787073394
    ],
    "wof:geomhash": "063a03c29b51f0f88da43a6044629b90",
    "wof:id": 2048051145,
    "wof:repo": "sfomuseum-data-flights-2026-08"
  },
  "bbox": [
    -122.72494,
    37.53844,
    -122.10258,
    38.07958
  ],
  "geometry": {"type":"LineString","coordinates":[[-122.72494,38.07958],[-122.71545,38.04692],[-122.69725,37.98401],[-122.68691,37.94817],[-122.67762,37.91617],[-122.64813,37.87653],[-122.62073,37.85049],[-122.5605,37.79367],[-122.53982,37.77422],[-122.49908,37.73551],[-122.4773,37.71981],[-122.41575,37.70181],[-122.35269,37.6853],[-122.31319,37.67479],[-122.26789,37.66254],[-122.24004,37.65478],[-122.21951,37.64903],[-122.16264,37.63298],[-122.10258,37.57573],[-122.10939,37.55042],[-122.12445,37.53844],[-122.16797,37.54993],[-122.2001,37.56394],[-122.23162,37.57393],[-122.23917,37.57631],[-122.26493,37.5842],[-122.30504,37.59598],[-122.31316,37.59833],[-122.34502,37.60848],[-122.35978,37.61511]]}
}
