{
  "id": 2048082589,
  "type": "Feature",
  "properties": {
    "geom:area": 0,
    "geom:bbox": "-122.525330,37.625440,-121.429350,38.517950",
    "geom:latitude": 38.08028792264592,
    "geom:longitude": -122.05717891936402,
    "src:alt_label": "swim-takeoff",
    "src:geom": "swim",
    "swim:elevations": [
      213,
      244,
      607,
      756,
      1060,
      1361,
      1598,
      1954,
      2263,
      2542,
      2776,
      2893,
      3230,
      3432,
      3574,
      3772,
      3959,
      3992,
      4357,
      4619,
      4941,
      5085,
      5359,
      5533,
      5634,
      5961,
      6027,
      6211,
      6441
    ],
    "swim:geom": "takeoff",
    "swim:timestamps": [
      1787293168,
      1787293171,
      1787293202,
      1787293233,
      1787293288,
      1787293316,
      1787293341,
      1787293376,
      1787293404,
      1787293428,
      1787293458,
      1787293474,
      1787293509,
      1787293547,
      1787293575,
      1787293611,
      1787293647,
      1787293652,
      1787293694,
      1787293724,
      1787293762,
      1787293785,
      1787293825,
      1787293850,
      1787293864,
      1787293912,
      1787293922,
      1787293952,
      1787293990
    ],
    "wof:geomhash": "c93c75f7327d0317132e6d8aac69ba05",
    "wof:id": 2048082589,
    "wof:repo": "sfomuseum-data-flights-2026-08"
  },
  "bbox": [
    -122.52533,
    37.62544,
    -121.42935,
    38.51795
  ],
  "geometry": {"type":"LineString","coordinates":[[-122.39111,37.62544],[-122.39375,37.62658],[-122.41952,37.63802],[-122.44951,37.65143],[-122.51482,37.68238],[-122.52487,37.71437],[-122.52533,37.74671],[-122.52297,37.79431],[-122.48924,37.82139],[-122.4508,37.8342],[-122.40635,37.85681],[-122.38411,37.87277],[-122.33486,37.90713],[-122.27713,37.94664],[-122.23163,37.97802],[-122.16997,38.02078],[-122.105,38.06572],[-122.0974,38.07097],[-122.01733,38.12606],[-121.96085,38.16472],[-121.88941,38.21361],[-121.84574,38.24351],[-121.76818,38.29636],[-121.71895,38.32988],[-121.69123,38.34869],[-121.59369,38.41493],[-121.5738,38.42843],[-121.51083,38.46814],[-121.42935,38.51795]]}
}
