{
  "id": 2048067493,
  "type": "Feature",
  "properties": {
    "geom:area": 0,
    "geom:bbox": "-122.399630,37.624140,-121.264710,38.369180",
    "geom:latitude": 38.01183045236944,
    "geom:longitude": -121.85106489534844,
    "src:alt_label": "swim-takeoff",
    "src:geom": "swim",
    "swim:elevations": [
      183,
      344,
      817,
      1039,
      1268,
      1446,
      1535,
      1926,
      2482,
      2520,
      2559,
      2686,
      3069,
      3172,
      3263,
      3418,
      3549,
      3751,
      4216,
      4394,
      4623,
      5114,
      5263,
      5470,
      5755,
      5934,
      6165,
      6512,
      6815,
      7034
    ],
    "swim:geom": "takeoff",
    "swim:timestamps": [
      1787167937,
      1787167953,
      1787168000,
      1787168027,
      1787168068,
      1787168090,
      1787168101,
      1787168137,
      1787168187,
      1787168191,
      1787168194,
      1787168206,
      1787168244,
      1787168254,
      1787168272,
      1787168304,
      1787168328,
      1787168349,
      1787168393,
      1787168412,
      1787168437,
      1787168477,
      1787168493,
      1787168521,
      1787168553,
      1787168573,
      1787168597,
      1787168634,
      1787168668,
      1787168691
    ],
    "wof:geomhash": "212ae6f356de950a0ca077242a172c15",
    "wof:id": 2048067493,
    "wof:repo": "sfomuseum-data-flights-2026-08"
  },
  "bbox": [
    -122.39963,
    37.62414,
    -121.26471,
    38.36918
  ],
  "geometry": {"type":"LineString","coordinates":[[-122.38786,37.62414],[-122.39963,37.63182],[-122.37588,37.66083],[-122.3467,37.66954],[-122.29776,37.68744],[-122.26745,37.69864],[-122.25015,37.7049],[-122.2019,37.73148],[-122.15224,37.78714],[-122.14833,37.79146],[-122.14526,37.79485],[-122.13264,37.80886],[-122.09284,37.8526],[-122.08211,37.86433],[-122.05934,37.88519],[-122.01008,37.91923],[-121.97081,37.94577],[-121.93652,37.96902],[-121.86017,38.02054],[-121.82635,38.0434],[-121.78115,38.07402],[-121.71022,38.12194],[-121.68045,38.14185],[-121.62789,38.17705],[-121.5666,38.21817],[-121.52781,38.24413],[-121.47976,38.27567],[-121.39754,38.31509],[-121.3199,38.34672],[-121.26471,38.36918]]}
}
