{
  "id": 2032116623,
  "type": "Feature",
  "properties": {
    "date:cessation_lower": "2026-08-05",
    "date:cessation_upper": "2026-08-05",
    "date:inception_lower": "2026-08-05",
    "date:inception_upper": "2026-08-05",
    "edtf:cessation": "2026-08-05T03:20:16-07:00",
    "edtf:inception": "2026-08-05T16:32:00Z",
    "flysfo:actual_timestamp": -1,
    "flysfo:airline": "UA",
    "flysfo:base_airline": "",
    "flysfo:base_flight_number": "3951",
    "flysfo:date": "2026-08-05",
    "flysfo:estimated_timestamp": 1785951780,
    "flysfo:event": "A",
    "flysfo:flight_number": "UA2340",
    "flysfo:gate": "D14",
    "flysfo:journey": "SBA-SFO",
    "flysfo:scheduled_timestamp": 1785939900,
    "flysfo:timestamp": 1785951780,
    "geom:area": 0,
    "geom:bbox": "-122.370943,34.427974,-119.837133,37.617990",
    "geom:latitude": 36.022982,
    "geom:longitude": -121.104038,
    "iata:airline": "UA",
    "iata:base_airline": "",
    "icao:aircraft": "A320",
    "icao:airline": "UAL",
    "icao:base_airline": "ACA",
    "lbl:latitude": 37.618149,
    "lbl:longitude": -122.381669,
    "sfomuseum:aircraft_id": 1159292085,
    "sfomuseum:airline_id": 1159285413,
    "sfomuseum:arrival_id": 102527513,
    "sfomuseum:base_flight_id": "20260805-A-ACA-3951",
    "sfomuseum:departure_id": 102527337,
    "sfomuseum:flight_id": "20260805-A-UAL-2340",
    "sfomuseum:flight_number": [
      "UAL2340",
      "UA2340"
    ],
    "sfomuseum:placetype": "flight",
    "src:geom": "flysfo",
    "src:geom_alt": [
      "swim-path",
      "swim-approach"
    ],
    "swim:tail_number": "N458UA",
    "wof:belongsto": [
      1947304067,
      102527513,
      1947304595,
      102191575,
      85633793,
      102087579,
      85922583,
      554784711,
      85688637,
      1947304613,
      1947304591,
      102085387
    ],
    "wof:concordances": {
      "swim:flight_ref": "153758585"
    },
    "wof:country": "US",
    "wof:created": 1786032506,
    "wof:geomhash": "aae625247f3652ef8a50cae9f49d2791",
    "wof:hierarchy": [
      {
        "building_id": 1947304067,
        "campus_id": 102527513,
        "concourse_id": 1947304595,
        "continent_id": 102191575,
        "country_id": 85633793,
        "county_id": 102087579,
        "custom_id": 2032116623,
        "flight_id": 2032116623,
        "locality_id": 85922583,
        "postalcode_id": 554784711,
        "region_id": 85688637,
        "venue_id": 1947304613,
        "wing_id": 1947304591
      },
      {
        "building_id": 1947304067,
        "campus_id": 102527513,
        "concourse_id": 1947304595,
        "continent_id": 102191575,
        "country_id": 85633793,
        "county_id": 102085387,
        "custom_id": 2032116623,
        "flight_id": 2032116623,
        "region_id": 85688637,
        "venue_id": 1947304613,
        "wing_id": 1947304591
      }
    ],
    "wof:id": 2032116623,
    "wof:involves": [
      1947304613,
      1159283597,
      1159292085,
      102527513,
      102527337,
      1159285413
    ],
    "wof:lastmodified": 1786033177,
    "wof:name": "UA2340 (SBA-SFO)",
    "wof:parent_id": 1947304613,
    "wof:placetype": "custom",
    "wof:placetype_alt": [
      "flight"
    ],
    "wof:repo": "sfomuseum-data-flights-2026-08",
    "wof:superseded_by": [],
    "wof:supersedes": []
  },
  "bbox": [
    -122.370943,
    34.427974,
    -119.837133,
    37.61799
  ],
  "geometry": {"type":"MultiPoint","coordinates":[[-119.837133,34.427974],[-122.370943,37.61799]]}
}
