{
  "id": 2047875971,
  "type": "Feature",
  "properties": {
    "geom:area": 0,
    "geom:bbox": "-122.347550,37.083820,-122.004170,37.607140",
    "geom:latitude": 37.394377349532405,
    "geom:longitude": -122.12090115661589,
    "src:alt_label": "swim-approach",
    "src:geom": "swim",
    "swim:elevations": [
      3356,
      3079,
      2828,
      2616,
      2584,
      2397,
      2050,
      1951,
      1775,
      1646,
      1420,
      1381,
      1306,
      1218,
      1219,
      1122,
      1112,
      793,
      548,
      364,
      207,
      108,
      73
    ],
    "swim:geom": "approach",
    "swim:timestamps": [
      1786121891,
      1786121945,
      1786121989,
      1786122025,
      1786122040,
      1786122070,
      1786122115,
      1786122128,
      1786122153,
      1786122167,
      1786122200,
      1786122212,
      1786122231,
      1786122265,
      1786122292,
      1786122324,
      1786122340,
      1786122397,
      1786122451,
      1786122494,
      1786122539,
      1786122562,
      1786122571
    ],
    "wof:geomhash": "40495c0b9ba29c7baef9bf3732c6b9dd",
    "wof:id": 2047875971,
    "wof:repo": "sfomuseum-data-flights-2026-08"
  },
  "bbox": [
    -122.34755,
    37.08382,
    -122.00417,
    37.60714
  ],
  "geometry": {"type":"LineString","coordinates":[[-122.00417,37.08382],[-122.03167,37.15138],[-122.05291,37.20594],[-122.06939,37.25125],[-122.07577,37.26808],[-122.08886,37.30068],[-122.10564,37.34659],[-122.10147,37.36006],[-122.08706,37.384],[-122.0787,37.39789],[-122.05907,37.43081],[-122.0524,37.44197],[-122.04715,37.46053],[-122.06879,37.48678],[-122.09424,37.50032],[-122.12574,37.51408],[-122.14132,37.52039],[-122.19638,37.54359],[-122.24741,37.5651],[-122.28436,37.58072],[-122.32158,37.59626],[-122.34079,37.60429],[-122.34755,37.60714]]}
}
