{
  "id": 2048092177,
  "type": "Feature",
  "properties": {
    "geom:area": 0,
    "geom:bbox": "-122.350210,37.448130,-121.244380,37.642990",
    "geom:latitude": 37.53541521321652,
    "geom:longitude": -121.78618654046126,
    "src:alt_label": "swim-approach",
    "src:geom": "swim",
    "swim:elevations": [
      4914,
      4541,
      4481,
      4215,
      3872,
      3684,
      3565,
      3459,
      3354,
      3353,
      3097,
      3048,
      3048,
      2897,
      2808,
      2743,
      2743,
      2743,
      2743,
      2723,
      2474,
      2198,
      2132,
      2134,
      1975,
      1847,
      1829,
      1530,
      1107,
      1013,
      915,
      885,
      766,
      606,
      461,
      400,
      305,
      213,
      112,
      60
    ],
    "swim:geom": "approach",
    "swim:timestamps": [
      1787306089,
      1787306128,
      1787306136,
      1787306172,
      1787306209,
      1787306231,
      1787306277,
      1787306306,
      1787306338,
      1787306348,
      1787306396,
      1787306424,
      1787306437,
      1787306485,
      1787306494,
      1787306532,
      1787306552,
      1787306595,
      1787306631,
      1787306647,
      1787306683,
      1787306726,
      1787306744,
      1787306777,
      1787306809,
      1787306832,
      1787306863,
      1787306896,
      1787306938,
      1787306962,
      1787306998,
      1787307008,
      1787307038,
      1787307079,
      1787307116,
      1787307135,
      1787307168,
      1787307196,
      1787307226,
      1787307240
    ],
    "wof:geomhash": "116113c1d09000fdda5d437fbdc97cf9",
    "wof:id": 2048092177,
    "wof:repo": "sfomuseum-data-flights-2026-08"
  },
  "bbox": [
    -122.35021,
    37.44813,
    -121.24438,
    37.64299
  ],
  "geometry": {"type":"LineString","coordinates":[[-121.24438,37.59533],[-121.30592,37.56768],[-121.31368,37.55903],[-121.34932,37.51877],[-121.39427,37.48297],[-121.43308,37.48094],[-121.50141,37.51645],[-121.53921,37.53967],[-121.58012,37.56135],[-121.59392,37.56712],[-121.65742,37.59375],[-121.69383,37.60926],[-121.71172,37.61701],[-121.77437,37.64226],[-121.78677,37.64299],[-121.82019,37.61585],[-121.81287,37.59557],[-121.78497,37.55625],[-121.7733,37.51925],[-121.77816,37.50383],[-121.79136,37.46748],[-121.84377,37.45248],[-121.86777,37.45167],[-121.91336,37.44976],[-121.95616,37.44813],[-121.98594,37.45442],[-122.02344,37.47072],[-122.06214,37.48698],[-122.10988,37.50716],[-122.13598,37.51819],[-122.17117,37.53293],[-122.1801,37.5367],[-122.20595,37.54774],[-122.23998,37.56198],[-122.26831,37.57391],[-122.28042,37.57897],[-122.30289,37.58844],[-122.32146,37.59623],[-122.34134,37.60455],[-122.35021,37.60824]]}
}
