{
  "id": 2047970257,
  "type": "Feature",
  "properties": {
    "geom:area": 0,
    "geom:bbox": "-122.761260,37.420950,-122.110600,38.476210",
    "geom:latitude": 37.8222813053261,
    "geom:longitude": -122.48885973611698,
    "src:alt_label": "swim-approach",
    "src:geom": "swim",
    "swim:elevations": [
      8069,
      7733,
      7408,
      7087,
      6727,
      6399,
      6252,
      5924,
      5600,
      5133,
      4823,
      4662,
      4230,
      4139,
      3624,
      3522,
      3351,
      3353,
      3353,
      3119,
      2986,
      2626,
      2356,
      2282,
      1878,
      1776,
      1563,
      1524,
      1412,
      1373,
      1295,
      1219,
      1112,
      926,
      938,
      792,
      663,
      527,
      387
    ],
    "swim:geom": "approach",
    "swim:timestamps": [
      1786721031,
      1786721061,
      1786721091,
      1786721119,
      1786721154,
      1786721185,
      1786721199,
      1786721230,
      1786721262,
      1786721307,
      1786721337,
      1786721351,
      1786721392,
      1786721401,
      1786721455,
      1786721465,
      1786721508,
      1786721572,
      1786721594,
      1786721632,
      1786721651,
      1786721693,
      1786721727,
      1786721735,
      1786721784,
      1786721796,
      1786721829,
      1786721873,
      1786721908,
      1786721920,
      1786721944,
      1786721992,
      1786722027,
      1786722055,
      1786722062,
      1786722092,
      1786722120,
      1786722155,
      1786722192
    ],
    "wof:geomhash": "87357546479b3d9b4ec9cc8b832ee44a",
    "wof:id": 2047970257,
    "wof:repo": "sfomuseum-data-flights-2026-08"
  },
  "bbox": [
    -122.76126,
    37.42095,
    -122.1106,
    38.47621
  ],
  "geometry": {"type":"LineString","coordinates":[[-122.69758,38.47621],[-122.71268,38.4224],[-122.72695,38.37005],[-122.74112,38.31976],[-122.75752,38.26066],[-122.76126,38.20746],[-122.75542,38.18406],[-122.74068,38.1325],[-122.72592,38.08065],[-122.70501,38.0086],[-122.6908,37.95993],[-122.68439,37.93796],[-122.65063,37.87833],[-122.63946,37.86783],[-122.56943,37.8014],[-122.55736,37.79006],[-122.50594,37.74163],[-122.4351,37.6749],[-122.41318,37.65428],[-122.37825,37.62109],[-122.36273,37.60504],[-122.34055,37.56333],[-122.3202,37.5295],[-122.31559,37.52181],[-122.28777,37.47621],[-122.28042,37.46418],[-122.26209,37.43375],[-122.21002,37.42095],[-122.16284,37.42661],[-122.14831,37.4313],[-122.12893,37.45264],[-122.1106,37.50067],[-122.14152,37.52056],[-122.1701,37.53241],[-122.17785,37.53593],[-122.20419,37.54686],[-122.22808,37.55692],[-122.25512,37.56837],[-122.28284,37.58014]]}
}
