{
  "id": 2032104613,
  "type": "Feature",
  "properties": {
    "geom:area": 0,
    "geom:bbox": "-121.488333,33.951944,-118.138056,36.702222",
    "geom:latitude": 35.0520097105984,
    "geom:longitude": -119.64457078680627,
    "src:alt_label": "swim-path",
    "src:geom": "swim",
    "swim:altitudes": [
      "276",
      "319",
      "348C",
      "350C",
      "350C",
      "350C",
      "350C",
      "350C",
      "350C",
      "350",
      "345",
      "325",
      "306",
      "285",
      "264",
      "260",
      "255",
      "245",
      "240",
      "238",
      "233",
      "225",
      "213",
      "199",
      "184",
      "169",
      "155",
      "142",
      "128",
      "120",
      "121",
      "120",
      "121",
      "120",
      "119",
      "115",
      "110",
      "106",
      "102",
      "100",
      "101",
      "101",
      "098",
      "092",
      "088",
      "081",
      "077",
      "069",
      "058",
      "052",
      "045",
      "038",
      "035",
      "033",
      "032",
      "028",
      "026",
      "023",
      "023",
      "022",
      "021",
      "016",
      "010",
      "002"
    ],
    "swim:geom": "path",
    "swim:speeds": [
      464,
      474,
      473,
      458,
      454,
      452,
      451,
      451,
      451,
      450,
      445,
      442,
      452,
      442,
      427,
      407,
      370,
      370,
      369,
      369,
      369,
      366,
      361,
      349,
      339,
      339,
      339,
      315,
      305,
      282,
      263,
      257,
      259,
      256,
      257,
      256,
      256,
      260,
      267,
      265,
      262,
      261,
      260,
      261,
      254,
      254,
      249,
      252,
      247,
      235,
      237,
      229,
      218,
      195,
      198,
      186,
      187,
      183,
      185,
      188,
      187,
      173,
      158,
      157
    ],
    "swim:timestamps": [
      1785900663,
      1785900844,
      1785900964,
      1785901024,
      1785901084,
      1785901144,
      1785901264,
      1785901324,
      1785901384,
      1785901444,
      1785901504,
      1785901624,
      1785901684,
      1785901744,
      1785901804,
      1785901865,
      1785901985,
      1785902049,
      1785902110,
      1785902170,
      1785902230,
      1785902290,
      1785902350,
      1785902410,
      1785902470,
      1785902530,
      1785902590,
      1785902650,
      1785902710,
      1785902771,
      1785902831,
      1785902855,
      1785902891,
      1785902912,
      1785902951,
      1785902972,
      1785903011,
      1785903032,
      1785903071,
      1785903092,
      1785903131,
      1785903191,
      1785903213,
      1785903251,
      1785903273,
      1785903311,
      1785903333,
      1785903371,
      1785903431,
      1785903453,
      1785903492,
      1785903513,
      1785903552,
      1785903573,
      1785903612,
      1785903633,
      1785903672,
      1785903693,
      1785903732,
      1785903753,
      1785903792,
      1785903813,
      1785903852,
      1785903912
    ],
    "wof:geomhash": "d78d9b316cfc41d30ece92ac1c04aa72",
    "wof:id": 2032104613,
    "wof:repo": "sfomuseum-data-flights-2026-08"
  },
  "bbox": [
    -121.48833333333333,
    33.95194444444445,
    -118.13805555555557,
    36.702222222222225
  ],
  "geometry": {"type":"LineString","coordinates":[[-121.48833333333333,36.702222222222225],[-121.14805555555556,36.41916666666666],[-120.92166666666667,36.22916666666667],[-120.81305555555555,36.13722222222222],[-120.705,36.045833333333334],[-120.59833333333333,35.955555555555556],[-120.38527777777779,35.77361111111111],[-120.27777777777777,35.68138888888889],[-120.17083333333333,35.589444444444446],[-120.06388888888888,35.496944444444445],[-119.96638888888889,35.400555555555556],[-119.77944444444444,35.20666666666667],[-119.68361111111112,35.106944444444444],[-119.59083333333332,35.01027777777778],[-119.50166666666667,34.916666666666664],[-119.41694444444445,34.82777777777778],[-119.26083333333334,34.663333333333334],[-119.18305555555555,34.58083333333334],[-119.07888888888888,34.54083333333333],[-119.03,34.62388888888889],[-119.09888888888888,34.7075],[-119.22472222222223,34.75111111111111],[-119.34555555555555,34.734722222222224],[-119.38333333333334,34.64944444444444],[-119.38611111111112,34.55277777777778],[-119.29972222222221,34.50805555555556],[-119.18472222222222,34.507777777777775],[-119.09861111111111,34.470555555555556],[-119.08194444444445,34.38722222222222],[-119.02194444444444,34.338055555555556],[-118.94222222222223,34.32527777777778],[-118.93333333333334,34.3],[-118.92111111111112,34.255],[-118.91666666666667,34.233333333333334],[-118.90722222222223,34.18583333333333],[-118.9,34.166666666666664],[-118.89305555555556,34.11527777777778],[-118.88333333333334,34.083333333333336],[-118.83055555555555,34.07527777777778],[-118.8,34.06666666666667],[-118.74666666666667,34.05222222222222],[-118.66444444444446,34.030277777777776],[-118.63333333333334,34.03333333333333],[-118.57833333333333,34.021388888888886],[-118.55,34.016666666666666],[-118.49388888888889,34.013333333333335],[-118.46666666666667,34.016666666666666],[-118.41055555555556,34.018055555555556],[-118.34527777777777,34.02916666666667],[-118.3,34.03333333333333],[-118.26722222222222,34.03611111111111],[-118.23333333333333,34.03333333333333],[-118.19250000000001,34.043055555555554],[-118.15,34.05],[-118.13805555555557,34.02388888888889],[-118.15,34],[-118.16694444444445,33.98222222222223],[-118.2,33.96666666666667],[-118.22444444444444,33.97],[-118.25,33.96666666666667],[-118.29944444444445,33.963055555555556],[-118.31666666666666,33.96666666666667],[-118.35249999999999,33.95722222222223],[-118.40361111111112,33.95194444444445]]}
}
