{
  "id": 2048055413,
  "type": "Feature",
  "properties": {
    "geom:area": 0,
    "geom:bbox": "-122.256000,38.156890,-122.226250,38.505440",
    "geom:latitude": 38.33166550596595,
    "geom:longitude": -122.23578125416675,
    "src:alt_label": "swim-takeoff",
    "src:geom": "swim",
    "swim:elevations": [
      6528,
      6951,
      7121,
      7597,
      7707,
      8116,
      8226
    ],
    "swim:geom": "takeoff",
    "swim:timestamps": [
      1787072253,
      1787072292,
      1787072313,
      1787072365,
      1787072377,
      1787072424,
      1787072436
    ],
    "wof:geomhash": "048f52281e9385c4e6d186d23b05cafd",
    "wof:id": 2048055413,
    "wof:repo": "sfomuseum-data-flights-2026-08"
  },
  "bbox": [
    -122.256,
    38.15689,
    -122.22625,
    38.50544
  ],
  "geometry": {"type":"LineString","coordinates":[[-122.22625,38.15689],[-122.2282,38.22737],[-122.22929,38.2667],[-122.23392,38.36726],[-122.23779,38.39082],[-122.25244,38.48204],[-122.256,38.50544]]}
}
