{
  "id": 2032059721,
  "type": "Feature",
  "properties": {
    "geom:area": 0,
    "geom:bbox": "-122.400000,32.544167,-97.050000,38.518611",
    "geom:latitude": 37.37925421334278,
    "geom:longitude": -108.59628564736052,
    "src:alt_label": "swim-path",
    "src:geom": "swim",
    "swim:altitudes": [
      "016",
      "018",
      "024",
      "027",
      "043",
      "048",
      "064",
      "083",
      "087",
      "104",
      "116",
      "133",
      "145",
      "152",
      "165",
      "175",
      "185",
      "194",
      "202",
      "209",
      "222",
      "228",
      "233",
      "234",
      "238",
      "244",
      "253",
      "254",
      "259",
      "266",
      "267",
      "275",
      "280",
      "290",
      "294",
      "296",
      "298",
      "301",
      "304",
      "306",
      "314",
      "315",
      "317",
      "320",
      "322",
      "324",
      "327",
      "330C",
      "330C",
      "330C",
      "330C",
      "330C",
      "330C",
      "330C",
      "330C",
      "330C",
      "330C",
      "330C",
      "330C",
      "330C",
      "330C",
      "330C",
      "330C",
      "330C",
      "330C",
      "330C",
      "330C",
      "330C",
      "330C",
      "330C",
      "330C",
      "330C",
      "330C",
      "330C",
      "330C",
      "330C",
      "330C",
      "330C",
      "330C",
      "330C",
      "330C",
      "330C",
      "330C",
      "330C",
      "330C",
      "330",
      "330",
      "330",
      "330",
      "330",
      "332",
      "336",
      "338",
      "340",
      "342",
      "345",
      "346",
      "348C",
      "350C",
      "350C",
      "350C",
      "350C",
      "350C",
      "350C",
      "350C",
      "350C",
      "350C",
      "350C",
      "350C",
      "350C",
      "350C",
      "350C",
      "350C",
      "350C",
      "350C",
      "350C",
      "350C",
      "350C",
      "350C",
      "350C",
      "350C",
      "350C",
      "350C",
      "350C",
      "350C",
      "350C",
      "350C",
      "350C",
      "350C",
      "350C",
      "350C",
      "350C",
      "350C",
      "350C",
      "350C",
      "350C",
      "350C",
      "351C",
      "350C",
      "350C",
      "350C",
      "350C",
      "350C",
      "350C",
      "350C",
      "350C",
      "350C",
      "350C",
      "350C",
      "350C",
      "350C",
      "350C",
      "350C",
      "350C",
      "350C",
      "350C",
      "350C",
      "350C",
      "350C",
      "350C",
      "350C",
      "350C",
      "351C",
      "351C",
      "350C",
      "350C",
      "348",
      "338",
      "335",
      "330C",
      "330C",
      "330C",
      "330",
      "330",
      "330",
      "330",
      "330",
      "330",
      "326",
      "317",
      "299",
      "251",
      "228",
      "208",
      "188",
      "168",
      "153",
      "140",
      "125",
      "120",
      "120",
      "117",
      "107",
      "096",
      "081",
      "060",
      "035",
      "030",
      "030",
      "030",
      "029",
      "020",
      "013",
      "011",
      "005"
    ],
    "swim:geom": "path",
    "swim:speeds": [
      182,
      189,
      254,
      259,
      274,
      270,
      280,
      292,
      290,
      304,
      333,
      342,
      360,
      396,
      444,
      448,
      456,
      459,
      465,
      473,
      484,
      489,
      495,
      495,
      501,
      505,
      505,
      507,
      504,
      503,
      502,
      502,
      501,
      500,
      499,
      499,
      499,
      500,
      501,
      502,
      503,
      501,
      502,
      502,
      502,
      501,
      502,
      502,
      502,
      502,
      501,
      501,
      500,
      500,
      500,
      499,
      497,
      496,
      494,
      493,
      493,
      492,
      491,
      490,
      489,
      490,
      490,
      491,
      491,
      492,
      492,
      491,
      491,
      491,
      491,
      493,
      490,
      492,
      490,
      491,
      489,
      490,
      489,
      488,
      488,
      488,
      485,
      485,
      485,
      485,
      486,
      488,
      490,
      491,
      492,
      493,
      493,
      494,
      494,
      493,
      493,
      494,
      495,
      496,
      495,
      494,
      493,
      493,
      493,
      492,
      492,
      491,
      486,
      485,
      485,
      487,
      488,
      488,
      487,
      488,
      496,
      495,
      495,
      495,
      485,
      485,
      487,
      486,
      488,
      488,
      488,
      488,
      489,
      489,
      493,
      503,
      504,
      504,
      503,
      501,
      500,
      500,
      499,
      498,
      496,
      494,
      492,
      489,
      488,
      487,
      485,
      485,
      483,
      484,
      483,
      483,
      484,
      487,
      490,
      492,
      493,
      496,
      498,
      499,
      499,
      500,
      500,
      499,
      499,
      498,
      499,
      499,
      502,
      503,
      506,
      513,
      515,
      515,
      512,
      502,
      502,
      475,
      456,
      441,
      428,
      416,
      398,
      379,
      370,
      336,
      333,
      308,
      288,
      279,
      274,
      249,
      222,
      204,
      204,
      194,
      171,
      154,
      144,
      145,
      142
    ],
    "swim:timestamps": [
      1785613042,
      1785613061,
      1785613103,
      1785613121,
      1785613162,
      1785613181,
      1785613222,
      1785613284,
      1785613301,
      1785613361,
      1785613421,
      1785613481,
      1785613541,
      1785613601,
      1785613722,
      1785613782,
      1785613842,
      1785613902,
      1785613962,
      1785614022,
      1785614142,
      1785614202,
      1785614262,
      1785614279,
      1785614322,
      1785614399,
      1785614443,
      1785614459,
      1785614503,
      1785614563,
      1785614579,
      1785614639,
      1785614683,
      1785614759,
      1785614803,
      1785614819,
      1785614863,
      1785614879,
      1785614923,
      1785614939,
      1785615000,
      1785615043,
      1785615060,
      1785615103,
      1785615120,
      1785615164,
      1785615224,
      1785615284,
      1785615300,
      1785615344,
      1785615360,
      1785615420,
      1785615464,
      1785615480,
      1785615540,
      1785615600,
      1785615660,
      1785615721,
      1785615781,
      1785615841,
      1785615901,
      1785615961,
      1785616021,
      1785616081,
      1785616201,
      1785616321,
      1785616381,
      1785616441,
      1785616502,
      1785616562,
      1785616622,
      1785616742,
      1785616802,
      1785616862,
      1785616922,
      1785616943,
      1785616982,
      1785617003,
      1785617042,
      1785617063,
      1785617102,
      1785617123,
      1785617183,
      1785617222,
      1785617343,
      1785617484,
      1785617604,
      1785617643,
      1785617664,
      1785617703,
      1785617724,
      1785617784,
      1785617823,
      1785617844,
      1785617883,
      1785617904,
      1785617943,
      1785617964,
      1785618024,
      1785618085,
      1785618145,
      1785618205,
      1785618265,
      1785618385,
      1785618445,
      1785618565,
      1785618625,
      1785618685,
      1785618745,
      1785618866,
      1785618926,
      1785618986,
      1785619046,
      1785619106,
      1785619166,
      1785619226,
      1785619286,
      1785619346,
      1785619406,
      1785619527,
      1785619647,
      1785619707,
      1785619767,
      1785619827,
      1785619947,
      1785620007,
      1785620067,
      1785620073,
      1785620127,
      1785620133,
      1785620187,
      1785620193,
      1785620247,
      1785620253,
      1785620308,
      1785620368,
      1785620428,
      1785620488,
      1785620548,
      1785620613,
      1785620673,
      1785620734,
      1785620794,
      1785620854,
      1785620914,
      1785620974,
      1785621004,
      1785621064,
      1785621094,
      1785621136,
      1785621154,
      1785621197,
      1785621214,
      1785621257,
      1785621274,
      1785621317,
      1785621334,
      1785621377,
      1785621395,
      1785621437,
      1785621455,
      1785621497,
      1785621557,
      1785621575,
      1785621617,
      1785621635,
      1785621677,
      1785621737,
      1785621755,
      1785621797,
      1785621857,
      1785621918,
      1785622038,
      1785622098,
      1785622158,
      1785622278,
      1785622398,
      1785622458,
      1785622518,
      1785622578,
      1785622639,
      1785622771,
      1785622831,
      1785622891,
      1785622951,
      1785623011,
      1785623071,
      1785623131,
      1785623191,
      1785623251,
      1785623306,
      1785623372,
      1785623426,
      1785623492,
      1785623552,
      1785623672,
      1785623792,
      1785623852,
      1785623912,
      1785623972,
      1785624026,
      1785624093,
      1785624147,
      1785624165,
      1785624225
    ],
    "wof:geomhash": "39af55f26c4fe719b61e4ee8e791dde8",
    "wof:id": 2032059721,
    "wof:repo": "sfomuseum-data-flights-2026-08"
  },
  "bbox": [
    -122.4,
    32.54416666666666,
    -97.05,
    38.51861111111111
  ],
  "geometry": {"coordinates":[[-122.4,37.65],[-122.39166666666668,37.656388888888884],[-122.33333333333333,37.68333333333333],[-122.31555555555555,37.68194444444444],[-122.25,37.7],[-122.22888888888889,37.713055555555556],[-122.16666666666667,37.75],[-122.06666666666666,37.766666666666666],[-122.04722222222222,37.778888888888886],[-121.94472222222223,37.802499999999995],[-121.83611111111111,37.827222222222225],[-121.71722222222222,37.85416666666667],[-121.59777777777778,37.88111111111111],[-121.46083333333334,37.911944444444444],[-121.16972222222223,37.97666666666667],[-121.01527777777778,38.00472222222222],[-120.85833333333333,38.02916666666667],[-120.7,38.05333333333333],[-120.53972222222222,38.07777777777778],[-120.37555555555555,38.102222222222224],[-120.03944444444444,38.151944444444446],[-119.86999999999999,38.17666666666666],[-119.69805555555556,38.20138888888889],[-119.66777777777779,38.20444444444445],[-119.52194444444444,38.22638888888889],[-119.3175,38.255],[-119.1763888888889,38.275],[-119.1413888888889,38.278055555555554],[-119.00222222222222,38.29888888888889],[-118.83027777777778,38.32222222222222],[-118.79444444444444,38.32694444444445],[-118.62083333333332,38.35],[-118.48194444444445,38.368611111111115],[-118.24944444444445,38.399166666666666],[-118.13611111111112,38.413888888888884],[-118.075,38.42194444444444],[-117.96583333333334,38.43583333333333],[-117.89972222222222,38.44416666666666],[-117.79083333333332,38.45805555555556],[-117.72111111111111,38.46666666666667],[-117.54333333333334,38.48888888888889],[-117.43555555555555,38.50222222222222],[-117.36666666666666,38.510555555555555],[-117.25666666666666,38.51861111111111],[-117.18611111111112,38.51833333333333],[-117.07722222222222,38.51611111111111],[-116.89500000000001,38.51222222222222],[-116.71805555555555,38.50805555555556],[-116.6463888888889,38.506388888888885],[-116.53805555555556,38.50388888888889],[-116.4675,38.50194444444445],[-116.29166666666667,38.49722222222222],[-116.18361111111112,38.494166666666665],[-116.15055555555556,38.49333333333333],[-115.9725,38.488055555555555],[-115.79777777777778,38.4825],[-115.61999999999999,38.47666666666667],[-115.44527777777778,38.47083333333334],[-115.24388888888889,38.46361111111111],[-115.06972222222223,38.456944444444446],[-114.89527777777778,38.45],[-114.7225,38.44305555555555],[-114.54777777777778,38.43583333333333],[-114.3761111111111,38.42833333333333],[-114.02972222222222,38.4125],[-113.68305555555555,38.395833333333336],[-113.51083333333334,38.386944444444445],[-113.33555555555554,38.37777777777778],[-113.16333333333334,38.368611111111115],[-112.98722222222223,38.36138888888889],[-112.81361111111111,38.36694444444444],[-112.46333333333334,38.37777777777778],[-112.29027777777777,38.382777777777775],[-112.11722222222221,38.3875],[-111.97777777777777,38.39111111111111],[-111.89583333333334,38.39333333333333],[-111.80472222222222,38.39527777777778],[-111.72222222222223,38.3975],[-111.63,38.39944444444444],[-111.54944444444445,38.40138888888889],[-111.45833333333334,38.40333333333333],[-111.37944444444443,38.405],[-111.20583333333333,38.40833333333333],[-111.11222222222221,38.41],[-110.7461111111111,38.41611111111111],[-110.33472222222221,38.425555555555555],[-109.99416666666667,38.43277777777777],[-109.88972222222223,38.43444444444444],[-109.82055555555556,38.43583333333333],[-109.7175,38.4375],[-109.64888888888889,38.43861111111111],[-109.47666666666667,38.44138888888889],[-109.37222222222222,38.44277777777778],[-109.30305555555556,38.443888888888885],[-109.19833333333334,38.44499999999999],[-109.12888888888888,38.44583333333333],[-109.025,38.447222222222216],[-108.95444444444445,38.44777777777777],[-108.77916666666667,38.44944444444444],[-108.60638888888889,38.450833333333335],[-108.43388888888889,38.452222222222225],[-108.25888888888889,38.45305555555556],[-108.08277777777778,38.45388888888889],[-107.73361111111112,38.45416666666667],[-107.55888888888889,38.45416666666667],[-107.21083333333334,38.45305555555556],[-107.04944444444445,38.452222222222225],[-106.87277777777777,38.443888888888885],[-106.70222222222222,38.43527777777778],[-106.35388888888889,38.41638888888889],[-106.18027777777779,38.406666666666666],[-105.98083333333334,38.39527777777778],[-105.80972222222222,38.385],[-105.65277777777779,38.37583333333333],[-105.48222222222222,38.365],[-105.31138888888889,38.35416666666667],[-105.13972222222223,38.34305555555556],[-104.94944444444445,38.33027777777778],[-104.7786111111111,38.31861111111112],[-104.43472222222222,38.290277777777774],[-104.09916666666666,38.2075],[-103.93166666666667,38.163333333333334],[-103.765,38.119166666666665],[-103.6325,38.08388888888889],[-103.30416666666666,37.995],[-103.14305555555556,37.95138888888889],[-102.97944444444444,37.906388888888884],[-102.95527777777778,37.89972222222222],[-102.81805555555555,37.861666666666665],[-102.79222222222222,37.85444444444445],[-102.65666666666667,37.816944444444445],[-102.62916666666666,37.80916666666666],[-102.49361111111111,37.771388888888886],[-102.46888888888888,37.76444444444444],[-102.30499999999999,37.71555555555556],[-102.15472222222223,37.63972222222222],[-102.01083333333334,37.56055555555555],[-101.86805555555554,37.481388888888894],[-101.72416666666666,37.40138888888889],[-101.58361111111111,37.32277777777778],[-101.44305555555556,37.24388888888889],[-101.30388888888889,37.165277777777774],[-101.16277777777778,37.08527777777778],[-101.02222222222223,37.00555555555555],[-100.88388888888889,36.92638888888889],[-100.74666666666667,36.84777777777778],[-100.67416666666666,36.80611111111111],[-100.53611111111111,36.72638888888889],[-100.4738888888889,36.690555555555555],[-100.37277777777777,36.63194444444444],[-100.32138888888889,36.60194444444445],[-100.23972222222223,36.55444444444444],[-100.1875,36.52388888888889],[-100.10388888888889,36.475],[-100.05166666666666,36.44444444444444],[-99.9725,36.39361111111111],[-99.93,36.353611111111114],[-99.88166666666666,36.28111111111111],[-99.86333333333333,36.22777777777778],[-99.85,36.144999999999996],[-99.84166666666667,36.09305555555556],[-99.82888888888888,36.00861111111111],[-99.80777777777777,35.87222222222222],[-99.79944444444445,35.81666666666667],[-99.78666666666666,35.73277777777778],[-99.77833333333334,35.67861111111111],[-99.76555555555555,35.595],[-99.745,35.45861111111111],[-99.7375,35.408055555555556],[-99.72444444444444,35.32222222222222],[-99.70361111111112,35.1825],[-99.68305555555555,35.04555555555555],[-99.64194444444445,34.76638888888889],[-99.6211111111111,34.62722222222222],[-99.5925,34.48916666666667],[-99.34305555555555,34.296388888888885],[-99.03361111111111,34.111111111111114],[-98.90944444444445,34.03638888888889],[-98.77055555555556,33.9525],[-98.63194444444444,33.87361111111111],[-98.48833333333333,33.80361111111111],[-98.18027777777779,33.65222222222222],[-98.03888888888889,33.58222222222223],[-97.91111111111111,33.51861111111111],[-97.7875,33.456944444444446],[-97.66972222222223,33.39805555555556],[-97.57055555555556,33.323888888888895],[-97.48777777777778,33.25333333333333],[-97.40111111111112,33.17916666666667],[-97.32194444444444,33.11138888888889],[-97.25,33.05],[-97.17333333333333,32.9775],[-97.16666666666667,32.9],[-97.16166666666668,32.81861111111112],[-97.16055555555556,32.74333333333333],[-97.16055555555556,32.60055555555556],[-97.07972222222222,32.54416666666666],[-97.05666666666666,32.596944444444446],[-97.05611111111111,32.65333333333333],[-97.05583333333333,32.70861111111111],[-97.05,32.75],[-97.05527777777777,32.802499999999995],[-97.05,32.833333333333336],[-97.05499999999999,32.84916666666667],[-97.05472222222222,32.88861111111111]],"type":"LineString"}
}
