{
  "id": 2048034599,
  "type": "Feature",
  "properties": {
    "geom:area": 0,
    "geom:bbox": "-122.842510,37.427030,-122.097460,38.478160",
    "geom:latitude": 37.81374608184152,
    "geom:longitude": -122.48993019006565,
    "src:alt_label": "swim-approach",
    "src:geom": "swim",
    "swim:elevations": [
      8026,
      7722,
      7571,
      7329,
      7112,
      6737,
      6529,
      6129,
      6027,
      5735,
      5299,
      4993,
      4658,
      4477,
      4171,
      3815,
      3662,
      3443,
      3353,
      3353,
      3353,
      3353,
      3348,
      3180,
      3140,
      2868,
      2507,
      2329,
      2064,
      1956,
      1807,
      1724,
      1643,
      1362,
      1220,
      1186,
      1096,
      951,
      870,
      729,
      567,
      425,
      387,
      221,
      109,
      0
    ],
    "swim:geom": "approach",
    "swim:timestamps": [
      1787005825,
      1787005853,
      1787005867,
      1787005890,
      1787005910,
      1787005946,
      1787005965,
      1787006003,
      1787006014,
      1787006042,
      1787006089,
      1787006116,
      1787006151,
      1787006168,
      1787006198,
      1787006235,
      1787006252,
      1787006286,
      1787006334,
      1787006360,
      1787006396,
      1787006405,
      1787006426,
      1787006454,
      1787006460,
      1787006491,
      1787006546,
      1787006568,
      1787006604,
      1787006620,
      1787006665,
      1787006685,
      1787006702,
      1787006751,
      1787006786,
      1787006809,
      1787006839,
      1787006877,
      1787006895,
      1787006928,
      1787006966,
      1787006996,
      1787007008,
      1787007050,
      1787007079,
      1787007105
    ],
    "wof:geomhash": "c78c2d33e4634d043a8e96730d3339ac",
    "wof:id": 2048034599,
    "wof:repo": "sfomuseum-data-flights-2026-08"
  },
  "bbox": [
    -122.84251,
    37.42703,
    -122.09746,
    38.47816
  ],
  "geometry": {"type":"LineString","coordinates":[[-122.84251,38.47816],[-122.82817,38.42893],[-122.82069,38.4054],[-122.80897,38.3654],[-122.79904,38.33166],[-122.78088,38.27064],[-122.77145,38.23855],[-122.75344,38.17652],[-122.74844,38.15899],[-122.73531,38.11334],[-122.71339,38.03835],[-122.70109,37.99566],[-122.68535,37.94178],[-122.67691,37.91547],[-122.64583,37.87358],[-122.59885,37.82905],[-122.57739,37.80845],[-122.53503,37.76878],[-122.48191,37.7189],[-122.4562,37.69499],[-122.42274,37.66351],[-122.41437,37.65553],[-122.39462,37.63677],[-122.3688,37.61204],[-122.3638,37.60662],[-122.34295,37.57613],[-122.31368,37.51861],[-122.30042,37.4969],[-122.27132,37.46542],[-122.25077,37.45826],[-122.19669,37.44007],[-122.17432,37.43279],[-122.15576,37.42703],[-122.1115,37.4477],[-122.09746,37.47822],[-122.1072,37.49636],[-122.13041,37.51532],[-122.16596,37.53096],[-122.18305,37.53801],[-122.2131,37.55075],[-122.24865,37.56568],[-122.27427,37.57642],[-122.28408,37.58041],[-122.3173,37.59449],[-122.33979,37.60381],[-122.35905,37.61201]]}
}
