{
  "id": 2047916299,
  "type": "Feature",
  "properties": {
    "geom:area": 0,
    "geom:bbox": "-122.583056,37.632778,-113.965000,48.648333",
    "geom:latitude": 43.356148840914095,
    "geom:longitude": -118.7058199377663,
    "src:alt_label": "swim-path",
    "src:geom": "swim",
    "swim:altitudes": [
      "008",
      "013",
      "022",
      "034",
      "040",
      "051",
      "077",
      "096",
      "110",
      "120",
      "129",
      "143",
      "148",
      "165",
      "178",
      "180",
      "195",
      "209",
      "217",
      "222",
      "232",
      "239",
      "242",
      "249",
      "259",
      "260",
      "273",
      "287",
      "297",
      "299",
      "311",
      "320C",
      "320C",
      "320C",
      "320C",
      "320C",
      "320C",
      "320C",
      "320C",
      "320C",
      "320C",
      "320C",
      "320C",
      "320C",
      "320C",
      "320C",
      "320C",
      "320C",
      "320C",
      "320C",
      "320C",
      "320C",
      "320C",
      "320C",
      "320C",
      "320C",
      "320C",
      "320C",
      "320C",
      "320C",
      "320C",
      "320C",
      "320C",
      "320C",
      "320C",
      "320C",
      "320C",
      "320C",
      "320C",
      "320C",
      "320C",
      "320C",
      "320C",
      "320C",
      "320C",
      "320C",
      "320C",
      "320C",
      "320C",
      "320C",
      "320C",
      "320C",
      "320C",
      "320C",
      "320C",
      "320C",
      "320C",
      "320",
      "322",
      "325",
      "327",
      "330C",
      "330C",
      "330C",
      "330C",
      "330C",
      "330C",
      "330C",
      "330C",
      "330C",
      "330C",
      "330C",
      "330C",
      "330C",
      "330C",
      "330C",
      "330C",
      "330C",
      "330C",
      "330C",
      "330C",
      "330C",
      "330C",
      "330C",
      "330C",
      "330C",
      "330C",
      "330C",
      "330C",
      "330C",
      "330C",
      "330C",
      "330C",
      "330C",
      "330C",
      "330C",
      "330C",
      "330C",
      "330",
      "331",
      "333",
      "336",
      "338",
      "341"
    ],
    "swim:geom": "path",
    "swim:speeds": [
      160,
      187,
      189,
      186,
      238,
      284,
      296,
      311,
      343,
      390,
      435,
      432,
      449,
      456,
      456,
      464,
      473,
      481,
      487,
      491,
      501,
      514,
      514,
      514,
      527,
      530,
      535,
      534,
      534,
      533,
      534,
      534,
      524,
      533,
      532,
      535,
      532,
      532,
      532,
      533,
      532,
      532,
      531,
      532,
      532,
      533,
      533,
      534,
      535,
      534,
      536,
      536,
      536,
      536,
      534,
      533,
      533,
      533,
      533,
      533,
      534,
      534,
      535,
      536,
      536,
      536,
      536,
      537,
      538,
      538,
      538,
      539,
      540,
      540,
      540,
      540,
      540,
      539,
      537,
      537,
      537,
      537,
      537,
      537,
      537,
      538,
      538,
      539,
      539,
      538,
      537,
      537,
      536,
      536,
      535,
      534,
      533,
      533,
      532,
      531,
      530,
      529,
      529,
      529,
      529,
      530,
      530,
      530,
      531,
      531,
      531,
      531,
      532,
      532,
      533,
      533,
      534,
      535,
      535,
      537,
      537,
      537,
      538,
      538,
      538,
      539,
      540,
      540,
      540,
      540,
      538,
      538,
      539,
      542
    ],
    "swim:timestamps": [
      1786400823,
      1786400853,
      1786400884,
      1786400944,
      1786401004,
      1786401064,
      1786401136,
      1786401196,
      1786401256,
      1786401316,
      1786401376,
      1786401428,
      1786401436,
      1786401496,
      1786401548,
      1786401556,
      1786401617,
      1786401677,
      1786401729,
      1786401737,
      1786401797,
      1786401849,
      1786401857,
      1786401909,
      1786401969,
      1786401977,
      1786402037,
      1786402097,
      1786402149,
      1786402157,
      1786402217,
      1786402269,
      1786402338,
      1786402398,
      1786402449,
      1786402519,
      1786402570,
      1786402638,
      1786402690,
      1786402699,
      1786402710,
      1786402750,
      1786402770,
      1786402819,
      1786402830,
      1786402870,
      1786402890,
      1786402930,
      1786402939,
      1786402950,
      1786402990,
      1786403011,
      1786403059,
      1786403071,
      1786403119,
      1786403170,
      1786403179,
      1786403240,
      1786403291,
      1786403360,
      1786403411,
      1786403423,
      1786403480,
      1786403540,
      1786403603,
      1786403660,
      1786403720,
      1786403783,
      1786403840,
      1786403900,
      1786403963,
      1786404021,
      1786404083,
      1786404144,
      1786404201,
      1786404261,
      1786404321,
      1786404381,
      1786404441,
      1786404477,
      1786404504,
      1786404537,
      1786404564,
      1786404597,
      1786404624,
      1786404657,
      1786404684,
      1786404718,
      1786404744,
      1786404778,
      1786404804,
      1786404838,
      1786404864,
      1786404898,
      1786404924,
      1786404958,
      1786404985,
      1786405018,
      1786405045,
      1786405078,
      1786405105,
      1786405138,
      1786405165,
      1786405225,
      1786405258,
      1786405285,
      1786405318,
      1786405345,
      1786405378,
      1786405405,
      1786405439,
      1786405585,
      1786405619,
      1786405645,
      1786405679,
      1786405705,
      1786405739,
      1786405765,
      1786405799,
      1786405859,
      1786405886,
      1786405919,
      1786405946,
      1786405979,
      1786406006,
      1786406039,
      1786406099,
      1786406126,
      1786406160,
      1786406186,
      1786406220,
      1786406246,
      1786406280,
      1786406306
    ],
    "wof:geomhash": "9f984d74ef48a3e78be9d74299e6186d",
    "wof:id": 2047916299,
    "wof:repo": "sfomuseum-data-flights-2026-08"
  },
  "bbox": [
    -122.58305555555555,
    37.632777777777775,
    -113.965,
    48.64833333333333
  ],
  "geometry": {"type":"LineString","coordinates":[[-122.40777777777778,37.632777777777775],[-122.43333333333334,37.65],[-122.46555555555555,37.657777777777774],[-122.52277777777778,37.68222222222222],[-122.58305555555555,37.71611111111111],[-122.57305555555556,37.788333333333334],[-122.50805555555556,37.873333333333335],[-122.4475,37.94555555555555],[-122.38305555555554,38.020833333333336],[-122.3086111111111,38.10777777777778],[-122.22416666666666,38.20611111111111],[-122.1538888888889,38.28583333333333],[-122.13666666666667,38.308611111111105],[-122.10194444444444,38.4325],[-122.08999999999999,38.53194444444444],[-122.08666666666666,38.56305555555555],[-122.07111111111111,38.69583333333333],[-122.05555555555556,38.830555555555556],[-122.0425,38.93222222222222],[-122.03944444444444,38.96666666666667],[-122.00416666666666,39.10444444444445],[-121.94305555555556,39.196666666666665],[-121.92027777777778,39.23277777777778],[-121.85888888888888,39.324444444444445],[-121.77027777777778,39.455555555555556],[-121.76388888888889,39.467222222222226],[-121.66638888888889,39.613055555555555],[-121.57777777777777,39.74472222222222],[-121.50555555555556,39.84861111111111],[-121.48972222222223,39.875],[-121.40111111111112,40.00527777777778],[-121.3111111111111,40.13722222222222],[-121.22722222222222,40.257777777777775],[-121.1325,40.39694444444444],[-121.04194444444444,40.528055555555554],[-120.95444444444445,40.653888888888886],[-120.86138888888888,40.7875],[-120.76916666666666,40.91861111111111],[-120.67805555555556,41.04833333333333],[-120.67972222222222,41.045833333333334],[-120.65944444444445,41.075],[-120.58638888888889,41.17805555555555],[-120.56638888888888,41.20638888888889],[-120.49444444444444,41.3075],[-120.47444444444444,41.33555555555556],[-120.40111111111112,41.43833333333333],[-120.38083333333333,41.466944444444444],[-120.30777777777777,41.568333333333335],[-120.30611111111111,41.57083333333334],[-120.28611111111111,41.59861111111111],[-120.21388888888889,41.69916666666666],[-120.19083333333333,41.730555555555554],[-120.11583333333333,41.83444444444444],[-120.09722222222221,41.86],[-120.02194444444444,41.96333333333334],[-119.93,42.08916666666667],[-119.91666666666667,42.10777777777778],[-119.82166666666666,42.23694444444445],[-119.73916666666666,42.34861111111111],[-119.63,42.49611111111111],[-119.5475,42.60722222222223],[-119.52722222222222,42.634166666666665],[-119.435,42.757222222222225],[-119.33749999999999,42.886944444444445],[-119.23694444444445,43.01972222222222],[-119.14055555555557,43.14666666666667],[-119.04055555555556,43.278055555555554],[-118.94055555555556,43.40833333333333],[-118.84083333333332,43.5375],[-118.74,43.66777777777777],[-118.635,43.802499999999995],[-118.53777777777778,43.926944444444445],[-118.42944444444444,44.06472222222222],[-118.33083333333333,44.189166666666665],[-118.22361111111111,44.32416666666667],[-118.11944444444444,44.45444444444445],[-118.015,44.584722222222226],[-117.91083333333334,44.71361111111111],[-117.80388888888889,44.84305555555556],[-117.73611111111111,44.918055555555554],[-117.6875,44.97027777777778],[-117.61916666666666,45.04361111111111],[-117.57138888888889,45.094722222222224],[-117.50277777777778,45.16777777777777],[-117.44055555555556,45.23416666666667],[-117.38444444444445,45.29361111111111],[-117.335,45.346111111111114],[-117.26555555555555,45.419444444444444],[-117.21694444444445,45.47027777777778],[-117.14833333333334,45.5425],[-117.09833333333333,45.595],[-117.02972222222222,45.66638888888889],[-116.9825,45.71555555555556],[-116.91055555555556,45.79055555555556],[-116.86583333333333,45.83694444444445],[-116.79138888888889,45.91361111111111],[-116.74722222222222,45.95916666666667],[-116.6738888888889,46.03472222222222],[-116.62805555555555,46.081388888888895],[-116.55805555555555,46.153055555555554],[-116.50972222222222,46.202222222222225],[-116.44111111111111,46.27194444444444],[-116.39,46.323888888888895],[-116.27111111111111,46.443888888888885],[-116.2025,46.51305555555555],[-116.15055555555556,46.56527777777777],[-116.0786111111111,46.636944444444445],[-116.02916666666667,46.68611111111111],[-115.94861111111112,46.76638888888889],[-115.90777777777778,46.806666666666665],[-115.82722222222222,46.88638888888889],[-115.53944444444444,47.16861111111111],[-115.45527777777778,47.250277777777775],[-115.40472222222223,47.29972222222222],[-115.33083333333333,47.37083333333334],[-115.27805555555555,47.42194444444444],[-115.20361111111112,47.49333333333333],[-115.15138888888889,47.54333333333333],[-115.07527777777777,47.61611111111111],[-114.94694444444445,47.738055555555555],[-114.89361111111111,47.78861111111111],[-114.81638888888888,47.86138888888889],[-114.76416666666667,47.910555555555554],[-114.68722222222223,47.98277777777778],[-114.63166666666666,48.03472222222222],[-114.5525,48.10861111111111],[-114.44555555555556,48.20805555555556],[-114.36472222222221,48.2825],[-114.31277777777777,48.330555555555556],[-114.23111111111112,48.405833333333334],[-114.18055555555556,48.45194444444445],[-114.09833333333333,48.52722222222222],[-114.0475,48.57333333333334],[-113.965,48.64833333333333]]}
}
