{
  "id": 2047926173,
  "type": "Feature",
  "properties": {
    "geom:area": 0,
    "geom:bbox": "-122.752360,37.424300,-122.116950,38.480280",
    "geom:latitude": 37.84163745728444,
    "geom:longitude": -122.47374837273033,
    "src:alt_label": "swim-approach",
    "src:geom": "swim",
    "swim:elevations": [
      8086,
      7858,
      7585,
      7341,
      7108,
      6893,
      6380,
      5211,
      4911,
      4787,
      4547,
      4017,
      3566,
      3420,
      3379,
      3353,
      3353,
      3353,
      3353,
      3353,
      3353,
      3291,
      3047,
      2786,
      2596,
      2287,
      2110,
      1930,
      1809,
      1682,
      1525,
      1182,
      1121,
      914,
      914,
      891,
      665,
      518,
      426,
      333,
      220,
      151,
      89,
      0
    ],
    "swim:geom": "approach",
    "swim:timestamps": [
      1786479507,
      1786479531,
      1786479557,
      1786479581,
      1786479605,
      1786479627,
      1786479678,
      1786479801,
      1786479835,
      1786479849,
      1786479877,
      1786479940,
      1786479991,
      1786480017,
      1786480030,
      1786480051,
      1786480079,
      1786480091,
      1786480120,
      1786480136,
      1786480142,
      1786480175,
      1786480208,
      1786480246,
      1786480273,
      1786480314,
      1786480338,
      1786480367,
      1786480397,
      1786480419,
      1786480441,
      1786480492,
      1786480501,
      1786480558,
      1786480561,
      1786480568,
      1786480616,
      1786480646,
      1786480667,
      1786480694,
      1786480724,
      1786480746,
      1786480766,
      1786480793
    ],
    "wof:geomhash": "92f4697e26cbfcc56e890324bfac1aac",
    "wof:id": 2047926173,
    "wof:repo": "sfomuseum-data-flights-2026-08"
  },
  "bbox": [
    -122.75236,
    37.4243,
    -122.11695,
    38.48028
  ],
  "geometry": {"type":"LineString","coordinates":[[-122.50569,38.48028],[-122.54151,38.44497],[-122.58035,38.40661],[-122.61582,38.37199],[-122.65122,38.33767],[-122.68286,38.3068],[-122.75236,38.2318],[-122.70875,38.02327],[-122.69296,37.96805],[-122.68641,37.9456],[-122.67177,37.90303],[-122.59257,37.82381],[-122.53011,37.76462],[-122.49948,37.73553],[-122.4856,37.72242],[-122.46288,37.70121],[-122.43653,37.67639],[-122.42457,37.66504],[-122.39733,37.63928],[-122.38308,37.62586],[-122.3774,37.62053],[-122.35611,37.58729],[-122.33521,37.55356],[-122.31164,37.51522],[-122.29474,37.48788],[-122.2688,37.44874],[-122.23873,37.4367],[-122.1991,37.43059],[-122.16007,37.4243],[-122.13345,37.42584],[-122.11695,37.44182],[-122.11888,37.48738],[-122.12474,37.49408],[-122.16942,37.53131],[-122.17245,37.53271],[-122.17939,37.53591],[-122.22777,37.55678],[-122.25786,37.56951],[-122.27659,37.57733],[-122.29681,37.58585],[-122.31781,37.59471],[-122.33307,37.6011],[-122.34719,37.60703],[-122.35966,37.61264]]}
}
