{
  "id": 2047982925,
  "type": "Feature",
  "properties": {
    "geom:area": 0,
    "geom:bbox": "-122.411340,37.629430,-121.264360,38.162070",
    "geom:latitude": 37.9876346267188,
    "geom:longitude": -121.94934357116546,
    "src:alt_label": "swim-takeoff",
    "src:geom": "swim",
    "swim:elevations": [
      301,
      642,
      881,
      1121,
      1193,
      1473,
      1921,
      2255,
      2536,
      2951,
      3171,
      3362,
      3428,
      3660,
      4037,
      4151,
      4578,
      4904,
      5129,
      5204,
      5433,
      5676,
      6062,
      6254,
      6550,
      6792,
      6925
    ],
    "swim:geom": "takeoff",
    "swim:timestamps": [
      1786836597,
      1786836627,
      1786836651,
      1786836688,
      1786836702,
      1786836739,
      1786836776,
      1786836804,
      1786836828,
      1786836864,
      1786836896,
      1786836928,
      1786836937,
      1786836977,
      1786837013,
      1786837025,
      1786837070,
      1786837106,
      1786837133,
      1786837142,
      1786837172,
      1786837202,
      1786837252,
      1786837279,
      1786837313,
      1786837347,
      1786837369
    ],
    "wof:geomhash": "7981e55dcead7d9f6b43b1253c590b35",
    "wof:id": 2047982925,
    "wof:repo": "sfomuseum-data-flights-2026-08"
  },
  "bbox": [
    -122.41134,
    37.62943,
    -121.26436,
    38.16207
  ],
  "geometry": {"type":"LineString","coordinates":[[-122.39953,37.62943],[-122.41134,37.65183],[-122.39676,37.67007],[-122.36771,37.69637],[-122.35456,37.70872],[-122.33518,37.75073],[-122.35823,37.79625],[-122.37432,37.82974],[-122.38353,37.86157],[-122.38286,37.91148],[-122.35186,37.94742],[-122.29175,37.96091],[-122.27421,37.96373],[-122.19259,37.97916],[-122.11488,37.99502],[-122.08891,38.00032],[-121.98974,38.01999],[-121.90721,38.03638],[-121.84488,38.04875],[-121.82385,38.05284],[-121.75302,38.06689],[-121.68105,38.08101],[-121.55952,38.10487],[-121.49221,38.11799],[-121.40661,38.13457],[-121.31967,38.1514],[-121.26436,38.16207]]}
}
