{
  "id": 2047901617,
  "type": "Feature",
  "properties": {
    "geom:area": 0,
    "geom:bbox": "-122.526750,37.625980,-121.248330,38.497700",
    "geom:latitude": 38.10120955609922,
    "geom:longitude": -121.98440212579466,
    "src:alt_label": "swim-takeoff",
    "src:geom": "swim",
    "swim:elevations": [
      206,
      509,
      774,
      1042,
      1321,
      1589,
      1809,
      2134,
      2518,
      2875,
      2961,
      3229,
      3452,
      3565,
      3763,
      4001,
      4203,
      4644,
      4914,
      5071,
      5467,
      5725,
      5867,
      6178,
      6260,
      6410,
      6650,
      6880,
      6957,
      7242,
      7449,
      7542
    ],
    "swim:geom": "takeoff",
    "swim:timestamps": [
      1786341110,
      1786341136,
      1786341178,
      1786341209,
      1786341236,
      1786341260,
      1786341281,
      1786341311,
      1786341347,
      1786341382,
      1786341390,
      1786341417,
      1786341461,
      1786341479,
      1786341506,
      1786341530,
      1786341551,
      1786341590,
      1786341617,
      1786341632,
      1786341680,
      1786341716,
      1786341734,
      1786341773,
      1786341783,
      1786341800,
      1786341830,
      1786341864,
      1786341878,
      1786341922,
      1786341950,
      1786341965
    ],
    "wof:geomhash": "cd02eab28cb714e413bb0ceea7fde904",
    "wof:id": 2047901617,
    "wof:repo": "sfomuseum-data-flights-2026-08"
  },
  "bbox": [
    -122.52675,
    37.62598,
    -121.24833,
    38.4977
  ],
  "geometry": {"type":"LineString","coordinates":[[-122.39251,37.62598],[-122.41668,37.63627],[-122.46069,37.65492],[-122.4974,37.67096],[-122.5238,37.69499],[-122.52612,37.72495],[-122.52675,37.75218],[-122.52232,37.79174],[-122.47514,37.82498],[-122.42099,37.84877],[-122.40951,37.85583],[-122.37103,37.8823],[-122.30285,37.92927],[-122.27292,37.94997],[-122.22636,37.98237],[-122.18264,38.01235],[-122.14471,38.03835],[-122.07406,38.08706],[-122.02503,38.12105],[-121.99739,38.13997],[-121.90833,38.20113],[-121.83235,38.24097],[-121.79183,38.25888],[-121.70413,38.29762],[-121.68056,38.308],[-121.64061,38.3256],[-121.57114,38.35618],[-121.49199,38.39096],[-121.45706,38.40623],[-121.35208,38.45231],[-121.28301,38.48249],[-121.24833,38.4977]]}
}
