{
  "id": 2047990859,
  "type": "Feature",
  "properties": {
    "date:cessation_lower": "2026-08-16",
    "date:cessation_upper": "2026-08-16",
    "date:inception_lower": "1970-01-01",
    "date:inception_upper": "1970-01-01",
    "edtf:cessation": "2026-08-16T15:37:01-07:00",
    "edtf:inception": "1970-01-01T00:00:00Z",
    "flysfo:actual_timestamp": -1,
    "flysfo:airline": "AS",
    "flysfo:base_airline": "",
    "flysfo:base_flight_number": "9319",
    "flysfo:date": "2026-08-16",
    "flysfo:estimated_timestamp": 1786945440,
    "flysfo:event": "A",
    "flysfo:flight_number": "AS291",
    "flysfo:gate": "B5",
    "flysfo:journey": "SAN-SFO",
    "flysfo:scheduled_timestamp": 1786946880,
    "flysfo:timestamp": 1786946880,
    "geom:area": 0,
    "geom:bbox": "-117.185927,0.000000,0.000000,32.733534",
    "geom:latitude": 16.366767,
    "geom:longitude": -58.5929635,
    "iata:airline": "AS",
    "iata:base_airline": "",
    "icao:aircraft": "B39M",
    "icao:airline": "ASA",
    "icao:base_airline": "AAL",
    "lbl:latitude": 37.61799,
    "lbl:longitude": -122.370943,
    "sfomuseum:aircraft_id": 1528104577,
    "sfomuseum:airline_id": 1159283813,
    "sfomuseum:arrival_id": 102527513,
    "sfomuseum:base_flight_id": "20260816-A-AAL-9319",
    "sfomuseum:departure_id": 102528997,
    "sfomuseum:flight_id": "20260816-A-ASA-291",
    "sfomuseum:flight_number": [
      "ASA291",
      "AS291"
    ],
    "sfomuseum:placetype": "flight",
    "src:geom": "flysfo",
    "src:geom_alt": [
      "swim-approach"
    ],
    "swim:tail_number": "N716AL",
    "wof:belongsto": [],
    "wof:country": "US",
    "wof:created": 1786983048,
    "wof:geomhash": "51cc918e7f749c74c277866ead062874",
    "wof:hierarchy": [
      {
        "custom_id": 2047990859,
        "flight_id": 2047990859
      }
    ],
    "wof:id": 2047990859,
    "wof:involves": [
      1159283849,
      1528104577,
      102527513,
      102528997,
      1159283813,
      1947304299
    ],
    "wof:lastmodified": 1786984036,
    "wof:name": "AS291 (SAN-SFO)",
    "wof:parent_id": -1,
    "wof:placetype": "custom",
    "wof:placetype_alt": [
      "flight"
    ],
    "wof:repo": "sfomuseum-data-flights-2026-08",
    "wof:superseded_by": [],
    "wof:supersedes": []
  },
  "bbox": [
    -117.185927,
    0,
    0,
    32.733534
  ],
  "geometry": {"type":"MultiPoint","coordinates":[[-117.185927,32.733534],[0,0]]}
}
