{
  "id": 2047941313,
  "type": "Feature",
  "properties": {
    "geom:area": 0,
    "geom:bbox": "-122.350000,34.124722,-118.366667,37.600000",
    "geom:latitude": 35.84401513262208,
    "geom:longitude": -120.467280222961,
    "src:alt_label": "swim-path",
    "src:geom": "swim",
    "swim:altitudes": [
      "023",
      "032",
      "063",
      "093",
      "128",
      "155",
      "183",
      "209",
      "228",
      "254",
      "278C",
      "280C",
      "280C",
      "280C",
      "280C",
      "280C",
      "280C",
      "280C",
      "280C",
      "280C",
      "280C",
      "280C",
      "280C",
      "280C",
      "280C",
      "280C",
      "280C",
      "280",
      "280",
      "280",
      "272",
      "259",
      "241",
      "232",
      "219",
      "202",
      "192",
      "177",
      "167",
      "155",
      "143",
      "133",
      "126",
      "120",
      "112",
      "102",
      "100",
      "098",
      "092",
      "088",
      "082",
      "076",
      "070",
      "062",
      "059",
      "053",
      "044",
      "040",
      "036",
      "032",
      "030",
      "024",
      "019",
      "014",
      "009",
      "006",
      "003"
    ],
    "swim:geom": "path",
    "swim:speeds": [
      174,
      200,
      247,
      286,
      299,
      326,
      346,
      361,
      369,
      397,
      403,
      427,
      466,
      468,
      468,
      468,
      467,
      468,
      469,
      470,
      472,
      473,
      469,
      468,
      467,
      466,
      464,
      464,
      465,
      466,
      466,
      467,
      455,
      459,
      456,
      451,
      429,
      419,
      403,
      398,
      392,
      380,
      347,
      328,
      316,
      316,
      305,
      301,
      299,
      288,
      263,
      258,
      245,
      247,
      247,
      246,
      248,
      247,
      239,
      238,
      213,
      206,
      191,
      182,
      143,
      147,
      142
    ],
    "swim:timestamps": [
      1786569762,
      1786569789,
      1786569849,
      1786569909,
      1786569969,
      1786570029,
      1786570089,
      1786570149,
      1786570210,
      1786570269,
      1786570330,
      1786570391,
      1786570450,
      1786570511,
      1786570571,
      1786570631,
      1786570690,
      1786570750,
      1786570811,
      1786570871,
      1786570930,
      1786570991,
      1786571051,
      1786571112,
      1786571171,
      1786571231,
      1786571291,
      1786571351,
      1786571412,
      1786571472,
      1786571532,
      1786571592,
      1786571629,
      1786571652,
      1786571671,
      1786571713,
      1786571731,
      1786571773,
      1786571791,
      1786571833,
      1786571852,
      1786571893,
      1786571912,
      1786571953,
      1786571971,
      1786572013,
      1786572032,
      1786572073,
      1786572092,
      1786572133,
      1786572157,
      1786572193,
      1786572212,
      1786572253,
      1786572277,
      1786572313,
      1786572337,
      1786572374,
      1786572392,
      1786572434,
      1786572457,
      1786572494,
      1786572512,
      1786572554,
      1786572577,
      1786572626,
      1786572632
    ],
    "wof:geomhash": "47c823e561838a7b80ea8afc0d059c65",
    "wof:id": 2047941313,
    "wof:repo": "sfomuseum-data-flights-2026-08"
  },
  "bbox": [
    -122.35,
    34.124722222222225,
    -118.36666666666666,
    37.6
  ],
  "geometry": {"type":"LineString","coordinates":[[-118.36666666666666,34.166666666666664],[-118.37916666666666,34.156388888888884],[-118.44111111111111,34.124722222222225],[-118.5,34.181666666666665],[-118.55111111111111,34.25388888888889],[-118.60555555555555,34.33083333333334],[-118.66305555555556,34.4125],[-118.72416666666666,34.498333333333335],[-118.78416666666666,34.58166666666667],[-118.85777777777777,34.68583333333333],[-118.93027777777779,34.782222222222224],[-119.02444444444444,34.84861111111111],[-119.16861111111112,34.94138888888889],[-119.27277777777778,35.00833333333333],[-119.4225,35.10416666666667],[-119.54833333333333,35.18388888888889],[-119.66916666666667,35.26],[-119.79527777777777,35.33972222222222],[-119.92444444444445,35.42111111111111],[-120.05138888888888,35.50055555555556],[-120.17888888888889,35.57972222222222],[-120.30805555555555,35.66027777777778],[-120.43666666666667,35.717777777777776],[-120.56805555555555,35.794999999999995],[-120.68361111111112,35.87888888888889],[-120.80277777777778,35.96527777777778],[-120.91916666666667,36.049166666666665],[-121.02194444444444,36.14805555555556],[-121.12305555555555,36.25416666666667],[-121.22500000000001,36.35333333333333],[-121.33749999999999,36.44555555555555],[-121.45,36.538888888888884],[-121.53333333333333,36.6],[-121.56138888888889,36.63055555555555],[-121.6,36.666666666666664],[-121.66972222222223,36.72],[-121.71666666666667,36.75],[-121.7961111111111,36.778055555555554],[-121.85,36.78333333333333],[-121.91333333333334,36.82027777777778],[-121.93333333333334,36.86666666666667],[-121.94833333333334,36.9225],[-121.95,36.96666666666667],[-121.9775,37.015],[-122,37.05],[-122.0125,37.10472222222222],[-122.03333333333333,37.13333333333333],[-122.05499999999999,37.17361111111111],[-122.08333333333333,37.2],[-122.1125,37.24138888888889],[-122.13333333333334,37.28333333333333],[-122.16416666666667,37.30222222222222],[-122.18333333333334,37.333333333333336],[-122.21083333333334,37.358333333333334],[-122.2,37.4],[-122.16666666666667,37.405833333333334],[-122.13333333333334,37.43333333333333],[-122.1261111111111,37.45638888888889],[-122.15,37.483333333333334],[-122.16833333333334,37.51305555555555],[-122.2,37.55],[-122.21944444444445,37.55555555555555],[-122.25,37.56666666666667],[-122.2775,37.580000000000005],[-122.3,37.583333333333336],[-122.32305555555556,37.59916666666667],[-122.35,37.6]]}
}
