{
  "id": 2032091285,
  "type": "Feature",
  "properties": {
    "geom:area": 0,
    "geom:bbox": "-122.400830,37.627110,-121.247180,38.424450",
    "geom:latitude": 38.08568558171284,
    "geom:longitude": -121.93095541145105,
    "src:alt_label": "swim-takeoff",
    "src:geom": "swim",
    "swim:elevations": [
      183,
      385,
      819,
      1143,
      1336,
      1723,
      1895,
      2271,
      2497,
      2696,
      2921,
      3076,
      3255,
      3508,
      3720,
      3828,
      3924,
      4065,
      4255,
      4775,
      5225,
      5365,
      5613,
      5797,
      6038,
      6199,
      6339,
      6380,
      6428
    ],
    "swim:geom": "takeoff",
    "swim:timestamps": [
      1785795116,
      1785795130,
      1785795207,
      1785795235,
      1785795254,
      1785795298,
      1785795313,
      1785795346,
      1785795371,
      1785795393,
      1785795417,
      1785795433,
      1785795472,
      1785795535,
      1785795563,
      1785795578,
      1785795597,
      1785795613,
      1785795633,
      1785795711,
      1785795773,
      1785795794,
      1785795828,
      1785795851,
      1785795892,
      1785795915,
      1785795941,
      1785795953,
      1785795965
    ],
    "wof:geomhash": "4ce12367e4429295ab4add4dcfc88cee",
    "wof:id": 2032091285,
    "wof:repo": "sfomuseum-data-flights-2026-08"
  },
  "bbox": [
    -122.40083,
    37.62711,
    -121.24718,
    38.42445
  ],
  "geometry": {"type":"LineString","coordinates":[[-122.38942,37.62711],[-122.40083,37.63398],[-122.36134,37.70112],[-122.33788,37.7319],[-122.3412,37.75462],[-122.36704,37.80789],[-122.37661,37.82648],[-122.38585,37.86906],[-122.38475,37.90242],[-122.37934,37.93143],[-122.34949,37.95539],[-122.32548,37.96479],[-122.26046,37.99009],[-122.14436,38.03695],[-122.08905,38.05909],[-122.05788,38.07155],[-122.02181,38.0862],[-121.98739,38.10016],[-121.94797,38.11603],[-121.78445,38.18064],[-121.65177,38.23294],[-121.60689,38.2506],[-121.53422,38.27924],[-121.48194,38.29995],[-121.39217,38.33606],[-121.34708,38.3617],[-121.29482,38.39446],[-121.27121,38.40936],[-121.24718,38.42445]]}
}
