{
  "id": 2032102145,
  "type": "Feature",
  "properties": {
    "geom:area": 0,
    "geom:bbox": "-122.333333,32.733333,-117.216667,37.600000",
    "geom:latitude": 35.106614049587286,
    "geom:longitude": -120.06056823106456,
    "src:alt_label": "swim-path",
    "src:geom": "swim",
    "swim:altitudes": [
      "007",
      "038",
      "048",
      "068",
      "080",
      "107",
      "126",
      "172",
      "194",
      "220",
      "239",
      "256",
      "274",
      "289",
      "305",
      "323",
      "340",
      "354",
      "360C",
      "360C",
      "360C",
      "360C",
      "360C",
      "360C",
      "360C",
      "360C",
      "360C",
      "360C",
      "360C",
      "360C",
      "360C",
      "360C",
      "360C",
      "360C",
      "360C",
      "360C",
      "360C",
      "360C",
      "360C",
      "360C",
      "360C",
      "360C",
      "360C",
      "360C",
      "360C",
      "360",
      "360",
      "348",
      "344",
      "329",
      "326",
      "314",
      "312",
      "304",
      "302",
      "294",
      "274",
      "254",
      "244",
      "224",
      "217",
      "199",
      "194",
      "187",
      "171",
      "163",
      "156",
      "148",
      "141",
      "133",
      "126",
      "116",
      "105",
      "100",
      "091",
      "075",
      "069",
      "061",
      "060",
      "060",
      "059",
      "054",
      "044",
      "040",
      "038",
      "031",
      "020",
      "016",
      "007",
      "004"
    ],
    "swim:geom": "path",
    "swim:speeds": [
      176,
      254,
      266,
      273,
      271,
      290,
      338,
      382,
      409,
      408,
      417,
      432,
      438,
      447,
      453,
      452,
      449,
      443,
      442,
      442,
      440,
      440,
      440,
      441,
      441,
      441,
      442,
      444,
      443,
      445,
      445,
      445,
      445,
      444,
      444,
      444,
      444,
      444,
      444,
      444,
      427,
      422,
      422,
      430,
      430,
      432,
      432,
      434,
      436,
      424,
      419,
      403,
      403,
      397,
      396,
      395,
      382,
      382,
      380,
      370,
      361,
      348,
      348,
      339,
      333,
      335,
      330,
      328,
      320,
      318,
      310,
      261,
      256,
      250,
      249,
      248,
      247,
      246,
      242,
      238,
      217,
      218,
      216,
      212,
      203,
      201,
      197,
      195,
      159,
      153
    ],
    "swim:timestamps": [
      1785862766,
      1785862846,
      1785862871,
      1785862906,
      1785862931,
      1785862992,
      1785863052,
      1785863172,
      1785863232,
      1785863292,
      1785863352,
      1785863412,
      1785863472,
      1785863532,
      1785863592,
      1785863653,
      1785863713,
      1785863773,
      1785863833,
      1785863893,
      1785863953,
      1785864013,
      1785864065,
      1785864073,
      1785864133,
      1785864185,
      1785864193,
      1785864245,
      1785864253,
      1785864366,
      1785864374,
      1785864434,
      1785864486,
      1785864494,
      1785864546,
      1785864554,
      1785864614,
      1785864666,
      1785864674,
      1785864726,
      1785864786,
      1785864846,
      1785864854,
      1785864906,
      1785864914,
      1785864966,
      1785864974,
      1785865027,
      1785865035,
      1785865087,
      1785865095,
      1785865147,
      1785865155,
      1785865207,
      1785865215,
      1785865267,
      1785865387,
      1785865507,
      1785865567,
      1785865687,
      1785865727,
      1785865836,
      1785865868,
      1785865890,
      1785865950,
      1785865988,
      1785866010,
      1785866048,
      1785866070,
      1785866108,
      1785866130,
      1785866190,
      1785866228,
      1785866250,
      1785866288,
      1785866348,
      1785866371,
      1785866408,
      1785866431,
      1785866469,
      1785866491,
      1785866529,
      1785866589,
      1785866610,
      1785866670,
      1785866731,
      1785866796,
      1785866829,
      1785866889,
      1785866911
    ],
    "wof:geomhash": "ad64fcc7653b10c25010aadfa35f4478",
    "wof:id": 2032102145,
    "wof:repo": "sfomuseum-data-flights-2026-08"
  },
  "bbox": [
    -122.33333333333333,
    32.733333333333334,
    -117.21666666666667,
    37.6
  ],
  "geometry": {"type":"LineString","coordinates":[[-117.21666666666667,32.733333333333334],[-117.28333333333333,32.78333333333333],[-117.31388888888888,32.79722222222222],[-117.36666666666666,32.833333333333336],[-117.38555555555556,32.843333333333334],[-117.46138888888889,32.89222222222222],[-117.54666666666667,32.94694444444444],[-117.73916666666666,33.07361111111111],[-117.82722222222222,33.15972222222222],[-117.91888888888889,33.24138888888889],[-118.01722222222222,33.323888888888895],[-118.11833333333333,33.40833333333333],[-118.22333333333333,33.49583333333334],[-118.32888888888888,33.583333333333336],[-118.44027777777778,33.675555555555555],[-118.55,33.76611111111111],[-118.65777777777778,33.85472222222222],[-118.7625,33.94083333333333],[-118.86749999999999,34.026666666666664],[-118.97222222222223,34.112500000000004],[-119.09166666666667,34.184999999999995],[-119.20416666666667,34.263888888888886],[-119.27972222222222,34.32916666666667],[-119.30583333333333,34.35111111111111],[-119.4088888888889,34.43944444444444],[-119.5,34.51777777777777],[-119.51222222222222,34.52833333333333],[-119.59444444444443,34.598333333333336],[-119.61638888888888,34.617222222222225],[-119.80333333333333,34.77583333333333],[-119.82277777777777,34.7925],[-119.92666666666668,34.88055555555555],[-120.01472222222222,34.95472222222222],[-120.0325,34.969722222222224],[-120.11861111111111,35.041666666666664],[-120.13583333333334,35.05638888888888],[-120.24027777777778,35.14388888888889],[-120.33166666666666,35.220555555555556],[-120.34555555555555,35.23222222222223],[-120.43666666666667,35.308055555555555],[-120.5461111111111,35.39833333333333],[-120.64694444444446,35.48277777777778],[-120.65111111111112,35.48777777777778],[-120.68333333333334,35.59805555555556],[-120.68361111111112,35.602222222222224],[-120.69444444444444,35.718333333333334],[-120.69638888888889,35.74027777777778],[-120.70527777777778,35.84027777777778],[-120.7075,35.86194444444445],[-120.75861111111111,35.947222222222216],[-120.78083333333333,35.9575],[-120.89250000000001,35.96027777777778],[-120.91666666666667,35.958333333333336],[-121.0261111111111,35.95],[-121.05083333333333,35.948055555555555],[-121.16000000000001,35.939722222222215],[-121.4225,35.91861111111111],[-121.57,36.05916666666666],[-121.60138888888888,36.16277777777778],[-121.66027777777778,36.36333333333334],[-121.68333333333334,36.43333333333333],[-121.78333333333333,36.6],[-121.80722222222222,36.63194444444444],[-121.83333333333333,36.666666666666664],[-121.9,36.75],[-121.91000000000001,36.79888888888889],[-121.91666666666667,36.833333333333336],[-121.93472222222222,36.88666666666666],[-121.95,36.916666666666664],[-121.96138888888889,36.973055555555554],[-121.98333333333333,37.016666666666666],[-122,37.083333333333336],[-122.03055555555555,37.11972222222222],[-122.05,37.13333333333333],[-122.09166666666667,37.16861111111111],[-122.15277777777779,37.21638888888889],[-122.18333333333334,37.233333333333334],[-122.19638888888889,37.27111111111111],[-122.18333333333334,37.3],[-122.155,37.328611111111115],[-122.13333333333334,37.35],[-122.12444444444444,37.38361111111111],[-122.09444444444443,37.43833333333333],[-122.08333333333333,37.46666666666667],[-122.11666666666666,37.516666666666666],[-122.18333333333334,37.53333333333333],[-122.25,37.56666666666667],[-122.27,37.57694444444445],[-122.32,37.59777777777778],[-122.33333333333333,37.6]]}
}
