{
  "id": 2032130107,
  "type": "Feature",
  "properties": {
    "geom:area": 0,
    "geom:bbox": "-122.759120,37.413200,-122.085190,38.511130",
    "geom:latitude": 37.834193923891085,
    "geom:longitude": -122.46708878046925,
    "src:alt_label": "swim-approach",
    "src:geom": "swim",
    "swim:elevations": [
      8122,
      7815,
      7585,
      7284,
      7066,
      6892,
      6779,
      6374,
      6153,
      5805,
      5561,
      5231,
      5143,
      4711,
      4621,
      4328,
      4000,
      3945,
      3705,
      3668,
      3627,
      3565,
      3391,
      3353,
      3353,
      3353,
      3268,
      2926,
      2706,
      2601,
      2194,
      1949,
      1866,
      1563,
      1434,
      1216,
      1219,
      1219,
      1227,
      1037,
      976,
      781,
      702,
      648,
      480,
      365,
      292,
      173,
      65
    ],
    "swim:geom": "approach",
    "swim:timestamps": [
      1786025337,
      1786025366,
      1786025388,
      1786025418,
      1786025441,
      1786025458,
      1786025469,
      1786025512,
      1786025536,
      1786025572,
      1786025599,
      1786025632,
      1786025641,
      1786025686,
      1786025694,
      1786025723,
      1786025757,
      1786025764,
      1786025788,
      1786025794,
      1786025816,
      1786025865,
      1786025898,
      1786025935,
      1786025942,
      1786025971,
      1786026002,
      1786026050,
      1786026078,
      1786026090,
      1786026147,
      1786026177,
      1786026187,
      1786026233,
      1786026254,
      1786026295,
      1786026314,
      1786026358,
      1786026364,
      1786026415,
      1786026435,
      1786026478,
      1786026502,
      1786026514,
      1786026564,
      1786026595,
      1786026618,
      1786026655,
      1786026684
    ],
    "wof:geomhash": "e8f3d244c943476ae390b15e770755ae",
    "wof:id": 2032130107,
    "wof:repo": "sfomuseum-data-flights-2026-08"
  },
  "bbox": [
    -122.75912,
    37.4132,
    -122.08519,
    38.51113
  ],
  "geometry": {"type":"LineString","coordinates":[[-122.54694,38.51113],[-122.58293,38.46447],[-122.60936,38.42927],[-122.64591,38.38175],[-122.67384,38.3458],[-122.6934,38.32052],[-122.70743,38.30231],[-122.75443,38.23708],[-122.75912,38.19737],[-122.74128,38.13687],[-122.72901,38.09426],[-122.71346,38.04044],[-122.70947,38.02627],[-122.68958,37.95633],[-122.68586,37.9432],[-122.67022,37.89903],[-122.6281,37.85743],[-122.61946,37.84939],[-122.58799,37.81955],[-122.58164,37.81353],[-122.55615,37.78945],[-122.50529,37.74103],[-122.47432,37.71141],[-122.43918,37.67859],[-122.43192,37.67185],[-122.40499,37.64664],[-122.37533,37.61864],[-122.34266,37.57209],[-122.32828,37.54377],[-122.32129,37.53116],[-122.28695,37.4745],[-122.25671,37.4532],[-122.2439,37.44912],[-122.18455,37.43107],[-122.15741,37.42238],[-122.10635,37.4132],[-122.08519,37.42642],[-122.0935,37.47122],[-122.09759,37.47589],[-122.13515,37.51565],[-122.15438,37.52565],[-122.19422,37.54265],[-122.21595,37.55186],[-122.22552,37.55588],[-122.264,37.57207],[-122.28571,37.58124],[-122.30192,37.58802],[-122.3285,37.59915],[-122.34798,37.60732]]}
}
