{
  "id": 2048039093,
  "type": "Feature",
  "properties": {
    "geom:area": 0,
    "geom:bbox": "-122.543010,36.746380,-121.477280,37.667360",
    "geom:latitude": 37.2022252479689,
    "geom:longitude": -122.06682043152135,
    "src:alt_label": "swim-takeoff",
    "src:geom": "swim",
    "swim:elevations": [
      749,
      1150,
      1402,
      1694,
      2325,
      2609,
      2834,
      3223,
      3442,
      3737,
      4075,
      4384,
      4848,
      5051,
      5281,
      5673,
      5995,
      6089,
      6665,
      6785,
      7029,
      7174,
      7339,
      7608,
      7857,
      8169,
      8307
    ],
    "swim:geom": "takeoff",
    "swim:timestamps": [
      1786987630,
      1786987668,
      1786987688,
      1786987713,
      1786987767,
      1786987788,
      1786987806,
      1786987843,
      1786987884,
      1786987913,
      1786987940,
      1786987968,
      1786988005,
      1786988022,
      1786988046,
      1786988085,
      1786988121,
      1786988131,
      1786988186,
      1786988201,
      1786988239,
      1786988260,
      1786988284,
      1786988318,
      1786988351,
      1786988395,
      1786988414
    ],
    "wof:geomhash": "2f48e2babf3022c03034ce1d42f0cc5b",
    "wof:id": 2048039093,
    "wof:repo": "sfomuseum-data-flights-2026-08"
  },
  "bbox": [
    -122.54301,
    36.74638,
    -121.47728,
    37.66736
  ],
  "geometry": {"type":"LineString","coordinates":[[-122.46085,37.65617],[-122.51023,37.66736],[-122.53515,37.65396],[-122.54301,37.62677],[-122.51206,37.56415],[-122.49928,37.53868],[-122.48849,37.51688],[-122.45498,37.47567],[-122.39634,37.43247],[-122.35279,37.40053],[-122.31035,37.36951],[-122.26682,37.3376],[-122.20767,37.29348],[-122.17969,37.27279],[-122.14117,37.24414],[-122.07618,37.19579],[-122.01402,37.14945],[-121.99759,37.13723],[-121.90115,37.06557],[-121.87485,37.04592],[-121.80698,36.99545],[-121.76825,36.96644],[-121.72376,36.9331],[-121.65991,36.88505],[-121.5985,36.83805],[-121.51446,36.77458],[-121.47728,36.74638]]}
}
