{
  "id": 2032116591,
  "type": "Feature",
  "properties": {
    "geom:area": 0,
    "geom:bbox": "-122.307100,36.719020,-122.021310,37.592370",
    "geom:latitude": 37.16686756756532,
    "geom:longitude": -122.14381642164639,
    "src:alt_label": "swim-approach",
    "src:geom": "swim",
    "swim:elevations": [
      3200,
      3135,
      3048,
      3048,
      3048,
      3048,
      3048,
      3048,
      3048,
      3048,
      3048,
      3048,
      3035,
      2948,
      2849,
      2801,
      2745,
      2744,
      2743,
      2743,
      2743,
      2711,
      2587,
      2560,
      2527,
      2522,
      2424,
      2180,
      2134,
      2027,
      1764,
      1723,
      1556,
      1549,
      1526,
      1190,
      1105,
      1038,
      931,
      700,
      664,
      551,
      475,
      444,
      355,
      326
    ],
    "swim:geom": "approach",
    "swim:timestamps": [
      1785921950,
      1785921960,
      1785921990,
      1785922004,
      1785922046,
      1785922052,
      1785922102,
      1785922114,
      1785922151,
      1785922170,
      1785922180,
      1785922208,
      1785922244,
      1785922266,
      1785922281,
      1785922292,
      1785922309,
      1785922320,
      1785922343,
      1785922358,
      1785922392,
      1785922421,
      1785922440,
      1785922446,
      1785922455,
      1785922460,
      1785922502,
      1785922541,
      1785922570,
      1785922596,
      1785922644,
      1785922650,
      1785922682,
      1785922687,
      1785922701,
      1785922764,
      1785922780,
      1785922789,
      1785922809,
      1785922853,
      1785922858,
      1785922885,
      1785922898,
      1785922902,
      1785922910,
      1785922914
    ],
    "wof:geomhash": "cafdb0309347e46cc1f2ea5331012af4",
    "wof:id": 2032116591,
    "wof:repo": "sfomuseum-data-flights-2026-08"
  },
  "bbox": [
    -122.3071,
    36.71902,
    -122.02131,
    37.59237
  ],
  "geometry": {"type":"LineString","coordinates":[[-122.29564,36.71902],[-122.28192,36.72844],[-122.23553,36.74907],[-122.21315,36.75887],[-122.15474,36.79433],[-122.1472,36.80089],[-122.08667,36.85417],[-122.07273,36.86641],[-122.03034,36.90639],[-122.02131,36.93377],[-122.02172,36.94814],[-122.03063,36.98751],[-122.04167,37.03731],[-122.04918,37.06973],[-122.05401,37.09015],[-122.05746,37.10476],[-122.0629,37.12876],[-122.06602,37.14267],[-122.07266,37.17222],[-122.08165,37.18951],[-122.11678,37.21918],[-122.14881,37.24534],[-122.1682,37.26108],[-122.17395,37.26576],[-122.18432,37.274],[-122.18856,37.27738],[-122.22582,37.31572],[-122.23653,37.35987],[-122.21138,37.38277],[-122.17503,37.38481],[-122.1358,37.42325],[-122.13392,37.43036],[-122.12434,37.46596],[-122.12316,37.47039],[-122.11963,37.48644],[-122.17251,37.53609],[-122.18966,37.54302],[-122.20011,37.54734],[-122.22048,37.55612],[-122.26092,37.57305],[-122.26503,37.57481],[-122.28653,37.58363],[-122.29545,37.58726],[-122.29826,37.58853],[-122.30414,37.59107],[-122.3071,37.59237]]}
}
