{
  "id": 2047982047,
  "type": "Feature",
  "properties": {
    "geom:area": 0,
    "geom:bbox": "-122.402070,37.623750,-121.246000,38.434710",
    "geom:latitude": 38.05937629698323,
    "geom:longitude": -121.85403788295275,
    "src:alt_label": "swim-takeoff",
    "src:geom": "swim",
    "swim:elevations": [
      183,
      491,
      692,
      906,
      1011,
      1172,
      1308,
      2016,
      2393,
      2747,
      2892,
      3297,
      3385,
      3478,
      3656,
      4040,
      4459,
      4715,
      4883,
      5056,
      5338,
      5586,
      5845,
      6135,
      6360,
      6480,
      6739,
      6854
    ],
    "swim:geom": "takeoff",
    "swim:timestamps": [
      1786828549,
      1786828577,
      1786828613,
      1786828646,
      1786828658,
      1786828670,
      1786828681,
      1786828731,
      1786828761,
      1786828789,
      1786828801,
      1786828857,
      1786828880,
      1786828903,
      1786828924,
      1786828964,
      1786829005,
      1786829034,
      1786829057,
      1786829078,
      1786829112,
      1786829145,
      1786829177,
      1786829215,
      1786829247,
      1786829266,
      1786829308,
      1786829325
    ],
    "wof:geomhash": "3ec7427d87d7c81a793c4f55fd1bdd06",
    "wof:id": 2047982047,
    "wof:repo": "sfomuseum-data-flights-2026-08"
  },
  "bbox": [
    -122.40207,
    37.62375,
    -121.246,
    38.43471
  ],
  "geometry": {"type":"LineString","coordinates":[[-122.38703,37.62375],[-122.40207,37.63889],[-122.37748,37.66196],[-122.33493,37.67569],[-122.31863,37.68091],[-122.29956,37.68721],[-122.28368,37.6926],[-122.21048,37.71979],[-122.17765,37.74992],[-122.15298,37.78188],[-122.14123,37.79669],[-122.08355,37.86316],[-122.057,37.89219],[-122.02739,37.92441],[-121.99961,37.95461],[-121.9458,38.0135],[-121.89107,38.07342],[-121.85039,38.11804],[-121.8188,38.15253],[-121.78886,38.18533],[-121.73028,38.2334],[-121.65794,38.26227],[-121.58685,38.292],[-121.50174,38.32778],[-121.42874,38.35842],[-121.3831,38.37755],[-121.28593,38.41811],[-121.246,38.43471]]}
}
