{
  "id": 2032106685,
  "type": "Feature",
  "properties": {
    "geom:area": 0,
    "geom:bbox": "-122.402222,37.629167,-104.683333,40.845000",
    "geom:latitude": 40.1221909262938,
    "geom:longitude": -113.4065117390232,
    "src:alt_label": "swim-path",
    "src:geom": "swim",
    "swim:altitudes": [
      "004",
      "009",
      "031",
      "038",
      "047",
      "090",
      "110",
      "118",
      "132",
      "150",
      "197",
      "228",
      "242",
      "253",
      "264",
      "278",
      "289",
      "293",
      "308",
      "321",
      "340",
      "348C",
      "350C",
      "350C",
      "350C",
      "350C",
      "350C",
      "350C",
      "350C",
      "350C",
      "350C",
      "350C",
      "350C",
      "350C",
      "350C",
      "350C",
      "350C",
      "350C",
      "350C",
      "350C",
      "350C",
      "350C",
      "350C",
      "350C",
      "350C",
      "350C",
      "350C",
      "350C",
      "350C",
      "350C",
      "350C",
      "350C",
      "350C",
      "350C",
      "350C",
      "350C",
      "350C",
      "350C",
      "350C",
      "350C",
      "350C",
      "350C",
      "350C",
      "350C",
      "350C",
      "350C",
      "350C",
      "350C",
      "350C",
      "350C",
      "350C",
      "350C",
      "350C",
      "350C",
      "350C",
      "350C",
      "350C",
      "350C",
      "350C",
      "350C",
      "350C",
      "350C",
      "350C",
      "350C",
      "350C",
      "350C",
      "350C",
      "350C",
      "350C",
      "350C",
      "350C",
      "350C",
      "350",
      "349",
      "345",
      "340",
      "327",
      "314",
      "302",
      "288",
      "273",
      "261",
      "249",
      "234",
      "223",
      "215",
      "211",
      "202",
      "202",
      "192",
      "189",
      "181",
      "177",
      "170",
      "160",
      "153",
      "151",
      "144",
      "133",
      "123",
      "114",
      "113",
      "111",
      "111",
      "104",
      "100",
      "101",
      "100",
      "100",
      "101",
      "093",
      "091",
      "083",
      "072",
      "070",
      "062",
      "055",
      "054"
    ],
    "swim:geom": "path",
    "swim:speeds": [
      184,
      178,
      202,
      213,
      241,
      291,
      309,
      367,
      403,
      415,
      451,
      468,
      474,
      486,
      496,
      500,
      499,
      499,
      497,
      495,
      495,
      502,
      507,
      508,
      508,
      508,
      508,
      504,
      503,
      502,
      501,
      501,
      502,
      501,
      500,
      500,
      501,
      502,
      507,
      509,
      510,
      514,
      515,
      517,
      519,
      520,
      521,
      522,
      522,
      522,
      522,
      508,
      504,
      504,
      504,
      506,
      507,
      510,
      511,
      511,
      512,
      512,
      484,
      496,
      500,
      500,
      499,
      499,
      498,
      498,
      498,
      499,
      499,
      500,
      500,
      501,
      501,
      501,
      501,
      501,
      501,
      503,
      504,
      505,
      506,
      506,
      507,
      507,
      507,
      507,
      507,
      506,
      506,
      506,
      506,
      505,
      506,
      510,
      512,
      511,
      512,
      477,
      467,
      454,
      447,
      438,
      440,
      418,
      425,
      410,
      407,
      380,
      380,
      363,
      358,
      353,
      353,
      345,
      337,
      311,
      279,
      271,
      257,
      256,
      255,
      243,
      247,
      242,
      241,
      240,
      241,
      237,
      205,
      190,
      192,
      163,
      162,
      89
    ],
    "swim:timestamps": [
      1785860336,
      1785860352,
      1785860413,
      1785860426,
      1785860473,
      1785860593,
      1785860653,
      1785860713,
      1785860773,
      1785860833,
      1785861013,
      1785861133,
      1785861194,
      1785861254,
      1785861314,
      1785861374,
      1785861424,
      1785861434,
      1785861494,
      1785861554,
      1785861676,
      1785861734,
      1785861794,
      1785861854,
      1785861914,
      1785861977,
      1785862037,
      1785862157,
      1785862277,
      1785862337,
      1785862395,
      1785862455,
      1785862515,
      1785862578,
      1785862695,
      1785862756,
      1785862876,
      1785862998,
      1785863118,
      1785863178,
      1785863239,
      1785863359,
      1785863419,
      1785863479,
      1785863599,
      1785863659,
      1785863719,
      1785863779,
      1785863839,
      1785863899,
      1785863960,
      1785864020,
      1785864080,
      1785864140,
      1785864200,
      1785864260,
      1785864320,
      1785864440,
      1785864500,
      1785864560,
      1785864680,
      1785864741,
      1785864861,
      1785864921,
      1785864950,
      1785864981,
      1785865010,
      1785865041,
      1785865070,
      1785865101,
      1785865131,
      1785865161,
      1785865191,
      1785865221,
      1785865251,
      1785865281,
      1785865341,
      1785865371,
      1785865401,
      1785865431,
      1785865462,
      1785865491,
      1785865522,
      1785865551,
      1785865582,
      1785865611,
      1785865642,
      1785865671,
      1785865702,
      1785865731,
      1785865762,
      1785865822,
      1785865882,
      1785865912,
      1785865942,
      1785865972,
      1785866032,
      1785866092,
      1785866152,
      1785866212,
      1785866272,
      1785866332,
      1785866392,
      1785866452,
      1785866512,
      1785866555,
      1785866572,
      1785866618,
      1785866633,
      1785866675,
      1785866693,
      1785866735,
      1785866753,
      1785866813,
      1785866873,
      1785866913,
      1785866933,
      1785866975,
      1785867053,
      1785867101,
      1785867155,
      1785867173,
      1785867233,
      1785867293,
      1785867354,
      1785867394,
      1785867414,
      1785867454,
      1785867515,
      1785867534,
      1785867581,
      1785867594,
      1785867635,
      1785867699,
      1785867714,
      1785867774,
      1785867821,
      1785867894
    ],
    "wof:geomhash": "a902f648d27b1842d7e5e9b239a5bcef",
    "wof:id": 2032106685,
    "wof:repo": "sfomuseum-data-flights-2026-08"
  },
  "bbox": [
    -122.40222222222222,
    37.62916666666667,
    -104.68333333333334,
    40.845
  ],
  "geometry": {"type":"LineString","coordinates":[[-122.4,37.63333333333333],[-122.40055555555556,37.62916666666667],[-122.40222222222222,37.67388888888889],[-122.38333333333334,37.68333333333333],[-122.3261111111111,37.6875],[-122.15666666666667,37.76138888888889],[-122.0786111111111,37.81944444444445],[-121.98972222222223,37.8875],[-121.88833333333334,37.96361111111111],[-121.78361111111111,38.04277777777778],[-121.44555555555556,38.29416666666666],[-121.17194444444445,38.471111111111114],[-121.03972222222222,38.552499999999995],[-120.90777777777778,38.63333333333333],[-120.76694444444445,38.71944444444445],[-120.62722222222222,38.80472222222222],[-120.5175,38.86944444444445],[-120.48777777777778,38.88916666666667],[-120.34694444444445,38.97416666666667],[-120.20833333333334,39.0575],[-119.93,39.223055555555554],[-119.78333333333333,39.31055555555555],[-119.63916666666667,39.39555555555555],[-119.49222222222222,39.481944444444444],[-119.34666666666666,39.566944444444445],[-119.20166666666667,39.65138888888889],[-119.05416666666666,39.73694444444445],[-118.75777777777778,39.9],[-118.43583333333333,40.03138888888889],[-118.27416666666666,40.09666666666667],[-118.1111111111111,40.16222222222222],[-117.97777777777777,40.208333333333336],[-117.80222222222221,40.25055555555556],[-117.59638888888888,40.297777777777775],[-117.27916666666667,40.37027777777778],[-117.10444444444444,40.41],[-116.75444444444445,40.48861111111111],[-116.36972222222222,40.56805555555556],[-116.01722222222222,40.596111111111114],[-115.8325,40.609722222222224],[-115.64583333333334,40.623333333333335],[-115.27388888888889,40.64944444444444],[-115.085,40.66222222222222],[-114.89472222222223,40.67472222222222],[-114.51833333333333,40.69888888888889],[-114.32638888888889,40.706944444444446],[-114.13527777777779,40.713055555555556],[-113.94722222222222,40.71944444444445],[-113.75666666666666,40.72694444444445],[-113.56611111111111,40.74055555555556],[-113.375,40.755],[-113.19111111111111,40.76861111111111],[-113.00833333333334,40.78194444444444],[-112.8236111111111,40.794999999999995],[-112.64055555555557,40.8075],[-112.455,40.819722222222225],[-112.2725,40.831944444444446],[-111.86611111111111,40.845],[-111.6825,40.83583333333333],[-111.49722222222222,40.82611111111112],[-111.12472222222222,40.80611111111111],[-110.98305555555555,40.776944444444446],[-110.76555555555555,40.53583333333333],[-110.6575,40.43],[-110.58833333333332,40.409444444444446],[-110.49805555555555,40.41027777777778],[-110.40861111111111,40.42638888888889],[-110.31972222222223,40.44305555555555],[-110.23472222222222,40.45944444444445],[-110.14583333333334,40.476111111111116],[-110.05833333333334,40.4925],[-109.96638888888889,40.509166666666665],[-109.88194444444444,40.52472222222222],[-109.78944444444444,40.54138888888889],[-109.70277777777778,40.55694444444444],[-109.59388888888888,40.57666666666667],[-109.41416666666667,40.60861111111111],[-109.34861111111111,40.62],[-109.25194444444445,40.63722222222222],[-109.17305555555556,40.65083333333333],[-109.06222222222222,40.66722222222222],[-108.95416666666667,40.66722222222222],[-108.88111111111111,40.66305555555555],[-108.77222222222223,40.655833333333334],[-108.69722222222222,40.650555555555556],[-108.58694444444444,40.64277777777778],[-108.51194444444444,40.63777777777778],[-108.40305555555557,40.63027777777778],[-108.32833333333333,40.625],[-108.23666666666666,40.618611111111115],[-108.14416666666668,40.61222222222222],[-107.9625,40.59916666666667],[-107.78,40.58583333333333],[-107.66861111111112,40.5775],[-107.5961111111111,40.57222222222222],[-107.515,40.566111111111105],[-107.33055555555555,40.551944444444445],[-107.14611111111111,40.5375],[-106.96138888888889,40.522777777777776],[-106.73833333333333,40.504444444444445],[-106.55333333333333,40.48916666666667],[-106.40666666666667,40.47638888888889],[-106.23805555555556,40.46083333333333],[-106.0461111111111,40.44361111111111],[-105.88555555555556,40.42777777777778],[-105.78333333333333,40.416666666666664],[-105.72944444444444,40.40361111111111],[-105.61666666666666,40.38333333333333],[-105.60666666666665,40.384166666666665],[-105.48333333333333,40.36666666666667],[-105.43722222222223,40.35666666666667],[-105.35,40.333333333333336],[-105.31166666666667,40.31388888888888],[-105.20555555555556,40.25055555555556],[-105.10416666666666,40.189722222222215],[-105.03333333333333,40.15],[-105.00638888888889,40.12777777777778],[-104.95,40.083333333333336],[-104.83277777777778,39.99305555555556],[-104.8,39.93333333333333],[-104.8,39.85],[-104.80749999999999,39.83222222222223],[-104.80972222222222,39.76166666666666],[-104.8111111111111,39.68611111111111],[-104.8125,39.620555555555555],[-104.81666666666666,39.56666666666667],[-104.80361111111111,39.54805555555556],[-104.75,39.53333333333333],[-104.7,39.583333333333336],[-104.69027777777778,39.60416666666667],[-104.68333333333334,39.65],[-104.68944444444445,39.67027777777778],[-104.68333333333334,39.71666666666667],[-104.68333333333334,39.766666666666666],[-104.68805555555556,39.78138888888889],[-104.68777777777778,39.82666666666667],[-104.68333333333334,39.86666666666667],[-104.685,39.89]]}
}
