{
  "id": 2048092469,
  "type": "Feature",
  "properties": {
    "geom:area": 0,
    "geom:bbox": "-122.359950,36.733250,-121.887210,37.613250",
    "geom:latitude": 37.218431195932624,
    "geom:longitude": -122.07286486516266,
    "src:alt_label": "swim-approach",
    "src:geom": "swim",
    "swim:elevations": [
      4914,
      4738,
      4373,
      4192,
      3837,
      3793,
      3570,
      3480,
      3171,
      3077,
      2963,
      2840,
      2650,
      2506,
      2467,
      2438,
      2404,
      1930,
      1766,
      1709,
      1675,
      1457,
      1378,
      1059,
      863,
      791,
      702,
      567,
      497,
      424,
      289,
      180,
      84,
      227
    ],
    "swim:geom": "approach",
    "swim:timestamps": [
      1787347816,
      1787347837,
      1787347880,
      1787347901,
      1787347944,
      1787347950,
      1787347977,
      1787347987,
      1787348036,
      1787348064,
      1787348085,
      1787348103,
      1787348133,
      1787348154,
      1787348167,
      1787348212,
      1787348220,
      1787348278,
      1787348302,
      1787348311,
      1787348320,
      1787348365,
      1787348380,
      1787348419,
      1787348446,
      1787348464,
      1787348508,
      1787348545,
      1787348559,
      1787348586,
      1787348630,
      1787348663,
      1787348692,
      1787348714
    ],
    "wof:geomhash": "6b7bcceab581c2a42104d9117a8dbbc0",
    "wof:id": 2048092469,
    "wof:repo": "sfomuseum-data-flights-2026-08"
  },
  "bbox": [
    -122.35995,
    36.73325,
    -121.88721,
    37.61325
  ],
  "geometry": {"type":"LineString","coordinates":[[-121.88721,36.73325],[-121.90164,36.76547],[-121.91929,36.83408],[-121.92871,36.86729],[-121.94799,36.93449],[-121.95061,36.94372],[-121.96572,36.98465],[-121.97103,36.9981],[-121.99934,37.07065],[-122.01416,37.10888],[-122.02501,37.13651],[-122.03393,37.15921],[-122.04869,37.19753],[-122.0587,37.22323],[-122.06464,37.23841],[-122.08514,37.2909],[-122.08876,37.30004],[-122.11475,37.36521],[-122.12501,37.39146],[-122.12835,37.40101],[-122.13143,37.40997],[-122.14598,37.45414],[-122.15074,37.46842],[-122.16217,37.50228],[-122.17011,37.52449],[-122.18009,37.53599],[-122.21851,37.55294],[-122.24926,37.56593],[-122.25969,37.57025],[-122.27734,37.57771],[-122.30528,37.58941],[-122.32684,37.5985],[-122.34612,37.60661],[-122.35995,37.61325]]}
}
