{
  "id": 2048083583,
  "type": "Feature",
  "properties": {
    "geom:area": 0,
    "geom:bbox": "-122.422910,37.626850,-121.279880,38.403670",
    "geom:latitude": 38.038560875736906,
    "geom:longitude": -121.89992457602429,
    "src:alt_label": "swim-takeoff",
    "src:geom": "swim",
    "swim:elevations": [
      152,
      444,
      659,
      975,
      1359,
      1798,
      1911,
      2476,
      2850,
      3199,
      3233,
      3476,
      3587,
      3984,
      4170,
      4653,
      4902,
      5263,
      5379,
      5802,
      5896,
      6379,
      6400,
      6762,
      6902,
      7224,
      7327
    ],
    "swim:geom": "takeoff",
    "swim:timestamps": [
      1787224824,
      1787224844,
      1787224870,
      1787224911,
      1787224947,
      1787224975,
      1787224989,
      1787225030,
      1787225058,
      1787225095,
      1787225102,
      1787225151,
      1787225167,
      1787225205,
      1787225221,
      1787225271,
      1787225295,
      1787225330,
      1787225346,
      1787225394,
      1787225402,
      1787225458,
      1787225461,
      1787225506,
      1787225528,
      1787225569,
      1787225584
    ],
    "wof:geomhash": "b41bdcc7343de9881d26900bdff349b2",
    "wof:id": 2048083583,
    "wof:repo": "sfomuseum-data-flights-2026-08"
  },
  "bbox": [
    -122.42291,
    37.62685,
    -121.27988,
    38.40367
  ],
  "geometry": {"type":"LineString","coordinates":[[-122.39425,37.62685],[-122.41217,37.63494],[-122.42291,37.65655],[-122.38599,37.68645],[-122.33024,37.69565],[-122.28676,37.70437],[-122.26429,37.70928],[-122.20045,37.72917],[-122.17316,37.76017],[-122.15587,37.81163],[-122.15291,37.82197],[-122.12921,37.90146],[-122.12067,37.92955],[-122.09627,37.99555],[-122.07538,38.0209],[-121.97825,38.07499],[-121.92817,38.09727],[-121.85265,38.1307],[-121.8191,38.14557],[-121.71324,38.19265],[-121.69581,38.20043],[-121.56883,38.25692],[-121.56196,38.25996],[-121.45702,38.30635],[-121.40663,38.32975],[-121.31408,38.38256],[-121.27988,38.40367]]}
}
