{
  "id": 2047974487,
  "type": "Feature",
  "properties": {
    "geom:area": 0,
    "geom:bbox": "-122.563080,36.718420,-121.461640,37.668500",
    "geom:latitude": 37.20062209353655,
    "geom:longitude": -122.10651693075323,
    "src:alt_label": "swim-takeoff",
    "src:geom": "swim",
    "swim:elevations": [
      183,
      481,
      650,
      1151,
      1340,
      1527,
      2240,
      2658,
      3122,
      3393,
      3757,
      3908,
      4196,
      4692,
      5028,
      5352,
      5503,
      5972,
      6116,
      6623,
      6872,
      7086,
      7317,
      7685,
      7730,
      7944,
      8063,
      8253,
      8530,
      8705,
      8906,
      9035,
      9174
    ],
    "swim:geom": "takeoff",
    "swim:timestamps": [
      1786711525,
      1786711550,
      1786711563,
      1786711617,
      1786711636,
      1786711651,
      1786711697,
      1786711726,
      1786711760,
      1786711790,
      1786711825,
      1786711839,
      1786711864,
      1786711907,
      1786711936,
      1786711967,
      1786711984,
      1786712027,
      1786712040,
      1786712089,
      1786712116,
      1786712139,
      1786712167,
      1786712217,
      1786712222,
      1786712250,
      1786712265,
      1786712291,
      1786712330,
      1786712357,
      1786712390,
      1786712411,
      1786712433
    ],
    "wof:geomhash": "b512dd2e1e9d8eb5f2ec18102693de5f",
    "wof:id": 2047974487,
    "wof:repo": "sfomuseum-data-flights-2026-08"
  },
  "bbox": [
    -122.56308,
    36.71842,
    -121.46164,
    37.6685
  ],
  "geometry": {"type":"LineString","coordinates":[[-122.39358,37.62664],[-122.41604,37.63633],[-122.42805,37.6415],[-122.48259,37.66441],[-122.50802,37.6685],[-122.52774,37.66195],[-122.55253,37.61177],[-122.56308,37.57597],[-122.55883,37.5335],[-122.55109,37.49315],[-122.51292,37.45106],[-122.49231,37.43742],[-122.45614,37.41203],[-122.38868,37.36532],[-122.34486,37.33475],[-122.2954,37.30052],[-122.26671,37.28072],[-122.19637,37.23192],[-122.17459,37.21685],[-122.0916,37.15949],[-122.04608,37.12804],[-122.00691,37.10076],[-121.95738,37.06601],[-121.86857,37.0035],[-121.8596,36.99722],[-121.80736,36.96161],[-121.78058,36.94203],[-121.7323,36.90919],[-121.65797,36.85772],[-121.60865,36.82275],[-121.54367,36.77719],[-121.50391,36.74859],[-121.46164,36.71842]]}
}
