{
  "id": 2032113139,
  "type": "Feature",
  "properties": {
    "geom:area": 0,
    "geom:bbox": "-122.333333,35.173889,-80.955556,38.113611",
    "geom:latitude": 36.86362420757905,
    "geom:longitude": -101.69302931370015,
    "src:alt_label": "swim-path",
    "src:geom": "swim",
    "swim:altitudes": [
      "014",
      "027",
      "031",
      "040",
      "058",
      "080",
      "110",
      "120",
      "137",
      "152",
      "167",
      "177",
      "188",
      "209",
      "218",
      "227",
      "235",
      "242",
      "248",
      "255",
      "261",
      "265",
      "271",
      "278",
      "280",
      "280",
      "280",
      "280",
      "295",
      "303",
      "308",
      "317",
      "319C",
      "320C",
      "320C",
      "321C",
      "320C",
      "320C",
      "320C",
      "321C",
      "320C",
      "320C",
      "320C",
      "320C",
      "320C",
      "320C",
      "320C",
      "320C",
      "320C",
      "320C",
      "320C",
      "320C",
      "320C",
      "320C",
      "320C",
      "320C",
      "320C",
      "320C",
      "320C",
      "320C",
      "320C",
      "320C",
      "320C",
      "320C",
      "320C",
      "320C",
      "320C",
      "320C",
      "320C",
      "320C",
      "320C",
      "320C",
      "320C",
      "320C",
      "320C",
      "320C",
      "320C",
      "320C",
      "320C",
      "320C",
      "320C",
      "320C",
      "320C",
      "320C",
      "320C",
      "320C",
      "320C",
      "320C",
      "320C",
      "320C",
      "320C",
      "320C",
      "320C",
      "320C",
      "320C",
      "321C",
      "321C",
      "321C",
      "320C",
      "320C",
      "320C",
      "320C",
      "320C",
      "320C",
      "320C",
      "320C",
      "320C",
      "320C",
      "320C",
      "320C",
      "320C",
      "320C",
      "320C",
      "320C",
      "320C",
      "320C",
      "320C",
      "320C",
      "320C",
      "320C",
      "320C",
      "320C",
      "320C",
      "320C",
      "320C",
      "320C",
      "320C",
      "320C",
      "320C",
      "320C",
      "320C",
      "320C",
      "320C",
      "320C",
      "320C",
      "320C",
      "320C",
      "320C",
      "320C",
      "320C",
      "320C",
      "320C",
      "320C",
      "320C",
      "320C",
      "320C",
      "320C",
      "320C",
      "320C",
      "320C",
      "320C",
      "320C",
      "320C",
      "320C",
      "320C",
      "320C",
      "320C",
      "320C",
      "320C",
      "320C",
      "320C",
      "320C",
      "320C",
      "320C",
      "320C",
      "320C",
      "320C",
      "320C",
      "320C",
      "320C",
      "320C",
      "320C",
      "320C",
      "320C",
      "320C",
      "320C",
      "320C",
      "320C",
      "320C",
      "320C",
      "320C",
      "320C",
      "320C",
      "320C",
      "320C",
      "320C",
      "320C",
      "320C",
      "320C",
      "320C",
      "320C",
      "320C",
      "320C",
      "320C",
      "320C",
      "320C",
      "320C",
      "320C",
      "320C",
      "320C",
      "320C",
      "320C",
      "320C",
      "320C",
      "320C",
      "320C",
      "320C",
      "320C",
      "320C",
      "320C",
      "320C",
      "320C",
      "320C",
      "320C",
      "320C",
      "320C",
      "320C",
      "320C",
      "320C",
      "320C",
      "320C",
      "320C",
      "320C",
      "320C",
      "320C",
      "320C",
      "320C",
      "320C",
      "320C",
      "320C",
      "320C",
      "320C",
      "321C",
      "321C",
      "320C",
      "320C",
      "320C",
      "320C",
      "320C",
      "320C",
      "320C",
      "320C",
      "321C",
      "321C",
      "321C",
      "320C",
      "320C",
      "320C",
      "320C",
      "320C",
      "320C",
      "321C",
      "321C",
      "320C",
      "320C",
      "320C",
      "320C",
      "320C",
      "320C",
      "320",
      "327",
      "336",
      "340C",
      "340C",
      "340C",
      "340C",
      "340C",
      "340C",
      "340C",
      "340C",
      "340C",
      "340C",
      "340C",
      "340C",
      "340C",
      "340C",
      "340C",
      "340C",
      "340C",
      "340C",
      "340C",
      "340C",
      "340C",
      "340C",
      "340C",
      "340C",
      "340C",
      "340C",
      "340C",
      "340C",
      "340C",
      "339C",
      "340C",
      "340C",
      "340C",
      "340C",
      "340C",
      "340C",
      "340C",
      "340C",
      "340C",
      "340C",
      "340C",
      "340C",
      "340C",
      "340C",
      "340C",
      "340C",
      "340C",
      "340C",
      "340C",
      "340C",
      "340C",
      "340C",
      "340C",
      "340C",
      "340C",
      "340C",
      "340C",
      "340C",
      "340C",
      "340C",
      "340C",
      "340C",
      "340C",
      "340C",
      "340C",
      "340C",
      "340C",
      "340C",
      "340C",
      "340C",
      "340C",
      "340C",
      "340C",
      "340",
      "333",
      "323",
      "320C",
      "319",
      "302",
      "275",
      "254",
      "218",
      "176",
      "142",
      "126",
      "113",
      "094",
      "079",
      "077",
      "066",
      "058",
      "056",
      "047",
      "046",
      "032",
      "021",
      "011",
      "004"
    ],
    "swim:geom": "path",
    "swim:speeds": [
      183,
      187,
      203,
      247,
      269,
      273,
      314,
      353,
      364,
      370,
      379,
      387,
      395,
      417,
      422,
      428,
      434,
      439,
      445,
      449,
      453,
      459,
      462,
      462,
      462,
      464,
      466,
      466,
      469,
      468,
      467,
      459,
      459,
      460,
      460,
      463,
      460,
      451,
      451,
      455,
      451,
      449,
      449,
      450,
      451,
      451,
      450,
      450,
      448,
      447,
      446,
      445,
      445,
      445,
      445,
      455,
      447,
      447,
      446,
      445,
      445,
      445,
      444,
      444,
      444,
      444,
      445,
      445,
      447,
      446,
      448,
      447,
      449,
      448,
      450,
      449,
      450,
      449,
      449,
      448,
      448,
      447,
      447,
      446,
      446,
      444,
      445,
      443,
      444,
      443,
      444,
      443,
      444,
      445,
      447,
      446,
      449,
      448,
      449,
      448,
      448,
      446,
      447,
      445,
      446,
      445,
      446,
      445,
      445,
      445,
      445,
      445,
      444,
      445,
      444,
      444,
      443,
      444,
      443,
      443,
      443,
      443,
      444,
      446,
      447,
      449,
      450,
      449,
      446,
      443,
      441,
      440,
      439,
      439,
      440,
      440,
      441,
      442,
      443,
      444,
      444,
      442,
      443,
      441,
      440,
      439,
      439,
      438,
      438,
      439,
      439,
      439,
      438,
      439,
      437,
      438,
      436,
      437,
      434,
      436,
      433,
      435,
      432,
      434,
      432,
      434,
      432,
      433,
      432,
      433,
      432,
      433,
      414,
      432,
      433,
      431,
      433,
      433,
      432,
      432,
      432,
      433,
      432,
      433,
      433,
      434,
      437,
      434,
      434,
      436,
      434,
      434,
      436,
      434,
      434,
      434,
      433,
      433,
      432,
      433,
      432,
      432,
      431,
      432,
      431,
      430,
      430,
      430,
      430,
      430,
      430,
      430,
      431,
      430,
      431,
      431,
      433,
      434,
      434,
      435,
      436,
      436,
      436,
      436,
      435,
      433,
      434,
      433,
      436,
      438,
      438,
      439,
      441,
      441,
      443,
      442,
      442,
      441,
      440,
      438,
      436,
      436,
      434,
      435,
      435,
      435,
      435,
      435,
      435,
      433,
      435,
      435,
      435,
      435,
      435,
      435,
      435,
      435,
      436,
      437,
      437,
      434,
      430,
      428,
      427,
      427,
      427,
      426,
      426,
      425,
      424,
      424,
      424,
      423,
      423,
      423,
      423,
      424,
      424,
      425,
      425,
      424,
      423,
      423,
      422,
      421,
      420,
      420,
      419,
      421,
      419,
      420,
      419,
      421,
      420,
      420,
      421,
      421,
      420,
      420,
      419,
      420,
      419,
      419,
      419,
      419,
      419,
      419,
      418,
      417,
      389,
      388,
      389,
      389,
      390,
      390,
      391,
      393,
      395,
      398,
      399,
      401,
      401,
      402,
      399,
      399,
      399,
      400,
      400,
      400,
      401,
      400,
      401,
      402,
      402,
      402,
      402,
      403,
      409,
      410,
      411,
      414,
      425,
      402,
      376,
      351,
      349,
      311,
      297,
      278,
      246,
      246,
      243,
      243,
      236,
      239,
      244,
      213,
      166,
      149
    ],
    "swim:timestamps": [
      1785936181,
      1785936224,
      1785936260,
      1785936320,
      1785936380,
      1785936440,
      1785936560,
      1785936620,
      1785936680,
      1785936740,
      1785936800,
      1785936860,
      1785936920,
      1785937041,
      1785937101,
      1785937161,
      1785937221,
      1785937281,
      1785937341,
      1785937401,
      1785937461,
      1785937521,
      1785937579,
      1785937639,
      1785937699,
      1785937759,
      1785937819,
      1785937882,
      1785938062,
      1785938122,
      1785938180,
      1785938242,
      1785938300,
      1785938363,
      1785938423,
      1785938540,
      1785938660,
      1785938720,
      1785938781,
      1785938901,
      1785938961,
      1785939021,
      1785939081,
      1785939141,
      1785939261,
      1785939321,
      1785939381,
      1785939407,
      1785939441,
      1785939467,
      1785939502,
      1785939587,
      1785939647,
      1785939682,
      1785939707,
      1785939767,
      1785939802,
      1785939862,
      1785939922,
      1785939948,
      1785939982,
      1785940008,
      1785940068,
      1785940102,
      1785940128,
      1785940162,
      1785940222,
      1785940248,
      1785940283,
      1785940308,
      1785940343,
      1785940368,
      1785940403,
      1785940428,
      1785940463,
      1785940488,
      1785940523,
      1785940548,
      1785940583,
      1785940643,
      1785940669,
      1785940703,
      1785940729,
      1785940763,
      1785940789,
      1785940823,
      1785940849,
      1785940883,
      1785940909,
      1785940943,
      1785940969,
      1785941004,
      1785941064,
      1785941089,
      1785941124,
      1785941149,
      1785941184,
      1785941209,
      1785941244,
      1785941269,
      1785941304,
      1785941330,
      1785941364,
      1785941390,
      1785941424,
      1785941450,
      1785941484,
      1785941510,
      1785941570,
      1785941604,
      1785941690,
      1785941725,
      1785941750,
      1785941785,
      1785941810,
      1785941845,
      1785941870,
      1785941905,
      1785941930,
      1785941965,
      1785941991,
      1785942051,
      1785942111,
      1785942171,
      1785942231,
      1785942291,
      1785942351,
      1785942471,
      1785942531,
      1785942651,
      1785942712,
      1785942772,
      1785942832,
      1785942892,
      1785942952,
      1785943012,
      1785943072,
      1785943132,
      1785943192,
      1785943232,
      1785943292,
      1785943313,
      1785943352,
      1785943373,
      1785943412,
      1785943433,
      1785943472,
      1785943493,
      1785943565,
      1785943593,
      1785943625,
      1785943653,
      1785943685,
      1785943713,
      1785943745,
      1785943773,
      1785943805,
      1785943893,
      1785943925,
      1785943953,
      1785943986,
      1785944013,
      1785944058,
      1785944073,
      1785944118,
      1785944134,
      1785944178,
      1785944194,
      1785944238,
      1785944254,
      1785944298,
      1785944314,
      1785944329,
      1785944358,
      1785944374,
      1785944389,
      1785944418,
      1785944434,
      1785944478,
      1785944509,
      1785944538,
      1785944554,
      1785944569,
      1785944598,
      1785944614,
      1785944659,
      1785944689,
      1785944719,
      1785944734,
      1785944749,
      1785944779,
      1785944795,
      1785944810,
      1785944851,
      1785944911,
      1785944930,
      1785944971,
      1785944990,
      1785945035,
      1785945050,
      1785945095,
      1785945110,
      1785945155,
      1785945170,
      1785945215,
      1785945290,
      1785945335,
      1785945350,
      1785945456,
      1785945470,
      1785945516,
      1785945576,
      1785945636,
      1785945651,
      1785945696,
      1785945711,
      1785945771,
      1785945816,
      1785945831,
      1785945876,
      1785945936,
      1785945997,
      1785946057,
      1785946071,
      1785946131,
      1785946177,
      1785946191,
      1785946297,
      1785946357,
      1785946417,
      1785946432,
      1785946477,
      1785946492,
      1785946537,
      1785946552,
      1785946658,
      1785946672,
      1785946718,
      1785946732,
      1785946778,
      1785946852,
      1785946912,
      1785946969,
      1785947029,
      1785947089,
      1785947149,
      1785947210,
      1785947270,
      1785947390,
      1785947453,
      1785947510,
      1785947573,
      1785947630,
      1785947690,
      1785947750,
      1785947814,
      1785947870,
      1785947991,
      1785948051,
      1785948111,
      1785948171,
      1785948231,
      1785948294,
      1785948354,
      1785948411,
      1785948475,
      1785948591,
      1785948651,
      1785948712,
      1785948772,
      1785948832,
      1785948892,
      1785948952,
      1785949012,
      1785949072,
      1785949252,
      1785949312,
      1785949372,
      1785949433,
      1785949553,
      1785949613,
      1785949673,
      1785949733,
      1785949793,
      1785949853,
      1785949973,
      1785950033,
      1785950093,
      1785950154,
      1785950186,
      1785950214,
      1785950246,
      1785950274,
      1785950306,
      1785950334,
      1785950366,
      1785950394,
      1785950454,
      1785950514,
      1785950546,
      1785950574,
      1785950607,
      1785950634,
      1785950667,
      1785950694,
      1785950727,
      1785950754,
      1785950787,
      1785950814,
      1785950847,
      1785950907,
      1785950935,
      1785950967,
      1785950995,
      1785951027,
      1785951055,
      1785951087,
      1785951147,
      1785951175,
      1785951207,
      1785951235,
      1785951267,
      1785951295,
      1785951328,
      1785951388,
      1785951448,
      1785951475,
      1785951508,
      1785951535,
      1785951568,
      1785951628,
      1785951688,
      1785951748,
      1785951808,
      1785951868,
      1785952049,
      1785952109,
      1785952169,
      1785952229,
      1785952289,
      1785952349,
      1785952409,
      1785952469,
      1785952589,
      1785952709,
      1785952829,
      1785952890,
      1785952950,
      1785953010,
      1785953070,
      1785953130,
      1785953190,
      1785953243,
      1785953250,
      1785953303,
      1785953310,
      1785953370,
      1785953431,
      1785953491,
      1785953549
    ],
    "wof:geomhash": "42b4b38cccd82c4cd81d264ccaf22fec",
    "wof:id": 2032113139,
    "wof:repo": "sfomuseum-data-flights-2026-08"
  },
  "bbox": [
    -122.33333333333333,
    35.17388888888889,
    -80.95555555555556,
    38.11361111111111
  ],
  "geometry": {"type":"LineString","coordinates":[[-80.95555555555556,35.23444444444444],[-80.97722222222222,35.26416666666667],[-80.9961111111111,35.282777777777774],[-81.07194444444444,35.29944444444444],[-81.16027777777778,35.29222222222222],[-81.25055555555555,35.2725],[-81.44250000000001,35.22916666666667],[-81.55666666666666,35.20305555555556],[-81.67833333333334,35.18472222222222],[-81.80416666666666,35.18222222222222],[-81.93361111111112,35.17944444444444],[-82.06416666666667,35.17638888888889],[-82.19972222222222,35.17388888888889],[-82.46944444444445,35.23388888888889],[-82.60944444444443,35.266666666666666],[-82.74888888888889,35.299166666666665],[-82.89194444444445,35.3325],[-83.03861111111111,35.36611111111111],[-83.18583333333333,35.39972222222222],[-83.34138888888889,35.434999999999995],[-83.49111111111111,35.46888888888889],[-83.64111111111112,35.5025],[-83.79583333333333,35.53722222222222],[-83.94777777777779,35.57027777777778],[-84.09972222222221,35.60388888888889],[-84.25277777777778,35.636944444444445],[-84.4075,35.67055555555555],[-84.5625,35.70388888888889],[-85.00555555555556,35.797777777777775],[-85.16194444444444,35.830555555555556],[-85.31861111111111,35.863055555555555],[-85.46833333333333,35.8925],[-85.62694444444443,35.91277777777778],[-85.77972222222222,35.931666666666665],[-85.94472222222223,35.952222222222225],[-86.25944444444444,35.99055555555556],[-86.57583333333334,36.02777777777778],[-86.72972222222222,36.045833333333334],[-86.88666666666667,36.064166666666665],[-87.20055555555555,36.099444444444444],[-87.35277777777777,36.11638888888889],[-87.50611111111111,36.13333333333333],[-87.66000000000001,36.15],[-87.81361111111111,36.166666666666664],[-88.1211111111111,36.19916666666666],[-88.2575,36.213055555555556],[-88.4113888888889,36.22888888888889],[-88.47166666666666,36.23527777777778],[-88.5625,36.244166666666665],[-88.59305555555555,36.246944444444445],[-88.71555555555555,36.25944444444445],[-88.92805555555556,36.27972222222222],[-89.08027777777778,36.295833333333334],[-89.17277777777778,36.30916666666666],[-89.24138888888889,36.31805555555556],[-89.3963888888889,36.33888888888889],[-89.48833333333333,36.35055555555556],[-89.64194444444445,36.370555555555555],[-89.79333333333334,36.39],[-89.85222222222221,36.39722222222222],[-89.94611111111111,36.409166666666664],[-89.9725,36.4125],[-90.125,36.431666666666665],[-90.24722222222222,36.446666666666665],[-90.27944444444444,36.450833333333335],[-90.39944444444446,36.46555555555556],[-90.55416666666666,36.48416666666667],[-90.58361111111111,36.48777777777778],[-90.70694444444445,36.5025],[-90.73666666666666,36.50611111111111],[-90.85888888888888,36.52055555555555],[-90.86055555555555,36.520833333333336],[-90.98305555555555,36.53527777777778],[-91.04472222222222,36.5425],[-91.1363888888889,36.55305555555555],[-91.19805555555556,36.56027777777778],[-91.29166666666667,36.57083333333334],[-91.36916666666666,36.57972222222222],[-91.46166666666667,36.59027777777778],[-91.61611111111111,36.6075],[-91.67583333333334,36.61416666666667],[-91.7675,36.62416666666667],[-91.83111111111111,36.63138888888889],[-91.9213888888889,36.64111111111111],[-91.98055555555555,36.6475],[-92.07444444444444,36.657777777777774],[-92.13333333333334,36.66416666666667],[-92.2063888888889,36.67194444444444],[-92.28722222222223,36.68],[-92.35833333333333,36.68555555555555],[-92.43833333333333,36.69222222222222],[-92.51083333333334,36.69833333333333],[-92.66416666666667,36.71083333333333],[-92.74888888888889,36.717777777777776],[-92.84805555555555,36.72555555555556],[-92.90444444444445,36.73027777777778],[-92.99555555555555,36.737500000000004],[-93.05583333333333,36.742222222222225],[-93.15027777777779,36.749722222222225],[-93.18722222222223,36.7525],[-93.30583333333333,36.76166666666666],[-93.37194444444444,36.766666666666666],[-93.45944444444444,36.77333333333333],[-93.52194444444444,36.778055555555554],[-93.61027777777777,36.78444444444444],[-93.67611111111111,36.78944444444444],[-93.76416666666667,36.795833333333334],[-93.81666666666666,36.79972222222222],[-93.96972222222223,36.81055555555555],[-94.05916666666667,36.816944444444445],[-94.27694444444444,36.831944444444446],[-94.36777777777777,36.838055555555556],[-94.43138888888889,36.841944444444444],[-94.52194444444444,36.84277777777778],[-94.58444444444444,36.8425],[-94.67305555555556,36.841944444444444],[-94.73666666666666,36.84138888888889],[-94.825,36.842222222222226],[-94.89166666666668,36.842222222222226],[-94.98166666666667,36.841944444444444],[-95.04444444444444,36.841944444444444],[-95.1975,36.84111111111111],[-95.35055555555554,36.82194444444445],[-95.49388888888889,36.79666666666667],[-95.64250000000001,36.7625],[-95.78916666666666,36.72166666666667],[-95.93444444444445,36.68111111111111],[-96.23916666666666,36.64666666666667],[-96.39166666666668,36.65277777777778],[-96.69694444444445,36.664722222222224],[-96.84833333333333,36.67027777777778],[-97.00055555555555,36.67583333333333],[-97.16638888888889,36.681666666666665],[-97.31694444444445,36.68666666666666],[-97.48111111111112,36.69222222222222],[-97.63555555555556,36.69694444444444],[-97.78777777777778,36.70138888888889],[-97.94222222222223,36.70583333333334],[-98.09472222222222,36.71],[-98.18305555555555,36.711111111111116],[-98.33638888888889,36.71666666666667],[-98.37194444444444,36.717222222222226],[-98.4875,36.72027777777778],[-98.52277777777778,36.72083333333334],[-98.63805555555557,36.723333333333336],[-98.67527777777778,36.72416666666667],[-98.78833333333333,36.725833333333334],[-98.82555555555555,36.7275],[-99.00666666666666,36.73111111111111],[-99.09027777777777,36.7325],[-99.16000000000001,36.73388888888889],[-99.24222222222222,36.735],[-99.33083333333333,36.736666666666665],[-99.39305555555556,36.736666666666665],[-99.48333333333333,36.73916666666667],[-99.54833333333333,36.74],[-99.6325,36.74138888888889],[-99.84472222222222,36.744166666666665],[-99.93083333333334,36.745],[-99.99305555555556,36.74583333333334],[-100.08166666666666,36.74666666666667],[-100.14222222222223,36.74722222222222],[-100.22055555555556,36.74805555555556],[-100.3125,36.74888888888889],[-100.40111111111112,36.74944444444444],[-100.4588888888889,36.75],[-100.55055555555555,36.75055555555556],[-100.57944444444443,36.75055555555556],[-100.69972222222222,36.75138888888889],[-100.73361111111112,36.751666666666665],[-100.84944444444444,36.75194444444445],[-100.87916666666666,36.75194444444445],[-100.93972222222223,36.75222222222222],[-100.99972222222222,36.7525],[-101.03111111111112,36.7525],[-101.09138888888889,36.75277777777778],[-101.14916666666667,36.75277777777778],[-101.18111111111112,36.75277777777778],[-101.30055555555555,36.75277777777778],[-101.39083333333333,36.7525],[-101.45111111111112,36.7525],[-101.48222222222222,36.7525],[-101.54083333333332,36.751666666666665],[-101.60249999999999,36.75222222222222],[-101.62888888888888,36.75222222222222],[-101.75138888888888,36.751666666666665],[-101.84472222222222,36.75138888888889],[-101.90333333333334,36.75111111111111],[-101.93305555555555,36.75083333333333],[-101.9961111111111,36.75055555555556],[-102.05472222222222,36.75],[-102.08527777777778,36.75],[-102.14416666666668,36.74944444444444],[-102.23388888888888,36.74861111111111],[-102.38444444444445,36.7475],[-102.44277777777778,36.746944444444445],[-102.5325,36.74583333333334],[-102.5761111111111,36.745555555555555],[-102.69611111111111,36.744166666666665],[-102.72611111111111,36.74388888888889],[-102.84694444444445,36.742222222222225],[-102.87416666666665,36.74194444444444],[-102.995,36.74027777777778],[-103.02416666666666,36.73972222222222],[-103.14444444444445,36.738055555555555],[-103.32083333333333,36.73583333333333],[-103.44277777777778,36.73416666666667],[-103.46972222222223,36.73361111111111],[-103.74111111111111,36.72916666666667],[-103.76722222222222,36.728611111111114],[-103.88916666666667,36.72666666666667],[-104.03888888888889,36.72361111111111],[-104.18722222222223,36.720555555555556],[-104.2175,36.72],[-104.33916666666666,36.717222222222226],[-104.36888888888888,36.71666666666667],[-104.51972222222223,36.713055555555556],[-104.62972222222221,36.71027777777778],[-104.67083333333333,36.70944444444445],[-104.77916666666667,36.70666666666667],[-104.94250000000001,36.702222222222225],[-105.09444444444443,36.698055555555555],[-105.23166666666667,36.69416666666666],[-105.27333333333333,36.69277777777778],[-105.42444444444445,36.68805555555555],[-105.55333333333333,36.68416666666666],[-105.57305555555556,36.68333333333333],[-105.84583333333333,36.674166666666665],[-106.00083333333333,36.66861111111111],[-106.15527777777778,36.67305555555555],[-106.1863888888889,36.677499999999995],[-106.30666666666666,36.69916666666666],[-106.34166666666667,36.705555555555556],[-106.44222222222223,36.72361111111111],[-106.49361111111111,36.73277777777778],[-106.74222222222222,36.776944444444446],[-106.77111111111111,36.78194444444444],[-106.88916666666667,36.80277777777778],[-106.92,36.808055555555555],[-107.03583333333333,36.82833333333333],[-107.21222222222222,36.85888888888889],[-107.35944444444443,36.88388888888889],[-107.50361111111111,36.909166666666664],[-107.6538888888889,36.93416666666666],[-107.80222222222221,36.95861111111111],[-107.94972222222222,36.98361111111111],[-108.09805555555555,37.0075],[-108.24638888888889,37.03361111111111],[-108.53666666666666,37.09666666666667],[-108.70805555555556,37.13388888888889],[-108.82777777777777,37.15833333333333],[-109.00166666666667,37.195277777777775],[-109.12138888888889,37.22],[-109.26916666666666,37.25083333333333],[-109.41527777777779,37.27972222222222],[-109.58527777777778,37.315],[-109.72722222222222,37.34388888888889],[-110.01972222222223,37.40222222222222],[-110.16916666666667,37.43194444444444],[-110.31777777777778,37.46083333333333],[-110.46472222222222,37.489444444444445],[-110.61083333333333,37.51777777777777],[-110.76166666666667,37.54694444444444],[-110.90611111111112,37.574444444444445],[-111.045,37.60055555555556],[-111.19500000000001,37.62888888888889],[-111.4825,37.68222222222222],[-111.62666666666667,37.70888888888889],[-111.77083333333333,37.735],[-111.915,37.76111111111111],[-112.05944444444444,37.78722222222222],[-112.205,37.81305555555555],[-112.34861111111111,37.83833333333334],[-112.49194444444444,37.86361111111111],[-112.6363888888889,37.88861111111111],[-113.06777777777778,37.96277777777778],[-113.21305555555556,37.98722222222222],[-113.35666666666665,38.01138888888889],[-113.50416666666666,38.03583333333333],[-113.79527777777777,38.08361111111111],[-113.94194444444445,38.10722222222223],[-114.0911111111111,38.11361111111111],[-114.23944444444444,38.108333333333334],[-114.3875,38.10305555555556],[-114.53472222222221,38.097500000000004],[-114.83111111111111,38.08583333333333],[-114.97777777777777,38.080000000000005],[-115.1463888888889,38.07277777777778],[-115.29277777777777,38.06638888888889],[-115.35444444444444,38.06805555555556],[-115.44166666666668,38.059444444444445],[-115.50055555555555,38.06055555555555],[-115.58833333333332,38.052499999999995],[-115.64972222222222,38.052499999999995],[-115.7375,38.045833333333334],[-115.79722222222222,38.04611111111111],[-115.88527777777779,38.03861111111111],[-116.03166666666667,38.03111111111111],[-116.18083333333334,38.02333333333333],[-116.24194444444444,38.02027777777778],[-116.32777777777777,38.01555555555556],[-116.38944444444445,38.01222222222222],[-116.47611111111111,38.0075],[-116.53555555555555,38.00416666666667],[-116.62194444444444,37.99944444444444],[-116.68472222222222,37.99611111111111],[-116.77083333333333,37.99111111111111],[-116.83222222222221,37.987500000000004],[-116.88972222222223,37.98416666666667],[-116.9775,37.97916666666667],[-117.11888888888888,37.97083333333334],[-117.16888888888889,37.967777777777776],[-117.25638888888889,37.96361111111111],[-117.31222222222222,37.961666666666666],[-117.39777777777779,37.958333333333336],[-117.45222222222222,37.95611111111111],[-117.53527777777778,37.952222222222225],[-117.64666666666668,37.890277777777776],[-117.67277777777778,37.855000000000004],[-117.71638888888889,37.79527777777778],[-117.74444444444444,37.75694444444444],[-117.78777777777778,37.698055555555555],[-117.81611111111111,37.65972222222222],[-117.85916666666667,37.600833333333334],[-117.96888888888888,37.53583333333333],[-118.1086111111111,37.53861111111111],[-118.16055555555556,37.54277777777778],[-118.24722222222222,37.54944444444444],[-118.30222222222221,37.553888888888885],[-118.38833333333334,37.56055555555555],[-118.52722222222222,37.571111111111115],[-118.66805555555555,37.581944444444446],[-118.80694444444444,37.592222222222226],[-118.93305555555555,37.60138888888889],[-119.09055555555555,37.61277777777778],[-119.5125,37.64222222222222],[-119.65222222222222,37.651666666666664],[-119.79305555555555,37.66083333333333],[-119.93666666666667,37.67027777777778],[-120.08138888888888,37.67944444444444],[-120.22666666666667,37.68861111111111],[-120.37166666666666,37.69694444444444],[-120.52,37.68583333333333],[-120.78111111111112,37.655277777777776],[-121.06666666666666,37.61666666666667],[-121.31666666666666,37.583333333333336],[-121.44194444444445,37.57222222222222],[-121.55416666666666,37.55888888888889],[-121.65472222222223,37.54333333333333],[-121.75083333333333,37.52055555555555],[-121.83527777777778,37.500277777777775],[-121.91888888888889,37.49444444444445],[-122,37.5],[-122.00416666666666,37.50138888888889],[-122.08333333333333,37.5],[-122.08555555555554,37.507777777777775],[-122.16444444444446,37.530277777777776],[-122.23694444444445,37.56055555555555],[-122.2911111111111,37.583333333333336],[-122.33333333333333,37.6]]}
}
