{
  "id": 2032117639,
  "type": "Feature",
  "properties": {
    "geom:area": 0,
    "geom:bbox": "-122.403611,25.793056,-80.305000,38.519167",
    "geom:latitude": 33.77063378430065,
    "geom:longitude": -100.97302671028854,
    "src:alt_label": "swim-path",
    "src:geom": "swim",
    "swim:altitudes": [
      "017",
      "018",
      "055",
      "077",
      "096",
      "108",
      "148",
      "164",
      "181",
      "198",
      "212",
      "225",
      "240",
      "253",
      "263",
      "267",
      "275",
      "279",
      "284",
      "287",
      "293",
      "299",
      "301",
      "308",
      "312",
      "315",
      "320",
      "322",
      "327",
      "329C",
      "330C",
      "330C",
      "330C",
      "330C",
      "330C",
      "330C",
      "330C",
      "330C",
      "330C",
      "330C",
      "330C",
      "330C",
      "330C",
      "330C",
      "330C",
      "330C",
      "330C",
      "330C",
      "330C",
      "330C",
      "330C",
      "330C",
      "330C",
      "330C",
      "330C",
      "330C",
      "330C",
      "330C",
      "330C",
      "330C",
      "330C",
      "330C",
      "330C",
      "330C",
      "330C",
      "330C",
      "330C",
      "330C",
      "330C",
      "330C",
      "330C",
      "330C",
      "330C",
      "330C",
      "330C",
      "330C",
      "330C",
      "330C",
      "330C",
      "330C",
      "330C",
      "330C",
      "330C",
      "330C",
      "330C",
      "330C",
      "330C",
      "330C",
      "330C",
      "330C",
      "330C",
      "330C",
      "330C",
      "330C",
      "330C",
      "330C",
      "330C",
      "330C",
      "330C",
      "330C",
      "330C",
      "330C",
      "330C",
      "330C",
      "330C",
      "330C",
      "330C",
      "330C",
      "330C",
      "330C",
      "330C",
      "330C",
      "330C",
      "330C",
      "330C",
      "330C",
      "330C",
      "330C",
      "329C",
      "330C",
      "330C",
      "330C",
      "330C",
      "330C",
      "330C",
      "330C",
      "330C",
      "330C",
      "330C",
      "330C",
      "330C",
      "330C",
      "330C",
      "330C",
      "330C",
      "330C",
      "330C",
      "330C",
      "330C",
      "330C",
      "330C",
      "330C",
      "330C",
      "330C",
      "330C",
      "330C",
      "330C",
      "330C",
      "330C",
      "330C",
      "330C",
      "330C",
      "330C",
      "330C",
      "330C",
      "330C",
      "330C",
      "330C",
      "330C",
      "330C",
      "330C",
      "330C",
      "330C",
      "330C",
      "330C",
      "330C",
      "330C",
      "330C",
      "330C",
      "330C",
      "331C",
      "330C",
      "330C",
      "330C",
      "330C",
      "330C",
      "330C",
      "330C",
      "330C",
      "330C",
      "330C",
      "330C",
      "330C",
      "330C",
      "330C",
      "331C",
      "330C",
      "330C",
      "330C",
      "330C",
      "330C",
      "330C",
      "330C",
      "329C",
      "330C",
      "330C",
      "330C",
      "330C",
      "330C",
      "330C",
      "330C",
      "330C",
      "330C",
      "330C",
      "330C",
      "330C",
      "330C",
      "330C",
      "330C",
      "330C",
      "330C",
      "330C",
      "330C",
      "330C",
      "330C",
      "330C",
      "330C",
      "330C",
      "330C",
      "330C",
      "330C",
      "330C",
      "330C",
      "330C",
      "330C",
      "330C",
      "330C",
      "330C",
      "330C",
      "330C",
      "330C",
      "329C",
      "329C",
      "330C",
      "330C",
      "330C",
      "330C",
      "330C",
      "330C",
      "330C",
      "330C",
      "330C",
      "330C",
      "330C",
      "330C",
      "330C",
      "330C",
      "331C",
      "330C",
      "330C",
      "330C",
      "330C",
      "330C",
      "330C",
      "330C",
      "331C",
      "330C",
      "330C",
      "330C",
      "330C",
      "330C",
      "330C",
      "330C",
      "330C",
      "330C",
      "330C",
      "330C",
      "330C",
      "330C",
      "330C",
      "330C",
      "330C",
      "330C",
      "330C",
      "330C",
      "330C",
      "330C",
      "330C",
      "330C",
      "330C",
      "330C",
      "330C",
      "330C",
      "330C",
      "331C",
      "331C",
      "331C",
      "331C",
      "330C",
      "330C",
      "330C",
      "330C",
      "330C",
      "330C",
      "330C",
      "330C",
      "330C",
      "330C",
      "330C",
      "330C",
      "330C",
      "330C",
      "330C",
      "330C",
      "330C",
      "330C",
      "330C",
      "330C",
      "331C",
      "330C",
      "330C",
      "330C",
      "330C",
      "330C",
      "330C",
      "330C",
      "330C",
      "330C",
      "330C",
      "330C",
      "330C",
      "331C",
      "330C",
      "330C",
      "330C",
      "329C",
      "330C",
      "330C",
      "330C",
      "330C",
      "330C",
      "330C",
      "330C",
      "330C",
      "330C",
      "330C",
      "329C",
      "330C",
      "330C",
      "330C",
      "330C",
      "330",
      "330",
      "313",
      "292",
      "270",
      "244",
      "223",
      "206",
      "185",
      "167",
      "148",
      "119",
      "111",
      "102",
      "100",
      "090",
      "086",
      "073",
      "070",
      "056",
      "039",
      "030",
      "030",
      "030",
      "030",
      "030",
      "030",
      "025",
      "015",
      "015",
      "008",
      "001"
    ],
    "swim:geom": "path",
    "swim:speeds": [
      189,
      188,
      272,
      285,
      299,
      339,
      358,
      372,
      378,
      383,
      394,
      407,
      413,
      418,
      432,
      428,
      439,
      443,
      452,
      452,
      460,
      469,
      467,
      479,
      483,
      484,
      485,
      485,
      487,
      486,
      488,
      487,
      487,
      497,
      493,
      505,
      500,
      504,
      501,
      503,
      501,
      502,
      500,
      501,
      500,
      500,
      500,
      500,
      500,
      499,
      500,
      500,
      500,
      501,
      501,
      501,
      502,
      502,
      501,
      501,
      500,
      501,
      502,
      504,
      505,
      505,
      504,
      504,
      502,
      501,
      500,
      499,
      498,
      497,
      497,
      498,
      499,
      499,
      500,
      499,
      499,
      499,
      499,
      499,
      498,
      498,
      498,
      498,
      497,
      498,
      497,
      497,
      497,
      496,
      496,
      495,
      495,
      496,
      496,
      496,
      497,
      498,
      498,
      496,
      496,
      496,
      496,
      496,
      496,
      499,
      497,
      497,
      498,
      499,
      499,
      498,
      498,
      498,
      496,
      497,
      498,
      500,
      500,
      499,
      495,
      494,
      494,
      491,
      491,
      492,
      492,
      491,
      491,
      491,
      489,
      488,
      487,
      487,
      486,
      485,
      484,
      482,
      480,
      479,
      478,
      476,
      475,
      475,
      475,
      475,
      475,
      475,
      474,
      474,
      474,
      473,
      474,
      474,
      473,
      473,
      474,
      475,
      474,
      473,
      473,
      472,
      473,
      473,
      473,
      474,
      475,
      473,
      471,
      467,
      465,
      467,
      466,
      468,
      466,
      468,
      468,
      469,
      470,
      470,
      473,
      471,
      474,
      472,
      473,
      472,
      472,
      470,
      470,
      469,
      469,
      468,
      468,
      468,
      468,
      468,
      468,
      468,
      469,
      469,
      469,
      469,
      469,
      470,
      469,
      468,
      468,
      467,
      466,
      465,
      465,
      464,
      464,
      464,
      464,
      465,
      465,
      466,
      467,
      468,
      469,
      469,
      469,
      470,
      470,
      470,
      471,
      470,
      470,
      469,
      469,
      469,
      469,
      469,
      469,
      469,
      469,
      470,
      469,
      471,
      470,
      471,
      470,
      471,
      469,
      469,
      469,
      468,
      468,
      470,
      470,
      473,
      471,
      472,
      474,
      473,
      475,
      475,
      475,
      473,
      476,
      473,
      475,
      475,
      473,
      473,
      473,
      472,
      471,
      470,
      469,
      469,
      468,
      468,
      468,
      468,
      469,
      469,
      470,
      470,
      471,
      471,
      472,
      471,
      470,
      469,
      469,
      468,
      467,
      468,
      467,
      467,
      467,
      466,
      466,
      466,
      466,
      465,
      465,
      465,
      465,
      466,
      467,
      467,
      468,
      467,
      465,
      464,
      463,
      463,
      463,
      463,
      464,
      464,
      464,
      464,
      465,
      465,
      464,
      464,
      464,
      464,
      464,
      463,
      464,
      463,
      464,
      464,
      465,
      463,
      464,
      464,
      464,
      463,
      463,
      462,
      462,
      462,
      462,
      466,
      463,
      450,
      436,
      425,
      395,
      387,
      373,
      350,
      333,
      333,
      306,
      294,
      284,
      277,
      267,
      236,
      227,
      217,
      213,
      212,
      213,
      211,
      190,
      193,
      192,
      171,
      165,
      133,
      133
    ],
    "swim:timestamps": [
      1785956653,
      1785956663,
      1785956783,
      1785956843,
      1785956904,
      1785956964,
      1785957084,
      1785957144,
      1785957204,
      1785957264,
      1785957324,
      1785957384,
      1785957444,
      1785957504,
      1785957564,
      1785957592,
      1785957625,
      1785957652,
      1785957685,
      1785957712,
      1785957745,
      1785957805,
      1785957832,
      1785957892,
      1785957925,
      1785957952,
      1785957985,
      1785958012,
      1785958045,
      1785958072,
      1785958105,
      1785958132,
      1785958193,
      1785958225,
      1785958253,
      1785958313,
      1785958346,
      1785958373,
      1785958406,
      1785958433,
      1785958466,
      1785958493,
      1785958586,
      1785958613,
      1785958646,
      1785958706,
      1785958766,
      1785958793,
      1785958853,
      1785958886,
      1785958946,
      1785958974,
      1785959007,
      1785959034,
      1785959067,
      1785959094,
      1785959127,
      1785959154,
      1785959214,
      1785959274,
      1785959394,
      1785959454,
      1785959514,
      1785959574,
      1785959695,
      1785959755,
      1785959815,
      1785959875,
      1785959995,
      1785960055,
      1785960115,
      1785960175,
      1785960295,
      1785960355,
      1785960416,
      1785960476,
      1785960536,
      1785960596,
      1785960707,
      1785960768,
      1785960836,
      1785960888,
      1785960956,
      1785961008,
      1785961016,
      1785961068,
      1785961076,
      1785961128,
      1785961188,
      1785961248,
      1785961257,
      1785961308,
      1785961317,
      1785961377,
      1785961428,
      1785961437,
      1785961489,
      1785961497,
      1785961557,
      1785961617,
      1785961669,
      1785961729,
      1785961789,
      1785961909,
      1785961969,
      1785962029,
      1785962089,
      1785962149,
      1785962210,
      1785962267,
      1785962390,
      1785962450,
      1785962507,
      1785962630,
      1785962687,
      1785962750,
      1785962810,
      1785962868,
      1785962931,
      1785962988,
      1785963168,
      1785963228,
      1785963288,
      1785963348,
      1785963469,
      1785963649,
      1785963709,
      1785963785,
      1785963845,
      1785963889,
      1785963965,
      1785964009,
      1785964025,
      1785964085,
      1785964145,
      1785964205,
      1785964250,
      1785964310,
      1785964370,
      1785964446,
      1785964490,
      1785964550,
      1785964566,
      1785964610,
      1785964626,
      1785964686,
      1785964730,
      1785964791,
      1785964866,
      1785964926,
      1785964971,
      1785965031,
      1785965091,
      1785965167,
      1785965227,
      1785965271,
      1785965287,
      1785965347,
      1785965407,
      1785965467,
      1785965527,
      1785965707,
      1785965768,
      1785965828,
      1785965888,
      1785966008,
      1785966068,
      1785966128,
      1785966188,
      1785966248,
      1785966308,
      1785966428,
      1785966489,
      1785966669,
      1785966695,
      1785966729,
      1785966755,
      1785966789,
      1785966815,
      1785966849,
      1785966875,
      1785966909,
      1785966935,
      1785966995,
      1785967029,
      1785967055,
      1785967089,
      1785967115,
      1785967149,
      1785967176,
      1785967210,
      1785967236,
      1785967270,
      1785967296,
      1785967330,
      1785967356,
      1785967390,
      1785967416,
      1785967450,
      1785967476,
      1785967510,
      1785967536,
      1785967570,
      1785967596,
      1785967630,
      1785967656,
      1785967690,
      1785967716,
      1785967750,
      1785967776,
      1785967810,
      1785967870,
      1785967897,
      1785967930,
      1785967957,
      1785967991,
      1785968017,
      1785968077,
      1785968111,
      1785968137,
      1785968171,
      1785968197,
      1785968231,
      1785968257,
      1785968317,
      1785968351,
      1785968377,
      1785968411,
      1785968437,
      1785968471,
      1785968531,
      1785968558,
      1785968618,
      1785968738,
      1785968798,
      1785968858,
      1785968918,
      1785968978,
      1785969011,
      1785969038,
      1785969071,
      1785969098,
      1785969132,
      1785969158,
      1785969192,
      1785969219,
      1785969252,
      1785969279,
      1785969312,
      1785969372,
      1785969432,
      1785969492,
      1785969579,
      1785969612,
      1785969639,
      1785969672,
      1785969699,
      1785969759,
      1785969792,
      1785969819,
      1785969853,
      1785969913,
      1785969940,
      1785969973,
      1785970000,
      1785970033,
      1785970060,
      1785970120,
      1785970153,
      1785970180,
      1785970213,
      1785970240,
      1785970273,
      1785970300,
      1785970333,
      1785970360,
      1785970393,
      1785970420,
      1785970453,
      1785970480,
      1785970513,
      1785970540,
      1785970574,
      1785970601,
      1785970634,
      1785970661,
      1785970694,
      1785970721,
      1785970754,
      1785970814,
      1785970841,
      1785970901,
      1785970934,
      1785970961,
      1785971054,
      1785971081,
      1785971141,
      1785971174,
      1785971260,
      1785971294,
      1785971320,
      1785971355,
      1785971441,
      1785971475,
      1785971501,
      1785971535,
      1785971561,
      1785971595,
      1785971621,
      1785971681,
      1785971715,
      1785971741,
      1785971775,
      1785971801,
      1785971835,
      1785971895,
      1785971921,
      1785971955,
      1785971982,
      1785972015,
      1785972042,
      1785972076,
      1785972136,
      1785972162,
      1785972196,
      1785972256,
      1785972282,
      1785972316,
      1785972342,
      1785972376,
      1785972402,
      1785972436,
      1785972462,
      1785972496,
      1785972522,
      1785972582,
      1785972616,
      1785972643,
      1785972703,
      1785972763,
      1785972823,
      1785972883,
      1785972943,
      1785973123,
      1785973183,
      1785973243,
      1785973304,
      1785973364,
      1785973424,
      1785973484,
      1785973544,
      1785973604,
      1785973696,
      1785973724,
      1785973784,
      1785973799,
      1785973844,
      1785973859,
      1785973920,
      1785973965,
      1785974025,
      1785974101,
      1785974145,
      1785974161,
      1785974205,
      1785974222,
      1785974282,
      1785974325,
      1785974343,
      1785974403,
      1785974445,
      1785974505,
      1785974566
    ],
    "wof:geomhash": "22bf8ab0d6a2f286a960ea472c8ab763",
    "wof:id": 2032117639,
    "wof:repo": "sfomuseum-data-flights-2026-08"
  },
  "bbox": [
    -122.40361111111112,
    25.793055555555558,
    -80.30499999999999,
    38.51916666666666
  ],
  "geometry": {"type":"LineString","coordinates":[[-122.4,37.65],[-122.40361111111112,37.651944444444446],[-122.24055555555556,37.708333333333336],[-122.15472222222223,37.7475],[-122.05416666666666,37.771388888888886],[-121.94611111111111,37.79694444444444],[-121.7063888888889,37.85305555555556],[-121.58138888888888,37.88194444444444],[-121.45972222222223,37.91],[-121.32944444444443,37.94],[-121.19638888888889,37.97],[-121.05888888888889,37.99805555555556],[-120.91722222222222,38.019999999999996],[-120.77277777777778,38.04222222222222],[-120.6236111111111,38.065],[-120.5736111111111,38.07083333333334],[-120.47194444444445,38.088055555555556],[-120.38805555555557,38.09916666666667],[-120.28388888888888,38.11611111111111],[-120.23055555555555,38.12222222222222],[-120.12527777777777,38.13944444444444],[-119.96166666666667,38.16361111111111],[-119.90722222222223,38.16972222222222],[-119.74055555555556,38.19499999999999],[-119.62777777777777,38.21138888888889],[-119.57166666666666,38.217777777777776],[-119.45944444444444,38.23555555555556],[-119.40333333333334,38.242222222222225],[-119.30027777777778,38.257777777777775],[-119.23361111111112,38.26555555555556],[-119.13083333333333,38.28111111111111],[-119.06444444444445,38.28944444444444],[-118.89500000000001,38.3125],[-118.78833333333333,38.32805555555556],[-118.72166666666666,38.33638888888889],[-118.54861111111111,38.36027777777778],[-118.44166666666668,38.37444444444444],[-118.34805555555555,38.38666666666666],[-118.26777777777778,38.39722222222222],[-118.17055555555557,38.40972222222222],[-118.09472222222222,38.419444444444444],[-117.99583333333334,38.43222222222222],[-117.74722222222222,38.46361111111111],[-117.64694444444446,38.47638888888889],[-117.57305555555556,38.48555555555556],[-117.39472222222223,38.5075],[-117.21527777777779,38.51916666666666],[-117.14611111111111,38.5175],[-116.96861111111112,38.51416666666667],[-116.85833333333333,38.51166666666666],[-116.68027777777779,38.5075],[-116.60944444444443,38.50555555555555],[-116.50277777777778,38.503055555555555],[-116.43333333333334,38.50111111111111],[-116.32472222222222,38.498333333333335],[-116.255,38.49638888888889],[-116.14444444444445,38.49333333333333],[-116.07583333333334,38.49111111111111],[-115.89833333333334,38.48583333333333],[-115.72027777777778,38.48027777777778],[-115.36694444444444,38.46805555555556],[-115.19444444444444,38.461666666666666],[-115.01722222222222,38.455000000000005],[-114.83916666666666,38.448055555555555],[-114.48194444444445,38.433055555555555],[-114.30111111111111,38.42527777777777],[-114.12444444444444,38.41722222222222],[-113.94555555555556,38.40888888888889],[-113.59277777777777,38.39138888888889],[-113.41361111111112,38.382222222222225],[-113.23972222222223,38.37277777777778],[-113.0625,38.36333333333334],[-112.71194444444444,38.32777777777778],[-112.5375,38.308611111111105],[-112.36166666666666,38.288888888888884],[-112.18555555555555,38.26888888888889],[-112.01166666666667,38.24888888888889],[-111.83777777777777,38.228611111111114],[-111.52555555555556,38.19138888888889],[-111.35111111111111,38.17027777777778],[-111.14111111111112,38.144444444444446],[-111.00111111111111,38.12722222222222],[-110.77416666666666,38.09861111111111],[-110.6363888888889,38.08111111111111],[-110.60111111111111,38.07638888888889],[-110.46361111111112,38.05888888888889],[-110.42833333333334,38.05416666666667],[-110.29055555555556,38.03638888888889],[-110.1275,38.014722222222225],[-109.95555555555556,37.98694444444445],[-109.91416666666667,37.97666666666667],[-109.79027777777777,37.94583333333333],[-109.74916666666667,37.93583333333333],[-109.58277777777778,37.89416666666666],[-109.45916666666668,37.863055555555555],[-109.41777777777779,37.8525],[-109.29138888888889,37.82055555555556],[-109.25166666666667,37.81055555555555],[-109.08972222222222,37.76916666666666],[-108.92416666666666,37.72666666666667],[-108.79416666666667,37.69305555555555],[-108.62666666666667,37.64944444444444],[-108.46277777777777,37.60666666666667],[-108.1325,37.519444444444446],[-107.96916666666667,37.475833333333334],[-107.80166666666666,37.43083333333333],[-107.63916666666667,37.38722222222222],[-107.47722222222222,37.33722222222222],[-107.31666666666666,37.2875],[-107.15333333333334,37.23638888888889],[-106.83111111111111,37.13472222222222],[-106.67111111111112,37.08388888888889],[-106.5125,37.033055555555556],[-106.18722222222223,36.92777777777778],[-106.03194444444445,36.87722222222222],[-105.85249999999999,36.81861111111112],[-105.69277777777778,36.76611111111111],[-105.5425,36.723333333333336],[-105.38583333333334,36.68388888888889],[-105.23527777777778,36.646388888888886],[-104.75972222222222,36.486111111111114],[-104.61027777777777,36.413888888888884],[-104.46166666666667,36.343333333333334],[-104.31,36.281666666666666],[-104.00111111111111,36.16277777777778],[-103.54166666666667,35.98361111111111],[-103.38805555555557,35.92305555555555],[-103.19277777777778,35.845555555555556],[-103.04333333333334,35.785555555555554],[-102.93138888888889,35.74138888888889],[-102.74166666666667,35.665277777777774],[-102.62138888888889,35.61666666666667],[-102.58694444444444,35.60277777777778],[-102.44222222222223,35.54416666666666],[-102.29472222222222,35.48388888888889],[-102.14583333333334,35.422777777777775],[-102.0261111111111,35.37361111111111],[-101.89083333333333,35.31805555555556],[-101.74194444444444,35.25611111111111],[-101.54166666666667,35.172777777777775],[-101.44555555555556,35.132777777777775],[-101.31083333333333,35.07611111111112],[-101.25555555555556,35.05277777777778],[-101.16722222222222,35.01555555555556],[-101.11138888888888,34.99194444444444],[-100.96861111111112,34.93138888888889],[-100.88277777777778,34.894999999999996],[-100.74138888888889,34.83444444444444],[-100.54277777777777,34.74944444444444],[-100.40083333333334,34.68833333333333],[-100.30333333333333,34.64611111111111],[-100.17277777777778,34.589444444444446],[-100.0286111111111,34.52638888888889],[-99.83027777777778,34.43944444444444],[-99.71583333333334,34.38916666666667],[-99.60166666666666,34.33888888888889],[-99.57388888888889,34.32666666666667],[-99.43527777777778,34.26083333333333],[-99.29888888888888,34.19555555555555],[-99.16111111111111,34.12972222222222],[-99.01944444444445,34.06166666666666],[-98.60305555555556,33.865],[-98.46222222222222,33.80611111111111],[-98.32138888888889,33.74722222222222],[-98.18055555555556,33.68805555555555],[-97.90055555555556,33.569722222222225],[-97.75694444444444,33.51222222222222],[-97.61361111111111,33.45861111111111],[-97.47055555555556,33.405],[-97.32638888888889,33.35055555555556],[-97.17861111111111,33.29472222222222],[-96.89166666666668,33.18583333333333],[-96.75,33.13138888888889],[-96.32666666666667,32.965833333333336],[-96.27416666666666,32.94027777777777],[-96.19666666666667,32.89666666666667],[-96.13611111111112,32.863055555555555],[-96.06722222222221,32.82638888888889],[-96.00583333333333,32.793055555555554],[-95.93694444444445,32.75555555555555],[-95.875,32.721944444444446],[-95.80638888888889,32.68416666666666],[-95.74444444444444,32.64972222222222],[-95.61444444444444,32.57666666666667],[-95.54472222222222,32.54],[-95.48277777777778,32.50472222222222],[-95.41277777777778,32.467222222222226],[-95.35,32.4325],[-95.28194444444445,32.39611111111111],[-95.21416666666667,32.36694444444444],[-95.15722222222223,32.342222222222226],[-95.07722222222222,32.30777777777777],[-95.01777777777778,32.28194444444444],[-94.94083333333333,32.24888888888889],[-94.88277777777778,32.223333333333336],[-94.80361111111111,32.18722222222222],[-94.74916666666667,32.15833333333333],[-94.67416666666666,32.1175],[-94.61888888888888,32.08777777777778],[-94.5436111111111,32.04722222222222],[-94.4888888888889,32.018055555555556],[-94.41277777777778,31.9775],[-94.35722222222222,31.9475],[-94.28388888888888,31.907777777777778],[-94.22777777777777,31.877222222222223],[-94.16722222222222,31.844444444444445],[-94.09638888888888,31.80666666666667],[-94.02194444444444,31.766111111111112],[-93.96166666666667,31.733055555555556],[-93.89333333333335,31.69472222222222],[-93.83472222222221,31.661944444444444],[-93.70666666666666,31.592777777777776],[-93.66083333333334,31.56972222222222],[-93.57555555555555,31.528888888888886],[-93.52111111111111,31.503611111111113],[-93.44416666666667,31.467499999999998],[-93.38861111111112,31.441111111111113],[-93.25777777777778,31.378888888888888],[-93.18527777777778,31.335555555555555],[-93.1275,31.297222222222224],[-93.065,31.256666666666668],[-93.00666666666666,31.219166666666666],[-92.94333333333334,31.179166666666667],[-92.8825,31.140555555555554],[-92.7611111111111,31.06138888888889],[-92.70333333333333,31.02361111111111],[-92.63666666666667,30.978888888888886],[-92.58916666666666,30.942222222222224],[-92.51972222222223,30.88861111111111],[-92.47472222222223,30.854166666666668],[-92.36222222222221,30.76833333333333],[-92.29027777777777,30.720277777777778],[-92.16777777777779,30.64527777777778],[-91.91527777777779,30.504444444444445],[-91.78777777777778,30.433888888888887],[-91.67416666666666,30.37138888888889],[-91.5461111111111,30.301111111111112],[-91.41972222222223,30.23222222222222],[-91.34083333333332,30.18166666666667],[-91.29194444444444,30.162777777777777],[-91.2125,30.1125],[-91.16444444444446,30.09361111111111],[-91.08416666666666,30.043055555555558],[-91.0363888888889,30.024166666666666],[-90.9563888888889,29.97722222222222],[-90.90777777777778,29.95583333333333],[-90.82888888888888,29.910277777777775],[-90.77972222222222,29.887777777777778],[-90.70166666666667,29.841666666666665],[-90.57555555555555,29.773333333333333],[-90.45,29.706944444444442],[-90.3261111111111,29.634999999999998],[-90.16027777777778,29.531944444444445],[-90.07638888888889,29.494444444444447],[-90.02527777777777,29.47694444444444],[-89.9388888888889,29.442222222222224],[-89.88694444444445,29.424166666666668],[-89.72194444444445,29.36138888888889],[-89.6613888888889,29.336666666666666],[-89.58527777777778,29.309166666666666],[-89.52055555555556,29.282777777777778],[-89.38305555555554,29.22972222222222],[-89.3086111111111,29.202777777777776],[-89.25,29.17888888888889],[-89.17111111111112,29.149722222222223],[-89.11194444444443,29.12666666666667],[-89.03305555555555,29.09611111111111],[-88.89611111111111,29.04277777777778],[-88.83777777777777,29.02],[-88.75944444444444,28.989444444444445],[-88.70277777777778,28.96722222222222],[-88.62388888888889,28.93638888888889],[-88.56833333333333,28.91444444444444],[-88.48722222222223,28.8825],[-88.43138888888889,28.860555555555557],[-88.35416666666666,28.83],[-88.2975,28.8075],[-88.21777777777778,28.77583333333333],[-88.16305555555556,28.754166666666666],[-88.08416666666666,28.722777777777775],[-88.02833333333334,28.700555555555553],[-87.96305555555556,28.674444444444447],[-87.89277777777778,28.64638888888889],[-87.82722222222222,28.62],[-87.74583333333334,28.58722222222222],[-87.69222222222223,28.565555555555555],[-87.61083333333333,28.533055555555556],[-87.55583333333333,28.510833333333334],[-87.47694444444444,28.478888888888886],[-87.3436111111111,28.424722222222222],[-87.29027777777777,28.403055555555554],[-87.15666666666667,28.348888888888887],[-87.07694444444444,28.316111111111113],[-87.02277777777778,28.29388888888889],[-86.8125,28.20777777777778],[-86.75972222222222,28.185833333333335],[-86.62583333333333,28.130555555555556],[-86.54555555555555,28.09722222222222],[-86.37444444444444,28.02638888888889],[-86.28083333333333,27.987222222222222],[-86.23055555555555,27.96638888888889],[-86.15083333333334,27.93277777777778],[-85.96694444444445,27.855833333333333],[-85.8875,27.822222222222223],[-85.83722222222222,27.801111111111112],[-85.75361111111111,27.765833333333333],[-85.70305555555557,27.744444444444447],[-85.62277777777777,27.710555555555555],[-85.54583333333333,27.67777777777778],[-85.42472222222223,27.62527777777778],[-85.36305555555555,27.596666666666664],[-85.2961111111111,27.566111111111113],[-85.235,27.53777777777778],[-85.16916666666667,27.50777777777778],[-85.10694444444444,27.479166666666664],[-84.96305555555556,27.412777777777777],[-84.91166666666668,27.389166666666664],[-84.83444444444444,27.353333333333335],[-84.78277777777778,27.329444444444444],[-84.705,27.29361111111111],[-84.65416666666667,27.26972222222222],[-84.57527777777777,27.233333333333334],[-84.44861111111112,27.174166666666668],[-84.39833333333334,27.150555555555552],[-84.32194444444444,27.115000000000002],[-84.19333333333334,27.05388888888889],[-84.14250000000001,27.030555555555555],[-84.06638888888888,26.99388888888889],[-84.015,26.970555555555553],[-83.93805555555556,26.933333333333334],[-83.88694444444445,26.91],[-83.8111111111111,26.87388888888889],[-83.76,26.85],[-83.68361111111112,26.814722222222223],[-83.63222222222221,26.789166666666667],[-83.50611111111111,26.729166666666664],[-83.42944444444444,26.691944444444445],[-83.37888888888888,26.668333333333333],[-83.25333333333333,26.608333333333334],[-83.12666666666667,26.547222222222224],[-83.00138888888888,26.486944444444447],[-82.87666666666667,26.42666666666667],[-82.74944444444445,26.365000000000002],[-82.36972222222222,26.18],[-82.25083333333333,26.121666666666666],[-82.12916666666666,26.061666666666667],[-81.98555555555555,25.990833333333335],[-81.87083333333332,25.934166666666666],[-81.75583333333333,25.892222222222223],[-81.63722222222223,25.89638888888889],[-81.52166666666666,25.899722222222223],[-81.41388888888889,25.903333333333332],[-81.25333333333333,25.907777777777778],[-81.20583333333333,25.90972222222222],[-81.11,25.90611111111111],[-81.08833333333332,25.9025],[-81.02277777777778,25.89361111111111],[-81.0038888888889,25.889444444444443],[-80.91944444444445,25.87611111111111],[-80.86388888888888,25.868055555555557],[-80.7961111111111,25.85666666666667],[-80.71472222222222,25.835277777777776],[-80.66611111111112,25.830833333333334],[-80.64916666666667,25.827222222222222],[-80.61805555555554,25.81361111111111],[-80.59166666666667,25.801666666666666],[-80.53083333333333,25.793055555555558],[-80.49916666666667,25.795],[-80.47305555555556,25.794722222222223],[-80.41777777777779,25.798055555555557],[-80.38833333333334,25.799722222222226],[-80.34555555555555,25.80138888888889],[-80.30499999999999,25.802777777777777]]}
}
