{
  "id": 2047983011,
  "type": "Feature",
  "properties": {
    "geom:area": 0,
    "geom:bbox": "-122.407140,37.627860,-121.285580,38.109250",
    "geom:latitude": 37.8757091941577,
    "geom:longitude": -121.86619664414914,
    "src:alt_label": "swim-takeoff",
    "src:geom": "swim",
    "swim:elevations": [
      183,
      351,
      927,
      1148,
      1355,
      2251,
      2888,
      3199,
      3261,
      3484,
      3658,
      3983,
      4411,
      4811,
      4915,
      5235,
      5420,
      5568,
      5873,
      6079,
      6273,
      6706
    ],
    "swim:geom": "takeoff",
    "swim:timestamps": [
      1786795310,
      1786795322,
      1786795366,
      1786795391,
      1786795417,
      1786795481,
      1786795524,
      1786795554,
      1786795564,
      1786795604,
      1786795628,
      1786795662,
      1786795691,
      1786795726,
      1786795740,
      1786795767,
      1786795787,
      1786795814,
      1786795847,
      1786795864,
      1786795892,
      1786795941
    ],
    "wof:geomhash": "b949758f28f5cebd29631fb05b82e8bf",
    "wof:id": 2047983011,
    "wof:repo": "sfomuseum-data-flights-2026-08"
  },
  "bbox": [
    -122.40714,
    37.62786,
    -121.28558,
    38.10925
  ],
  "geometry": {"type":"LineString","coordinates":[[-122.39083,37.62786],[-122.40186,37.63266],[-122.40714,37.66579],[-122.37895,37.67484],[-122.34467,37.68111],[-122.24727,37.70889],[-122.18248,37.73394],[-122.13844,37.75749],[-122.12361,37.76522],[-122.05553,37.8002],[-122.01006,37.82341],[-121.93811,37.85311],[-121.87587,37.87764],[-121.79996,37.90793],[-121.76864,37.92044],[-121.70749,37.94436],[-121.66239,37.96205],[-121.59957,37.98656],[-121.51935,38.01806],[-121.47823,38.03432],[-121.40887,38.06153],[-121.28558,38.10925]]}
}
