{
  "id": 2048082037,
  "type": "Feature",
  "properties": {
    "geom:area": 0,
    "geom:bbox": "-122.407920,37.625190,-121.278540,37.959470",
    "geom:latitude": 37.82766309456027,
    "geom:longitude": -121.86690746037821,
    "src:alt_label": "swim-takeoff",
    "src:geom": "swim",
    "swim:elevations": [
      274,
      624,
      702,
      1003,
      1371,
      1615,
      2138,
      2246,
      2837,
      3107,
      3266,
      3556,
      3683,
      3712,
      4086,
      4371,
      4549,
      4663,
      4859,
      5145,
      5268,
      5742,
      5871
    ],
    "swim:geom": "takeoff",
    "swim:timestamps": [
      1787247293,
      1787247327,
      1787247342,
      1787247386,
      1787247418,
      1787247431,
      1787247474,
      1787247483,
      1787247529,
      1787247554,
      1787247577,
      1787247627,
      1787247658,
      1787247663,
      1787247712,
      1787247732,
      1787247746,
      1787247771,
      1787247799,
      1787247827,
      1787247843,
      1787247898,
      1787247916
    ],
    "wof:geomhash": "ded8eb653120b8eb990b95b91200a32d",
    "wof:id": 2048082037,
    "wof:repo": "sfomuseum-data-flights-2026-08"
  },
  "bbox": [
    -122.40792,
    37.62519,
    -121.27854,
    37.95947
  ],
  "geometry": {"type":"LineString","coordinates":[[-122.39028,37.62519],[-122.40792,37.64554],[-122.4036,37.6579],[-122.3488,37.67707],[-122.29901,37.68898],[-122.2792,37.69541],[-122.21412,37.71875],[-122.2007,37.72486],[-122.13402,37.75942],[-122.09605,37.77873],[-122.06085,37.79721],[-121.97044,37.8333],[-121.9029,37.84589],[-121.89393,37.84754],[-121.77934,37.86872],[-121.73097,37.87764],[-121.69841,37.88353],[-121.64128,37.8938],[-121.57185,37.90627],[-121.50241,37.91898],[-121.46343,37.92622],[-121.32455,37.95154],[-121.27854,37.95947]]}
}
