{
  "id": 2047902969,
  "type": "Feature",
  "properties": {
    "geom:area": 0,
    "geom:bbox": "-122.400000,26.076389,-80.204444,38.455833",
    "geom:latitude": 34.892790707200284,
    "geom:longitude": -100.19088889671731,
    "src:alt_label": "swim-path",
    "src:geom": "swim",
    "swim:altitudes": [
      "004",
      "032",
      "043",
      "057",
      "076",
      "096",
      "108",
      "122",
      "142",
      "158",
      "174",
      "189",
      "201",
      "213",
      "228",
      "240",
      "250",
      "258",
      "261",
      "269",
      "272",
      "279",
      "282",
      "288C",
      "290C",
      "290C",
      "290C",
      "290C",
      "290C",
      "290C",
      "290C",
      "290C",
      "290C",
      "290C",
      "290C",
      "290C",
      "290C",
      "290C",
      "290C",
      "290C",
      "290C",
      "290C",
      "290C",
      "290C",
      "290C",
      "290C",
      "290C",
      "290C",
      "290C",
      "290C",
      "290C",
      "290C",
      "290C",
      "290C",
      "290C",
      "290C",
      "290",
      "290",
      "296",
      "299",
      "304",
      "307",
      "310C",
      "310C",
      "310C",
      "310C",
      "310C",
      "310C",
      "310C",
      "310C",
      "310C",
      "310C",
      "310C",
      "310C",
      "310C",
      "310C",
      "310C",
      "310C",
      "310C",
      "310C",
      "310C",
      "310C",
      "310C",
      "310C",
      "310C",
      "310C",
      "310C",
      "310C",
      "310C",
      "310C",
      "310C",
      "310C",
      "310C",
      "310C",
      "310C",
      "310C",
      "310C",
      "310C",
      "310C",
      "310C",
      "310C",
      "310C",
      "310C",
      "310C",
      "310C",
      "310C",
      "310C",
      "310C",
      "310C",
      "310C",
      "310C",
      "310C",
      "310C",
      "310C",
      "310C",
      "310C",
      "310C",
      "310C",
      "310C",
      "310C",
      "310C",
      "310C",
      "310C",
      "310C",
      "310C",
      "310C",
      "310C",
      "310C",
      "310C",
      "310C",
      "310C",
      "310C",
      "310C",
      "310C",
      "310C",
      "310C",
      "310C",
      "310C",
      "310C",
      "310C",
      "310C",
      "310C",
      "310C",
      "310C",
      "310C",
      "310C",
      "310C",
      "310C",
      "310C",
      "310C",
      "310C",
      "310C",
      "310C",
      "310C",
      "310C",
      "310C",
      "310C",
      "310C",
      "310C",
      "310C",
      "310C",
      "310C",
      "310C",
      "310C",
      "310C",
      "310C",
      "310C",
      "310C",
      "310C",
      "310C",
      "310C",
      "310C",
      "310C",
      "310C",
      "310C",
      "310C",
      "310C",
      "310C",
      "310C",
      "310C",
      "310C",
      "310C",
      "310C",
      "310C",
      "310C",
      "310C",
      "310C",
      "310",
      "315",
      "321",
      "327",
      "332",
      "338",
      "341",
      "345",
      "346",
      "348C",
      "350C",
      "350C",
      "350C",
      "350C",
      "350C",
      "350C",
      "350C",
      "350C",
      "350C",
      "350C",
      "350C",
      "350C",
      "350C",
      "350C",
      "350C",
      "350C",
      "350C",
      "350C",
      "350C",
      "350C",
      "350C",
      "350C",
      "350C",
      "350C",
      "350C",
      "350C",
      "350C",
      "350C",
      "350C",
      "350C",
      "350C",
      "350C",
      "350C",
      "350C",
      "350C",
      "350C",
      "350C",
      "350C",
      "350C",
      "350C",
      "350C",
      "350C",
      "350C",
      "350C",
      "350C",
      "350C",
      "350C",
      "350C",
      "350C",
      "350C",
      "350C",
      "350C",
      "350C",
      "350C",
      "350C",
      "350C",
      "350C",
      "350C",
      "350C",
      "350C",
      "350C",
      "350C",
      "350C",
      "350C",
      "350C",
      "350C",
      "350C",
      "350C",
      "350C",
      "350C",
      "350C",
      "350C",
      "350C",
      "350C",
      "350C",
      "350C",
      "350C",
      "350C",
      "350C",
      "350C",
      "350C",
      "350C",
      "350C",
      "350C",
      "350C",
      "350C",
      "350C",
      "350C",
      "350C",
      "350C",
      "350C",
      "350C",
      "350C",
      "350C",
      "350C",
      "350C",
      "350C",
      "350C",
      "350C",
      "350C",
      "350C",
      "350C",
      "350C",
      "350C",
      "350C",
      "350C",
      "350C",
      "350C",
      "350C",
      "350C",
      "350C",
      "350C",
      "350C",
      "350C",
      "350C",
      "350C",
      "350C",
      "350C",
      "350C",
      "350C",
      "350C",
      "350C",
      "350C",
      "350C",
      "350C",
      "350C",
      "350C",
      "350C",
      "350C",
      "350C",
      "350C",
      "350C",
      "350C",
      "350C",
      "350C",
      "350C",
      "350C",
      "350C",
      "350C",
      "350C",
      "350C",
      "350C",
      "350C",
      "350C",
      "350C",
      "350C",
      "350C",
      "350C",
      "350C",
      "350C",
      "350C",
      "350C",
      "350C",
      "350C",
      "350C",
      "350C",
      "350C",
      "350C",
      "350C",
      "350C",
      "350C",
      "350C",
      "350C",
      "350C",
      "350C",
      "350C",
      "350C",
      "350C",
      "350C",
      "350C",
      "350C",
      "350C",
      "350C",
      "350C",
      "350C",
      "350C",
      "350C",
      "350C",
      "350C",
      "350C",
      "350C",
      "350C",
      "350C",
      "350C",
      "350C",
      "350C",
      "350C",
      "350C",
      "350C",
      "350C",
      "350C",
      "350C",
      "350C",
      "350C",
      "350C",
      "350C",
      "350C",
      "350C",
      "350C",
      "350C",
      "350C",
      "350C",
      "350C",
      "350C",
      "350C",
      "350C",
      "350C",
      "350C",
      "350C",
      "350C",
      "350C",
      "350C",
      "350C",
      "350C",
      "350C",
      "350C",
      "350C",
      "350C",
      "350C",
      "350C",
      "350C",
      "350C",
      "350C",
      "350C",
      "350C",
      "350C",
      "350C",
      "350C",
      "350C",
      "350C",
      "350C",
      "350C",
      "350C",
      "350C",
      "350C",
      "350C",
      "350C",
      "350C",
      "350C",
      "350C",
      "350C",
      "350C",
      "350C",
      "350C",
      "350C",
      "350C",
      "350C",
      "350C",
      "350C",
      "350C",
      "350C",
      "350C",
      "350C",
      "350C",
      "350C",
      "350C",
      "350C",
      "350C",
      "350C",
      "350C",
      "350C",
      "350C",
      "350C",
      "350C",
      "350C",
      "350C",
      "350C",
      "350C",
      "350C",
      "350C",
      "350C",
      "350C",
      "350C",
      "350C",
      "350C",
      "350C",
      "350",
      "350",
      "350",
      "350",
      "350",
      "350",
      "350",
      "350",
      "350",
      "350",
      "350",
      "350",
      "349",
      "340",
      "321",
      "291",
      "278",
      "257",
      "235",
      "214",
      "192",
      "172",
      "151",
      "138",
      "131",
      "111",
      "102",
      "088",
      "072",
      "072",
      "071",
      "061",
      "061",
      "052",
      "048",
      "043",
      "043",
      "033",
      "024",
      "016",
      "016",
      "007"
    ],
    "swim:geom": "path",
    "swim:speeds": [
      187,
      208,
      245,
      273,
      291,
      296,
      331,
      359,
      366,
      372,
      380,
      391,
      401,
      414,
      417,
      423,
      432,
      438,
      438,
      438,
      441,
      442,
      448,
      449,
      455,
      459,
      474,
      479,
      477,
      479,
      478,
      479,
      480,
      480,
      481,
      482,
      481,
      483,
      486,
      486,
      488,
      491,
      490,
      492,
      492,
      494,
      494,
      494,
      494,
      494,
      493,
      492,
      491,
      491,
      491,
      490,
      490,
      490,
      491,
      490,
      491,
      491,
      492,
      492,
      492,
      492,
      492,
      492,
      491,
      490,
      490,
      489,
      488,
      487,
      488,
      488,
      488,
      488,
      488,
      488,
      489,
      490,
      490,
      491,
      491,
      492,
      492,
      493,
      494,
      495,
      495,
      494,
      492,
      490,
      489,
      487,
      486,
      485,
      485,
      486,
      487,
      489,
      490,
      492,
      494,
      495,
      496,
      496,
      495,
      495,
      494,
      494,
      494,
      493,
      492,
      492,
      492,
      494,
      494,
      495,
      495,
      495,
      495,
      494,
      492,
      493,
      492,
      491,
      490,
      490,
      490,
      490,
      488,
      487,
      485,
      484,
      483,
      483,
      483,
      483,
      484,
      502,
      485,
      486,
      485,
      485,
      487,
      486,
      487,
      487,
      488,
      487,
      488,
      487,
      488,
      487,
      487,
      486,
      486,
      485,
      484,
      485,
      484,
      483,
      483,
      483,
      484,
      483,
      484,
      484,
      484,
      484,
      485,
      484,
      484,
      484,
      485,
      484,
      485,
      484,
      484,
      483,
      482,
      481,
      481,
      480,
      480,
      480,
      480,
      480,
      478,
      477,
      474,
      474,
      472,
      472,
      472,
      471,
      472,
      472,
      472,
      472,
      472,
      472,
      472,
      472,
      472,
      472,
      472,
      472,
      472,
      472,
      473,
      473,
      473,
      472,
      472,
      471,
      471,
      470,
      470,
      470,
      469,
      469,
      469,
      469,
      468,
      468,
      468,
      468,
      468,
      468,
      468,
      468,
      467,
      467,
      466,
      466,
      466,
      466,
      465,
      465,
      465,
      465,
      465,
      465,
      466,
      466,
      467,
      467,
      467,
      467,
      467,
      468,
      467,
      466,
      470,
      465,
      467,
      464,
      465,
      464,
      465,
      465,
      466,
      467,
      467,
      469,
      470,
      471,
      472,
      473,
      474,
      474,
      475,
      475,
      476,
      476,
      476,
      477,
      477,
      477,
      477,
      477,
      477,
      477,
      477,
      478,
      478,
      478,
      478,
      478,
      479,
      479,
      480,
      482,
      485,
      487,
      489,
      489,
      490,
      491,
      492,
      492,
      492,
      493,
      493,
      493,
      494,
      494,
      495,
      495,
      496,
      497,
      498,
      501,
      502,
      504,
      504,
      504,
      502,
      501,
      500,
      498,
      496,
      495,
      548,
      493,
      476,
      492,
      482,
      491,
      491,
      490,
      489,
      490,
      489,
      490,
      490,
      490,
      490,
      490,
      489,
      490,
      488,
      489,
      488,
      489,
      488,
      489,
      489,
      489,
      489,
      488,
      488,
      488,
      487,
      487,
      487,
      487,
      487,
      487,
      487,
      488,
      488,
      488,
      488,
      488,
      488,
      488,
      488,
      488,
      488,
      488,
      487,
      488,
      492,
      488,
      490,
      487,
      488,
      486,
      486,
      484,
      484,
      482,
      482,
      478,
      476,
      475,
      476,
      476,
      477,
      477,
      478,
      478,
      479,
      479,
      480,
      480,
      481,
      480,
      478,
      477,
      475,
      475,
      474,
      474,
      473,
      473,
      471,
      471,
      470,
      469,
      468,
      469,
      468,
      468,
      468,
      468,
      468,
      468,
      469,
      468,
      470,
      469,
      471,
      472,
      473,
      475,
      474,
      475,
      474,
      475,
      474,
      475,
      473,
      473,
      471,
      469,
      467,
      466,
      465,
      465,
      463,
      463,
      462,
      461,
      461,
      461,
      461,
      461,
      461,
      461,
      461,
      462,
      462,
      462,
      462,
      462,
      462,
      461,
      461,
      461,
      460,
      460,
      460,
      460,
      460,
      461,
      461,
      462,
      462,
      461,
      461,
      460,
      459,
      459,
      458,
      457,
      457,
      456,
      455,
      454,
      454,
      453,
      452,
      453,
      459,
      430,
      420,
      411,
      402,
      393,
      385,
      377,
      367,
      366,
      356,
      316,
      291,
      275,
      278,
      257,
      252,
      254,
      234,
      221,
      217,
      220,
      196,
      173,
      168,
      171,
      151
    ],
    "swim:timestamps": [
      1786342191,
      1786342269,
      1786342329,
      1786342389,
      1786342449,
      1786342509,
      1786342569,
      1786342629,
      1786342689,
      1786342749,
      1786342810,
      1786342870,
      1786342930,
      1786342990,
      1786343050,
      1786343110,
      1786343170,
      1786343214,
      1786343230,
      1786343274,
      1786343290,
      1786343334,
      1786343350,
      1786343394,
      1786343410,
      1786343454,
      1786343470,
      1786343514,
      1786343530,
      1786343574,
      1786343590,
      1786343634,
      1786343694,
      1786343710,
      1786343754,
      1786343770,
      1786343815,
      1786343830,
      1786343890,
      1786343935,
      1786343950,
      1786343995,
      1786344010,
      1786344055,
      1786344070,
      1786344115,
      1786344130,
      1786344175,
      1786344191,
      1786344235,
      1786344251,
      1786344295,
      1786344355,
      1786344371,
      1786344415,
      1786344431,
      1786344475,
      1786344491,
      1786344535,
      1786344551,
      1786344595,
      1786344611,
      1786344655,
      1786344671,
      1786344715,
      1786344731,
      1786344775,
      1786344791,
      1786344835,
      1786344851,
      1786344895,
      1786344955,
      1786345015,
      1786345076,
      1786345136,
      1786345196,
      1786345256,
      1786345316,
      1786345376,
      1786345436,
      1786345496,
      1786345556,
      1786345616,
      1786345676,
      1786345736,
      1786345796,
      1786345856,
      1786345916,
      1786345976,
      1786346036,
      1786346096,
      1786346156,
      1786346216,
      1786346276,
      1786346337,
      1786346397,
      1786346457,
      1786346517,
      1786346577,
      1786346637,
      1786346697,
      1786346757,
      1786346817,
      1786346877,
      1786346937,
      1786346997,
      1786347057,
      1786347117,
      1786347177,
      1786347237,
      1786347297,
      1786347359,
      1786347419,
      1786347479,
      1786347539,
      1786347599,
      1786347659,
      1786347719,
      1786347779,
      1786347839,
      1786347899,
      1786347959,
      1786348019,
      1786348080,
      1786348128,
      1786348140,
      1786348200,
      1786348260,
      1786348310,
      1786348320,
      1786348368,
      1786348380,
      1786348440,
      1786348490,
      1786348549,
      1786348560,
      1786348608,
      1786348620,
      1786348669,
      1786348680,
      1786348740,
      1786348770,
      1786348800,
      1786348832,
      1786348850,
      1786348860,
      1786348889,
      1786348908,
      1786348920,
      1786348949,
      1786348980,
      1786349010,
      1786349040,
      1786349072,
      1786349089,
      1786349100,
      1786349130,
      1786349160,
      1786349190,
      1786349208,
      1786349220,
      1786349249,
      1786349268,
      1786349280,
      1786349309,
      1786349329,
      1786349372,
      1786349388,
      1786349432,
      1786349448,
      1786349489,
      1786349509,
      1786349550,
      1786349571,
      1786349610,
      1786349631,
      1786349670,
      1786349688,
      1786349733,
      1786349748,
      1786349790,
      1786349808,
      1786349853,
      1786349871,
      1786349912,
      1786349931,
      1786349972,
      1786349991,
      1786350032,
      1786350051,
      1786350093,
      1786350110,
      1786350150,
      1786350170,
      1786350193,
      1786350210,
      1786350230,
      1786350253,
      1786350273,
      1786350291,
      1786350313,
      1786350332,
      1786350351,
      1786350373,
      1786350390,
      1786350411,
      1786350433,
      1786350452,
      1786350470,
      1786350493,
      1786350512,
      1786350553,
      1786350573,
      1786350613,
      1786350630,
      1786350638,
      1786350673,
      1786350691,
      1786350698,
      1786350733,
      1786350752,
      1786350758,
      1786350793,
      1786350817,
      1786350853,
      1786350873,
      1786350913,
      1786350930,
      1786350937,
      1786350973,
      1786350991,
      1786350998,
      1786351033,
      1786351050,
      1786351093,
      1786351112,
      1786351153,
      1786351172,
      1786351213,
      1786351233,
      1786351273,
      1786351291,
      1786351333,
      1786351353,
      1786351393,
      1786351411,
      1786351453,
      1786351473,
      1786351513,
      1786351531,
      1786351573,
      1786351591,
      1786351633,
      1786351651,
      1786351693,
      1786351753,
      1786351789,
      1786351813,
      1786351849,
      1786351873,
      1786351909,
      1786351933,
      1786351969,
      1786351993,
      1786352029,
      1786352053,
      1786352089,
      1786352113,
      1786352149,
      1786352174,
      1786352209,
      1786352234,
      1786352269,
      1786352294,
      1786352329,
      1786352354,
      1786352389,
      1786352414,
      1786352449,
      1786352474,
      1786352509,
      1786352534,
      1786352569,
      1786352594,
      1786352630,
      1786352654,
      1786352690,
      1786352714,
      1786352750,
      1786352774,
      1786352810,
      1786352834,
      1786352870,
      1786352894,
      1786352930,
      1786352954,
      1786352990,
      1786353014,
      1786353050,
      1786353074,
      1786353110,
      1786353134,
      1786353170,
      1786353194,
      1786353230,
      1786353254,
      1786353290,
      1786353314,
      1786353350,
      1786353374,
      1786353410,
      1786353434,
      1786353470,
      1786353494,
      1786353530,
      1786353590,
      1786353650,
      1786353710,
      1786353770,
      1786353830,
      1786353890,
      1786353950,
      1786354010,
      1786354070,
      1786354130,
      1786354190,
      1786354234,
      1786354250,
      1786354294,
      1786354310,
      1786354354,
      1786354370,
      1786354414,
      1786354430,
      1786354490,
      1786354534,
      1786354550,
      1786354594,
      1786354610,
      1786354654,
      1786354670,
      1786354714,
      1786354730,
      1786354774,
      1786354790,
      1786354834,
      1786354850,
      1786354894,
      1786354910,
      1786354954,
      1786354970,
      1786355015,
      1786355030,
      1786355075,
      1786355091,
      1786355135,
      1786355151,
      1786355195,
      1786355211,
      1786355255,
      1786355271,
      1786355315,
      1786355331,
      1786355375,
      1786355391,
      1786355412,
      1786355435,
      1786355451,
      1786355472,
      1786355495,
      1786355511,
      1786355532,
      1786355555,
      1786355571,
      1786355592,
      1786355615,
      1786355652,
      1786355675,
      1786355712,
      1786355735,
      1786355772,
      1786355795,
      1786355832,
      1786355855,
      1786355892,
      1786355915,
      1786355952,
      1786355975,
      1786356012,
      1786356035,
      1786356072,
      1786356095,
      1786356132,
      1786356155,
      1786356193,
      1786356215,
      1786356253,
      1786356275,
      1786356313,
      1786356335,
      1786356373,
      1786356395,
      1786356433,
      1786356455,
      1786356493,
      1786356515,
      1786356553,
      1786356575,
      1786356613,
      1786356635,
      1786356673,
      1786356696,
      1786356733,
      1786356763,
      1786356793,
      1786356823,
      1786356853,
      1786356883,
      1786356913,
      1786356943,
      1786356973,
      1786357003,
      1786357033,
      1786357063,
      1786357093,
      1786357123,
      1786357153,
      1786357183,
      1786357213,
      1786357243,
      1786357273,
      1786357304,
      1786357333,
      1786357364,
      1786357393,
      1786357424,
      1786357453,
      1786357484,
      1786357513,
      1786357544,
      1786357574,
      1786357604,
      1786357634,
      1786357664,
      1786357694,
      1786357724,
      1786357754,
      1786357784,
      1786357814,
      1786357844,
      1786357874,
      1786357904,
      1786357934,
      1786357964,
      1786357994,
      1786358024,
      1786358054,
      1786358084,
      1786358114,
      1786358144,
      1786358174,
      1786358204,
      1786358234,
      1786358264,
      1786358294,
      1786358325,
      1786358354,
      1786358385,
      1786358414,
      1786358445,
      1786358474,
      1786358505,
      1786358534,
      1786358565,
      1786358595,
      1786358625,
      1786358655,
      1786358685,
      1786358715,
      1786358745,
      1786358775,
      1786358805,
      1786358835,
      1786358865,
      1786358895,
      1786358925,
      1786358955,
      1786358985,
      1786359045,
      1786359105,
      1786359165,
      1786359226,
      1786359286,
      1786359346,
      1786359406,
      1786359466,
      1786359500,
      1786359526,
      1786359586,
      1786359639,
      1786359706,
      1786359759,
      1786359766,
      1786359826,
      1786359879,
      1786359886,
      1786359946,
      1786360006,
      1786360060,
      1786360067,
      1786360126,
      1786360186,
      1786360240,
      1786360247,
      1786360307
    ],
    "wof:geomhash": "aa1aba937b5ba81f30390add344addac",
    "wof:id": 2047902969,
    "wof:repo": "sfomuseum-data-flights-2026-08"
  },
  "bbox": [
    -122.4,
    26.07638888888889,
    -80.20444444444445,
    38.45583333333334
  ],
  "geometry": {"type":"LineString","coordinates":[[-122.4,37.63333333333333],[-122.39027777777778,37.678888888888885],[-122.34055555555555,37.72777777777778],[-122.36222222222221,37.79722222222222],[-122.30694444444444,37.85472222222222],[-122.2025,37.867222222222225],[-122.09166666666667,37.88],[-121.9675,37.894444444444446],[-121.83833333333332,37.909166666666664],[-121.70583333333333,37.92444444444444],[-121.57388888888889,37.939166666666665],[-121.43694444444445,37.95444444444445],[-121.29805555555555,37.969722222222224],[-121.15277777777779,37.98555555555556],[-121.00944444444444,38.005833333333335],[-120.86277777777777,38.02833333333333],[-120.71361111111112,38.051111111111105],[-120.6086111111111,38.066111111111105],[-120.56361111111111,38.073888888888895],[-120.45666666666666,38.088055555555556],[-120.40972222222223,38.096944444444446],[-120.30222222222221,38.11194444444445],[-120.2525,38.120555555555555],[-120.14500000000001,38.13472222222222],[-120.09527777777777,38.14388888888889],[-119.98472222222222,38.158055555555556],[-119.93166666666667,38.16777777777777],[-119.81805555555555,38.18333333333333],[-119.76611111111112,38.19166666666666],[-119.65194444444445,38.206944444444446],[-119.60083333333333,38.21527777777778],[-119.4863888888889,38.23027777777778],[-119.28611111111111,38.259166666666665],[-119.25166666666667,38.26444444444444],[-119.11805555555554,38.28138888888889],[-119.08416666666666,38.2875],[-118.95,38.305],[-118.91694444444445,38.31027777777778],[-118.74722222222222,38.333333333333336],[-118.61277777777777,38.35055555555556],[-118.5786111111111,38.35611111111111],[-118.44194444444445,38.37416666666667],[-118.40527777777778,38.37916666666667],[-118.26638888888888,38.39722222222222],[-118.23611111111111,38.401111111111106],[-118.09166666666667,38.41972222222222],[-118.06333333333333,38.42361111111111],[-117.9175,38.44194444444444],[-117.88305555555554,38.44638888888888],[-117.74333333333334,38.45583333333334],[-117.70833333333334,38.45416666666667],[-117.57138888888889,38.44583333333333],[-117.39666666666668,38.43555555555555],[-117.35749999999999,38.433055555555555],[-117.25694444444444,38.426944444444445],[-117.18388888888889,38.4225],[-117.08027777777778,38.41583333333333],[-117.00722222222223,38.41138888888889],[-116.90333333333334,38.404444444444444],[-116.83333333333333,38.4],[-116.72944444444444,38.39333333333333],[-116.6575,38.38861111111111],[-116.55416666666666,38.38166666666667],[-116.51972222222223,38.37916666666667],[-116.38055555555555,38.36972222222222],[-116.34583333333333,38.367222222222225],[-116.2063888888889,38.35722222222223],[-116.17166666666667,38.355000000000004],[-116.03444444444445,38.345],[-115.99805555555555,38.342222222222226],[-115.86388888888888,38.3325],[-115.69111111111111,38.319722222222225],[-115.52055555555556,38.306666666666665],[-115.34916666666666,38.29333333333333],[-115.16361111111112,38.27861111111111],[-114.99277777777777,38.264722222222225],[-114.82083333333333,38.25083333333333],[-114.64888888888889,38.23638888888889],[-114.47694444444444,38.22166666666667],[-114.30583333333333,38.206944444444446],[-114.13361111111112,38.19194444444444],[-113.96194444444444,38.17638888888889],[-113.79083333333332,38.16083333333333],[-113.61833333333333,38.14472222222222],[-113.44527777777778,38.12833333333333],[-113.27333333333333,38.11194444444445],[-113.1,38.095],[-112.92500000000001,38.07777777777778],[-112.74944444444445,38.06027777777778],[-112.57444444444444,38.0425],[-112.40166666666667,38.02472222222222],[-112.265,38.01027777777778],[-112.09333333333333,37.992222222222225],[-111.92222222222223,37.973888888888894],[-111.75138888888888,37.955000000000005],[-111.58388888888888,37.936388888888885],[-111.41472222222222,37.9175],[-111.2461111111111,37.89833333333333],[-111.0761111111111,37.87888888888889],[-110.90694444444445,37.85916666666667],[-110.73861111111111,37.83916666666667],[-110.55027777777778,37.81666666666667],[-110.38083333333333,37.796388888888885],[-110.21000000000001,37.775277777777774],[-110.0375,37.75388888888889],[-109.86583333333333,37.73222222222223],[-109.69388888888889,37.71027777777778],[-109.52166666666666,37.68805555555555],[-109.35444444444444,37.66638888888889],[-109.18361111111112,37.64388888888889],[-109.01388888888889,37.62111111111111],[-108.8461111111111,37.59861111111111],[-108.67750000000001,37.57555555555556],[-108.5075,37.55222222222222],[-108.33666666666666,37.52833333333333],[-108.16694444444445,37.50416666666667],[-107.99916666666667,37.48027777777778],[-107.82638888888889,37.455555555555556],[-107.6575,37.43111111111111],[-107.48583333333333,37.405833333333334],[-107.31611111111111,37.38055555555555],[-107.14555555555556,37.35472222222222],[-106.97694444444444,37.32916666666667],[-106.80638888888889,37.30333333333333],[-106.67305555555556,37.2825],[-106.64,37.27722222222222],[-106.47194444444445,37.25111111111111],[-106.30388888888889,37.224722222222226],[-106.16000000000001,37.20194444444445],[-106.1211111111111,37.19555555555555],[-105.99083333333333,37.17444444444444],[-105.95166666666667,37.168055555555554],[-105.78388888888888,37.14055555555556],[-105.65361111111112,37.119166666666665],[-105.51194444444444,37.09583333333334],[-105.47333333333333,37.089444444444446],[-105.34194444444444,37.06777777777778],[-105.30888888888889,37.06222222222222],[-105.17777777777778,37.040277777777774],[-105.14416666666668,37.03444444444444],[-104.98138888888889,37.00666666666667],[-104.90333333333334,36.9925],[-104.81805555555555,36.97888888888889],[-104.74083333333333,36.96638888888889],[-104.68666666666667,36.95583333333334],[-104.65416666666667,36.95027777777778],[-104.57888888888888,36.937777777777775],[-104.50138888888888,36.92361111111111],[-104.48833333333333,36.921388888888885],[-104.41472222222222,36.907777777777774],[-104.32527777777777,36.89277777777778],[-104.24888888888889,36.878055555555555],[-104.15916666666668,36.86333333333334],[-104.08388888888888,36.85027777777778],[-104.03055555555555,36.84027777777778],[-103.99722222222222,36.83416666666667],[-103.91916666666667,36.82138888888889],[-103.83388888888888,36.80472222222222],[-103.75638888888889,36.79111111111111],[-103.70444444444445,36.78111111111111],[-103.67333333333333,36.775555555555556],[-103.59444444444443,36.76111111111111],[-103.54305555555555,36.751666666666665],[-103.51083333333334,36.745555555555555],[-103.41194444444444,36.7275],[-103.37944444444443,36.72138888888889],[-103.26888888888888,36.700833333333335],[-103.21944444444445,36.69166666666666],[-103.10638888888889,36.67055555555555],[-103.05527777777777,36.66083333333333],[-102.94361111111111,36.63972222222222],[-102.89305555555556,36.63],[-102.78111111111112,36.60861111111111],[-102.71194444444444,36.595555555555556],[-102.61861111111111,36.5775],[-102.55083333333333,36.56444444444444],[-102.45527777777778,36.545833333333334],[-102.38722222222223,36.5325],[-102.29138888888889,36.513888888888886],[-102.22500000000001,36.50111111111111],[-102.12972222222221,36.48222222222223],[-102.06333333333333,36.469166666666666],[-101.96944444444445,36.45027777777778],[-101.90194444444445,36.43694444444444],[-101.80805555555555,36.418055555555554],[-101.7425,36.405],[-101.65222222222222,36.386944444444445],[-101.58,36.3725],[-101.48777777777778,36.353611111111114],[-101.42583333333334,36.34111111111111],[-101.3286111111111,36.321111111111115],[-101.26888888888888,36.30888888888889],[-101.16916666666667,36.288333333333334],[-101.12722222222222,36.27972222222222],[-101.03694444444444,36.26111111111111],[-101.01277777777777,36.25611111111111],[-100.97166666666666,36.2475],[-100.87972222222221,36.22833333333333],[-100.85666666666665,36.223333333333336],[-100.81361111111111,36.214444444444446],[-100.72277777777778,36.195277777777775],[-100.69944444444445,36.19027777777777],[-100.65777777777778,36.181666666666665],[-100.56388888888888,36.16166666666666],[-100.53527777777778,36.155833333333334],[-100.49972222222222,36.14805555555556],[-100.4075,36.12861111111111],[-100.37722222222222,36.12222222222222],[-100.34333333333333,36.115],[-100.25083333333333,36.09527777777778],[-100.2213888888889,36.08888888888889],[-100.09305555555555,36.06111111111111],[-100.06416666666667,36.05472222222222],[-99.93861111111111,36.02722222222222],[-99.90666666666667,36.02027777777778],[-99.90416666666667,36.01972222222222],[-99.78055555555555,35.99277777777778],[-99.75277777777778,35.986666666666665],[-99.7475,35.98555555555556],[-99.62694444444443,35.95888888888889],[-99.59916666666666,35.95277777777778],[-99.59388888888888,35.95166666666667],[-99.4725,35.92472222222222],[-99.43916666666667,35.91722222222222],[-99.32055555555556,35.89083333333333],[-99.28222222222222,35.882222222222225],[-99.17,35.856944444444444],[-99.12944444444443,35.84777777777778],[-99.1086111111111,35.84305555555556],[-99.01638888888888,35.82222222222222],[-98.97500000000001,35.812777777777775],[-98.95472222222223,35.80833333333333],[-98.8625,35.78722222222222],[-98.82166666666666,35.778055555555554],[-98.71027777777778,35.7525],[-98.66694444444445,35.7425],[-98.55499999999999,35.71666666666667],[-98.52972222222222,35.71083333333333],[-98.42916666666667,35.6875],[-98.37638888888888,35.67527777777777],[-98.27222222222223,35.65083333333333],[-98.21027777777778,35.63638888888889],[-98.11944444444444,35.615],[-98.05805555555555,35.60027777777778],[-97.9675,35.57916666666667],[-97.90722222222223,35.56472222222222],[-97.81305555555555,35.5425],[-97.7538888888889,35.52833333333333],[-97.66055555555556,35.505833333333335],[-97.59916666666666,35.490833333333335],[-97.50777777777778,35.46888888888889],[-97.44583333333334,35.45416666666667],[-97.33749999999999,35.42777777777778],[-97.31916666666666,35.42333333333333],[-97.18416666666667,35.390277777777776],[-97.03777777777778,35.35444444444445],[-96.94111111111111,35.330000000000005],[-96.88722222222223,35.3175],[-96.80472222222222,35.296388888888885],[-96.73805555555556,35.28055555555555],[-96.64055555555557,35.25527777777778],[-96.58638888888889,35.2425],[-96.49,35.21666666666667],[-96.43333333333334,35.20416666666667],[-96.33805555555556,35.17861111111111],[-96.28333333333333,35.16611111111111],[-96.185,35.14111111111111],[-96.12944444444443,35.12722222222222],[-96.03388888888888,35.10277777777778],[-95.97583333333334,35.08777777777778],[-95.89333333333335,35.06666666666667],[-95.8236111111111,35.04861111111111],[-95.72666666666667,35.02361111111111],[-95.66944444444445,35.00861111111111],[-95.57277777777777,34.98361111111111],[-95.51694444444445,34.96888888888889],[-95.41944444444445,34.94333333333333],[-95.3625,34.92833333333333],[-95.28,34.90694444444444],[-95.20944444444444,34.888333333333335],[-95.12833333333333,34.867222222222225],[-95.04805555555555,34.84583333333334],[-94.97444444444444,34.82611111111112],[-94.89277777777778,34.80444444444444],[-94.8025,34.78],[-94.74027777777778,34.763333333333335],[-94.64972222222222,34.73888888888889],[-94.58805555555556,34.72222222222222],[-94.49555555555555,34.697222222222216],[-94.43333333333334,34.680277777777775],[-94.34138888888889,34.655277777777776],[-94.27888888888889,34.638333333333335],[-94.21027777777778,34.61972222222222],[-94.12527777777777,34.59666666666667],[-94.05638888888889,34.5775],[-93.97111111111111,34.553888888888885],[-93.87888888888888,34.52833333333333],[-93.81333333333333,34.51],[-93.72,34.48416666666667],[-93.6563888888889,34.46638888888889],[-93.58888888888889,34.4475],[-93.50111111111111,34.422777777777775],[-93.4325,34.40333333333333],[-93.3425,34.378055555555555],[-93.27638888888889,34.35944444444445],[-93.18388888888889,34.33305555555556],[-93.09194444444444,34.30694444444444],[-93.02777777777777,34.28861111111111],[-92.96416666666667,34.27055555555555],[-92.90166666666667,34.2525],[-92.8086111111111,34.22555555555556],[-92.7425,34.20666666666667],[-92.61972222222222,34.17111111111111],[-92.58472222222221,34.16111111111111],[-92.46194444444444,34.125277777777775],[-92.30361111111111,34.07888888888889],[-92.17277777777778,34.04055555555556],[-91.98583333333333,33.98527777777778],[-91.82527777777777,33.9375],[-91.67888888888889,33.89361111111111],[-91.5225,33.846944444444446],[-91.36555555555555,33.79944444444444],[-91.21055555555556,33.7525],[-91.05388888888889,33.70444444444445],[-90.90166666666667,33.657777777777774],[-90.7475,33.61],[-90.63027777777778,33.5775],[-90.5925,33.56222222222222],[-90.49111111111111,33.52111111111111],[-90.43944444444445,33.514722222222225],[-90.33527777777778,33.473888888888894],[-90.28611111111111,33.46666666666667],[-90.1713888888889,33.43083333333333],[-90.13194444444444,33.420833333333334],[-89.97944444444444,33.376111111111115],[-89.86638888888888,33.341944444444444],[-89.82416666666666,33.330000000000005],[-89.71305555555556,33.294999999999995],[-89.67,33.28361111111111],[-89.5611111111111,33.25],[-89.51722222222222,33.23777777777778],[-89.4388888888889,33.213055555555556],[-89.36194444444443,33.19083333333333],[-89.25722222222223,33.159166666666664],[-89.20916666666668,33.144444444444446],[-89.10416666666666,33.112500000000004],[-89.05638888888889,33.09805555555556],[-88.9538888888889,33.06666666666667],[-88.90611111111112,33.051944444444445],[-88.80166666666666,33.01972222222222],[-88.7538888888889,33.00472222222222],[-88.65166666666667,32.973333333333336],[-88.60249999999999,32.95805555555556],[-88.50111111111111,32.92638888888889],[-88.44888888888889,32.91],[-88.34888888888888,32.87888888888889],[-88.29944444444445,32.86333333333334],[-88.20055555555555,32.83222222222223],[-88.14888888888889,32.816111111111105],[-88.05111111111111,32.785],[-87.99861111111112,32.76833333333333],[-87.89888888888889,32.73694444444445],[-87.87722222222222,32.730000000000004],[-87.74805555555555,32.68888888888888],[-87.71333333333334,32.67777777777778],[-87.6575,32.66],[-87.59666666666666,32.64055555555556],[-87.56388888888888,32.63],[-87.50722222222223,32.61194444444445],[-87.44694444444445,32.592222222222226],[-87.41388888888889,32.58166666666667],[-87.35694444444444,32.56361111111111],[-87.2975,32.54416666666666],[-87.26166666666667,32.5325],[-87.20861111111111,32.51555555555556],[-87.14805555555556,32.495555555555555],[-87.05888888888889,32.46638888888889],[-86.99916666666667,32.44694444444444],[-86.9088888888889,32.41722222222222],[-86.85083333333333,32.39805555555556],[-86.76083333333334,32.368611111111115],[-86.70055555555555,32.348888888888894],[-86.61361111111111,32.32],[-86.55361111111111,32.3],[-86.46722222222222,32.27166666666667],[-86.40833333333335,32.25194444444445],[-86.325,32.216944444444444],[-86.27916666666667,32.1825],[-86.21611111111112,32.12166666666667],[-86.18055555555556,32.087500000000006],[-86.12083333333332,32.02972222222222],[-86.0786111111111,31.988611111111112],[-86.01805555555555,31.929722222222225],[-85.99805555555555,31.91],[-85.89500000000001,31.809166666666666],[-85.87416666666665,31.78888888888889],[-85.80638888888889,31.733611111111113],[-85.76083333333334,31.698611111111113],[-85.66805555555555,31.626944444444444],[-85.64444444444445,31.608611111111113],[-85.55222222222221,31.5375],[-85.5275,31.51833333333333],[-85.4363888888889,31.447777777777777],[-85.41111111111111,31.428055555555556],[-85.32249999999999,31.359444444444446],[-85.29277777777777,31.33611111111111],[-85.21694444444445,31.276944444444442],[-85.17944444444444,31.247777777777777],[-85.10472222222222,31.189444444444444],[-85.06833333333333,31.160833333333333],[-85.00111111111111,31.108333333333334],[-84.9563888888889,31.073055555555555],[-84.88027777777778,31.013055555555557],[-84.82194444444444,30.968888888888888],[-84.77888888888889,30.93305555555556],[-84.71138888888889,30.879722222222224],[-84.66694444444445,30.84472222222222],[-84.59972222222221,30.793055555555558],[-84.54527777777777,30.748333333333335],[-84.48861111111111,30.705],[-84.44611111111111,30.669444444444444],[-84.3786111111111,30.615000000000002],[-84.335,30.580833333333334],[-84.26777777777778,30.526666666666667],[-84.21055555555556,30.481388888888887],[-84.15611111111112,30.43777777777778],[-84.11138888888888,30.401666666666664],[-84.05111111111111,30.342777777777776],[-84.02361111111111,30.29388888888889],[-83.97888888888889,30.22472222222222],[-83.94777777777779,30.18027777777778],[-83.90305555555557,30.110277777777778],[-83.87194444444444,30.065555555555555],[-83.82805555555555,29.99638888888889],[-83.79722222222222,29.951944444444443],[-83.75305555555556,29.883055555555558],[-83.72222222222223,29.83833333333333],[-83.67888888888889,29.77],[-83.64972222222222,29.7275],[-83.60555555555555,29.65888888888889],[-83.56166666666667,29.592777777777776],[-83.53333333333333,29.546944444444446],[-83.48944444444444,29.481944444444444],[-83.46055555555556,29.438055555555557],[-83.41694444444445,29.370833333333334],[-83.38861111111112,29.327222222222222],[-83.345,29.260277777777777],[-83.31666666666666,29.216666666666665],[-83.2725,29.149444444444445],[-83.24416666666667,29.10666666666667],[-83.20027777777779,29.039166666666667],[-83.17166666666667,28.995555555555555],[-83.12777777777777,28.928611111111113],[-83.09805555555555,28.883333333333333],[-83.05472222222222,28.81638888888889],[-83.02916666666667,28.77722222222222],[-82.9825,28.70583333333333],[-82.95583333333333,28.66444444444444],[-82.91027777777778,28.594444444444445],[-82.88333333333334,28.553333333333335],[-82.83722222222222,28.481666666666666],[-82.79722222222222,28.42],[-82.76833333333333,28.375],[-82.73916666666666,28.33],[-82.69666666666667,28.26388888888889],[-82.65333333333334,28.196666666666665],[-82.625,28.152777777777775],[-82.58222222222221,28.08611111111111],[-82.55305555555556,28.040555555555557],[-82.51777777777778,27.972777777777775],[-82.49972222222222,27.9225],[-82.47305555555556,27.849722222222223],[-82.44916666666667,27.80388888888889],[-82.40805555555556,27.7375],[-82.38027777777778,27.692222222222224],[-82.33916666666666,27.625555555555557],[-82.31222222222222,27.58111111111111],[-82.27166666666666,27.51527777777778],[-82.24527777777777,27.472499999999997],[-82.20472222222223,27.40611111111111],[-82.17750000000001,27.36138888888889],[-82.13694444444445,27.295555555555556],[-82.10972222222222,27.250833333333333],[-82.07027777777778,27.18611111111111],[-82.04277777777777,27.140833333333333],[-82.00333333333333,27.07611111111111],[-81.97555555555556,27.030555555555555],[-81.93166666666667,26.958333333333332],[-81.86222222222221,26.84361111111111],[-81.78972222222222,26.74638888888889],[-81.69611111111111,26.665555555555553],[-81.59555555555555,26.590555555555554],[-81.50027777777778,26.526666666666667],[-81.40138888888889,26.459722222222222],[-81.30666666666666,26.394444444444446],[-81.2175,26.3275],[-81.16277777777778,26.286944444444448],[-81.13027777777778,26.261944444444445],[-81.04694444444445,26.198055555555555],[-80.97222222222223,26.147222222222222],[-80.875,26.129722222222224],[-80.79777777777778,26.116944444444446],[-80.79083333333332,26.115833333333335],[-80.71111111111111,26.105],[-80.64055555555557,26.093888888888888],[-80.63472222222222,26.094166666666666],[-80.56194444444444,26.084166666666665],[-80.49305555555556,26.078333333333333],[-80.43277777777779,26.078055555555554],[-80.42333333333333,26.078333333333333],[-80.36333333333333,26.078055555555554],[-80.30527777777777,26.07777777777778],[-80.25861111111111,26.07638888888889],[-80.2538888888889,26.0775],[-80.20444444444445,26.077222222222222]]}
}
