{
  "id": 2047912865,
  "type": "Feature",
  "properties": {
    "geom:area": 0,
    "geom:bbox": "-122.352500,37.492222,-90.383333,38.783333",
    "geom:latitude": 38.002941053670334,
    "geom:longitude": -106.32755426318931,
    "src:alt_label": "swim-path",
    "src:geom": "swim",
    "swim:altitudes": [
      "015",
      "036",
      "039",
      "060",
      "085",
      "106",
      "124",
      "146",
      "167",
      "185",
      "199",
      "215",
      "230",
      "242",
      "254",
      "280C",
      "280C",
      "280C",
      "280C",
      "280C",
      "280C",
      "280C",
      "280C",
      "280C",
      "280C",
      "280C",
      "280C",
      "280C",
      "280C",
      "280C",
      "280C",
      "280C",
      "280C",
      "280C",
      "280C",
      "280C",
      "280C",
      "280C",
      "280C",
      "280C",
      "280C",
      "280C",
      "280C",
      "280C",
      "280C",
      "280C",
      "280C",
      "280C",
      "280C",
      "280C",
      "280C",
      "280C",
      "280C",
      "280C",
      "280C",
      "280C",
      "280C",
      "280C",
      "280C",
      "280C",
      "280C",
      "280",
      "283",
      "291",
      "300",
      "313",
      "325",
      "338",
      "349",
      "357",
      "360C",
      "360C",
      "360C",
      "360C",
      "360C",
      "360C",
      "360C",
      "360C",
      "360C",
      "360C",
      "360C",
      "360C",
      "360C",
      "360C",
      "360C",
      "360C",
      "360C",
      "360C",
      "360C",
      "360C",
      "360C",
      "360C",
      "360C",
      "360C",
      "360C",
      "360C",
      "360C",
      "360C",
      "360C",
      "360C",
      "360C",
      "360C",
      "360C",
      "360C",
      "360C",
      "360C",
      "360C",
      "360C",
      "360C",
      "360C",
      "360C",
      "360C",
      "360C",
      "360C",
      "360C",
      "360C",
      "360C",
      "360C",
      "360C",
      "360C",
      "360C",
      "360C",
      "360C",
      "360C",
      "360C",
      "360C",
      "360C",
      "360C",
      "360C",
      "360C",
      "360C",
      "360C",
      "360C",
      "360C",
      "360C",
      "360C",
      "360C",
      "360C",
      "360C",
      "360C",
      "360C",
      "360C",
      "360C",
      "360C",
      "360C",
      "360C",
      "360C",
      "360C",
      "360C",
      "360C",
      "360C",
      "360C",
      "360C",
      "360C",
      "360C",
      "360C",
      "360C",
      "360C",
      "360C",
      "360C",
      "360C",
      "360C",
      "360C",
      "360C",
      "360C",
      "360C",
      "360C",
      "360C",
      "360C",
      "360C",
      "360C",
      "360C",
      "360C",
      "360C",
      "360C",
      "360C",
      "360C",
      "360C",
      "360C",
      "360C",
      "360C",
      "360C",
      "360C",
      "360C",
      "360C",
      "360C",
      "360C",
      "360C",
      "360C",
      "360C",
      "360C",
      "360C",
      "360C",
      "360C",
      "360C",
      "360C",
      "360C",
      "360C",
      "360C",
      "360C",
      "360C",
      "360C",
      "360C",
      "360C",
      "360C",
      "360",
      "360",
      "339",
      "320",
      "301",
      "281",
      "271",
      "263",
      "253",
      "245",
      "233",
      "226",
      "215",
      "208",
      "198",
      "192",
      "181",
      "175",
      "165",
      "159",
      "148",
      "141",
      "131",
      "130",
      "125",
      "121",
      "116",
      "110",
      "101",
      "095",
      "089",
      "082",
      "075",
      "070",
      "064",
      "060",
      "060",
      "054",
      "052",
      "048",
      "043",
      "035",
      "030",
      "022",
      "014",
      "010",
      "002"
    ],
    "swim:geom": "path",
    "swim:speeds": [
      174,
      230,
      232,
      266,
      270,
      284,
      317,
      326,
      338,
      350,
      370,
      380,
      387,
      404,
      417,
      422,
      427,
      429,
      431,
      433,
      435,
      436,
      438,
      439,
      440,
      439,
      439,
      437,
      436,
      434,
      431,
      429,
      428,
      428,
      429,
      430,
      431,
      432,
      433,
      432,
      431,
      429,
      428,
      428,
      428,
      429,
      429,
      429,
      428,
      427,
      426,
      425,
      424,
      424,
      424,
      424,
      422,
      425,
      426,
      426,
      427,
      426,
      438,
      455,
      463,
      464,
      463,
      460,
      458,
      457,
      456,
      455,
      455,
      455,
      454,
      454,
      453,
      452,
      452,
      451,
      450,
      449,
      449,
      450,
      451,
      451,
      450,
      450,
      450,
      449,
      448,
      447,
      446,
      445,
      445,
      446,
      446,
      447,
      447,
      447,
      446,
      445,
      446,
      445,
      444,
      435,
      435,
      435,
      435,
      435,
      435,
      435,
      435,
      435,
      436,
      436,
      436,
      437,
      437,
      437,
      438,
      437,
      438,
      437,
      437,
      437,
      439,
      439,
      440,
      441,
      441,
      439,
      438,
      438,
      436,
      435,
      435,
      431,
      430,
      429,
      429,
      428,
      428,
      428,
      428,
      428,
      428,
      428,
      429,
      429,
      429,
      429,
      429,
      429,
      429,
      429,
      429,
      430,
      431,
      432,
      433,
      434,
      433,
      432,
      431,
      430,
      429,
      427,
      427,
      428,
      430,
      432,
      433,
      434,
      435,
      435,
      434,
      434,
      434,
      433,
      431,
      430,
      429,
      428,
      426,
      408,
      406,
      404,
      404,
      402,
      401,
      401,
      402,
      404,
      405,
      405,
      406,
      404,
      404,
      405,
      407,
      409,
      411,
      413,
      415,
      414,
      415,
      414,
      414,
      406,
      397,
      391,
      391,
      389,
      386,
      379,
      380,
      371,
      372,
      362,
      360,
      348,
      348,
      336,
      336,
      328,
      331,
      323,
      310,
      283,
      267,
      248,
      248,
      243,
      244,
      238,
      239,
      233,
      235,
      236,
      235,
      231,
      234,
      217,
      208,
      191,
      194,
      188,
      185,
      180,
      166,
      151
    ],
    "swim:timestamps": [
      1786373845,
      1786373917,
      1786373932,
      1786373992,
      1786374052,
      1786374113,
      1786374173,
      1786374233,
      1786374293,
      1786374353,
      1786374413,
      1786374473,
      1786374533,
      1786374593,
      1786374653,
      1786374773,
      1786374834,
      1786374894,
      1786374954,
      1786375014,
      1786375074,
      1786375134,
      1786375194,
      1786375254,
      1786375314,
      1786375374,
      1786375434,
      1786375494,
      1786375555,
      1786375615,
      1786375675,
      1786375735,
      1786375795,
      1786375855,
      1786375915,
      1786375975,
      1786376035,
      1786376095,
      1786376155,
      1786376215,
      1786376276,
      1786376336,
      1786376396,
      1786376456,
      1786376576,
      1786376636,
      1786376696,
      1786376756,
      1786376816,
      1786376876,
      1786376936,
      1786376997,
      1786377057,
      1786377117,
      1786377177,
      1786377237,
      1786377299,
      1786377357,
      1786377419,
      1786377480,
      1786377537,
      1786377600,
      1786377657,
      1786377718,
      1786377778,
      1786377840,
      1786377898,
      1786377960,
      1786378020,
      1786378080,
      1786378140,
      1786378201,
      1786378261,
      1786378321,
      1786378381,
      1786378441,
      1786378501,
      1786378561,
      1786378621,
      1786378681,
      1786378741,
      1786378801,
      1786378861,
      1786378922,
      1786378982,
      1786379042,
      1786379102,
      1786379162,
      1786379222,
      1786379282,
      1786379342,
      1786379402,
      1786379462,
      1786379522,
      1786379582,
      1786379643,
      1786379703,
      1786379763,
      1786379823,
      1786379883,
      1786379943,
      1786380003,
      1786380061,
      1786380121,
      1786380181,
      1786380241,
      1786380301,
      1786380361,
      1786380421,
      1786380481,
      1786380541,
      1786380601,
      1786380662,
      1786380722,
      1786380782,
      1786380842,
      1786380902,
      1786380962,
      1786381022,
      1786381082,
      1786381145,
      1786381202,
      1786381265,
      1786381322,
      1786381382,
      1786381443,
      1786381503,
      1786381563,
      1786381623,
      1786381683,
      1786381745,
      1786381803,
      1786381866,
      1786381875,
      1786381935,
      1786381986,
      1786381995,
      1786382055,
      1786382106,
      1786382115,
      1786382176,
      1786382226,
      1786382236,
      1786382286,
      1786382296,
      1786382346,
      1786382356,
      1786382416,
      1786382466,
      1786382476,
      1786382526,
      1786382536,
      1786382587,
      1786382596,
      1786382656,
      1786382716,
      1786382776,
      1786382836,
      1786382896,
      1786382957,
      1786383017,
      1786383077,
      1786383137,
      1786383197,
      1786383257,
      1786383317,
      1786383377,
      1786383437,
      1786383497,
      1786383557,
      1786383617,
      1786383678,
      1786383735,
      1786383795,
      1786383858,
      1786383918,
      1786383975,
      1786384035,
      1786384098,
      1786384156,
      1786384216,
      1786384278,
      1786384336,
      1786384396,
      1786384456,
      1786384516,
      1786384576,
      1786384639,
      1786384696,
      1786384757,
      1786384819,
      1786384877,
      1786384939,
      1786384999,
      1786385059,
      1786385119,
      1786385177,
      1786385237,
      1786385297,
      1786385357,
      1786385417,
      1786385478,
      1786385538,
      1786385598,
      1786385658,
      1786385718,
      1786385778,
      1786385838,
      1786385898,
      1786385958,
      1786386015,
      1786386046,
      1786386078,
      1786386106,
      1786386138,
      1786386166,
      1786386199,
      1786386226,
      1786386259,
      1786386286,
      1786386319,
      1786386346,
      1786386379,
      1786386406,
      1786386439,
      1786386466,
      1786386499,
      1786386526,
      1786386559,
      1786386586,
      1786386619,
      1786386646,
      1786386679,
      1786386706,
      1786386739,
      1786386761,
      1786386799,
      1786386826,
      1786386860,
      1786386881,
      1786386920,
      1786386941,
      1786386980,
      1786387001,
      1786387040,
      1786387062,
      1786387100,
      1786387121,
      1786387160,
      1786387187,
      1786387220,
      1786387280
    ],
    "wof:geomhash": "0da9daf76b4c1d6460dd49d9db55fd64",
    "wof:id": 2047912865,
    "wof:repo": "sfomuseum-data-flights-2026-08"
  },
  "bbox": [
    -122.35249999999999,
    37.492222222222225,
    -90.38333333333334,
    38.78333333333333
  ],
  "geometry": {"type":"LineString","coordinates":[[-90.38333333333334,38.75],[-90.46666666666667,38.78333333333333],[-90.48027777777779,38.7725],[-90.54777777777778,38.72361111111111],[-90.60722222222222,38.66555555555556],[-90.68333333333334,38.61611111111111],[-90.78194444444445,38.57611111111112],[-90.88416666666667,38.53472222222222],[-90.99083333333333,38.49138888888889],[-91.10222222222221,38.44583333333333],[-91.21194444444444,38.39416666666666],[-91.32805555555555,38.338055555555556],[-91.43916666666667,38.28444444444444],[-91.56083333333333,38.22527777777778],[-91.68694444444445,38.16583333333333],[-91.98388888888888,38.15416666666667],[-92.14083333333333,38.15416666666667],[-92.29277777777777,38.153888888888886],[-92.44527777777778,38.15333333333333],[-92.59944444444444,38.15277777777778],[-92.76833333333333,38.151666666666664],[-92.92194444444445,38.150555555555556],[-93.07833333333333,38.149166666666666],[-93.23111111111112,38.147777777777776],[-93.38777777777779,38.145833333333336],[-93.54277777777777,38.14388888888889],[-93.69611111111111,38.14194444444444],[-93.85083333333333,38.13944444444444],[-94.00416666666666,38.136944444444445],[-94.13611111111112,38.13444444444444],[-94.28805555555556,38.13166666666667],[-94.43916666666667,38.12861111111111],[-94.58972222222222,38.12555555555556],[-94.74166666666667,38.121944444444445],[-94.89111111111112,38.11805555555556],[-95.04416666666667,38.114444444444445],[-95.19722222222222,38.11055555555556],[-95.35111111111111,38.10611111111111],[-95.5025,38.10166666666667],[-95.65611111111112,38.09666666666667],[-95.80555555555556,38.092222222222226],[-95.95777777777778,38.08722222222222],[-96.10638888888889,38.081944444444446],[-96.25833333333334,38.07638888888889],[-96.55833333333334,38.065],[-96.71055555555556,38.05916666666666],[-96.86194444444443,38.05277777777778],[-97.01222222222222,38.04666666666667],[-97.16027777777778,38.04],[-97.31083333333333,38.03333333333333],[-97.45944444444444,38.02638888888889],[-97.62833333333333,38.01833333333333],[-97.77694444444444,38.01111111111111],[-97.92500000000001,38.00388888888889],[-98.07444444444444,38.01694444444444],[-98.21027777777778,38.04694444444444],[-98.35416666666666,38.078611111111115],[-98.50472222222223,38.08305555555556],[-98.65333333333334,38.07333333333334],[-98.8025,38.062777777777775],[-98.95138888888889,38.05361111111111],[-99.10222222222221,38.04277777777778],[-99.25444444444445,38.0325],[-99.41361111111112,38.02611111111111],[-99.57583333333334,38.02333333333333],[-99.74,38.02027777777778],[-99.89916666666667,38.01722222222222],[-100.06194444444444,38.01361111111111],[-100.22166666666666,38.01],[-100.38111111111111,38.005833333333335],[-100.53833333333333,38.001666666666665],[-100.72833333333334,37.99666666666667],[-100.88611111111112,37.99194444444444],[-101.04444444444444,37.98722222222222],[-101.20194444444445,37.981944444444444],[-101.35972222222222,37.97694444444445],[-101.515,37.97166666666667],[-101.67444444444445,37.965833333333336],[-101.83166666666666,37.96],[-101.99138888888889,37.95388888888889],[-102.14861111111112,37.9475],[-102.30611111111111,37.941111111111105],[-102.46222222222222,37.93444444444444],[-102.6236111111111,37.927499999999995],[-102.78361111111111,37.92027777777778],[-102.93972222222223,37.91277777777778],[-103.09888888888888,37.91777777777777],[-103.2538888888889,37.925],[-103.41166666666668,37.93194444444444],[-103.56805555555555,37.93861111111111],[-103.72277777777778,37.94499999999999],[-103.87888888888888,37.95111111111111],[-104.03277777777778,37.95722222222223],[-104.18805555555556,37.963055555555556],[-104.3425,37.968611111111116],[-104.4975,37.97416666666667],[-104.65305555555557,37.97944444444445],[-104.8111111111111,37.98444444444444],[-104.96833333333333,37.989444444444445],[-105.12444444444444,37.994166666666665],[-105.28166666666667,37.99861111111111],[-105.43722222222223,38.00277777777778],[-105.58,38.00388888888889],[-105.73416666666667,38.00666666666667],[-105.88916666666667,38.00416666666667],[-106.03944444444444,37.99805555555556],[-106.19361111111111,37.98777777777778],[-106.3475,37.97833333333333],[-106.5,37.97],[-106.6525,37.961666666666666],[-106.80472222222222,37.95333333333333],[-106.95805555555556,37.94444444444444],[-107.11194444444443,37.93472222222222],[-107.26638888888888,37.92444444444444],[-107.42027777777778,37.91555555555556],[-107.57527777777777,37.905833333333334],[-107.72972222222222,37.89555555555555],[-107.88416666666667,37.885],[-108.0375,37.87444444444444],[-108.1913888888889,37.86333333333334],[-108.36944444444444,37.85111111111111],[-108.4975,37.84111111111111],[-108.67611111111111,37.82833333333333],[-108.80194444444444,37.81861111111112],[-108.9538888888889,37.80916666666666],[-109.10972222222222,37.81194444444444],[-109.26444444444445,37.81444444444444],[-109.41666666666667,37.81722222222223],[-109.57194444444444,37.81944444444445],[-109.72833333333334,37.82138888888889],[-109.905,37.82361111111111],[-110.03555555555555,37.825],[-110.21111111111111,37.82638888888889],[-110.21944444444445,37.82666666666667],[-110.37166666666666,37.82805555555556],[-110.51583333333333,37.82888888888889],[-110.52361111111111,37.82888888888889],[-110.69,37.82972222222222],[-110.81527777777778,37.83027777777778],[-110.83972222222222,37.83027777777778],[-110.98777777777778,37.830555555555556],[-111.11416666666666,37.830555555555556],[-111.13805555555557,37.830555555555556],[-111.26527777777778,37.83722222222222],[-111.28833333333333,37.84],[-111.41388888888889,37.855000000000004],[-111.4363888888889,37.8575],[-111.58361111111111,37.875],[-111.70972222222223,37.88972222222222],[-111.73416666666667,37.8925],[-111.8586111111111,37.90694444444444],[-111.88361111111112,37.91],[-112.00833333333334,37.924166666666665],[-112.03166666666667,37.92666666666666],[-112.18,37.94361111111111],[-112.3286111111111,37.96],[-112.47638888888889,37.976111111111116],[-112.62694444444443,37.99277777777778],[-112.77472222222222,38.00861111111111],[-112.92527777777778,38.02444444444444],[-113.07527777777777,38.040277777777774],[-113.22666666666667,38.05611111111111],[-113.3761111111111,38.07138888888889],[-113.52694444444444,38.08638888888889],[-113.7063888888889,38.10416666666667],[-113.85472222222222,38.11888888888889],[-114.005,38.13333333333333],[-114.15277777777779,38.1475],[-114.30138888888888,38.16138888888889],[-114.45333333333333,38.175555555555555],[-114.60305555555556,38.189166666666665],[-114.75694444444444,38.20305555555556],[-114.87694444444443,38.21555555555556],[-115.03,38.22694444444445],[-115.2125,38.24305555555556],[-115.36527777777778,38.255833333333335],[-115.48722222222223,38.26694444444444],[-115.64,38.27861111111111],[-115.82027777777778,38.285],[-115.94222222222223,38.27027777777778],[-116.0911111111111,38.25222222222222],[-116.27,38.230555555555554],[-116.39055555555557,38.21555555555556],[-116.53888888888889,38.19694444444444],[-116.68666666666667,38.17833333333333],[-116.82638888888889,38.16083333333333],[-116.96722222222222,38.1425],[-117.13722222222223,38.12027777777778],[-117.2725,38.1025],[-117.40027777777779,38.08555555555556],[-117.5363888888889,38.0675],[-117.67861111111111,38.04833333333333],[-117.81583333333333,38.029444444444444],[-117.95722222222223,38.01],[-118.10055555555554,37.99027777777778],[-118.24,37.97083333333334],[-118.38166666666666,37.95055555555556],[-118.5213888888889,37.93083333333333],[-118.66027777777778,37.91083333333333],[-118.80055555555555,37.89138888888889],[-118.9413888888889,37.87555555555556],[-119.07555555555555,37.86027777777778],[-119.21861111111112,37.843611111111116],[-119.36305555555555,37.82666666666667],[-119.51,37.809444444444445],[-119.65222222222222,37.79222222222222],[-119.79666666666667,37.77472222222222],[-119.94194444444445,37.75694444444444],[-120.08583333333333,37.73916666666667],[-120.22555555555556,37.72166666666667],[-120.36666666666666,37.7],[-120.45,37.7],[-120.49861111111112,37.68805555555555],[-120.58333333333333,37.68333333333333],[-120.63194444444444,37.672777777777775],[-120.71666666666667,37.666666666666664],[-120.76166666666667,37.657222222222224],[-120.85,37.65],[-120.8913888888889,37.641666666666666],[-120.96666666666667,37.63333333333333],[-121.01777777777778,37.62583333333333],[-121.08333333333333,37.61666666666667],[-121.13666666666667,37.609722222222224],[-121.2,37.6],[-121.25527777777778,37.593611111111116],[-121.31666666666666,37.583333333333336],[-121.36861111111111,37.58083333333334],[-121.43333333333334,37.56666666666667],[-121.48,37.56777777777778],[-121.53333333333333,37.56666666666667],[-121.58333333333333,37.55555555555555],[-121.63333333333334,37.55],[-121.66194444444444,37.54194444444444],[-121.7,37.53333333333333],[-121.74277777777777,37.5225],[-121.78333333333333,37.516666666666666],[-121.82222222222222,37.50361111111111],[-121.86666666666666,37.5],[-121.90138888888889,37.492222222222225],[-121.93333333333334,37.5],[-121.98333333333333,37.496944444444445],[-122.01666666666667,37.5],[-122.065,37.501666666666665],[-122.1,37.5],[-122.135,37.519444444444446],[-122.16666666666667,37.53333333333333],[-122.19861111111112,37.54694444444444],[-122.21666666666667,37.55],[-122.25611111111111,37.571111111111115],[-122.28333333333333,37.583333333333336],[-122.30611111111111,37.591944444444444],[-122.35249999999999,37.61138888888889]]}
}
