{
  "id": 2047970131,
  "type": "Feature",
  "properties": {
    "geom:area": 0,
    "geom:bbox": "-123.493980,37.125980,-122.095040,37.614450",
    "geom:latitude": 37.29967276122418,
    "geom:longitude": -122.65945440038618,
    "src:alt_label": "swim-approach",
    "src:geom": "swim",
    "swim:elevations": [
      5452,
      5256,
      5077,
      4786,
      4767,
      4653,
      4463,
      3978,
      3717,
      3670,
      3268,
      3162,
      3078,
      3046,
      3048,
      3048,
      3048,
      3048,
      3048,
      3048,
      3048,
      3048,
      3048,
      3048,
      3048,
      3048,
      3048,
      3048,
      3048,
      3048,
      2866,
      2724,
      2677,
      2395,
      2343,
      2013,
      1871,
      1829,
      1829,
      1823,
      1526,
      1507,
      1322,
      1163,
      1038,
      825,
      767,
      582,
      471,
      399,
      287,
      177,
      127,
      119
    ],
    "swim:geom": "approach",
    "swim:timestamps": [
      1786741528,
      1786741556,
      1786741576,
      1786741612,
      1786741616,
      1786741632,
      1786741653,
      1786741706,
      1786741735,
      1786741741,
      1786741785,
      1786741800,
      1786741828,
      1786741837,
      1786741866,
      1786741904,
      1786741948,
      1786741978,
      1786741986,
      1786742029,
      1786742068,
      1786742095,
      1786742115,
      1786742148,
      1786742171,
      1786742177,
      1786742187,
      1786742190,
      1786742208,
      1786742232,
      1786742273,
      1786742296,
      1786742302,
      1786742338,
      1786742344,
      1786742374,
      1786742389,
      1786742420,
      1786742440,
      1786742462,
      1786742517,
      1786742546,
      1786742568,
      1786742590,
      1786742618,
      1786742662,
      1786742671,
      1786742708,
      1786742738,
      1786742753,
      1786742783,
      1786742815,
      1786742828,
      1786742858
    ],
    "wof:geomhash": "5ac036ab883c0b9c625d1cd3d8b273b5",
    "wof:id": 2047970131,
    "wof:repo": "sfomuseum-data-flights-2026-08"
  },
  "bbox": [
    -123.49398,
    37.12598,
    -122.09504,
    37.61445
  ],
  "geometry": {"type":"LineString","coordinates":[[-123.49398,37.12598],[-123.43276,37.13902],[-123.39168,37.14773],[-123.31517,37.1638],[-123.30786,37.16535],[-123.27481,37.17226],[-123.23207,37.18121],[-123.12604,37.20338],[-123.06762,37.21547],[-123.05578,37.21791],[-122.96942,37.23578],[-122.9403,37.24179],[-122.88884,37.2513],[-122.87239,37.251],[-122.82171,37.24251],[-122.76359,37.23255],[-122.69396,37.22063],[-122.64784,37.21282],[-122.63544,37.21065],[-122.56807,37.19916],[-122.50781,37.18871],[-122.46419,37.18323],[-122.43463,37.19239],[-122.41107,37.22902],[-122.40247,37.25723],[-122.40013,37.26474],[-122.39592,37.27792],[-122.39461,37.28205],[-122.38762,37.30404],[-122.37855,37.33259],[-122.36011,37.37865],[-122.33258,37.39234],[-122.32397,37.39283],[-122.27365,37.38598],[-122.2655,37.38468],[-122.22458,37.37852],[-122.20404,37.37556],[-122.16487,37.38684],[-122.14723,37.40498],[-122.13062,37.42568],[-122.09504,37.47348],[-122.10001,37.50048],[-122.11814,37.51307],[-122.14075,37.52237],[-122.16816,37.53394],[-122.20925,37.5513],[-122.21756,37.55478],[-122.25079,37.56884],[-122.27479,37.57889],[-122.28535,37.58335],[-122.30625,37.59203],[-122.3285,37.60153],[-122.33742,37.60524],[-122.35839,37.61445]]}
}
