{
  "id": 2032055329,
  "type": "Feature",
  "properties": {
    "geom:area": 0,
    "geom:bbox": "-122.755278,37.425278,-73.482778,43.427222",
    "geom:latitude": 42.120219201020795,
    "geom:longitude": -99.0444874013741,
    "src:alt_label": "swim-path",
    "src:geom": "swim",
    "swim:altitudes": [
      "007",
      "022",
      "026",
      "039",
      "051",
      "077",
      "090",
      "099",
      "109",
      "118",
      "121",
      "138",
      "160",
      "170",
      "171",
      "187",
      "215",
      "236",
      "241",
      "245",
      "251",
      "258",
      "265",
      "271",
      "280",
      "287",
      "297",
      "310",
      "318",
      "326",
      "340C",
      "340C",
      "340C",
      "340C",
      "340C",
      "340C",
      "340C",
      "341C",
      "340C",
      "340C",
      "340C",
      "340C",
      "340C",
      "340C",
      "340C",
      "340C",
      "340C",
      "340C",
      "340C",
      "341C",
      "340C",
      "340C",
      "340C",
      "340C",
      "340C",
      "340C",
      "340C",
      "340C",
      "340C",
      "340C",
      "340C",
      "340C",
      "340C",
      "340C",
      "340C",
      "340C",
      "341C",
      "341C",
      "340C",
      "340C",
      "340C",
      "340C",
      "340C",
      "340C",
      "340C",
      "340C",
      "340C",
      "340C",
      "340C",
      "340C",
      "340C",
      "340C",
      "340C",
      "340C",
      "340C",
      "340C",
      "340C",
      "341C",
      "340C",
      "340C",
      "340",
      "342",
      "347",
      "349",
      "358C",
      "360C",
      "360C",
      "360C",
      "361C",
      "360C",
      "360C",
      "360C",
      "360C",
      "360C",
      "360C",
      "360C",
      "360C",
      "360C",
      "360C",
      "360C",
      "360C",
      "360C",
      "360C",
      "361C",
      "360C",
      "360C",
      "360C",
      "360C",
      "360C",
      "360C",
      "360C",
      "360C",
      "360C",
      "360C",
      "360C",
      "360C",
      "360C",
      "360C",
      "360C",
      "361C",
      "361C",
      "360C",
      "360C",
      "360C",
      "360C",
      "360C",
      "360C",
      "360C",
      "360C",
      "360C",
      "360C",
      "361C",
      "360C",
      "360C",
      "360C",
      "360C",
      "360C",
      "360C",
      "360C",
      "360C",
      "360C",
      "360C",
      "360C",
      "360C",
      "360C",
      "360C",
      "360C",
      "360C",
      "360C",
      "360C",
      "360",
      "360C",
      "360C",
      "360C",
      "360C",
      "360C",
      "360C",
      "360C",
      "360C",
      "360C",
      "360C",
      "360C",
      "360C",
      "360C",
      "360C",
      "360C",
      "360C",
      "360C",
      "360C",
      "360C",
      "360C",
      "360C",
      "360C",
      "360C",
      "360C",
      "360C",
      "360C",
      "360C",
      "360C",
      "360C",
      "360C",
      "360C",
      "360C",
      "360C",
      "360C",
      "360C",
      "360C",
      "360C",
      "360C",
      "360C",
      "361C",
      "361C",
      "360C",
      "360C",
      "360C",
      "360C",
      "360C",
      "360C",
      "360C",
      "360C",
      "360C",
      "360C",
      "360C",
      "360C",
      "360C",
      "360C",
      "360C",
      "360C",
      "360C",
      "360C",
      "360C",
      "360C",
      "360C",
      "360C",
      "360C",
      "360C",
      "360C",
      "360C",
      "360C",
      "360C",
      "360C",
      "360C",
      "360C",
      "360C",
      "360C",
      "360C",
      "360C",
      "360C",
      "360C",
      "360C",
      "360C",
      "360C",
      "360C",
      "360C",
      "360C",
      "360C",
      "360C",
      "360C",
      "360C",
      "360C",
      "361C",
      "360C",
      "360C",
      "360C",
      "360C",
      "360C",
      "360C",
      "360C",
      "360C",
      "360C",
      "360C",
      "360C",
      "360C",
      "360C",
      "360C",
      "360C",
      "360C",
      "360C",
      "360C",
      "360C",
      "360C",
      "360C",
      "361C",
      "360C",
      "360C",
      "360C",
      "360C",
      "361C",
      "360C",
      "360C",
      "360C",
      "360C",
      "360C",
      "360C",
      "360C",
      "360C",
      "360C",
      "360C",
      "360C",
      "360C",
      "360C",
      "360C",
      "360C",
      "360C",
      "360C",
      "360C",
      "372",
      "377",
      "378C",
      "380C",
      "380C",
      "380C",
      "380C",
      "380C",
      "380C",
      "380C",
      "380C",
      "380C",
      "380C",
      "380C",
      "380C",
      "380C",
      "380C",
      "380C",
      "380C",
      "380C",
      "380C",
      "380C",
      "380C",
      "380C",
      "380C",
      "380C",
      "380C",
      "380C",
      "380C",
      "380C",
      "380C",
      "380C",
      "381C",
      "380C",
      "380C",
      "380C",
      "380C",
      "380C",
      "380C",
      "380C",
      "380C",
      "380C",
      "380C",
      "380C",
      "380C",
      "380C",
      "380C",
      "380C",
      "380C",
      "380C",
      "380C",
      "380C",
      "380C",
      "380C",
      "380C",
      "380C",
      "380C",
      "381C",
      "380C",
      "380C",
      "380C",
      "380C",
      "380C",
      "380C",
      "380C",
      "380C",
      "380C",
      "380C",
      "380C",
      "380C",
      "380C",
      "380C",
      "380C",
      "380C",
      "374",
      "365",
      "355",
      "346",
      "336",
      "326",
      "307",
      "297",
      "286",
      "273",
      "252",
      "231",
      "210",
      "189",
      "177",
      "168",
      "148",
      "130",
      "114",
      "110",
      "110",
      "110C",
      "110",
      "110C",
      "097",
      "098",
      "082",
      "064",
      "040",
      "040",
      "035",
      "026",
      "021",
      "014",
      "007",
      "002"
    ],
    "swim:geom": "path",
    "swim:speeds": [
      163,
      222,
      244,
      276,
      273,
      281,
      293,
      289,
      311,
      361,
      374,
      386,
      389,
      335,
      313,
      314,
      391,
      411,
      429,
      447,
      456,
      460,
      462,
      465,
      466,
      466,
      466,
      453,
      450,
      446,
      437,
      435,
      434,
      433,
      432,
      431,
      431,
      431,
      429,
      428,
      428,
      429,
      429,
      429,
      430,
      431,
      432,
      432,
      434,
      435,
      435,
      436,
      436,
      436,
      422,
      421,
      421,
      422,
      423,
      425,
      424,
      429,
      429,
      435,
      442,
      442,
      446,
      445,
      449,
      449,
      449,
      452,
      455,
      452,
      454,
      452,
      453,
      451,
      452,
      451,
      451,
      451,
      451,
      451,
      452,
      453,
      453,
      454,
      453,
      453,
      453,
      453,
      453,
      453,
      456,
      461,
      464,
      469,
      473,
      475,
      475,
      476,
      477,
      477,
      470,
      462,
      456,
      453,
      445,
      444,
      443,
      444,
      445,
      446,
      446,
      446,
      447,
      446,
      445,
      444,
      443,
      443,
      442,
      442,
      442,
      443,
      445,
      451,
      456,
      460,
      461,
      462,
      462,
      461,
      461,
      460,
      458,
      455,
      454,
      453,
      455,
      458,
      458,
      458,
      458,
      457,
      457,
      456,
      456,
      456,
      457,
      457,
      457,
      456,
      455,
      454,
      454,
      454,
      454,
      455,
      457,
      455,
      455,
      457,
      454,
      454,
      453,
      452,
      451,
      457,
      451,
      451,
      451,
      451,
      456,
      451,
      451,
      451,
      451,
      451,
      452,
      450,
      452,
      451,
      453,
      452,
      451,
      451,
      450,
      451,
      449,
      450,
      449,
      449,
      448,
      449,
      449,
      449,
      449,
      449,
      450,
      449,
      448,
      449,
      448,
      448,
      446,
      445,
      444,
      444,
      444,
      443,
      444,
      444,
      445,
      446,
      446,
      446,
      446,
      446,
      447,
      446,
      446,
      446,
      445,
      445,
      445,
      443,
      445,
      441,
      443,
      440,
      442,
      440,
      442,
      440,
      440,
      438,
      437,
      437,
      434,
      433,
      432,
      433,
      434,
      436,
      436,
      437,
      440,
      440,
      442,
      442,
      443,
      444,
      444,
      444,
      444,
      442,
      440,
      439,
      436,
      433,
      431,
      430,
      429,
      429,
      429,
      428,
      427,
      427,
      428,
      430,
      432,
      432,
      431,
      431,
      431,
      431,
      429,
      427,
      425,
      424,
      424,
      425,
      425,
      425,
      424,
      424,
      419,
      409,
      410,
      414,
      404,
      422,
      424,
      404,
      400,
      399,
      400,
      405,
      401,
      406,
      403,
      403,
      403,
      405,
      403,
      405,
      404,
      405,
      404,
      405,
      404,
      404,
      404,
      403,
      404,
      403,
      403,
      403,
      402,
      404,
      403,
      404,
      404,
      406,
      405,
      407,
      406,
      407,
      407,
      406,
      406,
      405,
      405,
      404,
      405,
      405,
      406,
      406,
      407,
      407,
      407,
      407,
      406,
      405,
      405,
      405,
      405,
      406,
      408,
      409,
      410,
      410,
      410,
      409,
      409,
      408,
      410,
      412,
      417,
      419,
      420,
      421,
      422,
      422,
      422,
      413,
      413,
      414,
      415,
      416,
      418,
      422,
      428,
      430,
      430,
      424,
      422,
      419,
      410,
      399,
      389,
      387,
      381,
      374,
      368,
      346,
      318,
      275,
      254,
      260,
      256,
      257,
      249,
      253,
      249,
      238,
      202,
      199,
      175,
      175,
      172,
      140,
      137,
      126
    ],
    "swim:timestamps": [
      1785617258,
      1785617320,
      1785617348,
      1785617379,
      1785617408,
      1785617468,
      1785617499,
      1785617528,
      1785617559,
      1785617619,
      1785617649,
      1785617709,
      1785617769,
      1785617829,
      1785617889,
      1785617949,
      1785618129,
      1785618250,
      1785618310,
      1785618370,
      1785618430,
      1785618490,
      1785618550,
      1785618606,
      1785618667,
      1785618727,
      1785618787,
      1785618847,
      1785618907,
      1785618967,
      1785619147,
      1785619207,
      1785619267,
      1785619328,
      1785619451,
      1785619512,
      1785619568,
      1785619628,
      1785619808,
      1785619868,
      1785619928,
      1785620049,
      1785620109,
      1785620169,
      1785620229,
      1785620289,
      1785620409,
      1785620469,
      1785620529,
      1785620589,
      1785620649,
      1785620710,
      1785620770,
      1785620830,
      1785620950,
      1785621010,
      1785621070,
      1785621130,
      1785621250,
      1785621311,
      1785621348,
      1785621371,
      1785621408,
      1785621468,
      1785621491,
      1785621528,
      1785621551,
      1785621588,
      1785621611,
      1785621648,
      1785621708,
      1785621731,
      1785621769,
      1785621791,
      1785621829,
      1785621851,
      1785621889,
      1785621911,
      1785621949,
      1785622009,
      1785622069,
      1785622092,
      1785622129,
      1785622152,
      1785622189,
      1785622249,
      1785622272,
      1785622309,
      1785622332,
      1785622392,
      1785622429,
      1785622452,
      1785622490,
      1785622512,
      1785622610,
      1785622670,
      1785622733,
      1785622790,
      1785622850,
      1785622910,
      1785622970,
      1785623030,
      1785623150,
      1785623211,
      1785623271,
      1785623331,
      1785623391,
      1785623451,
      1785623571,
      1785623631,
      1785623691,
      1785623751,
      1785623811,
      1785623871,
      1785623932,
      1785623992,
      1785624052,
      1785624112,
      1785624172,
      1785624232,
      1785624292,
      1785624352,
      1785624412,
      1785624472,
      1785624532,
      1785624593,
      1785624653,
      1785624713,
      1785624773,
      1785624833,
      1785624893,
      1785624953,
      1785625013,
      1785625073,
      1785625133,
      1785625193,
      1785625253,
      1785625313,
      1785625374,
      1785625434,
      1785625554,
      1785625674,
      1785625794,
      1785625854,
      1785625914,
      1785625974,
      1785626095,
      1785626155,
      1785626215,
      1785626275,
      1785626335,
      1785626395,
      1785626455,
      1785626515,
      1785626575,
      1785626635,
      1785626695,
      1785626755,
      1785626816,
      1785626876,
      1785626884,
      1785626893,
      1785626936,
      1785626944,
      1785626996,
      1785627013,
      1785627056,
      1785627073,
      1785627116,
      1785627124,
      1785627133,
      1785627176,
      1785627193,
      1785627236,
      1785627244,
      1785627253,
      1785627296,
      1785627313,
      1785627356,
      1785627373,
      1785627416,
      1785627424,
      1785627433,
      1785627484,
      1785627493,
      1785627537,
      1785627544,
      1785627604,
      1785627657,
      1785627665,
      1785627674,
      1785627725,
      1785627734,
      1785627777,
      1785627794,
      1785627837,
      1785627845,
      1785627854,
      1785627897,
      1785627914,
      1785627965,
      1785627974,
      1785628017,
      1785628025,
      1785628034,
      1785628085,
      1785628094,
      1785628137,
      1785628145,
      1785628154,
      1785628205,
      1785628214,
      1785628265,
      1785628274,
      1785628334,
      1785628386,
      1785628395,
      1785628446,
      1785628455,
      1785628515,
      1785628566,
      1785628575,
      1785628626,
      1785628635,
      1785628686,
      1785628746,
      1785628815,
      1785628875,
      1785628926,
      1785628935,
      1785628986,
      1785628995,
      1785629046,
      1785629116,
      1785629167,
      1785629176,
      1785629236,
      1785629296,
      1785629347,
      1785629356,
      1785629407,
      1785629467,
      1785629536,
      1785629596,
      1785629656,
      1785629707,
      1785629716,
      1785629767,
      1785629827,
      1785629837,
      1785629888,
      1785629897,
      1785629957,
      1785630008,
      1785630017,
      1785630068,
      1785630077,
      1785630188,
      1785630248,
      1785630308,
      1785630368,
      1785630428,
      1785630488,
      1785630548,
      1785630609,
      1785630669,
      1785630729,
      1785630789,
      1785630849,
      1785630909,
      1785630969,
      1785631029,
      1785631089,
      1785631149,
      1785631209,
      1785631269,
      1785631330,
      1785631390,
      1785631450,
      1785631510,
      1785631570,
      1785631630,
      1785631690,
      1785631750,
      1785631810,
      1785631870,
      1785631930,
      1785631990,
      1785632051,
      1785632111,
      1785632231,
      1785632351,
      1785632591,
      1785632711,
      1785632771,
      1785632832,
      1785632952,
      1785633012,
      1785633028,
      1785633072,
      1785633088,
      1785633132,
      1785633148,
      1785633208,
      1785633268,
      1785633312,
      1785633328,
      1785633372,
      1785633388,
      1785633432,
      1785633449,
      1785633492,
      1785633509,
      1785633553,
      1785633569,
      1785633613,
      1785633629,
      1785633673,
      1785633689,
      1785633749,
      1785633793,
      1785633809,
      1785633853,
      1785633869,
      1785633913,
      1785633973,
      1785633989,
      1785634033,
      1785634049,
      1785634093,
      1785634109,
      1785634153,
      1785634169,
      1785634213,
      1785634229,
      1785634334,
      1785634349,
      1785634394,
      1785634410,
      1785634454,
      1785634470,
      1785634514,
      1785634574,
      1785634590,
      1785634650,
      1785634694,
      1785634710,
      1785634754,
      1785634770,
      1785634814,
      1785634874,
      1785634890,
      1785634934,
      1785634950,
      1785635010,
      1785635055,
      1785635070,
      1785635130,
      1785635250,
      1785635310,
      1785635371,
      1785635431,
      1785635491,
      1785635551,
      1785635611,
      1785635671,
      1785635731,
      1785635851,
      1785635911,
      1785635971,
      1785636031,
      1785636091,
      1785636151,
      1785636211,
      1785636272,
      1785636332,
      1785636452,
      1785636512,
      1785636572,
      1785636632,
      1785636692,
      1785636752,
      1785636812,
      1785636872,
      1785636902,
      1785636932,
      1785636992,
      1785637052,
      1785637112,
      1785637167,
      1785637227,
      1785637233,
      1785637287,
      1785637293,
      1785637347,
      1785637353,
      1785637413,
      1785637473,
      1785637593,
      1785637653,
      1785637707,
      1785637773,
      1785637827,
      1785637893,
      1785637947,
      1785638013
    ],
    "wof:geomhash": "3663f94f65a8ddca7578ef1759875720",
    "wof:id": 2032055329,
    "wof:repo": "sfomuseum-data-flights-2026-08"
  },
  "bbox": [
    -122.75527777777778,
    37.42527777777777,
    -73.48277777777778,
    43.42722222222222
  ],
  "geometry": {"coordinates":[[-73.78333333333333,40.63333333333333],[-73.71666666666667,40.61666666666667],[-73.68472222222222,40.629444444444445],[-73.63333333333334,40.65],[-73.59222222222222,40.66222222222222],[-73.5111111111111,40.706944444444446],[-73.48333333333333,40.75],[-73.48277777777778,40.778888888888886],[-73.5,40.81666666666667],[-73.55,40.916666666666664],[-73.58749999999999,40.94472222222222],[-73.70611111111111,41.00361111111111],[-73.84638888888888,41.02361111111111],[-73.97333333333333,41.04111111111111],[-74.08944444444444,41.056666666666665],[-74.20277777777778,41.07194444444445],[-74.61388888888888,41.12583333333333],[-74.87972222222221,41.216944444444444],[-75.01416666666667,41.275],[-75.15611111111112,41.33638888888889],[-75.30388888888889,41.39972222222222],[-75.45194444444445,41.46277777777778],[-75.60944444444443,41.5125],[-75.75138888888888,41.55333333333333],[-75.91222222222223,41.59916666666667],[-76.07416666666666,41.64472222222222],[-76.255,41.69555555555555],[-76.41555555555556,41.74027777777778],[-76.56777777777778,41.7825],[-76.72333333333333,41.82527777777778],[-77.18277777777779,41.95027777777778],[-77.33555555555554,41.99138888888889],[-77.48861111111111,42.032777777777774],[-77.63916666666667,42.07361111111111],[-77.94388888888889,42.15333333333333],[-78.10305555555556,42.17388888888889],[-78.2325,42.18888888888888],[-78.39333333333335,42.20722222222223],[-78.86833333333333,42.26],[-79.02666666666667,42.27722222222222],[-79.18472222222222,42.29416666666666],[-79.53305555555555,42.33083333333334],[-79.69333333333334,42.34722222222222],[-79.85249999999999,42.36333333333334],[-80.0125,42.37916666666667],[-80.17194444444445,42.394999999999996],[-80.49388888888889,42.425555555555555],[-80.65666666666667,42.44083333333333],[-80.81833333333333,42.45583333333334],[-80.98,42.47027777777778],[-81.1438888888889,42.485],[-81.30666666666666,42.49944444444444],[-81.46777777777778,42.513333333333335],[-81.63,42.52722222222222],[-81.94916666666667,42.55361111111111],[-82.10722222222222,42.56638888888889],[-82.26472222222222,42.57916666666667],[-82.42277777777778,42.59138888888889],[-82.74027777777778,42.61527777777778],[-82.89972222222222,42.62694444444445],[-82.99305555555556,42.63361111111111],[-83.06055555555555,42.63861111111111],[-83.15527777777778,42.64555555555555],[-83.31916666666666,42.656666666666666],[-83.39166666666668,42.661944444444444],[-83.47,42.66694444444444],[-83.55083333333333,42.6725],[-83.6388888888889,42.67833333333333],[-83.71972222222223,42.68388888888889],[-83.80916666666667,42.69],[-83.97944444444444,42.70055555555556],[-84.0586111111111,42.705555555555556],[-84.15055555555556,42.71138888888889],[-84.22805555555556,42.71611111111111],[-84.32,42.721944444444446],[-84.38805555555557,42.725833333333334],[-84.4888888888889,42.731944444444444],[-84.55444444444444,42.73583333333333],[-84.65833333333335,42.74194444444444],[-84.82944444444443,42.751666666666665],[-85.03194444444445,42.76277777777778],[-85.06444444444445,42.76444444444444],[-85.16972222222223,42.769999999999996],[-85.2363888888889,42.77361111111111],[-85.33916666666666,42.778888888888886],[-85.5111111111111,42.796388888888885],[-85.57694444444444,42.80333333333333],[-85.68083333333334,42.814166666666665],[-85.74666666666667,42.82083333333334],[-85.91805555555555,42.83833333333334],[-86.0261111111111,42.849722222222226],[-86.08944444444444,42.85611111111111],[-86.19861111111112,42.86694444444444],[-86.26444444444445,42.873333333333335],[-86.54527777777777,42.90083333333333],[-86.71805555555555,42.9175],[-86.89166666666668,42.93388888888889],[-87.07111111111111,42.95055555555556],[-87.25083333333333,42.966944444444444],[-87.43333333333334,42.983333333333334],[-87.60722222222222,42.99861111111111],[-87.79194444444444,43.014722222222225],[-88.15305555555557,43.04472222222222],[-88.32722222222222,43.05833333333333],[-88.50555555555556,43.071111111111115],[-88.68194444444445,43.086111111111116],[-88.85499999999999,43.1],[-89.02666666666667,43.11194444444445],[-89.36305555555555,43.13611111111111],[-89.53111111111112,43.14833333333333],[-89.70027777777779,43.16111111111111],[-89.86722222222221,43.1725],[-90.04083333333332,43.18388888888889],[-90.20583333333333,43.19472222222222],[-90.38305555555554,43.20583333333334],[-90.55027777777778,43.21611111111111],[-90.71916666666667,43.22638888888889],[-90.88694444444445,43.236111111111114],[-91.05499999999999,43.245555555555555],[-91.2213888888889,43.255],[-91.3875,43.263888888888886],[-91.55472222222222,43.272777777777776],[-91.72194444444445,43.28138888888889],[-91.88694444444445,43.28944444444444],[-92.05361111111111,43.2975],[-92.22055555555556,43.30555555555555],[-92.39222222222223,43.31333333333333],[-92.56333333333333,43.32083333333334],[-92.73666666666666,43.32805555555556],[-92.91194444444444,43.33527777777778],[-93.08972222222222,43.3425],[-93.26527777777778,43.348888888888894],[-93.43972222222223,43.35527777777778],[-93.61444444444444,43.36138888888889],[-93.78944444444444,43.367222222222225],[-93.965,43.3725],[-94.13722222222223,43.37777777777778],[-94.31194444444444,43.382777777777775],[-94.48416666666667,43.3875],[-94.65777777777778,43.391666666666666],[-95.00527777777778,43.4],[-95.35527777777777,43.407222222222224],[-95.70611111111111,43.41305555555555],[-95.88,43.41583333333333],[-96.05611111111111,43.418055555555554],[-96.2325,43.42027777777778],[-96.58138888888888,43.42333333333333],[-96.75472222222223,43.42472222222222],[-96.93111111111112,43.42583333333333],[-97.10555555555555,43.42638888888889],[-97.28,43.42722222222222],[-97.45444444444445,43.42722222222222],[-97.63027777777778,43.42722222222222],[-97.80222222222221,43.426944444444445],[-97.97777777777777,43.42611111111111],[-98.14916666666667,43.42527777777777],[-98.32416666666666,43.424166666666665],[-98.49666666666667,43.422777777777775],[-98.66833333333334,43.421388888888885],[-98.8561111111111,43.41916666666666],[-98.87222222222222,43.41833333333333],[-98.88916666666667,43.41888888888889],[-99.03166666666667,43.41694444444444],[-99.0261111111111,43.4175],[-99.2038888888889,43.41444444444444],[-99.2363888888889,43.41416666666667],[-99.37416666666665,43.411944444444444],[-99.40972222222223,43.41138888888889],[-99.5475,43.40888888888889],[-99.545,43.408055555555556],[-99.58055555555555,43.40833333333333],[-99.71861111111112,43.405833333333334],[-99.7538888888889,43.405277777777776],[-99.88972222222223,43.402499999999996],[-99.88972222222223,43.401666666666664],[-99.92500000000001,43.401666666666664],[-100.06277777777777,43.39861111111111],[-100.09888888888888,43.39805555555556],[-100.23444444444445,43.39472222222222],[-100.27,43.39388888888889],[-100.40972222222223,43.39055555555556],[-100.41916666666667,43.38916666666667],[-100.44472222222223,43.38944444444444],[-100.59194444444444,43.38388888888889],[-100.61666666666666,43.385],[-100.75305555555556,43.38138888888889],[-100.76416666666667,43.379444444444445],[-100.93583333333333,43.375],[-101.09694444444445,43.37083333333334],[-101.10555555555555,43.368611111111115],[-101.13,43.36972222222222],[-101.27555555555556,43.36388888888889],[-101.29916666666666,43.364444444444445],[-101.43611111111112,43.36],[-101.47166666666666,43.35861111111111],[-101.60694444444444,43.35388888888889],[-101.61611111111111,43.35027777777778],[-101.6438888888889,43.3525],[-101.77888888888889,43.347500000000004],[-101.81472222222222,43.34638888888889],[-101.95777777777778,43.33694444444445],[-101.98416666666667,43.33972222222222],[-102.12222222222222,43.33416666666667],[-102.12694444444443,43.33083333333334],[-102.16111111111111,43.33277777777778],[-102.295,43.32333333333334],[-102.33166666666666,43.32555555555556],[-102.4575,43.32027777777778],[-102.46166666666667,43.315555555555555],[-102.49888888888889,43.318333333333335],[-102.62944444444443,43.30722222222222],[-102.66805555555555,43.31111111111111],[-102.79916666666666,43.30222222222222],[-102.83638888888889,43.30333333333333],[-103.00277777777778,43.29555555555555],[-103.1388888888889,43.28666666666666],[-103.17194444444445,43.28722222222222],[-103.30833333333334,43.278888888888886],[-103.34194444444444,43.27861111111111],[-103.51083333333334,43.269999999999996],[-103.64666666666668,43.26305555555555],[-103.68,43.26083333333333],[-103.81333333333333,43.25472222222222],[-103.84777777777778,43.251666666666665],[-103.98083333333334,43.244166666666665],[-104.14805555555556,43.23416666666667],[-104.35305555555556,43.222500000000004],[-104.51638888888888,43.212500000000006],[-104.64861111111112,43.20527777777778],[-104.68416666666667,43.202222222222225],[-104.81333333333333,43.19444444444444],[-104.84777777777778,43.19166666666666],[-104.9775,43.183611111111105],[-105.17583333333334,43.157222222222224],[-105.30527777777777,43.13611111111111],[-105.33805555555556,43.13111111111111],[-105.5,43.10444444444445],[-105.6613888888889,43.07777777777778],[-105.78861111111111,43.05638888888888],[-105.81944444444444,43.05138888888889],[-105.94972222222222,43.029444444444444],[-106.10805555555555,43.0025],[-106.29777777777778,42.97],[-106.4563888888889,42.942499999999995],[-106.61611111111111,42.91444444444444],[-106.77888888888889,42.88583333333333],[-106.77888888888889,42.88611111111111],[-106.93944444444445,42.85722222222223],[-107.085,42.83111111111111],[-107.10138888888888,42.82833333333333],[-107.24972222222222,42.80138888888889],[-107.27944444444444,42.795833333333334],[-107.4413888888889,42.76611111111111],[-107.57416666666666,42.74194444444444],[-107.6061111111111,42.73583333333333],[-107.73666666666666,42.711666666666666],[-107.76861111111111,42.70583333333334],[-108.05666666666666,42.65138888888889],[-108.21611111111112,42.62111111111111],[-108.37638888888888,42.59027777777778],[-108.53166666666667,42.56027777777778],[-108.68805555555556,42.52972222222222],[-108.84333333333333,42.49916666666667],[-108.99805555555555,42.468611111111116],[-109.155,42.43722222222222],[-109.30888888888889,42.406388888888884],[-109.46333333333334,42.375],[-109.61666666666666,42.343611111111116],[-109.76972222222223,42.31222222222222],[-109.92333333333333,42.280277777777776],[-110.07805555555555,42.24777777777778],[-110.23166666666667,42.21555555555556],[-110.3875,42.1825],[-110.54277777777777,42.14944444444444],[-110.72638888888889,42.109722222222224],[-110.88055555555555,42.07611111111112],[-111.02083333333333,42.04555555555555],[-111.1738888888889,42.011944444444445],[-111.32694444444444,41.97777777777778],[-111.47583333333334,41.94472222222222],[-111.62777777777777,41.910555555555554],[-111.7775,41.876666666666665],[-111.92805555555556,41.842222222222226],[-112.0786111111111,41.80777777777777],[-112.22833333333334,41.77305555555555],[-112.37777777777777,41.73833333333334],[-112.52777777777777,41.70333333333333],[-112.67694444444444,41.668055555555554],[-112.8236111111111,41.63333333333333],[-112.96777777777778,41.598888888888894],[-113.24138888888889,41.65416666666667],[-113.49111111111111,41.79111111111111],[-114.0125,41.967777777777776],[-114.30083333333333,41.87361111111111],[-114.44472222222223,41.825833333333335],[-114.60138888888888,41.77388888888889],[-114.87277777777777,41.68277777777777],[-115.00694444444444,41.6375],[-115.03444444444445,41.628055555555555],[-115.14416666666668,41.590833333333336],[-115.17166666666667,41.581388888888895],[-115.28138888888888,41.54361111111111],[-115.30916666666667,41.53444444444444],[-115.44472222222223,41.487500000000004],[-115.58,41.44138888888889],[-115.6875,41.40333333333333],[-115.71555555555555,41.39416666666666],[-115.82416666666666,41.35583333333334],[-115.85194444444444,41.34638888888889],[-115.95972222222223,41.30833333333333],[-115.98666666666666,41.29944444444444],[-116.09333333333333,41.26138888888889],[-116.12277777777777,41.25194444444445],[-116.22777777777777,41.21388888888889],[-116.25805555555556,41.205555555555556],[-116.36083333333333,41.16638888888889],[-116.39083333333333,41.15694444444444],[-116.49444444444444,41.11888888888889],[-116.52444444444444,41.10944444444445],[-116.65611111111112,41.06166666666666],[-116.76138888888889,41.022777777777776],[-116.79027777777777,41.01277777777778],[-116.89277777777778,40.97527777777778],[-116.92333333333333,40.96527777777778],[-117.02638888888889,40.92666666666666],[-117.16111111111111,40.8775],[-117.18916666666667,40.867222222222225],[-117.29472222222222,40.82833333333333],[-117.32333333333332,40.81805555555556],[-117.42694444444444,40.779444444444444],[-117.45555555555556,40.76916666666666],[-117.55972222222222,40.730555555555554],[-117.61472222222221,40.71],[-117.6913888888889,40.681666666666665],[-117.7461111111111,40.66111111111111],[-117.95472222222223,40.58277777777778],[-118.01083333333334,40.56166666666666],[-118.08833333333332,40.5325],[-118.14250000000001,40.511944444444445],[-118.22111111111111,40.48222222222223],[-118.27666666666667,40.461111111111116],[-118.35333333333332,40.43194444444444],[-118.485,40.38138888888889],[-118.53972222222222,40.36055555555556],[-118.67277777777778,40.309444444444445],[-118.74888888888889,40.28],[-118.80305555555556,40.25888888888889],[-118.87916666666666,40.22972222222222],[-118.93333333333334,40.20861111111111],[-119.0111111111111,40.17833333333333],[-119.16888888888889,40.11638888888889],[-119.19694444444445,40.105555555555554],[-119.30111111111111,40.06444444444444],[-119.32916666666667,40.05361111111111],[-119.46055555555556,40.001666666666665],[-119.5625,39.961111111111116],[-119.5911111111111,39.94972222222222],[-119.72055555555556,39.89833333333333],[-119.98277777777778,39.793055555555554],[-120.11416666666666,39.74],[-120.24555555555555,39.72777777777778],[-120.39777777777779,39.743611111111115],[-120.5475,39.75944444444445],[-120.69666666666667,39.775],[-120.85,39.79138888888889],[-121.00055555555555,39.8075],[-121.15,39.823888888888895],[-121.4563888888889,39.795833333333334],[-121.54194444444444,39.700833333333335],[-121.62472222222222,39.60388888888889],[-121.70666666666666,39.507222222222225],[-121.79027777777777,39.40861111111111],[-121.87305555555555,39.309999999999995],[-121.95611111111111,39.21083333333333],[-122.03861111111111,39.112500000000004],[-122.12333333333332,39.010555555555555],[-122.28888888888889,38.81055555555555],[-122.36972222222222,38.71194444444445],[-122.4525,38.61138888888889],[-122.53277777777778,38.51305555555555],[-122.61027777777777,38.418055555555554],[-122.68583333333333,38.325],[-122.75527777777778,38.233333333333334],[-122.73916666666666,38.12916666666667],[-122.71666666666667,38.06666666666667],[-122.71666666666667,38.016666666666666],[-122.68222222222222,37.93083333333333],[-122.6236111111111,37.85305555555556],[-122.53333333333333,37.766666666666666],[-122.48333333333333,37.71666666666667],[-122.41666666666667,37.666666666666664],[-122.42416666666666,37.664722222222224],[-122.36666666666666,37.6],[-122.36722222222221,37.60916666666667],[-122.33333333333333,37.55],[-122.33083333333333,37.546388888888885],[-122.29277777777777,37.48444444444444],[-122.23777777777778,37.43833333333333],[-122.10027777777778,37.42527777777777],[-122.07583333333334,37.475833333333334],[-122.11666666666666,37.516666666666666],[-122.17222222222223,37.53333333333333],[-122.23333333333333,37.55],[-122.27277777777778,37.575833333333335],[-122.31666666666666,37.6],[-122.35444444444444,37.61]],"type":"LineString"}
}
