{
  "id": 2047875427,
  "type": "Feature",
  "properties": {
    "geom:area": 0,
    "geom:bbox": "-156.116667,19.700000,-122.123889,37.600000",
    "geom:latitude": 29.732300216144928,
    "geom:longitude": -139.6201353023787,
    "src:alt_label": "swim-path",
    "src:geom": "swim",
    "swim:altitudes": [
      "023C",
      "048C",
      "073C",
      "095C",
      "127C",
      "140C",
      "152C",
      "165C",
      "177C",
      "188C",
      "200C",
      "209C",
      "219C",
      "228C",
      "237C",
      "245C",
      "252C",
      "261C",
      "269C",
      "277C",
      "283C",
      "291C",
      "299C",
      "306C",
      "313C",
      "320C",
      "330",
      "330",
      "330",
      "330",
      "330",
      "330",
      "330",
      "330",
      "330",
      "330",
      "330",
      "330",
      "330",
      "330",
      "330",
      "330C",
      "330C",
      "330C",
      "330C",
      "330C",
      "330C",
      "330C",
      "330C",
      "330C",
      "330C",
      "330C",
      "330C",
      "330C",
      "330C",
      "330C",
      "330C",
      "330C",
      "330",
      "330",
      "330",
      "330",
      "316",
      "294",
      "273",
      "252",
      "231",
      "211",
      "190",
      "169",
      "149",
      "144",
      "129",
      "119",
      "107",
      "099",
      "100C",
      "100",
      "099C",
      "096",
      "085",
      "076",
      "069",
      "065",
      "062",
      "060",
      "056",
      "051",
      "050",
      "050",
      "049",
      "046",
      "038",
      "036",
      "035",
      "030",
      "021",
      "017",
      "012",
      "008",
      "003"
    ],
    "swim:geom": "path",
    "swim:speeds": [
      220,
      250,
      270,
      290,
      340,
      370,
      390,
      410,
      420,
      430,
      440,
      450,
      460,
      470,
      470,
      480,
      490,
      490,
      490,
      500,
      500,
      500,
      500,
      500,
      500,
      510,
      510,
      510,
      510,
      510,
      500,
      500,
      500,
      500,
      500,
      500,
      500,
      500,
      500,
      490,
      490,
      486,
      485,
      484,
      484,
      485,
      485,
      486,
      487,
      479,
      476,
      474,
      473,
      473,
      472,
      471,
      470,
      470,
      471,
      468,
      466,
      466,
      465,
      463,
      451,
      438,
      425,
      412,
      401,
      391,
      380,
      373,
      370,
      360,
      362,
      351,
      333,
      330,
      332,
      316,
      293,
      293,
      283,
      270,
      245,
      242,
      238,
      240,
      236,
      238,
      229,
      204,
      192,
      195,
      191,
      186,
      177,
      174,
      151,
      152,
      146
    ],
    "swim:timestamps": [
      1786121988,
      1786122048,
      1786122109,
      1786122169,
      1786122289,
      1786122349,
      1786122409,
      1786122469,
      1786122530,
      1786122590,
      1786122650,
      1786122710,
      1786122770,
      1786122830,
      1786122891,
      1786122950,
      1786123011,
      1786123071,
      1786123131,
      1786123191,
      1786123252,
      1786123311,
      1786123372,
      1786123432,
      1786123492,
      1786123552,
      1786123612,
      1786123673,
      1786123732,
      1786123793,
      1786123853,
      1786123913,
      1786123973,
      1786124033,
      1786124093,
      1786124153,
      1786124214,
      1786124274,
      1786124291,
      1786124353,
      1786124413,
      1786136183,
      1786136243,
      1786136304,
      1786136364,
      1786136424,
      1786136484,
      1786136544,
      1786136604,
      1786136664,
      1786136724,
      1786136784,
      1786136844,
      1786136904,
      1786136965,
      1786137025,
      1786137085,
      1786137145,
      1786137205,
      1786137265,
      1786137325,
      1786137385,
      1786137445,
      1786137505,
      1786137565,
      1786137625,
      1786137686,
      1786137746,
      1786137806,
      1786137866,
      1786137926,
      1786137937,
      1786137986,
      1786138010,
      1786138046,
      1786138070,
      1786138106,
      1786138130,
      1786138166,
      1786138190,
      1786138250,
      1786138286,
      1786138315,
      1786138346,
      1786138370,
      1786138407,
      1786138431,
      1786138467,
      1786138495,
      1786138527,
      1786138550,
      1786138587,
      1786138616,
      1786138647,
      1786138676,
      1786138707,
      1786138735,
      1786138767,
      1786138796,
      1786138827,
      1786138856
    ],
    "wof:geomhash": "43eb5709f22713510463150ede19c7bf",
    "wof:id": 2047875427,
    "wof:repo": "sfomuseum-data-flights-2026-08"
  },
  "bbox": [
    -156.11666666666667,
    19.7,
    -122.12388888888889,
    37.6
  ],
  "geometry": {"type":"LineString","coordinates":[[-156.08333333333334,19.7],[-156.11666666666667,19.75],[-156.1,19.816666666666666],[-156.06666666666666,19.9],[-156,20.066666666666666],[-155.95,20.15],[-155.9,20.25],[-155.86666666666667,20.366666666666667],[-155.81666666666666,20.466666666666665],[-155.76666666666668,20.583333333333332],[-155.71666666666667,20.683333333333334],[-155.66666666666666,20.8],[-155.6,20.916666666666668],[-155.55,21.033333333333335],[-155.5,21.166666666666668],[-155.43333333333334,21.283333333333335],[-155.38333333333333,21.416666666666668],[-155.3,21.516666666666666],[-155.2,21.633333333333333],[-155.11666666666667,21.733333333333334],[-155.01666666666668,21.85],[-154.91666666666666,21.966666666666665],[-154.83333333333334,22.066666666666666],[-154.73333333333332,22.183333333333334],[-154.65,22.283333333333335],[-154.55,22.4],[-154.45,22.516666666666666],[-154.36666666666667,22.616666666666667],[-154.26666666666668,22.733333333333334],[-154.16666666666666,22.833333333333332],[-154.06666666666666,22.95],[-153.98333333333332,23.066666666666666],[-153.88333333333333,23.166666666666668],[-153.78333333333333,23.283333333333335],[-153.7,23.383333333333333],[-153.6,23.5],[-153.5,23.6],[-153.4,23.716666666666665],[-153.38333333333333,23.75],[-153.25,23.833333333333332],[-153.13333333333333,23.916666666666668],[-126.52972222222222,35.60638888888889],[-126.37722222222222,35.650555555555556],[-126.22,35.69583333333333],[-126.06777777777778,35.744166666666665],[-125.9238888888889,35.815],[-125.78333333333333,35.884166666666665],[-125.64222222222223,35.95305555555556],[-125.49722222222222,36.025],[-125.43,36.14388888888889],[-125.39222222222223,36.271388888888886],[-125.35388888888889,36.39972222222222],[-125.31583333333333,36.52638888888889],[-125.27666666666667,36.65361111111111],[-125.23666666666666,36.782222222222224],[-125.19694444444445,36.9075],[-125.1563888888889,37.034166666666664],[-125.085,37.15138888888889],[-124.97583333333334,37.24861111111111],[-124.81611111111111,37.260555555555555],[-124.65666666666667,37.26138888888889],[-124.49361111111111,37.26277777777778],[-124.33027777777778,37.26277777777778],[-124.17194444444445,37.263333333333335],[-124.01444444444445,37.263333333333335],[-123.86305555555555,37.263333333333335],[-123.71527777777779,37.26305555555555],[-123.57333333333332,37.2625],[-123.43333333333334,37.261944444444445],[-123.29722222222222,37.26083333333333],[-123.16722222222222,37.26],[-123.13333333333334,37.266666666666666],[-123.03833333333333,37.259166666666665],[-122.98333333333333,37.266666666666666],[-122.91444444444446,37.25805555555556],[-122.85,37.266666666666666],[-122.79694444444445,37.27333333333333],[-122.75,37.28333333333333],[-122.68833333333333,37.29861111111111],[-122.63333333333334,37.31666666666667],[-122.53333333333333,37.333333333333336],[-122.48694444444445,37.34527777777778],[-122.43333333333334,37.35],[-122.39500000000001,37.36666666666667],[-122.35,37.38333333333333],[-122.31222222222222,37.38527777777778],[-122.26666666666667,37.4],[-122.23305555555555,37.40361111111111],[-122.18333333333334,37.416666666666664],[-122.15833333333335,37.42638888888889],[-122.13333333333334,37.45],[-122.12388888888889,37.47944444444445],[-122.15,37.5],[-122.16222222222223,37.522777777777776],[-122.18333333333334,37.55],[-122.21527777777779,37.553888888888885],[-122.25,37.56666666666667],[-122.27,37.57666666666667],[-122.3,37.583333333333336],[-122.31916666666666,37.597500000000004],[-122.35,37.6]]}
}
