{
  "id": 2047927753,
  "type": "Feature",
  "properties": {
    "geom:area": 0,
    "geom:bbox": "-122.763650,37.455720,-122.139780,38.503340",
    "geom:latitude": 37.84730317803326,
    "geom:longitude": -122.50834569725238,
    "src:alt_label": "swim-approach",
    "src:geom": "swim",
    "swim:elevations": [
      7009,
      6922,
      6692,
      6573,
      6393,
      6339,
      5932,
      5810,
      5585,
      5294,
      5013,
      4768,
      4274,
      3954,
      3644,
      3418,
      3353,
      3353,
      3353,
      3353,
      3260,
      3149,
      2990,
      2540,
      2145,
      1874,
      1597,
      1429,
      1165,
      997,
      914,
      913,
      821,
      639,
      496,
      439,
      350,
      267,
      122,
      0
    ],
    "swim:geom": "approach",
    "swim:timestamps": [
      1786470293,
      1786470323,
      1786470387,
      1786470396,
      1786470417,
      1786470421,
      1786470467,
      1786470483,
      1786470511,
      1786470548,
      1786470585,
      1786470619,
      1786470678,
      1786470723,
      1786470762,
      1786470794,
      1786470816,
      1786470827,
      1786470872,
      1786470896,
      1786470925,
      1786470945,
      1786470970,
      1786471018,
      1786471066,
      1786471098,
      1786471133,
      1786471152,
      1786471182,
      1786471206,
      1786471231,
      1786471249,
      1786471268,
      1786471305,
      1786471332,
      1786471343,
      1786471365,
      1786471386,
      1786471421,
      1786471449
    ],
    "wof:geomhash": "74590ba444f9de2e7da585f362821eac",
    "wof:id": 2047927753,
    "wof:repo": "sfomuseum-data-flights-2026-08"
  },
  "bbox": [
    -122.76365,
    37.45572,
    -122.13978,
    38.50334
  ],
  "geometry": {"type":"LineString","coordinates":[[-122.74782,38.50334],[-122.75179,38.44875],[-122.75952,38.33754],[-122.76067,38.32095],[-122.76319,38.28645],[-122.76365,38.27977],[-122.76123,38.20408],[-122.75437,38.18007],[-122.74131,38.1347],[-122.72459,38.07753],[-122.70827,38.02089],[-122.69337,37.96921],[-122.65768,37.88526],[-122.60414,37.83403],[-122.55689,37.78988],[-122.51857,37.75367],[-122.49266,37.72914],[-122.48035,37.71748],[-122.43013,37.67037],[-122.40555,37.64714],[-122.37729,37.62036],[-122.35964,37.60122],[-122.34667,37.57421],[-122.31396,37.52483],[-122.25937,37.48875],[-122.21952,37.46911],[-122.1755,37.45572],[-122.15523,37.46437],[-122.13978,37.49015],[-122.14789,37.51129],[-122.16507,37.52988],[-122.18161,37.5394],[-122.20138,37.54767],[-122.23841,37.56357],[-122.26466,37.57462],[-122.27558,37.57922],[-122.29393,37.58696],[-122.31037,37.5939],[-122.33722,37.60515],[-122.35679,37.6135]]}
}
