{
  "id": 2032063201,
  "type": "Feature",
  "properties": {
    "geom:area": 0,
    "geom:bbox": "-122.541944,34.197778,-118.348333,37.661389",
    "geom:latitude": 35.83799967798134,
    "geom:longitude": -120.57835108608892,
    "src:alt_label": "swim-path",
    "src:geom": "swim",
    "swim:altitudes": [
      "007",
      "024",
      "036",
      "040",
      "064",
      "096",
      "104",
      "134",
      "162",
      "186",
      "229",
      "250",
      "252",
      "269",
      "271",
      "285",
      "286",
      "300",
      "310C",
      "310C",
      "310C",
      "310C",
      "310C",
      "310C",
      "310C",
      "310C",
      "310C",
      "310C",
      "310C",
      "310C",
      "310C",
      "310C",
      "310C",
      "310C",
      "310C",
      "310C",
      "310",
      "310",
      "310",
      "310",
      "310",
      "305",
      "279",
      "256",
      "253",
      "230",
      "207",
      "189",
      "186",
      "167",
      "165",
      "145",
      "129",
      "113",
      "110",
      "111",
      "108",
      "094",
      "086",
      "082",
      "078",
      "071",
      "066",
      "059",
      "054",
      "047",
      "046",
      "043",
      "041",
      "037",
      "033",
      "028",
      "021",
      "019",
      "015",
      "012",
      "008",
      "007"
    ],
    "swim:geom": "path",
    "swim:speeds": [
      135,
      145,
      165,
      182,
      260,
      292,
      341,
      345,
      362,
      378,
      399,
      408,
      409,
      411,
      410,
      415,
      414,
      436,
      412,
      416,
      412,
      412,
      411,
      413,
      410,
      408,
      407,
      408,
      406,
      407,
      406,
      406,
      407,
      407,
      408,
      408,
      408,
      408,
      408,
      408,
      408,
      409,
      414,
      417,
      417,
      409,
      395,
      388,
      385,
      376,
      375,
      364,
      346,
      335,
      306,
      307,
      301,
      295,
      297,
      273,
      253,
      244,
      242,
      241,
      241,
      240,
      241,
      232,
      217,
      192,
      179,
      147,
      131,
      132,
      127,
      130,
      130,
      128
    ],
    "swim:timestamps": [
      1785626912,
      1785626974,
      1785627002,
      1785627034,
      1785627094,
      1785627154,
      1785627214,
      1785627274,
      1785627334,
      1785627394,
      1785627520,
      1785627574,
      1785627580,
      1785627634,
      1785627640,
      1785627694,
      1785627700,
      1785627755,
      1785627875,
      1785627881,
      1785627935,
      1785627941,
      1785627995,
      1785628001,
      1785628055,
      1785628115,
      1785628175,
      1785628181,
      1785628235,
      1785628241,
      1785628301,
      1785628415,
      1785628482,
      1785628542,
      1785628595,
      1785628602,
      1785628662,
      1785628716,
      1785628722,
      1785628776,
      1785628782,
      1785628842,
      1785628902,
      1785628956,
      1785628962,
      1785629022,
      1785629082,
      1785629136,
      1785629142,
      1785629196,
      1785629203,
      1785629263,
      1785629323,
      1785629383,
      1785629420,
      1785629443,
      1785629503,
      1785629531,
      1785629563,
      1785629586,
      1785629623,
      1785629652,
      1785629683,
      1785629709,
      1785629743,
      1785629775,
      1785629803,
      1785629826,
      1785629864,
      1785629892,
      1785629924,
      1785629952,
      1785630012,
      1785630044,
      1785630069,
      1785630104,
      1785630132,
      1785630164
    ],
    "wof:geomhash": "b8849e2874aebd51a067b2ae73cc34a3",
    "wof:id": 2032063201,
    "wof:repo": "sfomuseum-data-flights-2026-08"
  },
  "bbox": [
    -122.54194444444444,
    34.19777777777777,
    -118.34833333333333,
    37.66138888888889
  ],
  "geometry": {"coordinates":[[-122.38333333333334,37.61666666666667],[-122.42333333333333,37.63916666666667],[-122.45,37.65],[-122.47333333333333,37.66138888888889],[-122.54194444444444,37.64416666666666],[-122.5125,37.57027777777778],[-122.43083333333334,37.51138888888889],[-122.37194444444444,37.42861111111111],[-122.29083333333332,37.352222222222224],[-122.20222222222222,37.27611111111111],[-122.00277777777778,37.09916666666667],[-121.91277777777778,37.030277777777776],[-121.9025,37.016666666666666],[-121.815,36.946666666666665],[-121.80555555555556,36.93222222222222],[-121.71555555555555,36.861666666666665],[-121.70583333333333,36.847500000000004],[-121.59416666666667,36.7575],[-121.39722222222223,36.58722222222222],[-121.4038888888889,36.59027777777778],[-121.30111111111111,36.50416666666667],[-121.30722222222222,36.506388888888885],[-121.20527777777778,36.419999999999995],[-121.20833333333334,36.422777777777775],[-121.11305555555555,36.334722222222226],[-121.02388888888889,36.248333333333335],[-120.93444444444445,36.160555555555554],[-120.93722222222223,36.163333333333334],[-120.84583333333333,36.07361111111111],[-120.84888888888888,36.07666666666667],[-120.75916666666667,35.98833333333334],[-120.58,35.81166666666666],[-120.49416666666667,35.72638888888889],[-120.40666666666667,35.63861111111111],[-120.33305555555555,35.565555555555555],[-120.3125,35.546388888888885],[-120.22166666666666,35.45944444444445],[-120.14972222222222,35.390277777777776],[-120.13194444444444,35.37305555555555],[-120.05666666666666,35.300555555555555],[-120.03999999999999,35.28444444444444],[-119.95027777777779,35.19777777777777],[-119.85833333333333,35.10861111111111],[-119.78222222222222,35.03472222222222],[-119.76722222222222,35.019999999999996],[-119.67722222222223,34.93222222222222],[-119.58527777777778,34.85277777777778],[-119.50055555555555,34.795833333333334],[-119.485,34.78527777777778],[-119.40305555555557,34.731388888888894],[-119.38694444444445,34.72083333333334],[-119.29027777777777,34.6575],[-119.19555555555556,34.6075],[-119.0975,34.56333333333333],[-119.03333333333333,34.53333333333333],[-119.01861111111111,34.51027777777778],[-118.9625,34.44194444444444],[-118.93333333333334,34.4],[-118.90722222222223,34.37305555555555],[-118.88333333333334,34.35],[-118.85638888888889,34.31222222222222],[-118.83333333333333,34.28333333333333],[-118.80944444444444,34.2575],[-118.78333333333333,34.233333333333334],[-118.74527777777777,34.218333333333334],[-118.7,34.2],[-118.66916666666667,34.20166666666667],[-118.63333333333334,34.2],[-118.59277777777777,34.200833333333335],[-118.55,34.2],[-118.52972222222222,34.2],[-118.5,34.2],[-118.45,34.2],[-118.4363888888889,34.19888888888889],[-118.41666666666667,34.2],[-118.39444444444445,34.19833333333333],[-118.36666666666666,34.2],[-118.34833333333333,34.19777777777777]],"type":"LineString"}
}
