{
  "id": 2048055503,
  "type": "Feature",
  "properties": {
    "geom:area": 0,
    "geom:bbox": "-123.479920,37.624330,-122.388110,38.306190",
    "geom:latitude": 37.96373787920348,
    "geom:longitude": -122.93342436307235,
    "src:alt_label": "swim-takeoff",
    "src:geom": "swim",
    "swim:elevations": [
      122,
      649,
      743,
      1037,
      1187,
      1188,
      1634,
      2016,
      2328,
      2555,
      3232,
      3437,
      3484,
      3686,
      3721,
      4086,
      4381,
      4625,
      4970,
      5063,
      5517,
      5628,
      5985,
      6218,
      6309,
      6462
    ],
    "swim:geom": "takeoff",
    "swim:timestamps": [
      1787055249,
      1787055298,
      1787055307,
      1787055334,
      1787055357,
      1787055364,
      1787055415,
      1787055441,
      1787055463,
      1787055482,
      1787055538,
      1787055568,
      1787055583,
      1787055623,
      1787055632,
      1787055679,
      1787055711,
      1787055738,
      1787055777,
      1787055788,
      1787055839,
      1787055850,
      1787055891,
      1787055924,
      1787055936,
      1787055960
    ],
    "wof:geomhash": "4e57fb3d801a3fc1b5db17af3e8d79ee",
    "wof:id": 2048055503,
    "wof:repo": "sfomuseum-data-flights-2026-08"
  },
  "bbox": [
    -123.47992,
    37.62433,
    -122.38811,
    38.30619
  ],
  "geometry": {"type":"LineString","coordinates":[[-122.38811,37.62433],[-122.43206,37.64323],[-122.44019,37.64667],[-122.46508,37.65768],[-122.48999,37.66845],[-122.49815,37.67197],[-122.56043,37.70822],[-122.59338,37.72785],[-122.62247,37.74557],[-122.64754,37.7602],[-122.72428,37.8043],[-122.7651,37.83248],[-122.7819,37.85099],[-122.82607,37.90753],[-122.83764,37.91982],[-122.91862,37.97546],[-122.97894,38.01084],[-123.03081,38.04151],[-123.1061,38.08624],[-123.12867,38.09964],[-123.23014,38.15996],[-123.25293,38.17346],[-123.33648,38.2228],[-123.40394,38.26256],[-123.42867,38.27722],[-123.47992,38.30619]]}
}
