{
  "id": 2047877983,
  "type": "Feature",
  "properties": {
    "geom:area": 0,
    "geom:bbox": "-122.556944,32.464167,-116.879444,37.661667",
    "geom:latitude": 34.96784327373272,
    "geom:longitude": -119.94992701590505,
    "src:alt_label": "swim-path",
    "src:geom": "swim",
    "swim:altitudes": [
      "012",
      "026",
      "074",
      "094",
      "128",
      "148",
      "168",
      "186",
      "203",
      "216",
      "216",
      "230",
      "240",
      "241",
      "252",
      "252",
      "264",
      "275",
      "283",
      "283",
      "290",
      "299",
      "307",
      "317",
      "318",
      "324",
      "326",
      "332",
      "333",
      "342",
      "344",
      "350C",
      "350C",
      "350C",
      "350C",
      "350C",
      "350C",
      "350C",
      "350C",
      "350C",
      "350C",
      "350C",
      "350C",
      "350C",
      "350C",
      "350C",
      "350C",
      "350C",
      "350C",
      "350C",
      "350C",
      "350C",
      "350C",
      "350C",
      "350C",
      "350C",
      "350C",
      "350C",
      "350C",
      "350C",
      "350C",
      "350C",
      "350",
      "350C",
      "350C",
      "350C",
      "350C",
      "350C",
      "350C",
      "350C",
      "350C",
      "350C"
    ],
    "swim:geom": "path",
    "swim:speeds": [
      174,
      245,
      279,
      284,
      334,
      344,
      348,
      352,
      357,
      370,
      371,
      381,
      398,
      398,
      409,
      409,
      416,
      420,
      428,
      429,
      437,
      445,
      451,
      454,
      454,
      455,
      455,
      458,
      458,
      459,
      459,
      456,
      456,
      457,
      457,
      458,
      458,
      459,
      459,
      459,
      459,
      458,
      457,
      457,
      457,
      457,
      457,
      456,
      456,
      455,
      455,
      454,
      454,
      454,
      453,
      454,
      454,
      455,
      455,
      455,
      454,
      453,
      453,
      452,
      452,
      451,
      450,
      450,
      450,
      450,
      451,
      453
    ],
    "swim:timestamps": [
      1786111802,
      1786111862,
      1786111982,
      1786112042,
      1786112162,
      1786112223,
      1786112283,
      1786112343,
      1786112403,
      1786112455,
      1786112463,
      1786112515,
      1786112575,
      1786112583,
      1786112635,
      1786112643,
      1786112703,
      1786112763,
      1786112816,
      1786112823,
      1786112883,
      1786112943,
      1786112996,
      1786113056,
      1786113075,
      1786113116,
      1786113136,
      1786113176,
      1786113196,
      1786113236,
      1786113256,
      1786113296,
      1786113316,
      1786113357,
      1786113376,
      1786113417,
      1786113436,
      1786113477,
      1786113496,
      1786113537,
      1786113556,
      1786113616,
      1786113657,
      1786113676,
      1786113717,
      1786113736,
      1786113777,
      1786113796,
      1786113837,
      1786113856,
      1786113897,
      1786113916,
      1786113957,
      1786113976,
      1786114018,
      1786114078,
      1786114198,
      1786114258,
      1786114318,
      1786114378,
      1786114438,
      1786114558,
      1786114618,
      1786114679,
      1786114739,
      1786114979,
      1786115099,
      1786115159,
      1786115219,
      1786115279,
      1786115339,
      1786115520
    ],
    "wof:geomhash": "514d25acc08d51129686dc3e5191815f",
    "wof:id": 2047877983,
    "wof:repo": "sfomuseum-data-flights-2026-08"
  },
  "bbox": [
    -122.55694444444444,
    32.46416666666667,
    -116.87944444444443,
    37.66166666666666
  ],
  "geometry": {"type":"LineString","coordinates":[[-122.40694444444445,37.6325],[-122.47472222222223,37.66166666666666],[-122.55,37.55888888888889],[-122.55166666666666,37.48111111111111],[-122.55694444444444,37.30361111111111],[-122.55694444444444,37.2075],[-122.49222222222222,37.12638888888889],[-122.42111111111112,37.04527777777778],[-122.34722222222221,36.964444444444446],[-122.275,36.88444444444444],[-122.2725,36.88138888888889],[-122.19666666666667,36.79722222222222],[-122.11694444444444,36.708333333333336],[-122.11444444444444,36.70527777777778],[-122.03444444444445,36.61611111111111],[-122.03166666666667,36.61277777777778],[-121.94805555555556,36.51888888888889],[-121.86194444444443,36.4225],[-121.7786111111111,36.32888888888889],[-121.77722222222222,36.327222222222225],[-121.69,36.22777777777778],[-121.60027777777778,36.126111111111115],[-121.51277777777777,36.026666666666664],[-121.42055555555557,35.92166666666667],[-121.40194444444445,35.900277777777774],[-121.33138888888888,35.81916666666667],[-121.31055555555555,35.794999999999995],[-121.24111111111111,35.71527777777778],[-121.22083333333333,35.69194444444444],[-121.14944444444446,35.609722222222224],[-121.12944444444443,35.586666666666666],[-121.06916666666666,35.52305555555555],[-121.02888888888889,35.493611111111115],[-120.94500000000001,35.44444444444444],[-120.9025,35.41972222222222],[-120.81777777777778,35.370555555555555],[-120.77555555555556,35.34583333333334],[-120.68944444444445,35.29555555555555],[-120.64916666666667,35.27222222222222],[-120.56305555555555,35.22166666666667],[-120.52527777777777,35.19944444444444],[-120.40055555555556,35.126111111111115],[-120.30805555555555,35.07166666666667],[-120.25222222222222,35.038333333333334],[-120.18444444444445,34.9975],[-120.1286111111111,34.964444444444446],[-120.05722222222222,34.92194444444444],[-120.0038888888889,34.890277777777776],[-119.9325,34.84805555555556],[-119.88027777777778,34.816944444444445],[-119.80749999999999,34.77361111111111],[-119.75694444444444,34.74333333333333],[-119.68527777777778,34.70027777777778],[-119.63222222222221,34.66833333333333],[-119.5625,34.62638888888889],[-119.42333333333333,34.54222222222222],[-119.17666666666668,34.39194444444444],[-119.05444444444444,34.31722222222223],[-118.93222222222222,34.2425],[-118.80916666666667,34.166666666666664],[-118.6875,34.09166666666667],[-118.42666666666668,33.963055555555556],[-118.28777777777778,33.905833333333334],[-118.18527777777778,33.849444444444444],[-118.0886111111111,33.75055555555556],[-117.7675,33.323055555555555],[-117.60694444444444,33.11138888888889],[-117.52333333333333,33.009166666666665],[-117.42722222222223,32.91166666666666],[-117.32083333333333,32.825],[-117.19527777777778,32.7275],[-116.87944444444443,32.46416666666667]]}
}
