{
  "id": 2047930207,
  "type": "Feature",
  "properties": {
    "date:cessation_lower": "2026-08-11",
    "date:cessation_upper": "2026-08-11",
    "date:inception_lower": "2026-08-11",
    "date:inception_upper": "2026-08-11",
    "edtf:cessation": "2026-08-11T19:54:28Z",
    "edtf:inception": "2026-08-11T07:38:00Z",
    "flysfo:actual_timestamp": -1,
    "flysfo:airline": "CZ",
    "flysfo:date": "2026-08-11",
    "flysfo:estimated_timestamp": 1786434420,
    "flysfo:event": "D",
    "flysfo:flight_number": "CZ660",
    "flysfo:gate": "A10",
    "flysfo:journey": "SFO-WUH",
    "flysfo:scheduled_timestamp": 1786433700,
    "flysfo:timestamp": 1786434420,
    "geom:area": 0,
    "geom:bbox": "-122.370943,30.783800,114.208000,37.617990",
    "geom:latitude": 34.200895,
    "geom:longitude": -4.081471499999999,
    "iata:airline": "CZ",
    "icao:airline": "CSN",
    "lbl:latitude": 37.61227,
    "lbl:longitude": -122.390079,
    "sfomuseum:airline_id": 1159284165,
    "sfomuseum:arrival_id": 102550529,
    "sfomuseum:departure_id": 102527513,
    "sfomuseum:flight_id": "20260811-D-CSN-660",
    "sfomuseum:flight_number": [
      "CSN660",
      "CZ660"
    ],
    "sfomuseum:placetype": "flight",
    "src:geom": "flysfo",
    "src:geom_alt": [
      "swim-path"
    ],
    "wof:belongsto": [
      1947304067,
      102527513,
      1947304073,
      102191575,
      85633793,
      102087579,
      85922583,
      554784711,
      85688637,
      1947304101,
      1947304069,
      102085387
    ],
    "wof:concordances": {
      "swim:flight_ref": "154270399"
    },
    "wof:country": "US",
    "wof:created": 1786551198,
    "wof:geomhash": "45e7108794d81a2dcecee3acf14ea6a4",
    "wof:hierarchy": [
      {
        "building_id": 1947304067,
        "campus_id": 102527513,
        "concourse_id": 1947304073,
        "continent_id": 102191575,
        "country_id": 85633793,
        "county_id": 102087579,
        "custom_id": 2047930207,
        "flight_id": 2047930207,
        "locality_id": 85922583,
        "postalcode_id": 554784711,
        "region_id": 85688637,
        "venue_id": 1947304101,
        "wing_id": 1947304069
      },
      {
        "building_id": 1947304067,
        "campus_id": 102527513,
        "concourse_id": 1947304073,
        "continent_id": 102191575,
        "country_id": 85633793,
        "county_id": 102085387,
        "custom_id": 2047930207,
        "flight_id": 2047930207,
        "region_id": 85688637,
        "venue_id": 1947304101,
        "wing_id": 1947304069
      }
    ],
    "wof:id": 2047930207,
    "wof:involves": [
      102550529,
      102527513,
      1159284165,
      1947304101
    ],
    "wof:lastmodified": 1786551549,
    "wof:name": "CZ660 (SFO-WUH)",
    "wof:parent_id": 1947304101,
    "wof:placetype": "custom",
    "wof:placetype_alt": [
      "flight"
    ],
    "wof:repo": "sfomuseum-data-flights-2026-08",
    "wof:superseded_by": [],
    "wof:supersedes": []
  },
  "bbox": [
    -122.370943,
    30.7838,
    114.208,
    37.61799
  ],
  "geometry": {"type":"MultiPoint","coordinates":[[-122.370943,37.61799],[114.208,30.7838]]}
}
