{
  "id": 2047939333,
  "type": "Feature",
  "properties": {
    "geom:area": 0,
    "geom:bbox": "-123.486390,36.972810,-122.135290,37.612710",
    "geom:latitude": 37.28945525706992,
    "geom:longitude": -122.70865045182786,
    "src:alt_label": "swim-approach",
    "src:geom": "swim",
    "swim:elevations": [
      6279,
      6050,
      5887,
      5419,
      5256,
      5022,
      4770,
      4581,
      4403,
      3937,
      3910,
      3500,
      3164,
      3081,
      3047,
      3048,
      3048,
      3048,
      3020,
      2897,
      2831,
      2770,
      2517,
      2462,
      2419,
      2137,
      2032,
      1829,
      1829,
      1829,
      1829,
      1768,
      1485,
      1397,
      1263,
      1219,
      1219,
      1157,
      913,
      914,
      882,
      671,
      546,
      449,
      369,
      120,
      30
    ],
    "swim:geom": "approach",
    "swim:timestamps": [
      1786576462,
      1786576484,
      1786576501,
      1786576548,
      1786576567,
      1786576591,
      1786576618,
      1786576637,
      1786576657,
      1786576707,
      1786576710,
      1786576755,
      1786576789,
      1786576798,
      1786576820,
      1786576841,
      1786576877,
      1786576902,
      1786576945,
      1786576966,
      1786576981,
      1786576994,
      1786577036,
      1786577048,
      1786577080,
      1786577115,
      1786577134,
      1786577174,
      1786577186,
      1786577193,
      1786577244,
      1786577262,
      1786577301,
      1786577313,
      1786577337,
      1786577367,
      1786577386,
      1786577406,
      1786577447,
      1786577470,
      1786577495,
      1786577544,
      1786577569,
      1786577593,
      1786577611,
      1786577666,
      1786577690
    ],
    "wof:geomhash": "7e1fbb7e031397238525f1c29548ddd0",
    "wof:id": 2047939333,
    "wof:repo": "sfomuseum-data-flights-2026-08"
  },
  "bbox": [
    -123.48639,
    36.97281,
    -122.13529,
    37.61271
  ],
  "geometry": {"type":"LineString","coordinates":[[-123.48639,36.97281],[-123.44549,36.99164],[-123.41556,37.00597],[-123.3268,37.04658],[-123.29115,37.06293],[-123.24712,37.08313],[-123.19792,37.10555],[-123.1644,37.12075],[-123.12804,37.13741],[-123.03807,37.17825],[-123.03272,37.18066],[-122.95396,37.21675],[-122.89282,37.24401],[-122.87702,37.25101],[-122.83739,37.26347],[-122.79828,37.27267],[-122.73193,37.28826],[-122.6891,37.29845],[-122.62181,37.31393],[-122.59172,37.32087],[-122.57066,37.32467],[-122.55254,37.32304],[-122.49371,37.313],[-122.47715,37.3102],[-122.43327,37.30549],[-122.39756,37.33103],[-122.39037,37.352],[-122.37412,37.39535],[-122.36241,37.40465],[-122.35327,37.40803],[-122.28302,37.40734],[-122.25748,37.40625],[-122.20383,37.40449],[-122.18829,37.40872],[-122.16878,37.42891],[-122.15353,37.45649],[-122.14454,37.47258],[-122.13529,37.48917],[-122.1466,37.52204],[-122.16804,37.53401],[-122.19141,37.54379],[-122.2357,37.56241],[-122.25752,37.57166],[-122.27793,37.58026],[-122.29295,37.58663],[-122.33672,37.60499],[-122.3553,37.61271]]}
}
