{
  "id": 2047994227,
  "type": "Feature",
  "properties": {
    "geom:area": 0,
    "geom:bbox": "-122.526360,37.632070,-121.243200,37.975610",
    "geom:latitude": 37.869484698054045,
    "geom:longitude": -121.9800613904151,
    "src:alt_label": "swim-takeoff",
    "src:geom": "swim",
    "swim:elevations": [
      356,
      403,
      690,
      941,
      1199,
      1794,
      2120,
      2353,
      2574,
      3045,
      3291,
      3467,
      3769,
      3984,
      4123,
      4566,
      4658,
      4932,
      5397,
      5581,
      5720,
      5920,
      6031,
      6315,
      6633,
      6790,
      6890,
      7113
    ],
    "swim:geom": "takeoff",
    "swim:timestamps": [
      1786866597,
      1786866601,
      1786866655,
      1786866680,
      1786866702,
      1786866748,
      1786866775,
      1786866796,
      1786866814,
      1786866854,
      1786866894,
      1786866923,
      1786866952,
      1786866978,
      1786866994,
      1786867042,
      1786867050,
      1786867082,
      1786867133,
      1786867167,
      1786867186,
      1786867214,
      1786867234,
      1786867273,
      1786867316,
      1786867340,
      1786867355,
      1786867386
    ],
    "wof:geomhash": "00eaad3d6eb9ed87674ad222d53431d5",
    "wof:id": 2047994227,
    "wof:repo": "sfomuseum-data-flights-2026-08"
  },
  "bbox": [
    -122.52636,
    37.63207,
    -121.2432,
    37.97561
  ],
  "geometry": {"type":"LineString","coordinates":[[-122.40605,37.63207],[-122.40968,37.63371],[-122.46835,37.65899],[-122.50179,37.67369],[-122.52211,37.69504],[-122.52636,37.755],[-122.52471,37.79029],[-122.50342,37.81255],[-122.47666,37.8228],[-122.41468,37.83941],[-122.34322,37.8479],[-122.28728,37.85479],[-122.2311,37.86176],[-122.17725,37.86837],[-122.14405,37.87239],[-122.04199,37.88448],[-122.02483,37.88647],[-121.95766,37.89437],[-121.84472,37.90738],[-121.76729,37.91638],[-121.72475,37.9213],[-121.65986,37.92872],[-121.61287,37.93413],[-121.51954,37.94472],[-121.41613,37.95634],[-121.35752,37.96289],[-121.32074,37.96697],[-121.2432,37.97561]]}
}
