{
  "id": 2047913213,
  "type": "Feature",
  "properties": {
    "geom:area": 0,
    "geom:bbox": "-122.333333,33.417222,-117.883333,37.600000",
    "geom:latitude": 35.221260743799945,
    "geom:longitude": -120.30065551562637,
    "src:alt_label": "swim-path",
    "src:geom": "swim",
    "swim:altitudes": [
      "007",
      "018",
      "036",
      "051",
      "078",
      "105",
      "124",
      "148",
      "173",
      "196",
      "219",
      "235",
      "251",
      "267",
      "285",
      "301",
      "318",
      "329",
      "339",
      "352",
      "360C",
      "360C",
      "360C",
      "360C",
      "360C",
      "360C",
      "360C",
      "360C",
      "360C",
      "360C",
      "360C",
      "360",
      "360",
      "346",
      "319",
      "297",
      "276",
      "257",
      "243",
      "237",
      "221",
      "213",
      "202",
      "194",
      "185",
      "175",
      "166",
      "156",
      "147",
      "138",
      "129",
      "120",
      "109",
      "104",
      "101",
      "096",
      "092",
      "083",
      "079",
      "073",
      "066",
      "060",
      "052",
      "045",
      "040",
      "038",
      "032",
      "027",
      "021",
      "017",
      "011",
      "008",
      "003"
    ],
    "swim:geom": "path",
    "swim:speeds": [
      168,
      168,
      180,
      268,
      289,
      297,
      348,
      372,
      382,
      394,
      402,
      424,
      442,
      456,
      461,
      462,
      461,
      463,
      469,
      471,
      470,
      471,
      471,
      471,
      471,
      471,
      473,
      474,
      475,
      474,
      475,
      474,
      473,
      473,
      472,
      471,
      452,
      435,
      419,
      417,
      402,
      400,
      386,
      387,
      385,
      385,
      374,
      379,
      368,
      367,
      353,
      353,
      342,
      340,
      312,
      302,
      273,
      267,
      251,
      252,
      247,
      244,
      238,
      239,
      233,
      225,
      223,
      210,
      188,
      183,
      158,
      157,
      155
    ],
    "swim:timestamps": [
      1786371388,
      1786371414,
      1786371474,
      1786371534,
      1786371594,
      1786371654,
      1786371714,
      1786371775,
      1786371835,
      1786371895,
      1786371955,
      1786372015,
      1786372075,
      1786372135,
      1786372195,
      1786372255,
      1786372315,
      1786372375,
      1786372436,
      1786372496,
      1786372560,
      1786372616,
      1786372676,
      1786372736,
      1786372796,
      1786372856,
      1786372976,
      1786373036,
      1786373101,
      1786373157,
      1786373217,
      1786373281,
      1786373337,
      1786373397,
      1786373461,
      1786373521,
      1786373581,
      1786373641,
      1786373670,
      1786373702,
      1786373737,
      1786373762,
      1786373797,
      1786373822,
      1786373851,
      1786373882,
      1786373911,
      1786373942,
      1786373971,
      1786374002,
      1786374031,
      1786374062,
      1786374097,
      1786374122,
      1786374151,
      1786374182,
      1786374211,
      1786374242,
      1786374271,
      1786374302,
      1786374331,
      1786374362,
      1786374391,
      1786374422,
      1786374451,
      1786374483,
      1786374517,
      1786374543,
      1786374571,
      1786374603,
      1786374637,
      1786374663,
      1786374691
    ],
    "wof:geomhash": "b8319b8633868886c2f52beb51c5a504",
    "wof:id": 2047913213,
    "wof:repo": "sfomuseum-data-flights-2026-08"
  },
  "bbox": [
    -122.33333333333333,
    33.41722222222222,
    -117.88333333333334,
    37.6
  ],
  "geometry": {"type":"LineString","coordinates":[[-117.88333333333334,33.666666666666664],[-117.8875,33.64472222222222],[-117.89555555555556,33.596944444444446],[-117.9363888888889,33.54],[-118.00083333333333,33.48277777777778],[-118.08527777777778,33.44],[-118.18833333333333,33.41722222222222],[-118.30722222222222,33.44416666666666],[-118.42055555555557,33.49277777777778],[-118.53388888888888,33.55166666666666],[-118.63333333333334,33.62777777777778],[-118.73055555555555,33.71388888888889],[-118.83305555555555,33.80361111111111],[-118.9388888888889,33.896388888888886],[-119.04472222222222,33.98861111111111],[-119.15361111111112,34.08305555555556],[-119.25888888888889,34.17472222222222],[-119.36722222222221,34.26833333333333],[-119.47583333333334,34.36194444444445],[-119.58694444444444,34.45638888888889],[-119.705,34.551111111111105],[-119.81555555555555,34.640277777777776],[-119.92972222222222,34.73277777777778],[-120.04333333333334,34.82416666666667],[-120.15666666666667,34.914722222222224],[-120.26972222222223,35.00527777777778],[-120.49055555555556,35.192499999999995],[-120.60083333333333,35.29083333333333],[-120.72333333333333,35.39972222222222],[-120.81805555555555,35.48361111111111],[-120.91555555555556,35.58833333333334],[-121.00833333333334,35.687777777777775],[-121.10222222222221,35.78861111111111],[-121.20027777777779,35.89361111111111],[-121.30222222222221,36.00222222222222],[-121.39527777777778,36.10805555555556],[-121.47972222222222,36.215833333333336],[-121.56,36.31861111111112],[-121.61666666666666,36.38333333333333],[-121.6375,36.41694444444444],[-121.7,36.5],[-121.72722222222222,36.530833333333334],[-121.76666666666667,36.583333333333336],[-121.79861111111111,36.62111111111111],[-121.83333333333333,36.666666666666664],[-121.86916666666666,36.70944444444445],[-121.9,36.75],[-121.91250000000001,36.80833333333333],[-121.93333333333334,36.85],[-121.94055555555556,36.906388888888884],[-121.95,36.95],[-121.97305555555556,37.0025],[-122,37.05],[-122.00805555555556,37.09305555555556],[-122.01666666666667,37.13333333333333],[-122.03972222222222,37.174166666666665],[-122.05,37.21666666666667],[-122.06888888888888,37.2475],[-122.08333333333333,37.28333333333333],[-122.09472222222222,37.314166666666665],[-122.1,37.35],[-122.12055555555555,37.379444444444445],[-122.13333333333334,37.416666666666664],[-122.14194444444445,37.442499999999995],[-122.15,37.46666666666667],[-122.16250000000001,37.50416666666667],[-122.18333333333334,37.53333333333333],[-122.2075,37.55138888888889],[-122.23333333333333,37.56666666666667],[-122.26694444444445,37.57555555555556],[-122.3,37.583333333333336],[-122.31583333333333,37.596111111111114],[-122.33333333333333,37.6]]}
}
