{
  "id": 2048035263,
  "type": "Feature",
  "properties": {
    "geom:area": 0,
    "geom:bbox": "-122.358520,37.443990,-121.243550,37.613970",
    "geom:latitude": 37.53454427293721,
    "geom:longitude": -121.80817874966769,
    "src:alt_label": "swim-approach",
    "src:geom": "swim",
    "swim:elevations": [
      4915,
      4792,
      4280,
      3945,
      3818,
      3345,
      3354,
      3353,
      3173,
      3042,
      2959,
      2679,
      2507,
      2389,
      2133,
      2134,
      2046,
      2027,
      1859,
      1851,
      1764,
      1712,
      1281,
      1194,
      1108,
      929,
      776,
      623,
      469,
      306,
      223,
      114,
      0
    ],
    "swim:geom": "approach",
    "swim:timestamps": [
      1786963677,
      1786963690,
      1786963735,
      1786963766,
      1786963778,
      1786963827,
      1786963838,
      1786963861,
      1786963912,
      1786963937,
      1786963962,
      1786963996,
      1786964020,
      1786964044,
      1786964087,
      1786964116,
      1786964158,
      1786964161,
      1786964187,
      1786964190,
      1786964241,
      1786964250,
      1786964306,
      1786964329,
      1786964346,
      1786964379,
      1786964405,
      1786964440,
      1786964469,
      1786964513,
      1786964535,
      1786964567,
      1786964594
    ],
    "wof:geomhash": "f447afb2e7d3e970d89bdf84f6fb1977",
    "wof:id": 2048035263,
    "wof:repo": "sfomuseum-data-flights-2026-08"
  },
  "bbox": [
    -122.35852,
    37.44399,
    -121.24355,
    37.61397
  ],
  "geometry": {"type":"LineString","coordinates":[[-121.24355,37.59525],[-121.27099,37.59158],[-121.36101,37.58118],[-121.42306,37.57416],[-121.44663,37.57134],[-121.54296,37.55994],[-121.56286,37.55767],[-121.60652,37.55317],[-121.68964,37.56949],[-121.7268,37.57369],[-121.75425,37.55717],[-121.76717,37.52207],[-121.77522,37.49806],[-121.78356,37.47245],[-121.82788,37.4492],[-121.86846,37.44713],[-121.92551,37.4442],[-121.92955,37.44399],[-121.96438,37.44849],[-121.96819,37.44979],[-122.03192,37.47624],[-122.04215,37.48059],[-122.10861,37.5087],[-122.13403,37.51951],[-122.15081,37.52652],[-122.18455,37.54081],[-122.21035,37.55172],[-122.24406,37.56595],[-122.27155,37.57753],[-122.30472,37.59145],[-122.31976,37.59776],[-122.34122,37.60682],[-122.35852,37.61397]]}
}
