{
  "id": 2047993025,
  "type": "Feature",
  "properties": {
    "geom:area": 0,
    "geom:bbox": "-122.665710,37.421010,-122.105320,38.478860",
    "geom:latitude": 37.822808970805994,
    "geom:longitude": -122.43401877367448,
    "src:alt_label": "swim-approach",
    "src:geom": "swim",
    "swim:elevations": [
      7620,
      7590,
      7417,
      7258,
      7045,
      6644,
      6404,
      6222,
      5956,
      5730,
      5494,
      5348,
      5026,
      4966,
      4938,
      4938,
      4606,
      4355,
      4123,
      4035,
      3696,
      3505,
      3353,
      3353,
      3353,
      3353,
      3259,
      3012,
      2654,
      2434,
      2265,
      2133,
      1980,
      1592,
      1480,
      1228,
      1217,
      1219,
      989,
      839,
      682,
      649,
      443,
      409,
      212,
      99,
      60
    ],
    "swim:geom": "approach",
    "swim:timestamps": [
      1786901156,
      1786901165,
      1786901195,
      1786901227,
      1786901269,
      1786901308,
      1786901328,
      1786901347,
      1786901371,
      1786901393,
      1786901416,
      1786901433,
      1786901468,
      1786901517,
      1786901545,
      1786901551,
      1786901597,
      1786901631,
      1786901660,
      1786901672,
      1786901717,
      1786901745,
      1786901786,
      1786901813,
      1786901822,
      1786901861,
      1786901881,
      1786901916,
      1786901964,
      1786901998,
      1786902022,
      1786902041,
      1786902060,
      1786902114,
      1786902128,
      1786902172,
      1786902199,
      1786902211,
      1786902263,
      1786902293,
      1786902327,
      1786902337,
      1786902387,
      1786902392,
      1786902442,
      1786902474,
      1786902487
    ],
    "wof:geomhash": "073438eb2ea28495f7bd90fc1e29d0c1",
    "wof:id": 2047993025,
    "wof:repo": "sfomuseum-data-flights-2026-08"
  },
  "bbox": [
    -122.66571,
    37.42101,
    -122.10532,
    38.47886
  ],
  "geometry": {"type":"LineString","coordinates":[[-122.45044,38.47886],[-122.46358,38.46814],[-122.50915,38.4317],[-122.54192,38.38555],[-122.5611,38.31607],[-122.57791,38.25307],[-122.58692,38.22017],[-122.59493,38.19083],[-122.60568,38.15145],[-122.61518,38.11646],[-122.62476,38.08087],[-122.63197,38.05377],[-122.64683,37.9981],[-122.66571,37.92595],[-122.65844,37.89015],[-122.65409,37.88345],[-122.6105,37.83995],[-122.57659,37.80831],[-122.54858,37.78174],[-122.53713,37.77086],[-122.49408,37.73031],[-122.4676,37.70531],[-122.43025,37.67047],[-122.40576,37.64738],[-122.39791,37.64],[-122.36318,37.60518],[-122.35061,37.58577],[-122.33281,37.54978],[-122.30751,37.5008],[-122.31007,37.46352],[-122.29523,37.44222],[-122.27391,37.43156],[-122.25189,37.42101],[-122.18745,37.43086],[-122.17174,37.44128],[-122.12476,37.47098],[-122.10532,37.49115],[-122.10744,37.50297],[-122.15912,37.52744],[-122.18822,37.54047],[-122.21862,37.55313],[-122.22743,37.55673],[-122.27149,37.57525],[-122.27544,37.57689],[-122.3162,37.59388],[-122.34286,37.60512],[-122.35339,37.6095]]}
}
