{
  "id": 2048040785,
  "type": "Feature",
  "properties": {
    "geom:area": 0,
    "geom:bbox": "-122.397650,37.624970,-121.255370,37.963750",
    "geom:latitude": 37.83173557978616,
    "geom:longitude": -121.84824738826275,
    "src:alt_label": "swim-takeoff",
    "src:geom": "swim",
    "swim:elevations": [
      152,
      315,
      367,
      538,
      1036,
      1147,
      1654,
      1730,
      2183,
      2390,
      2548,
      2762,
      3193,
      3466,
      3736,
      4143,
      4191,
      4528,
      4752,
      4991,
      5480,
      5533,
      5746,
      5786,
      6146,
      6496,
      6523,
      6529
    ],
    "swim:geom": "takeoff",
    "swim:timestamps": [
      1786972812,
      1786972827,
      1786972833,
      1786972867,
      1786972914,
      1786972932,
      1786972977,
      1786972984,
      1786973024,
      1786973042,
      1786973057,
      1786973078,
      1786973119,
      1786973144,
      1786973168,
      1786973212,
      1786973222,
      1786973269,
      1786973289,
      1786973313,
      1786973367,
      1786973371,
      1786973396,
      1786973400,
      1786973441,
      1786973486,
      1786973492,
      1786973495
    ],
    "wof:geomhash": "14a9ac56c25ae7056eb9734b1a2d7276",
    "wof:id": 2048040785,
    "wof:repo": "sfomuseum-data-flights-2026-08"
  },
  "bbox": [
    -122.39765,
    37.62497,
    -121.25537,
    37.96375
  ],
  "geometry": {"type":"LineString","coordinates":[[-122.38436,37.62497],[-122.39536,37.63169],[-122.39765,37.63563],[-122.37995,37.66069],[-122.32082,37.67972],[-122.29709,37.68779],[-122.23179,37.71134],[-122.22107,37.71518],[-122.16478,37.74322],[-122.1394,37.75627],[-122.11846,37.76715],[-122.08842,37.7827],[-122.02711,37.81445],[-121.98595,37.82926],[-121.94247,37.83759],[-121.86265,37.85261],[-121.84445,37.856],[-121.7492,37.87366],[-121.70811,37.88126],[-121.65925,37.89023],[-121.54518,37.91101],[-121.5365,37.91257],[-121.4806,37.92286],[-121.47174,37.92446],[-121.37897,37.9414],[-121.27649,37.95995],[-121.26244,37.96248],[-121.25537,37.96375]]}
}
