{
  "id": 2047899661,
  "type": "Feature",
  "properties": {
    "geom:area": 0,
    "geom:bbox": "-122.544430,36.720110,-121.493990,37.669250",
    "geom:latitude": 37.19201341325195,
    "geom:longitude": -122.12123754023439,
    "src:alt_label": "swim-takeoff",
    "src:geom": "swim",
    "swim:elevations": [
      122,
      339,
      594,
      791,
      1298,
      1510,
      1941,
      2217,
      2880,
      3309,
      3684,
      4148,
      5015,
      5640,
      5707,
      6126,
      6698,
      7198,
      7319,
      8083,
      8441,
      8841,
      8839,
      8839,
      8839,
      8839,
      8839,
      8839,
      8839,
      8839,
      8839
    ],
    "swim:geom": "takeoff",
    "swim:timestamps": [
      1786261075,
      1786261096,
      1786261119,
      1786261145,
      1786261188,
      1786261213,
      1786261243,
      1786261263,
      1786261307,
      1786261336,
      1786261366,
      1786261396,
      1786261446,
      1786261484,
      1786261490,
      1786261519,
      1786261561,
      1786261586,
      1786261592,
      1786261639,
      1786261667,
      1786261702,
      1786261736,
      1786261763,
      1786261774,
      1786261824,
      1786261850,
      1786261883,
      1786261906,
      1786261932,
      1786261974
    ],
    "wof:geomhash": "dd2d8723b2b4fd0d8db4842e1f44b966",
    "wof:id": 2047899661,
    "wof:repo": "sfomuseum-data-flights-2026-08"
  },
  "bbox": [
    -122.54443,
    36.72011,
    -121.49399,
    37.66925
  ],
  "geometry": {"type":"LineString","coordinates":[[-122.38197,37.62156],[-122.39937,37.62895],[-122.41989,37.63812],[-122.44784,37.65038],[-122.50107,37.66925],[-122.53573,37.65711],[-122.54443,37.62038],[-122.532,37.59588],[-122.50148,37.53959],[-122.48016,37.50245],[-122.44754,37.46852],[-122.43227,37.42385],[-122.42036,37.34587],[-122.37297,37.29714],[-122.36412,37.29173],[-122.31574,37.26078],[-122.24415,37.21432],[-122.20037,37.18578],[-122.19021,37.17919],[-122.11237,37.12707],[-122.06695,37.09714],[-122.01039,37.06013],[-121.94851,37.01998],[-121.89856,36.9874],[-121.87868,36.97435],[-121.7871,36.91456],[-121.7389,36.88276],[-121.67536,36.84029],[-121.63079,36.81039],[-121.57714,36.77527],[-121.49399,36.72011]]}
}
