{
  "id": 2047913331,
  "type": "Feature",
  "properties": {
    "geom:area": 0,
    "geom:bbox": "-122.361180,37.457020,-121.257390,37.614630",
    "geom:latitude": 37.531835986153624,
    "geom:longitude": -121.81676988787152,
    "src:alt_label": "swim-approach",
    "src:geom": "swim",
    "swim:elevations": [
      4810,
      4728,
      4481,
      4298,
      4112,
      4077,
      3715,
      3398,
      3360,
      3353,
      3278,
      3006,
      2767,
      2724,
      2358,
      2213,
      2005,
      1828,
      1829,
      1817,
      1729,
      1597,
      1512,
      1387,
      1218,
      1133,
      976,
      905,
      612,
      513,
      397,
      302,
      122,
      94,
      195
    ],
    "swim:geom": "approach",
    "swim:timestamps": [
      1786402217,
      1786402227,
      1786402252,
      1786402277,
      1786402318,
      1786402324,
      1786402357,
      1786402406,
      1786402412,
      1786402465,
      1786402477,
      1786402511,
      1786402545,
      1786402568,
      1786402615,
      1786402639,
      1786402668,
      1786402705,
      1786402730,
      1786402754,
      1786402767,
      1786402781,
      1786402793,
      1786402824,
      1786402854,
      1786402870,
      1786402901,
      1786402923,
      1786402974,
      1786402996,
      1786403021,
      1786403043,
      1786403091,
      1786403097,
      1786403121
    ],
    "wof:geomhash": "913a0a49944b5b7dd6c54160f9a35833",
    "wof:id": 2047913331,
    "wof:repo": "sfomuseum-data-flights-2026-08"
  },
  "bbox": [
    -122.36118,
    37.45702,
    -121.25739,
    37.61463
  ],
  "geometry": {"type":"LineString","coordinates":[[-121.25739,37.5935],[-121.27654,37.59084],[-121.32123,37.58576],[-121.36712,37.58073],[-121.4356,37.57296],[-121.44518,37.57184],[-121.49664,37.56565],[-121.56874,37.55752],[-121.57746,37.55645],[-121.65418,37.54398],[-121.67067,37.53987],[-121.71651,37.52646],[-121.74581,37.49769],[-121.76527,37.47666],[-121.82665,37.46535],[-121.85961,37.46297],[-121.89881,37.46015],[-121.94931,37.45702],[-121.9825,37.45748],[-122.01235,37.46807],[-122.02726,37.47426],[-122.04432,37.48159],[-122.05869,37.48775],[-122.09316,37.50237],[-122.12347,37.51515],[-122.13845,37.52144],[-122.16902,37.53433],[-122.19053,37.54331],[-122.2425,37.56526],[-122.26469,37.5746],[-122.28714,37.58412],[-122.30482,37.59159],[-122.34019,37.6064],[-122.34437,37.60824],[-122.36118,37.61463]]}
}
