{
  "id": 2047915713,
  "type": "Feature",
  "properties": {
    "geom:area": 0,
    "geom:bbox": "-122.588170,36.732780,-122.364530,37.658650",
    "geom:latitude": 37.2449990520256,
    "geom:longitude": -122.5272426110862,
    "src:alt_label": "swim-takeoff",
    "src:geom": "swim",
    "swim:elevations": [
      183,
      404,
      566,
      790,
      1447,
      1561,
      1837,
      2318,
      2530,
      3069,
      3295,
      3417,
      3833,
      4483,
      4667,
      4766,
      5280,
      5652,
      5862,
      6061,
      6413,
      6864,
      7098,
      7296,
      7650,
      7913
    ],
    "swim:geom": "takeoff",
    "swim:timestamps": [
      1786360887,
      1786360906,
      1786360929,
      1786360965,
      1786361032,
      1786361040,
      1786361064,
      1786361116,
      1786361132,
      1786361181,
      1786361206,
      1786361223,
      1786361265,
      1786361324,
      1786361340,
      1786361347,
      1786361389,
      1786361425,
      1786361446,
      1786361467,
      1786361506,
      1786361547,
      1786361570,
      1786361588,
      1786361624,
      1786361652
    ],
    "wof:geomhash": "21df40917c01e799265a58f799b9d1c8",
    "wof:id": 2047915713,
    "wof:repo": "sfomuseum-data-flights-2026-08"
  },
  "bbox": [
    -122.58817,
    36.73278,
    -122.36453,
    37.65865
  ],
  "geometry": {"type":"LineString","coordinates":[[-122.39078,37.62511],[-122.4071,37.63187],[-122.42832,37.64176],[-122.46673,37.65865],[-122.55162,37.65095],[-122.55842,37.64369],[-122.57903,37.62014],[-122.58817,37.55725],[-122.58581,37.53794],[-122.58297,37.47349],[-122.58184,37.44078],[-122.58078,37.41595],[-122.57783,37.35426],[-122.57397,37.26326],[-122.5731,37.23702],[-122.5727,37.22615],[-122.57022,37.15827],[-122.56777,37.09908],[-122.56642,37.06358],[-122.56428,37.0284],[-122.53287,36.96441],[-122.48604,36.89998],[-122.45927,36.86362],[-122.43802,36.83473],[-122.39653,36.77792],[-122.36453,36.73278]]}
}
