{
  "id": 2047958879,
  "type": "Feature",
  "properties": {
    "geom:area": 0,
    "geom:bbox": "-123.338760,37.627080,-122.389920,38.517250",
    "geom:latitude": 38.029302869765665,
    "geom:longitude": -122.898366210945,
    "src:alt_label": "swim-takeoff",
    "src:geom": "swim",
    "swim:elevations": [
      122,
      591,
      641,
      740,
      1012,
      1564,
      2092,
      2336,
      2799,
      3020,
      3282,
      3601,
      4118,
      4335,
      4607,
      4789,
      4967,
      5621,
      5696,
      6134,
      6672,
      6871,
      6967,
      7036,
      7226,
      7495,
      7752,
      7875,
      8266,
      8380
    ],
    "swim:geom": "takeoff",
    "swim:timestamps": [
      1786653663,
      1786653693,
      1786653707,
      1786653739,
      1786653766,
      1786653802,
      1786653836,
      1786653853,
      1786653886,
      1786653901,
      1786653921,
      1786653944,
      1786653983,
      1786654001,
      1786654032,
      1786654062,
      1786654083,
      1786654136,
      1786654143,
      1786654180,
      1786654228,
      1786654248,
      1786654257,
      1786654263,
      1786654281,
      1786654312,
      1786654339,
      1786654354,
      1786654398,
      1786654414
    ],
    "wof:geomhash": "ced25d0586efa6a1e0e865511e5bd5a6",
    "wof:id": 2047958879,
    "wof:repo": "sfomuseum-data-flights-2026-08"
  },
  "bbox": [
    -123.33876,
    37.62708,
    -122.38992,
    38.51725
  ],
  "geometry": {"type":"LineString","coordinates":[[-122.38992,37.62708],[-122.41745,37.63899],[-122.43008,37.64407],[-122.4655,37.65896],[-122.49944,37.67349],[-122.54557,37.69957],[-122.58962,37.72559],[-122.6124,37.73897],[-122.65822,37.76586],[-122.67949,37.77836],[-122.70779,37.79506],[-122.74003,37.81406],[-122.78503,37.85817],[-122.80334,37.87987],[-122.83601,37.91932],[-122.86953,37.95985],[-122.89612,37.99174],[-122.96203,38.07076],[-122.97094,38.08145],[-123.01808,38.13791],[-123.08106,38.21281],[-123.10716,38.24406],[-123.11842,38.25748],[-123.12752,38.26832],[-123.15164,38.29692],[-123.1929,38.34599],[-123.23133,38.39101],[-123.25251,38.41557],[-123.31603,38.49049],[-123.33876,38.51725]]}
}
