{
  "id": 2032129369,
  "type": "Feature",
  "properties": {
    "geom:area": 0,
    "geom:bbox": "-122.351440,36.734660,-121.885480,37.608780",
    "geom:latitude": 37.22680087230601,
    "geom:longitude": -122.0664604722892,
    "src:alt_label": "swim-approach",
    "src:geom": "swim",
    "swim:elevations": [
      5237,
      4836,
      4586,
      4368,
      4064,
      3686,
      3581,
      3139,
      3106,
      2967,
      2746,
      2584,
      2399,
      2255,
      2181,
      1962,
      1826,
      1387,
      1181,
      1094,
      867,
      703,
      690,
      487,
      428,
      261,
      125,
      61
    ],
    "swim:geom": "approach",
    "swim:timestamps": [
      1786036874,
      1786036905,
      1786036932,
      1786036962,
      1786036990,
      1786037030,
      1786037042,
      1786037093,
      1786037102,
      1786037144,
      1786037175,
      1786037198,
      1786037228,
      1786037262,
      1786037280,
      1786037321,
      1786037342,
      1786037403,
      1786037441,
      1786037466,
      1786037508,
      1786037547,
      1786037550,
      1786037603,
      1786037620,
      1786037658,
      1786037698,
      1786037715
    ],
    "wof:geomhash": "495939eaba60ba469f3711e47e595072",
    "wof:id": 2032129369,
    "wof:repo": "sfomuseum-data-flights-2026-08"
  },
  "bbox": [
    -122.35144,
    36.73466,
    -121.88548,
    37.60878
  ],
  "geometry": {"type":"LineString","coordinates":[[-121.88548,36.73466],[-121.90713,36.78865],[-121.92008,36.83504],[-121.93425,36.88469],[-121.94754,36.93247],[-121.97086,36.99666],[-121.97784,37.01479],[-122.00729,37.09084],[-122.01278,37.10476],[-122.03561,37.1636],[-122.05176,37.20487],[-122.06366,37.23491],[-122.07887,37.27381],[-122.09537,37.31539],[-122.1036,37.33635],[-122.10593,37.38199],[-122.09783,37.40575],[-122.08661,37.47185],[-122.11574,37.50568],[-122.14016,37.52027],[-122.18334,37.538],[-122.21859,37.55299],[-122.22112,37.55406],[-122.2648,37.57246],[-122.27788,37.57793],[-122.30821,37.59062],[-122.3392,37.60365],[-122.35144,37.60878]]}
}
