{
  "id": 2047885395,
  "type": "Feature",
  "properties": {
    "geom:area": 0,
    "geom:bbox": "-122.405556,25.776111,-80.327778,38.519444",
    "geom:latitude": 33.619479640682634,
    "geom:longitude": -101.01254314940486,
    "src:alt_label": "swim-path",
    "src:geom": "swim",
    "swim:altitudes": [
      "005",
      "013",
      "020",
      "025",
      "039",
      "059",
      "067",
      "080",
      "086",
      "101",
      "105",
      "119",
      "135",
      "153",
      "169",
      "186",
      "201",
      "213",
      "225",
      "237",
      "241",
      "250",
      "257",
      "261",
      "268",
      "272",
      "281",
      "285",
      "290",
      "295",
      "298",
      "302",
      "305",
      "310",
      "313",
      "316",
      "319",
      "322",
      "325",
      "332",
      "333",
      "339",
      "341",
      "347",
      "348C",
      "350C",
      "350C",
      "350C",
      "350C",
      "350C",
      "350C",
      "350C",
      "350C",
      "350C",
      "350C",
      "350C",
      "350C",
      "350C",
      "350C",
      "350C",
      "350C",
      "350C",
      "350C",
      "350C",
      "350C",
      "350C",
      "350C",
      "350C",
      "350C",
      "350C",
      "350C",
      "350C",
      "350C",
      "350C",
      "350C",
      "350C",
      "350C",
      "350C",
      "350C",
      "350C",
      "350C",
      "350C",
      "350C",
      "350C",
      "350C",
      "350C",
      "350C",
      "350C",
      "350C",
      "350C",
      "350C",
      "350C",
      "350C",
      "350C",
      "350C",
      "350C",
      "350C",
      "350C",
      "350C",
      "350C",
      "350C",
      "350C",
      "350C",
      "350C",
      "350C",
      "350C",
      "350C",
      "350C",
      "350C",
      "350C",
      "350C",
      "350C",
      "350C",
      "350C",
      "350C",
      "350C",
      "350C",
      "350C",
      "350C",
      "350C",
      "350C",
      "350C",
      "350C",
      "350C",
      "350C",
      "350C",
      "350C",
      "350C",
      "350C",
      "350C",
      "350C",
      "350C",
      "350C",
      "350C",
      "350C",
      "350C",
      "350C",
      "350C",
      "350C",
      "350C",
      "350C",
      "350C",
      "350C",
      "350C",
      "350C",
      "350C",
      "350C",
      "350C",
      "350C",
      "350C",
      "350C",
      "350C",
      "350C",
      "350C",
      "350C",
      "350C",
      "350C",
      "350C",
      "350C",
      "350C",
      "350C",
      "350C",
      "350C",
      "350C",
      "350C",
      "350C",
      "350C",
      "350C",
      "350C",
      "350C",
      "350C",
      "350C",
      "350C",
      "350C",
      "350C",
      "350C",
      "350C",
      "350C",
      "350C",
      "350C",
      "350C",
      "350C",
      "350C",
      "350C",
      "350C",
      "350C",
      "350C",
      "350C",
      "350C",
      "350C",
      "350C",
      "350C",
      "350C",
      "350C",
      "350C",
      "350C",
      "350C",
      "350C",
      "350C",
      "350C",
      "350C",
      "350C",
      "350C",
      "350C",
      "350C",
      "350C",
      "350C",
      "350C",
      "350C",
      "350C",
      "350C",
      "350C",
      "350C",
      "350C",
      "350C",
      "350C",
      "350C",
      "350C",
      "350C",
      "350C",
      "350C",
      "350C",
      "350C",
      "350C",
      "350C",
      "350C",
      "350C",
      "350C",
      "350C",
      "350C",
      "350C",
      "350C",
      "350C",
      "350C",
      "350C",
      "350C",
      "350C",
      "350C",
      "350C",
      "350C",
      "350C",
      "350C",
      "350C",
      "350C",
      "350C",
      "350C",
      "350C",
      "350C",
      "350C",
      "350C",
      "350C",
      "350C",
      "350C",
      "350C",
      "350C",
      "350C",
      "350C",
      "350C",
      "350C",
      "350C",
      "350C",
      "350C",
      "350C",
      "350C",
      "350C",
      "350C",
      "350C",
      "350C",
      "350C",
      "350C",
      "350C",
      "350C",
      "350C",
      "350C",
      "350C",
      "350C",
      "350C",
      "350C",
      "350C",
      "350C",
      "350C",
      "350C",
      "350C",
      "350C",
      "350C",
      "350C",
      "350C",
      "350C",
      "350C",
      "350C",
      "350C",
      "350C",
      "350C",
      "350C",
      "350C",
      "350C",
      "350C",
      "350C",
      "350C",
      "350C",
      "350C",
      "350C",
      "350C",
      "350C",
      "350C",
      "350C",
      "350C",
      "350C",
      "350C",
      "350C",
      "350C",
      "350C",
      "350C",
      "350C",
      "350C",
      "350C",
      "350C",
      "350C",
      "350C",
      "350C",
      "350C",
      "350C",
      "350C",
      "350C",
      "350C",
      "350C",
      "350C",
      "350C",
      "350C",
      "350C",
      "350C",
      "350C",
      "350C",
      "350C",
      "350C",
      "350C",
      "350C",
      "350C",
      "350C",
      "350C",
      "350C",
      "350C",
      "350C",
      "350C",
      "350C",
      "350C",
      "350C",
      "350C",
      "350C",
      "350C",
      "350C",
      "350C",
      "350C",
      "350C",
      "350C",
      "350C",
      "350C",
      "350C",
      "350C",
      "350C",
      "350C",
      "350C",
      "350C",
      "350C",
      "350C",
      "350C",
      "350C",
      "350C",
      "350C",
      "350C",
      "350C",
      "350C",
      "350C",
      "350C",
      "350C",
      "350C",
      "350C",
      "350C",
      "350C",
      "350C",
      "350C",
      "350C",
      "350C",
      "350C",
      "350C",
      "350C",
      "350C",
      "350C",
      "350C",
      "350C",
      "350C",
      "350C",
      "350C",
      "350C",
      "350C",
      "350C",
      "350C",
      "350C",
      "350C",
      "350C",
      "350C",
      "350C",
      "350C",
      "350C",
      "350C",
      "350C",
      "350C",
      "350C",
      "350C",
      "350C",
      "350C",
      "350C",
      "350C",
      "350C",
      "350C",
      "350C",
      "350C",
      "350C",
      "350C",
      "350C",
      "350C",
      "350C",
      "350C",
      "350C",
      "350C",
      "350C",
      "350C",
      "350C",
      "350C",
      "350C",
      "350",
      "345",
      "335",
      "329",
      "320",
      "311",
      "302",
      "292",
      "282",
      "272",
      "261",
      "251",
      "241",
      "231",
      "209",
      "191",
      "175",
      "158",
      "142",
      "133",
      "128",
      "118",
      "113",
      "105",
      "100",
      "091",
      "086",
      "080",
      "077",
      "070",
      "067",
      "061",
      "057",
      "052",
      "048",
      "042",
      "040",
      "035",
      "031",
      "025",
      "020",
      "015",
      "011",
      "007",
      "003"
    ],
    "swim:geom": "path",
    "swim:speeds": [
      168,
      174,
      239,
      243,
      272,
      280,
      281,
      289,
      289,
      302,
      302,
      336,
      348,
      351,
      362,
      369,
      381,
      394,
      407,
      412,
      428,
      426,
      434,
      433,
      439,
      442,
      446,
      450,
      448,
      455,
      460,
      462,
      464,
      466,
      466,
      472,
      473,
      480,
      481,
      485,
      483,
      484,
      484,
      483,
      484,
      482,
      483,
      482,
      483,
      481,
      482,
      481,
      482,
      480,
      481,
      479,
      480,
      478,
      479,
      478,
      478,
      478,
      479,
      479,
      480,
      480,
      480,
      480,
      480,
      480,
      479,
      479,
      479,
      478,
      478,
      478,
      479,
      480,
      480,
      481,
      481,
      480,
      479,
      478,
      478,
      478,
      478,
      478,
      478,
      479,
      479,
      479,
      479,
      479,
      479,
      482,
      479,
      481,
      479,
      480,
      479,
      479,
      479,
      478,
      478,
      478,
      478,
      478,
      478,
      478,
      479,
      480,
      480,
      480,
      480,
      479,
      479,
      479,
      479,
      478,
      477,
      477,
      476,
      477,
      477,
      478,
      478,
      479,
      480,
      480,
      481,
      482,
      483,
      483,
      484,
      484,
      483,
      482,
      482,
      481,
      482,
      483,
      482,
      483,
      483,
      483,
      483,
      483,
      484,
      484,
      484,
      484,
      483,
      483,
      482,
      481,
      482,
      480,
      481,
      478,
      480,
      477,
      479,
      476,
      477,
      475,
      476,
      475,
      475,
      476,
      477,
      476,
      477,
      478,
      479,
      479,
      479,
      477,
      476,
      474,
      473,
      471,
      470,
      469,
      469,
      469,
      469,
      466,
      468,
      466,
      467,
      467,
      470,
      469,
      471,
      473,
      474,
      475,
      476,
      477,
      478,
      479,
      480,
      480,
      481,
      481,
      481,
      481,
      481,
      481,
      481,
      480,
      479,
      479,
      478,
      478,
      477,
      477,
      477,
      477,
      476,
      476,
      476,
      476,
      476,
      476,
      476,
      476,
      476,
      476,
      476,
      476,
      476,
      475,
      475,
      474,
      474,
      473,
      472,
      471,
      470,
      470,
      468,
      467,
      466,
      465,
      465,
      465,
      465,
      465,
      465,
      465,
      465,
      466,
      467,
      467,
      468,
      468,
      466,
      465,
      463,
      461,
      459,
      455,
      459,
      458,
      463,
      457,
      455,
      451,
      451,
      453,
      450,
      448,
      447,
      446,
      446,
      447,
      448,
      448,
      449,
      449,
      449,
      450,
      450,
      451,
      451,
      451,
      450,
      450,
      449,
      449,
      448,
      448,
      447,
      446,
      445,
      445,
      445,
      445,
      446,
      447,
      447,
      448,
      450,
      451,
      452,
      452,
      452,
      451,
      451,
      450,
      452,
      450,
      452,
      450,
      452,
      450,
      452,
      451,
      453,
      452,
      454,
      452,
      453,
      452,
      453,
      452,
      452,
      452,
      453,
      452,
      453,
      454,
      452,
      455,
      452,
      456,
      456,
      453,
      456,
      454,
      456,
      455,
      456,
      456,
      457,
      457,
      457,
      457,
      457,
      457,
      456,
      456,
      455,
      455,
      454,
      454,
      453,
      454,
      454,
      454,
      454,
      454,
      453,
      453,
      452,
      453,
      451,
      452,
      451,
      451,
      450,
      451,
      449,
      447,
      449,
      446,
      448,
      448,
      447,
      448,
      447,
      448,
      448,
      447,
      447,
      448,
      447,
      448,
      447,
      447,
      447,
      446,
      446,
      446,
      446,
      446,
      446,
      445,
      445,
      445,
      445,
      445,
      445,
      445,
      445,
      445,
      445,
      445,
      445,
      445,
      445,
      445,
      445,
      444,
      444,
      444,
      444,
      443,
      443,
      443,
      442,
      442,
      442,
      442,
      441,
      439,
      440,
      438,
      440,
      435,
      427,
      428,
      439,
      451,
      453,
      454,
      454,
      448,
      447,
      431,
      422,
      420,
      406,
      400,
      391,
      384,
      365,
      350,
      347,
      334,
      328,
      308,
      305,
      291,
      290,
      270,
      254,
      243,
      246,
      238,
      239,
      233,
      235,
      228,
      230,
      222,
      224,
      219,
      202,
      180,
      162,
      151,
      154
    ],
    "swim:timestamps": [
      1786200277,
      1786200304,
      1786200337,
      1786200364,
      1786200397,
      1786200458,
      1786200484,
      1786200517,
      1786200544,
      1786200583,
      1786200604,
      1786200664,
      1786200725,
      1786200785,
      1786200845,
      1786200905,
      1786200965,
      1786201025,
      1786201085,
      1786201145,
      1786201165,
      1786201225,
      1786201265,
      1786201285,
      1786201325,
      1786201345,
      1786201405,
      1786201445,
      1786201465,
      1786201505,
      1786201525,
      1786201565,
      1786201585,
      1786201626,
      1786201645,
      1786201686,
      1786201706,
      1786201746,
      1786201766,
      1786201806,
      1786201826,
      1786201866,
      1786201886,
      1786201926,
      1786201946,
      1786201986,
      1786202006,
      1786202046,
      1786202066,
      1786202106,
      1786202126,
      1786202166,
      1786202186,
      1786202226,
      1786202246,
      1786202286,
      1786202306,
      1786202346,
      1786202366,
      1786202406,
      1786202427,
      1786202467,
      1786202487,
      1786202527,
      1786202547,
      1786202587,
      1786202607,
      1786202647,
      1786202667,
      1786202707,
      1786202727,
      1786202767,
      1786202787,
      1786202827,
      1786202847,
      1786202887,
      1786202907,
      1786202967,
      1786203027,
      1786203087,
      1786203147,
      1786203208,
      1786203328,
      1786203388,
      1786203448,
      1786203508,
      1786203568,
      1786203628,
      1786203688,
      1786203748,
      1786203808,
      1786203868,
      1786203928,
      1786203989,
      1786204049,
      1786204061,
      1786204109,
      1786204121,
      1786204169,
      1786204182,
      1786204229,
      1786204242,
      1786204302,
      1786204349,
      1786204362,
      1786204409,
      1786204422,
      1786204469,
      1786204482,
      1786204529,
      1786204542,
      1786204589,
      1786204602,
      1786204649,
      1786204662,
      1786204710,
      1786204722,
      1786204770,
      1786204782,
      1786204842,
      1786204890,
      1786204903,
      1786204950,
      1786204963,
      1786205010,
      1786205023,
      1786205070,
      1786205083,
      1786205130,
      1786205143,
      1786205190,
      1786205203,
      1786205250,
      1786205263,
      1786205323,
      1786205383,
      1786205443,
      1786205503,
      1786205563,
      1786205623,
      1786205684,
      1786205706,
      1786205744,
      1786205767,
      1786205804,
      1786205827,
      1786205864,
      1786205887,
      1786205924,
      1786205947,
      1786205984,
      1786206007,
      1786206044,
      1786206067,
      1786206127,
      1786206164,
      1786206187,
      1786206224,
      1786206247,
      1786206284,
      1786206307,
      1786206344,
      1786206367,
      1786206405,
      1786206428,
      1786206465,
      1786206488,
      1786206525,
      1786206585,
      1786206645,
      1786206668,
      1786206705,
      1786206728,
      1786206788,
      1786206848,
      1786206908,
      1786206968,
      1786207029,
      1786207089,
      1786207149,
      1786207209,
      1786207269,
      1786207329,
      1786207389,
      1786207449,
      1786207481,
      1786207509,
      1786207541,
      1786207569,
      1786207601,
      1786207661,
      1786207722,
      1786207750,
      1786207782,
      1786207810,
      1786207842,
      1786207870,
      1786207902,
      1786207930,
      1786207962,
      1786207990,
      1786208022,
      1786208050,
      1786208082,
      1786208110,
      1786208142,
      1786208170,
      1786208202,
      1786208230,
      1786208262,
      1786208290,
      1786208322,
      1786208351,
      1786208382,
      1786208411,
      1786208443,
      1786208471,
      1786208503,
      1786208531,
      1786208563,
      1786208591,
      1786208623,
      1786208651,
      1786208683,
      1786208711,
      1786208743,
      1786208771,
      1786208803,
      1786208831,
      1786208863,
      1786208891,
      1786208923,
      1786208951,
      1786208983,
      1786209012,
      1786209043,
      1786209072,
      1786209103,
      1786209132,
      1786209164,
      1786209192,
      1786209224,
      1786209284,
      1786209344,
      1786209404,
      1786209464,
      1786209524,
      1786209584,
      1786209644,
      1786209704,
      1786209764,
      1786209824,
      1786209885,
      1786209945,
      1786210005,
      1786210065,
      1786210125,
      1786210185,
      1786210245,
      1786210305,
      1786210365,
      1786210425,
      1786210485,
      1786210539,
      1786210545,
      1786210606,
      1786210660,
      1786210726,
      1786210780,
      1786210840,
      1786210900,
      1786210966,
      1786211026,
      1786211080,
      1786211146,
      1786211206,
      1786211266,
      1786211327,
      1786211387,
      1786211441,
      1786211507,
      1786211567,
      1786211621,
      1786211687,
      1786211747,
      1786211807,
      1786211861,
      1786211867,
      1786211921,
      1786211981,
      1786212041,
      1786212048,
      1786212108,
      1786212168,
      1786212228,
      1786212282,
      1786212348,
      1786212402,
      1786212408,
      1786212468,
      1786212522,
      1786212582,
      1786212588,
      1786212642,
      1786212702,
      1786212762,
      1786212823,
      1786212883,
      1786212943,
      1786213003,
      1786213053,
      1786213063,
      1786213113,
      1786213123,
      1786213173,
      1786213183,
      1786213233,
      1786213243,
      1786213294,
      1786213303,
      1786213363,
      1786213414,
      1786213423,
      1786213474,
      1786213484,
      1786213534,
      1786213544,
      1786213594,
      1786213604,
      1786213654,
      1786213664,
      1786213714,
      1786213724,
      1786213784,
      1786213834,
      1786213844,
      1786213894,
      1786213904,
      1786213964,
      1786214015,
      1786214024,
      1786214075,
      1786214084,
      1786214135,
      1786214144,
      1786214195,
      1786214205,
      1786214255,
      1786214315,
      1786214325,
      1786214375,
      1786214385,
      1786214435,
      1786214445,
      1786214495,
      1786214505,
      1786214555,
      1786214565,
      1786214625,
      1786214675,
      1786214685,
      1786214735,
      1786214745,
      1786214796,
      1786214856,
      1786214866,
      1786214916,
      1786214926,
      1786214976,
      1786214986,
      1786215036,
      1786215046,
      1786215096,
      1786215106,
      1786215156,
      1786215216,
      1786215226,
      1786215276,
      1786215286,
      1786215304,
      1786215336,
      1786215364,
      1786215396,
      1786215406,
      1786215424,
      1786215457,
      1786215466,
      1786215485,
      1786215517,
      1786215545,
      1786215577,
      1786215637,
      1786215665,
      1786215697,
      1786215725,
      1786215757,
      1786215785,
      1786215817,
      1786215845,
      1786215877,
      1786215905,
      1786215937,
      1786215965,
      1786215997,
      1786216025,
      1786216057,
      1786216085,
      1786216117,
      1786216146,
      1786216177,
      1786216206,
      1786216238,
      1786216266,
      1786216298,
      1786216326,
      1786216358,
      1786216386,
      1786216418,
      1786216446,
      1786216478,
      1786216506,
      1786216538,
      1786216566,
      1786216598,
      1786216658,
      1786216686,
      1786216718,
      1786216747,
      1786216778,
      1786216807,
      1786216838,
      1786216867,
      1786216927,
      1786216987,
      1786217047,
      1786217107,
      1786217167,
      1786217227,
      1786217287,
      1786217347,
      1786217408,
      1786217468,
      1786217528,
      1786217588,
      1786217648,
      1786217708,
      1786217768,
      1786217828,
      1786217888,
      1786217920,
      1786217948,
      1786217980,
      1786218008,
      1786218040,
      1786218069,
      1786218101,
      1786218129,
      1786218161,
      1786218189,
      1786218221,
      1786218249,
      1786218281,
      1786218309,
      1786218342,
      1786218369,
      1786218402,
      1786218429,
      1786218462,
      1786218489,
      1786218516,
      1786218549,
      1786218577,
      1786218609,
      1786218637,
      1786218670
    ],
    "wof:geomhash": "b2021a1f90427bf0221e4e81f09b2aca",
    "wof:id": 2047885395,
    "wof:repo": "sfomuseum-data-flights-2026-08"
  },
  "bbox": [
    -122.40555555555557,
    25.77611111111111,
    -80.32777777777777,
    38.519444444444446
  ],
  "geometry": {"type":"LineString","coordinates":[[-122.38333333333334,37.63333333333333],[-122.40555555555557,37.63611111111111],[-122.38333333333334,37.666666666666664],[-122.35194444444444,37.672777777777775],[-122.3,37.7],[-122.2,37.71666666666667],[-122.17555555555556,37.73777777777778],[-122.11666666666666,37.766666666666666],[-122.09083333333332,37.78138888888889],[-122.01666666666667,37.81666666666667],[-122.00111111111111,37.825],[-121.8875,37.84777777777778],[-121.76888888888888,37.86944444444445],[-121.65027777777779,37.891666666666666],[-121.52722222222222,37.91416666666667],[-121.40027777777779,37.9375],[-121.27,37.961111111111116],[-121.1363888888889,37.985],[-120.99527777777777,38.00805555555556],[-120.85444444444444,38.02916666666667],[-120.79388888888889,38.03611111111111],[-120.6463888888889,38.05916666666666],[-120.55722222222222,38.07472222222223],[-120.49555555555555,38.083333333333336],[-120.405,38.09777777777778],[-120.34222222222222,38.105555555555554],[-120.18722222222223,38.12888888888889],[-120.095,38.14388888888889],[-120.03083333333333,38.152499999999996],[-119.935,38.16722222222222],[-119.87027777777777,38.174166666666665],[-119.77638888888889,38.19027777777777],[-119.70944444444444,38.19833333333333],[-119.61194444444443,38.21361111111111],[-119.5475,38.22166666666667],[-119.44972222222222,38.236666666666665],[-119.38166666666666,38.245],[-119.28194444444445,38.26],[-119.21388888888889,38.26833333333333],[-119.07833333333333,38.28861111111111],[-119.04583333333333,38.2925],[-118.91000000000001,38.31166666666666],[-118.87777777777777,38.31472222222222],[-118.74527777777777,38.33388888888889],[-118.70972222222223,38.33777777777778],[-118.57805555555555,38.35638888888889],[-118.54805555555555,38.36027777777778],[-118.41000000000001,38.37833333333333],[-118.37916666666666,38.3825],[-118.24305555555556,38.400277777777774],[-118.20694444444445,38.405],[-118.07777777777777,38.42166666666667],[-118.03805555555556,38.42666666666666],[-117.9363888888889,38.439722222222215],[-117.87305555555555,38.44777777777777],[-117.76916666666666,38.46083333333333],[-117.70277777777778,38.469166666666666],[-117.60083333333333,38.481944444444444],[-117.5375,38.48972222222222],[-117.43083333333334,38.503055555555555],[-117.36638888888888,38.51083333333333],[-117.26166666666667,38.519444444444446],[-117.19527777777778,38.51777777777777],[-117.08972222222222,38.514722222222225],[-117.02277777777778,38.51277777777778],[-116.91611111111112,38.50972222222222],[-116.84944444444444,38.5075],[-116.74583333333334,38.50416666666667],[-116.67833333333334,38.50194444444445],[-116.5736111111111,38.49805555555556],[-116.50916666666667,38.49583333333334],[-116.40583333333333,38.492222222222225],[-116.33805555555556,38.48972222222222],[-116.23472222222222,38.486111111111114],[-116.17,38.48361111111111],[-116.06666666666666,38.47972222222222],[-116,38.477222222222224],[-115.82972222222222,38.470555555555556],[-115.6575,38.463055555555556],[-115.4888888888889,38.45583333333334],[-115.31638888888888,38.44833333333333],[-115.16777777777779,38.44166666666666],[-114.82916666666667,38.42527777777777],[-114.6613888888889,38.41694444444444],[-114.49388888888889,38.40833333333333],[-114.32388888888889,38.39611111111111],[-114.16111111111111,38.35944444444445],[-113.99861111111112,38.32138888888889],[-113.83805555555556,38.28333333333333],[-113.6738888888889,38.24388888888889],[-113.51416666666667,38.20527777777778],[-113.35222222222221,38.16611111111111],[-113.18833333333333,38.12638888888889],[-113.02833333333334,38.08694444444445],[-112.86444444444444,38.046388888888885],[-112.83472222222221,38.03916666666667],[-112.7038888888889,38.006388888888885],[-112.67166666666667,37.998333333333335],[-112.54055555555556,37.96555555555556],[-112.50944444444444,37.95777777777778],[-112.37944444444443,37.925],[-112.34777777777778,37.91694444444444],[-112.18611111111112,37.87583333333333],[-112.05888888888889,37.843333333333334],[-112.02722222222222,37.835],[-111.89666666666668,37.80472222222222],[-111.86694444444444,37.79805555555556],[-111.735,37.76833333333333],[-111.70361111111112,37.76111111111111],[-111.57416666666666,37.731388888888894],[-111.54333333333334,37.72416666666667],[-111.41277777777778,37.693888888888885],[-111.38083333333333,37.68666666666666],[-111.25027777777778,37.65611111111111],[-111.21888888888888,37.64888888888889],[-111.08999999999999,37.618611111111115],[-111.05805555555555,37.611111111111114],[-110.92888888888889,37.580555555555556],[-110.89805555555556,37.57333333333334],[-110.74027777777778,37.53611111111111],[-110.61027777777777,37.505],[-110.57805555555555,37.49722222222222],[-110.45083333333334,37.46666666666667],[-110.415,37.45805555555556],[-110.29138888888889,37.42805555555555],[-110.2538888888889,37.41916666666666],[-110.13138888888888,37.38916666666667],[-110.0936111111111,37.38],[-109.97111111111111,37.35],[-109.93472222222222,37.340833333333336],[-109.81027777777777,37.31027777777778],[-109.77277777777778,37.30083333333333],[-109.64888888888889,37.269999999999996],[-109.61055555555555,37.260555555555555],[-109.44805555555556,37.22],[-109.28833333333333,37.18],[-109.1286111111111,37.13944444444444],[-108.96888888888888,37.09861111111111],[-108.81055555555555,37.058055555555555],[-108.64944444444446,37.01638888888889],[-108.48972222222223,36.975],[-108.42472222222223,36.95777777777778],[-108.32944444444443,36.933055555555555],[-108.26944444444445,36.91722222222222],[-108.16833333333334,36.89055555555556],[-108.10805555555555,36.874722222222225],[-108.00861111111111,36.84805555555556],[-107.94722222222222,36.831944444444446],[-107.84916666666666,36.80555555555555],[-107.78805555555556,36.78944444444444],[-107.69083333333333,36.76305555555555],[-107.62777777777777,36.74611111111111],[-107.53222222222222,36.72027777777778],[-107.46888888888888,36.70333333333333],[-107.31222222222222,36.66083333333333],[-107.21777777777778,36.63472222222222],[-107.1538888888889,36.617222222222225],[-107.06166666666667,36.591944444444444],[-106.99833333333333,36.574444444444445],[-106.90472222222223,36.54861111111111],[-106.84166666666667,36.53111111111111],[-106.74916666666667,36.50555555555555],[-106.6875,36.48833333333334],[-106.595,36.46222222222222],[-106.53222222222222,36.44472222222222],[-106.4375,36.41777777777777],[-106.3888888888889,36.40416666666667],[-106.27888888888889,36.37305555555555],[-106.13166666666666,36.33111111111111],[-105.97583333333334,36.28666666666666],[-105.91361111111112,36.27166666666667],[-105.81388888888888,36.24916666666667],[-105.76472222222222,36.23777777777778],[-105.6036111111111,36.20111111111111],[-105.45472222222223,36.16694444444444],[-105.2975,36.13055555555555],[-105.13833333333334,36.09388888888889],[-104.98444444444445,36.05777777777777],[-104.8275,36.020833333333336],[-104.66944444444445,35.98361111111111],[-104.51583333333333,35.946666666666665],[-104.36138888888888,35.90972222222222],[-104.20583333333333,35.871944444444445],[-104.05222222222221,35.834722222222226],[-103.89694444444446,35.79694444444444],[-103.82166666666666,35.77833333333333],[-103.7475,35.75361111111111],[-103.67361111111111,35.730555555555554],[-103.59722222222221,35.70638888888889],[-103.52527777777777,35.68277777777777],[-103.37638888888888,35.63583333333333],[-103.22694444444444,35.58694444444445],[-103.14555555555556,35.5625],[-103.07833333333333,35.54111111111111],[-102.99722222222222,35.515],[-102.92611111111111,35.49194444444444],[-102.84388888888888,35.46527777777778],[-102.77527777777777,35.44305555555555],[-102.69388888888889,35.41638888888889],[-102.625,35.39388888888889],[-102.53138888888888,35.36333333333334],[-102.47333333333333,35.34444444444445],[-102.38027777777778,35.31388888888888],[-102.32111111111111,35.29416666666666],[-102.22888888888889,35.263888888888886],[-102.16972222222223,35.24444444444445],[-102.07888888888888,35.21416666666667],[-101.98972222222223,35.18444444444444],[-101.93333333333334,35.16555555555556],[-101.83999999999999,35.134166666666665],[-101.78527777777778,35.115833333333335],[-101.69444444444444,35.08527777777778],[-101.62138888888889,35.06055555555555],[-101.54666666666667,35.035555555555554],[-101.50194444444445,35.02055555555555],[-101.40027777777779,34.98583333333333],[-101.32555555555555,34.96027777777778],[-101.25361111111111,34.93583333333333],[-101.19083333333333,34.91416666666667],[-101.10527777777777,34.88472222222222],[-101.0436111111111,34.86361111111111],[-100.95722222222223,34.83388888888889],[-100.89472222222223,34.8125],[-100.80916666666667,34.782777777777774],[-100.74888888888889,34.761944444444445],[-100.66055555555556,34.731388888888894],[-100.60027777777778,34.71027777777778],[-100.51333333333334,34.67972222222222],[-100.45305555555557,34.65861111111111],[-100.36638888888888,34.628055555555555],[-100.30527777777777,34.60638888888889],[-100.22916666666667,34.57972222222222],[-100.15833333333335,34.55472222222222],[-100.08555555555554,34.526944444444446],[-100,34.48638888888889],[-99.9363888888889,34.456944444444446],[-99.86138888888888,34.42166666666667],[-99.79833333333333,34.39194444444444],[-99.72527777777778,34.3575],[-99.66055555555556,34.32694444444445],[-99.58638888888889,34.29194444444444],[-99.52305555555556,34.261944444444445],[-99.38805555555557,34.1975],[-99.25222222222222,34.132777777777775],[-99.11611111111111,34.0675],[-98.97055555555556,33.99777777777778],[-98.83611111111111,33.93277777777777],[-98.70166666666667,33.8675],[-98.56777777777778,33.80277777777778],[-98.43277777777779,33.736666666666665],[-98.29972222222221,33.671388888888885],[-98.165,33.60527777777778],[-98.03361111111111,33.540277777777774],[-97.89833333333334,33.473333333333336],[-97.76611111111112,33.4075],[-97.63166666666666,33.34055555555556],[-97.49722222222222,33.27305555555555],[-97.36388888888888,33.20611111111111],[-97.25722222222223,33.15222222222222],[-97.12444444444444,33.085],[-96.99083333333333,33.01722222222222],[-96.86027777777777,32.95055555555556],[-96.72972222222222,32.88388888888889],[-96.60777777777777,32.819722222222225],[-96.59944444444444,32.816944444444445],[-96.47027777777778,32.750277777777775],[-96.34472222222222,32.684999999999995],[-96.21472222222222,32.61805555555556],[-96.08388888888888,32.55027777777777],[-95.95861111111111,32.48305555555556],[-95.82833333333333,32.41583333333333],[-95.70777777777778,32.3525],[-95.58194444444445,32.28611111111111],[-95.45222222222222,32.2175],[-95.32694444444444,32.15083333333333],[-95.20166666666667,32.08416666666667],[-95.07777777777777,32.01777777777777],[-94.95333333333333,31.95111111111111],[-94.82972222222222,31.884444444444444],[-94.73055555555555,31.834444444444443],[-94.57138888888889,31.76388888888889],[-94.43916666666667,31.70583333333333],[-94.33638888888889,31.660833333333333],[-94.17583333333334,31.590833333333332],[-94.045,31.533611111111114],[-93.91222222222223,31.475277777777777],[-93.81055555555555,31.430555555555557],[-93.78277777777778,31.418333333333333],[-93.68166666666667,31.374444444444446],[-93.53805555555556,31.311666666666667],[-93.40916666666668,31.25583333333333],[-93.40916666666668,31.25583333333333],[-93.2825,31.20138888888889],[-93.15111111111112,31.14527777777778],[-93.0261111111111,31.088055555555556],[-92.905,31.015],[-92.7713888888889,30.929722222222225],[-92.67916666666667,30.870555555555555],[-92.65722222222223,30.85666666666667],[-92.54222222222222,30.783333333333335],[-92.44888888888889,30.723611111111108],[-92.33416666666666,30.65],[-92.31361111111111,30.636666666666667],[-92.21722222222222,30.57472222222222],[-92.10027777777778,30.499166666666667],[-91.98583333333333,30.425],[-91.86861111111111,30.34861111111111],[-91.75333333333333,30.27361111111111],[-91.6363888888889,30.197222222222223],[-91.52277777777778,30.122777777777777],[-91.41250000000001,30.051111111111112],[-91.40333333333334,30.05388888888889],[-91.28888888888889,29.98638888888889],[-91.27888888888889,29.991666666666667],[-91.15722222222223,29.940555555555555],[-91.14722222222223,29.943333333333335],[-91.025,29.891111111111112],[-91.01416666666667,29.89361111111111],[-90.89250000000001,29.843333333333334],[-90.88222222222221,29.843333333333334],[-90.74888888888889,29.793055555555558],[-90.6261111111111,29.741944444444446],[-90.61583333333333,29.74277777777778],[-90.49333333333334,29.691944444444445],[-90.48361111111112,29.692222222222224],[-90.36277777777777,29.643055555555556],[-90.35222222222221,29.641944444444444],[-90.23027777777779,29.592777777777776],[-90.22027777777778,29.591388888888886],[-90.09833333333333,29.54277777777778],[-90.09083333333332,29.541666666666668],[-89.96722222222222,29.491666666666667],[-89.93222222222222,29.480277777777776],[-89.79944444444445,29.42888888888889],[-89.70277777777778,29.389166666666664],[-89.66833333333334,29.3775],[-89.57277777777777,29.339444444444442],[-89.5363888888889,29.32611111111111],[-89.40416666666667,29.274166666666666],[-89.30833333333334,29.235555555555557],[-89.2725,29.222499999999997],[-89.1763888888889,29.18305555555556],[-89.14027777777778,29.17027777777778],[-89.04666666666667,29.133055555555558],[-89.0075,29.1175],[-88.91305555555556,29.08],[-88.87555555555555,29.065],[-88.78166666666667,29.0275],[-88.65027777777779,28.974999999999998],[-88.6125,28.959722222222222],[-88.51805555555555,28.921944444444446],[-88.48194444444445,28.90722222222222],[-88.3875,28.86916666666667],[-88.34944444444444,28.85388888888889],[-88.25916666666667,28.81722222222222],[-88.21944444444445,28.80138888888889],[-88.12916666666666,28.764722222222222],[-88.08916666666666,28.748333333333335],[-87.97333333333333,28.70111111111111],[-87.86833333333333,28.65833333333333],[-87.84277777777777,28.647777777777776],[-87.73944444444444,28.605555555555558],[-87.71444444444445,28.595277777777778],[-87.60888888888888,28.551666666666666],[-87.48083333333334,28.49888888888889],[-87.45277777777778,28.487222222222222],[-87.35222222222221,28.445833333333333],[-87.32666666666667,28.435],[-87.22305555555556,28.392222222222223],[-87.2,28.3825],[-87.09583333333333,28.33888888888889],[-87.06944444444444,28.328055555555554],[-86.94250000000001,28.275],[-86.94333333333334,28.275277777777777],[-86.815,28.22138888888889],[-86.69027777777778,28.16888888888889],[-86.68916666666667,28.168333333333333],[-86.56166666666667,28.12],[-86.55944444444444,28.119444444444444],[-86.51138888888889,28.1075],[-86.4263888888889,28.085555555555555],[-86.36972222222222,28.07111111111111],[-86.29083333333332,28.050833333333333],[-86.29194444444444,28.051111111111112],[-86.24138888888889,28.03805555555556],[-86.15722222222223,28.01638888888889],[-86.15722222222223,28.01638888888889],[-86.1061111111111,28.003333333333334],[-86.02222222222223,27.981388888888887],[-85.97111111111111,27.968055555555555],[-85.88833333333334,27.94638888888889],[-85.75472222222223,27.911666666666665],[-85.70472222222223,27.898333333333333],[-85.62222222222222,27.87666666666667],[-85.57027777777778,27.86277777777778],[-85.48666666666666,27.840833333333332],[-85.43694444444445,27.82777777777778],[-85.35499999999999,27.80388888888889],[-85.30749999999999,27.781944444444445],[-85.2325,27.743333333333336],[-85.18694444444445,27.71972222222222],[-85.11333333333333,27.68166666666667],[-85.05333333333333,27.650555555555552],[-84.99305555555556,27.619444444444444],[-84.93305555555555,27.58833333333333],[-84.885,27.563333333333333],[-84.81194444444444,27.525],[-84.76388888888889,27.5],[-84.69361111111111,27.46333333333333],[-84.64444444444445,27.43777777777778],[-84.57277777777777,27.4],[-84.525,27.375],[-84.4525,27.336944444444445],[-84.4038888888889,27.31138888888889],[-84.33333333333333,27.274166666666666],[-84.285,27.24888888888889],[-84.21416666666667,27.211666666666666],[-84.16833333333334,27.18722222222222],[-84.09666666666666,27.149166666666666],[-84.04944444444445,27.124166666666667],[-83.97916666666667,27.086944444444445],[-83.93055555555556,27.060555555555556],[-83.86138888888888,27.024166666666666],[-83.81305555555555,26.997222222222224],[-83.69583333333334,26.935277777777777],[-83.62583333333333,26.898333333333333],[-83.5786111111111,26.873333333333335],[-83.50805555555556,26.835277777777776],[-83.46333333333334,26.810833333333335],[-83.39361111111111,26.77361111111111],[-83.34722222222221,26.748055555555556],[-83.2786111111111,26.711666666666666],[-83.165,26.65],[-83.05111111111111,26.58833333333333],[-82.93666666666667,26.52638888888889],[-82.81611111111111,26.460555555555555],[-82.69611111111111,26.39472222222222],[-82.5775,26.329444444444444],[-82.45666666666666,26.26361111111111],[-82.33972222222222,26.199166666666667],[-82.22222222222223,26.134444444444444],[-82.10833333333333,26.07138888888889],[-81.99638888888889,26.009166666666665],[-81.88833333333334,25.949166666666667],[-81.77638888888889,25.895555555555553],[-81.65416666666667,25.89527777777778],[-81.53305555555555,25.898888888888887],[-81.41694444444445,25.902777777777775],[-81.30333333333333,25.906388888888888],[-81.23472222222222,25.90694444444444],[-81.19472222222223,25.909444444444443],[-81.13083333333333,25.91],[-81.0936111111111,25.911388888888887],[-81.03111111111112,25.910555555555554],[-80.99888888888889,25.91222222222222],[-80.94444444444444,25.8975],[-80.91277777777778,25.888333333333332],[-80.86361111111111,25.871666666666666],[-80.83583333333333,25.863611111111112],[-80.79222222222222,25.849166666666665],[-80.76555555555555,25.840555555555554],[-80.72305555555556,25.824444444444445],[-80.69694444444445,25.8175],[-80.65416666666667,25.80388888888889],[-80.62944444444443,25.79527777777778],[-80.58777777777777,25.780833333333334],[-80.56277777777777,25.77611111111111],[-80.52027777777778,25.776944444444442],[-80.49305555555556,25.77861111111111],[-80.45777777777778,25.778888888888886],[-80.42750000000001,25.781388888888888],[-80.40027777777779,25.7825],[-80.37416666666665,25.783333333333335],[-80.35194444444444,25.783611111111114],[-80.32777777777777,25.785555555555558]]}
}
