{
  "id": 2032077433,
  "type": "Feature",
  "properties": {
    "geom:area": 0,
    "geom:bbox": "-122.559167,32.611944,-117.046389,37.658056",
    "geom:latitude": 34.99793061172297,
    "geom:longitude": -120.1528783364416,
    "src:alt_label": "swim-path",
    "src:geom": "swim",
    "swim:altitudes": [
      "005",
      "010",
      "050",
      "072",
      "095",
      "112",
      "134",
      "155",
      "176",
      "196",
      "212",
      "228",
      "229",
      "244",
      "258",
      "271",
      "272",
      "285",
      "297",
      "306",
      "306",
      "315",
      "325",
      "337",
      "337",
      "348C",
      "350C",
      "350C",
      "350C",
      "350C",
      "350C",
      "350C",
      "350C",
      "350C",
      "350C",
      "350C",
      "350C",
      "350C",
      "350C",
      "350C",
      "350C",
      "350C",
      "350C",
      "350C",
      "350C",
      "350C",
      "350C",
      "350C",
      "350C",
      "350C",
      "350C",
      "350C",
      "350C",
      "350C",
      "350C",
      "350C",
      "350C"
    ],
    "swim:geom": "path",
    "swim:speeds": [
      185,
      182,
      253,
      283,
      300,
      330,
      352,
      361,
      369,
      381,
      394,
      407,
      409,
      417,
      431,
      433,
      433,
      441,
      448,
      454,
      454,
      461,
      468,
      467,
      467,
      466,
      466,
      465,
      465,
      464,
      463,
      463,
      462,
      463,
      463,
      464,
      464,
      464,
      463,
      462,
      461,
      461,
      461,
      462,
      462,
      462,
      461,
      461,
      462,
      463,
      463,
      462,
      462,
      461,
      461,
      459,
      458
    ],
    "swim:timestamps": [
      1785686140,
      1785686157,
      1785686277,
      1785686337,
      1785686397,
      1785686458,
      1785686511,
      1785686578,
      1785686638,
      1785686698,
      1785686752,
      1785686812,
      1785686818,
      1785686872,
      1785686938,
      1785686992,
      1785686998,
      1785687052,
      1785687118,
      1785687172,
      1785687179,
      1785687232,
      1785687299,
      1785687352,
      1785687359,
      1785687419,
      1785687473,
      1785687539,
      1785687593,
      1785687653,
      1785687719,
      1785687779,
      1785687833,
      1785687893,
      1785687900,
      1785687960,
      1785688020,
      1785688080,
      1785688134,
      1785688194,
      1785688254,
      1785688260,
      1785688314,
      1785688434,
      1785688614,
      1785688674,
      1785688795,
      1785688855,
      1785688915,
      1785689035,
      1785689155,
      1785689335,
      1785689395,
      1785689456,
      1785689516,
      1785689636,
      1785689696
    ],
    "wof:geomhash": "0fda8c3780a9799339f01232226cf334",
    "wof:id": 2032077433,
    "wof:repo": "sfomuseum-data-flights-2026-08"
  },
  "bbox": [
    -122.55916666666667,
    32.61194444444445,
    -117.04638888888888,
    37.658055555555556
  ],
  "geometry": {"coordinates":[[-122.38333333333334,37.63333333333333],[-122.39972222222222,37.62916666666667],[-122.53194444444445,37.658055555555556],[-122.54055555555556,37.58222222222223],[-122.54333333333334,37.50055555555556],[-122.54777777777778,37.41222222222222],[-122.55166666666666,37.323888888888895],[-122.55527777777777,37.21527777777778],[-122.55916666666667,37.112500000000004],[-122.55722222222222,37.00555555555555],[-122.49805555555555,36.916666666666664],[-122.42666666666668,36.81861111111112],[-122.4213888888889,36.81194444444444],[-122.35222222222221,36.7175],[-122.27333333333333,36.60944444444445],[-122.20194444444445,36.51166666666666],[-122.19638888888889,36.504444444444445],[-122.10194444444444,36.41861111111111],[-121.98916666666666,36.32166666666667],[-121.8888888888889,36.234722222222224],[-121.88194444444444,36.22888888888889],[-121.78083333333333,36.14138888888889],[-121.66722222222222,36.0425],[-121.56138888888889,35.95055555555556],[-121.55944444444444,35.94888888888889],[-121.42888888888889,35.83444444444444],[-121.34472222222222,35.760555555555555],[-121.21583333333334,35.645833333333336],[-121.12527777777777,35.565555555555555],[-121.00527777777778,35.48027777777778],[-120.86638888888888,35.385],[-120.7475,35.30361111111111],[-120.6438888888889,35.231944444444444],[-120.52277777777778,35.14805555555556],[-120.51055555555556,35.13944444444444],[-120.39277777777778,35.0575],[-120.27277777777778,34.973888888888894],[-120.1538888888889,34.89055555555556],[-120.03944444444444,34.81027777777778],[-119.92166666666667,34.727222222222224],[-119.80499999999999,34.64472222222222],[-119.80111111111111,34.64194444444444],[-119.69583333333334,34.56722222222223],[-119.46027777777778,34.39944444444444],[-119.1086111111111,34.14666666666667],[-118.99305555555556,34.062777777777775],[-118.76194444444444,33.89472222222222],[-118.6463888888889,33.81027777777778],[-118.53194444444445,33.726111111111116],[-118.28333333333333,33.543055555555554],[-118.05611111111111,33.37444444444444],[-117.71194444444444,33.117222222222225],[-117.59777777777778,33.03111111111111],[-117.48416666666667,32.94555555555555],[-117.3711111111111,32.859722222222224],[-117.15805555555556,32.6975],[-117.04638888888888,32.61194444444445]],"type":"LineString"}
}
