{
  "id": 2047983009,
  "type": "Feature",
  "properties": {
    "geom:area": 0,
    "geom:bbox": "-122.408830,37.638190,-121.435960,38.514420",
    "geom:latitude": 38.05504785659441,
    "geom:longitude": -121.9178287029757,
    "src:alt_label": "swim-takeoff",
    "src:geom": "swim",
    "swim:elevations": [
      329,
      758,
      904,
      1159,
      1451,
      1825,
      2026,
      2662,
      2885,
      3183,
      3251,
      3810,
      3977,
      4233,
      4572,
      4633,
      5052,
      5160,
      5549,
      5700,
      6016,
      6133,
      6402,
      6688,
      6904,
      7017
    ],
    "swim:geom": "takeoff",
    "swim:timestamps": [
      1786787452,
      1786787488,
      1786787499,
      1786787533,
      1786787568,
      1786787595,
      1786787610,
      1786787660,
      1786787680,
      1786787716,
      1786787734,
      1786787788,
      1786787806,
      1786787836,
      1786787878,
      1786787883,
      1786787932,
      1786787943,
      1786787996,
      1786788015,
      1786788055,
      1786788067,
      1786788103,
      1786788148,
      1786788174,
      1786788193
    ],
    "wof:geomhash": "555c24ad680441e9322975ed9b2a0f59",
    "wof:id": 2047983009,
    "wof:repo": "sfomuseum-data-flights-2026-08"
  },
  "bbox": [
    -122.40883,
    37.63819,
    -121.43596,
    38.51442
  ],
  "geometry": {"type":"LineString","coordinates":[[-122.40883,37.63819],[-122.40272,37.66907],[-122.391,37.67449],[-122.34811,37.67973],[-122.29747,37.69283],[-122.25779,37.70489],[-122.23401,37.71215],[-122.17665,37.75933],[-122.15614,37.78244],[-122.11837,37.82394],[-122.09744,37.84685],[-122.03169,37.91922],[-122.00942,37.94358],[-121.97247,37.98384],[-121.91803,38.04408],[-121.91136,38.05142],[-121.84474,38.12334],[-121.82874,38.14104],[-121.75603,38.22143],[-121.72995,38.25004],[-121.67206,38.31312],[-121.65412,38.33263],[-121.6014,38.38943],[-121.52738,38.45733],[-121.47493,38.49044],[-121.43596,38.51442]]}
}
