{
  "id": 2047952795,
  "type": "Feature",
  "properties": {
    "date:inception_lower": "2026-08-13",
    "date:inception_upper": "2026-08-13",
    "edtf:cessation": "",
    "edtf:inception": "2026-08-13",
    "flysfo:actual_timestamp": -1,
    "flysfo:airline": "NH",
    "flysfo:base_airline": "",
    "flysfo:base_flight_number": "5189",
    "flysfo:date": "2026-08-13",
    "flysfo:estimated_timestamp": 1786645260,
    "flysfo:event": "A",
    "flysfo:flight_number": "NH7311",
    "flysfo:gate": "D12",
    "flysfo:journey": "DEN-SFO",
    "flysfo:scheduled_timestamp": 1786645380,
    "flysfo:timestamp": 1786645380,
    "geom:area": 0,
    "geom:bbox": "-122.370943,37.617990,-104.672219,39.864939",
    "geom:latitude": 38.7414645,
    "geom:longitude": -113.521581,
    "iata:airline": "NH",
    "iata:base_airline": "",
    "icao:airline": "ANA",
    "icao:base_airline": "ACA",
    "lbl:latitude": 37.618249,
    "lbl:longitude": -122.381477,
    "sfomuseum:airline_id": 1159283875,
    "sfomuseum:arrival_id": 102527513,
    "sfomuseum:base_flight_id": "20260813-A-ACA-5189",
    "sfomuseum:departure_id": 102531189,
    "sfomuseum:flight_id": "20260813-A-ANA-7311",
    "sfomuseum:flight_number": [
      "ANA7311",
      "NH7311"
    ],
    "sfomuseum:placetype": "flight",
    "src:geom": "flysfo",
    "wof:belongsto": [
      1947304067,
      102527513,
      1947304595,
      102191575,
      85633793,
      102087579,
      85922583,
      554784711,
      85688637,
      1947304631,
      1947304591,
      102085387
    ],
    "wof:country": "US",
    "wof:created": 1786723422,
    "wof:geomhash": "736fe0d2ebd38878be6950e82908a686",
    "wof:hierarchy": [
      {
        "building_id": 1947304067,
        "campus_id": 102527513,
        "concourse_id": 1947304595,
        "continent_id": 102191575,
        "country_id": 85633793,
        "county_id": 102087579,
        "custom_id": 2047952795,
        "flight_id": 2047952795,
        "locality_id": 85922583,
        "postalcode_id": 554784711,
        "region_id": 85688637,
        "venue_id": 1947304631,
        "wing_id": 1947304591
      },
      {
        "building_id": 1947304067,
        "campus_id": 102527513,
        "concourse_id": 1947304595,
        "continent_id": 102191575,
        "country_id": 85633793,
        "county_id": 102085387,
        "custom_id": 2047952795,
        "flight_id": 2047952795,
        "region_id": 85688637,
        "venue_id": 1947304631,
        "wing_id": 1947304591
      }
    ],
    "wof:id": 2047952795,
    "wof:involves": [
      102527513,
      102531189,
      1159283875,
      1947304631,
      1159283597
    ],
    "wof:lastmodified": 1786723422,
    "wof:name": "NH7311 (DEN-SFO)",
    "wof:parent_id": 1947304631,
    "wof:placetype": "custom",
    "wof:placetype_alt": [
      "flight"
    ],
    "wof:repo": "sfomuseum-data-flights-2026-08",
    "wof:superseded_by": [],
    "wof:supersedes": []
  },
  "bbox": [
    -122.370943,
    37.61799,
    -104.672219,
    39.864939
  ],
  "geometry": {"type":"MultiPoint","coordinates":[[-104.672219,39.864939],[-122.370943,37.61799]]}
}
