{
  "id": 2047997489,
  "type": "Feature",
  "properties": {
    "geom:area": 0,
    "geom:bbox": "-122.526090,37.624330,-121.284080,38.394850",
    "geom:latitude": 38.03216358470399,
    "geom:longitude": -121.99384292943094,
    "src:alt_label": "swim-takeoff",
    "src:geom": "swim",
    "swim:elevations": [
      183,
      245,
      602,
      1054,
      1280,
      1503,
      1663,
      2051,
      2282,
      2736,
      3035,
      3326,
      3607,
      3945,
      4251,
      4546,
      4818,
      5066,
      5364,
      5671,
      5830,
      6035,
      6381,
      6706,
      6808,
      7166,
      7171,
      7376,
      7577,
      7626
    ],
    "swim:geom": "takeoff",
    "swim:timestamps": [
      1786943128,
      1786943135,
      1786943168,
      1786943208,
      1786943239,
      1786943277,
      1786943296,
      1786943326,
      1786943341,
      1786943374,
      1786943401,
      1786943435,
      1786943478,
      1786943508,
      1786943538,
      1786943568,
      1786943598,
      1786943628,
      1786943658,
      1786943696,
      1786943714,
      1786943735,
      1786943780,
      1786943815,
      1786943829,
      1786943877,
      1786943880,
      1786943919,
      1786943958,
      1786943970
    ],
    "wof:geomhash": "331d4a5111b892053cc912b0c137eadb",
    "wof:id": 2047997489,
    "wof:repo": "sfomuseum-data-flights-2026-08"
  },
  "bbox": [
    -122.52609,
    37.62433,
    -121.28408,
    38.39485
  ],
  "geometry": {"type":"LineString","coordinates":[[-122.38811,37.62433],[-122.39367,37.62678],[-122.42109,37.63888],[-122.45727,37.65379],[-122.48801,37.66679],[-122.52336,37.69414],[-122.52413,37.71769],[-122.52468,37.75796],[-122.52609,37.77824],[-122.50024,37.81499],[-122.45682,37.82934],[-122.40138,37.85294],[-122.32715,37.88921],[-122.27199,37.91609],[-122.21554,37.94344],[-122.1575,37.97136],[-122.09823,37.99987],[-122.03735,38.0291],[-121.97548,38.05916],[-121.89716,38.09771],[-121.85926,38.11633],[-121.81469,38.13809],[-121.71745,38.18552],[-121.63883,38.22363],[-121.60785,38.23871],[-121.50064,38.29058],[-121.49386,38.29387],[-121.40458,38.3369],[-121.3126,38.38116],[-121.28408,38.39485]]}
}
