{
  "id": 2032058387,
  "type": "Feature",
  "properties": {
    "geom:area": 0,
    "geom:bbox": "-122.337222,35.886111,-115.245556,37.725000",
    "geom:latitude": 37.182732449851834,
    "geom:longitude": -118.60448257401187,
    "src:alt_label": "swim-path",
    "src:geom": "swim",
    "swim:altitudes": [
      "046",
      "050",
      "065",
      "069",
      "085",
      "090",
      "107",
      "125",
      "148",
      "168",
      "184",
      "198",
      "215",
      "228",
      "243",
      "256",
      "269",
      "295",
      "306",
      "327",
      "338",
      "350",
      "358C",
      "360C",
      "360C",
      "360C",
      "360C",
      "360C",
      "360C",
      "360C",
      "360C",
      "360C",
      "360C",
      "360C",
      "360C",
      "360C",
      "360C",
      "360C",
      "360C",
      "359",
      "309",
      "280",
      "269",
      "257",
      "229",
      "217",
      "209",
      "196",
      "188",
      "176",
      "155",
      "148",
      "133",
      "122",
      "116",
      "109",
      "100",
      "093",
      "083",
      "080",
      "074",
      "064",
      "060",
      "054",
      "050",
      "043",
      "039",
      "032",
      "027",
      "012",
      "008",
      "004"
    ],
    "swim:geom": "path",
    "swim:speeds": [
      233,
      225,
      260,
      260,
      284,
      282,
      306,
      342,
      350,
      359,
      372,
      394,
      403,
      413,
      417,
      427,
      435,
      442,
      449,
      457,
      459,
      459,
      458,
      458,
      457,
      453,
      449,
      447,
      445,
      427,
      425,
      426,
      424,
      419,
      418,
      417,
      417,
      418,
      418,
      421,
      425,
      432,
      432,
      431,
      404,
      401,
      392,
      392,
      384,
      383,
      377,
      364,
      339,
      296,
      281,
      273,
      273,
      268,
      271,
      265,
      264,
      248,
      237,
      235,
      230,
      232,
      228,
      230,
      227,
      166,
      159,
      160
    ],
    "swim:timestamps": [
      1785600422,
      1785600433,
      1785600482,
      1785600494,
      1785600543,
      1785600554,
      1785600603,
      1785600674,
      1785600734,
      1785600794,
      1785600854,
      1785600914,
      1785600974,
      1785601034,
      1785601094,
      1785601154,
      1785601215,
      1785601335,
      1785601395,
      1785601515,
      1785601575,
      1785601633,
      1785601695,
      1785601755,
      1785601813,
      1785601875,
      1785601933,
      1785601993,
      1785602056,
      1785602174,
      1785602236,
      1785602296,
      1785602354,
      1785602414,
      1785602474,
      1785602534,
      1785602594,
      1785602654,
      1785602714,
      1785602895,
      1785603015,
      1785603075,
      1785603098,
      1785603135,
      1785603213,
      1785603255,
      1785603273,
      1785603315,
      1785603334,
      1785603375,
      1785603435,
      1785603459,
      1785603513,
      1785603573,
      1785603616,
      1785603633,
      1785603676,
      1785603694,
      1785603736,
      1785603753,
      1785603796,
      1785603856,
      1785603874,
      1785603916,
      1785603934,
      1785603976,
      1785603994,
      1785604036,
      1785604054,
      1785604156,
      1785604179,
      1785604216
    ],
    "wof:geomhash": "613c73d8e9fbcef7b401d9b6bcd6bc3b",
    "wof:id": 2032058387,
    "wof:repo": "sfomuseum-data-flights-2026-08"
  },
  "bbox": [
    -122.33722222222222,
    35.88611111111111,
    -115.24555555555555,
    37.725
  ],
  "geometry": {"coordinates":[[-115.24555555555555,36.06916666666667],[-115.25694444444444,36.06222222222222],[-115.28555555555555,36.01166666666666],[-115.29138888888889,35.99861111111111],[-115.32805555555555,35.94194444444444],[-115.33555555555554,35.93],[-115.39361111111111,35.88611111111111],[-115.52666666666667,35.88805555555555],[-115.64694444444446,35.890277777777776],[-115.77027777777778,35.8925],[-115.8963888888889,35.89472222222222],[-116.00777777777778,35.952222222222225],[-116.10666666666665,36.03138888888889],[-116.20666666666666,36.11222222222222],[-116.29722222222222,36.18527777777778],[-116.40166666666667,36.26888888888889],[-116.50611111111111,36.35611111111111],[-116.72555555555556,36.544999999999995],[-116.83166666666666,36.63861111111111],[-117.01472222222222,36.844722222222224],[-117.08944444444444,36.959722222222226],[-117.16361111111112,37.073888888888895],[-117.23666666666666,37.18583333333333],[-117.31388888888888,37.29833333333333],[-117.39500000000001,37.37722222222222],[-117.5275,37.486111111111114],[-117.64944444444446,37.504444444444445],[-117.80388888888889,37.51777777777777],[-117.99,37.5325],[-118.26583333333333,37.55416666666667],[-118.43194444444445,37.59027777777778],[-118.51833333333333,37.6575],[-118.6375,37.725],[-118.78416666666666,37.723333333333336],[-118.93277777777779,37.722500000000004],[-119.07777777777777,37.72138888888889],[-119.22500000000001,37.719722222222224],[-119.37222222222222,37.717777777777776],[-119.51722222222222,37.715833333333336],[-119.96138888888889,37.70805555555556],[-120.25944444444444,37.702222222222225],[-120.41305555555556,37.698055555555555],[-120.48333333333333,37.68333333333333],[-120.56194444444444,37.68083333333333],[-120.76666666666667,37.65],[-120.84861111111111,37.64694444444444],[-120.9,37.63333333333333],[-120.98444444444445,37.63027777777778],[-121.03333333333333,37.61666666666667],[-121.11527777777778,37.612500000000004],[-121.2461111111111,37.595],[-121.3,37.583333333333336],[-121.41666666666667,37.583333333333336],[-121.51666666666667,37.56666666666667],[-121.58444444444444,37.55555555555555],[-121.61666666666666,37.55],[-121.67666666666668,37.538333333333334],[-121.71666666666667,37.53333333333333],[-121.76611111111112,37.51694444444444],[-121.8,37.516666666666666],[-121.85416666666666,37.49583333333334],[-121.93611111111112,37.474444444444444],[-121.96666666666667,37.483333333333334],[-122.01527777777778,37.48638888888889],[-122.05,37.5],[-122.09277777777777,37.50472222222222],[-122.11666666666666,37.516666666666666],[-122.165,37.530277777777776],[-122.2,37.55],[-122.28861111111111,37.5825],[-122.31666666666666,37.6],[-122.33722222222222,37.60277777777778]],"type":"LineString"}
}
