{
  "id": 2047996369,
  "type": "Feature",
  "properties": {
    "geom:area": 0,
    "geom:bbox": "-122.562610,36.730650,-122.119020,37.674520",
    "geom:latitude": 37.23873368097868,
    "geom:longitude": -122.41613423437691,
    "src:alt_label": "swim-takeoff",
    "src:geom": "swim",
    "swim:elevations": [
      213,
      492,
      653,
      772,
      1394,
      1795,
      1883,
      3069,
      3263,
      3390,
      3446,
      3541,
      3640,
      3908,
      4219,
      4881,
      4999,
      5192,
      5412,
      5521,
      5861,
      5939,
      6195,
      6417,
      6568,
      6799,
      6888,
      7037,
      7084
    ],
    "swim:geom": "takeoff",
    "swim:timestamps": [
      1786905622,
      1786905657,
      1786905681,
      1786905693,
      1786905747,
      1786905776,
      1786905780,
      1786905864,
      1786905885,
      1786905914,
      1786905927,
      1786905950,
      1786905966,
      1786905994,
      1786906020,
      1786906074,
      1786906087,
      1786906105,
      1786906134,
      1786906147,
      1786906196,
      1786906206,
      1786906233,
      1786906261,
      1786906279,
      1786906313,
      1786906326,
      1786906346,
      1786906355
    ],
    "wof:geomhash": "e68e1a88b6b1f4702b0195b47430d0db",
    "wof:id": 2047996369,
    "wof:repo": "sfomuseum-data-flights-2026-08"
  },
  "bbox": [
    -122.56261,
    36.73065,
    -122.11902,
    37.67452
  ],
  "geometry": {"type":"LineString","coordinates":[[-122.38614,37.62331],[-122.41295,37.63427],[-122.43617,37.64381],[-122.44988,37.64958],[-122.52057,37.67452],[-122.55851,37.65872],[-122.56261,37.65388],[-122.52241,37.55638],[-122.5046,37.53194],[-122.47985,37.49257],[-122.47711,37.47189],[-122.48387,37.4323],[-122.48938,37.40484],[-122.49959,37.35282],[-122.50885,37.30367],[-122.52168,37.20214],[-122.51551,37.17984],[-122.49631,37.14835],[-122.45363,37.10209],[-122.43547,37.08255],[-122.36242,37.00194],[-122.34756,36.98534],[-122.30762,36.94071],[-122.26497,36.89331],[-122.23701,36.86233],[-122.18494,36.80437],[-122.16545,36.78259],[-122.13304,36.74638],[-122.11902,36.73065]]}
}
