{
  "id": 2032087807,
  "type": "Feature",
  "properties": {
    "geom:area": 0,
    "geom:bbox": "-122.333611,32.775556,-117.276667,37.601111",
    "geom:latitude": 35.09716135808147,
    "geom:longitude": -120.11103802464633,
    "src:alt_label": "swim-path",
    "src:geom": "swim",
    "swim:altitudes": [
      "033",
      "040",
      "057",
      "068",
      "082",
      "109",
      "133",
      "157",
      "182",
      "204",
      "222",
      "241",
      "258",
      "261",
      "271",
      "285",
      "295",
      "309",
      "322",
      "335",
      "340C",
      "340C",
      "340C",
      "340C",
      "340C",
      "340C",
      "340C",
      "340C",
      "340C",
      "340C",
      "340C",
      "340C",
      "340C",
      "340C",
      "340C",
      "340C",
      "340C",
      "340C",
      "340C",
      "340C",
      "340",
      "340",
      "340",
      "321",
      "286",
      "252",
      "247",
      "227",
      "206",
      "204",
      "190",
      "176",
      "161",
      "158",
      "146",
      "143",
      "128",
      "114",
      "103",
      "095",
      "086",
      "084",
      "080",
      "080",
      "069",
      "059",
      "060",
      "060",
      "060",
      "053",
      "047",
      "045",
      "033",
      "026",
      "021",
      "013",
      "005"
    ],
    "swim:geom": "path",
    "swim:speeds": [
      229,
      263,
      268,
      273,
      282,
      295,
      311,
      328,
      331,
      348,
      356,
      365,
      379,
      419,
      482,
      488,
      489,
      490,
      487,
      481,
      474,
      475,
      473,
      471,
      473,
      470,
      471,
      468,
      467,
      467,
      467,
      468,
      468,
      469,
      469,
      469,
      469,
      468,
      467,
      466,
      464,
      464,
      465,
      466,
      478,
      485,
      478,
      462,
      430,
      433,
      383,
      370,
      354,
      359,
      349,
      351,
      339,
      333,
      307,
      278,
      245,
      247,
      239,
      243,
      242,
      237,
      240,
      243,
      240,
      241,
      233,
      237,
      223,
      199,
      200,
      167,
      156
    ],
    "swim:timestamps": [
      1785783674,
      1785783689,
      1785783734,
      1785783749,
      1785783794,
      1785783854,
      1785783914,
      1785783974,
      1785784034,
      1785784094,
      1785784154,
      1785784214,
      1785784274,
      1785784335,
      1785784455,
      1785784515,
      1785784575,
      1785784635,
      1785784695,
      1785784755,
      1785784815,
      1785784864,
      1785784875,
      1785784935,
      1785784984,
      1785784995,
      1785785044,
      1785785116,
      1785785176,
      1785785236,
      1785785285,
      1785785345,
      1785785405,
      1785785465,
      1785785476,
      1785785536,
      1785785585,
      1785785645,
      1785785656,
      1785785717,
      1785785837,
      1785785897,
      1785785957,
      1785786018,
      1785786078,
      1785786138,
      1785786144,
      1785786187,
      1785786247,
      1785786258,
      1785786318,
      1785786367,
      1785786427,
      1785786438,
      1785786487,
      1785786498,
      1785786558,
      1785786613,
      1785786668,
      1785786739,
      1785786787,
      1785786799,
      1785786848,
      1785786859,
      1785786919,
      1785786967,
      1785786979,
      1785787028,
      1785787039,
      1785787099,
      1785787148,
      1785787159,
      1785787219,
      1785787268,
      1785787339,
      1785787388,
      1785787460
    ],
    "wof:geomhash": "e4c75a571f1c4f698966909741ce1287",
    "wof:id": 2032087807,
    "wof:repo": "sfomuseum-data-flights-2026-08"
  },
  "bbox": [
    -122.33361111111111,
    32.775555555555556,
    -117.27666666666667,
    37.60111111111111
  ],
  "geometry": {"type":"LineString","coordinates":[[-117.27666666666667,32.775555555555556],[-117.3,32.8],[-117.3475,32.81805555555556],[-117.38333333333334,32.833333333333336],[-117.42055555555557,32.86472222222223],[-117.50083333333333,32.916666666666664],[-117.58277777777778,32.969166666666666],[-117.66777777777779,33.02361111111111],[-117.75138888888888,33.085],[-117.82638888888889,33.157777777777774],[-117.90611111111112,33.230000000000004],[-117.99222222222222,33.30222222222222],[-118.08194444444445,33.378055555555555],[-118.17666666666668,33.456944444444446],[-118.40166666666667,33.64388888888889],[-118.52305555555556,33.7425],[-118.64111111111112,33.84027777777778],[-118.75833333333334,33.93666666666666],[-118.87333333333332,34.03111111111111],[-118.98722222222223,34.12416666666667],[-119.11694444444444,34.198055555555555],[-119.21611111111112,34.251666666666665],[-119.25166666666667,34.2675],[-119.38444444444445,34.33555555555556],[-119.48055555555555,34.384166666666665],[-119.51861111111111,34.405],[-119.60277777777777,34.46555555555556],[-119.74722222222222,34.58527777777778],[-119.84972222222221,34.66861111111111],[-119.96277777777777,34.75944444444445],[-120.05583333333333,34.83444444444444],[-120.17055555555557,34.92638888888889],[-120.285,35.0175],[-120.39916666666667,35.111111111111114],[-120.41194444444444,35.1225],[-120.5411111111111,35.237500000000004],[-120.61777777777777,35.30583333333333],[-120.72722222222222,35.403055555555554],[-120.7538888888889,35.42666666666666],[-120.8561111111111,35.52472222222222],[-121.04055555555556,35.722500000000004],[-121.13805555555557,35.827222222222225],[-121.23527777777778,35.93055555555555],[-121.33444444444444,36.03638888888889],[-121.42444444444445,36.14527777777778],[-121.51472222222222,36.26027777777778],[-121.53333333333333,36.28333333333333],[-121.58333333333333,36.36666666666667],[-121.66666666666667,36.46666666666667],[-121.68111111111112,36.473888888888894],[-121.75361111111111,36.565555555555555],[-121.81666666666666,36.65],[-121.88333333333334,36.733333333333334],[-121.89,36.73888888888889],[-121.91666666666667,36.81666666666667],[-121.92027777777778,36.83305555555556],[-121.94527777777778,36.925],[-121.98333333333333,37.016666666666666],[-122.03333333333333,37.06666666666667],[-122.14750000000001,37.09166666666667],[-122.2,37.13333333333333],[-122.21194444444444,37.1375],[-122.26666666666667,37.18333333333333],[-122.2725,37.18416666666666],[-122.30888888888889,37.24166666666667],[-122.31666666666666,37.3],[-122.31277777777777,37.305],[-122.25,37.333333333333336],[-122.24472222222222,37.342222222222226],[-122.18666666666667,37.39055555555556],[-122.13333333333334,37.43333333333333],[-122.13027777777778,37.43861111111111],[-122.11888888888888,37.495],[-122.16666666666667,37.53333333333333],[-122.23055555555555,37.558055555555555],[-122.28333333333333,37.583333333333336],[-122.33361111111111,37.60111111111111]]}
}
