{
  "id": 2047918261,
  "type": "Feature",
  "properties": {
    "geom:area": 0,
    "geom:bbox": "-123.238890,37.632560,-122.407880,38.517980",
    "geom:latitude": 38.050342075099906,
    "geom:longitude": -122.83430168711133,
    "src:alt_label": "swim-takeoff",
    "src:geom": "swim",
    "swim:elevations": [
      312,
      507,
      960,
      1116,
      1366,
      1513,
      1752,
      2153,
      2920,
      3405,
      3623,
      3742,
      3928,
      4315,
      4581,
      4848,
      5308,
      5871,
      6184,
      6354,
      6681,
      7008,
      7010,
      7010,
      7002
    ],
    "swim:geom": "takeoff",
    "swim:timestamps": [
      1786408820,
      1786408838,
      1786408877,
      1786408901,
      1786408939,
      1786408955,
      1786408973,
      1786409004,
      1786409066,
      1786409113,
      1786409142,
      1786409163,
      1786409181,
      1786409214,
      1786409238,
      1786409265,
      1786409307,
      1786409360,
      1786409391,
      1786409408,
      1786409435,
      1786409486,
      1786409512,
      1786409540,
      1786409552
    ],
    "wof:geomhash": "b8948e2e97a47022413160132b58845e",
    "wof:id": 2047918261,
    "wof:repo": "sfomuseum-data-flights-2026-08"
  },
  "bbox": [
    -123.23889,
    37.63256,
    -122.40788,
    38.51798
  ],
  "geometry": {"type":"LineString","coordinates":[[-122.40788,37.63256],[-122.42484,37.64012],[-122.46394,37.65745],[-122.48953,37.66867],[-122.5351,37.69329],[-122.55526,37.70524],[-122.57873,37.7192],[-122.61988,37.7436],[-122.7055,37.79372],[-122.76886,37.8381],[-122.7947,37.87891],[-122.79835,37.91443],[-122.79571,37.9459],[-122.79027,38.00439],[-122.78725,38.04778],[-122.80161,38.09537],[-122.85935,38.1555],[-122.93984,38.23231],[-122.98713,38.27749],[-123.01383,38.3031],[-123.05579,38.34322],[-123.13553,38.4195],[-123.17725,38.45912],[-123.21978,38.49962],[-123.23889,38.51798]]}
}
