{
  "id": 2032061019,
  "type": "Feature",
  "properties": {
    "geom:area": 0,
    "geom:bbox": "-122.544722,35.998889,-114.949444,37.660833",
    "geom:latitude": 36.82626434846584,
    "geom:longitude": -118.69234992349398,
    "src:alt_label": "swim-path",
    "src:geom": "swim",
    "swim:altitudes": [
      "007",
      "011",
      "028",
      "045",
      "092",
      "105",
      "123",
      "143",
      "165",
      "183",
      "200",
      "215",
      "228",
      "242",
      "256",
      "293",
      "302",
      "311",
      "319",
      "330C",
      "330C",
      "330C",
      "330C",
      "330C",
      "330C",
      "330C",
      "330",
      "330C",
      "330",
      "330C",
      "330",
      "330C",
      "330",
      "330",
      "330",
      "330",
      "330",
      "322",
      "312C",
      "310C",
      "310C",
      "310C",
      "281",
      "263",
      "258",
      "251",
      "230",
      "222",
      "201",
      "190",
      "190",
      "189",
      "185",
      "170",
      "156",
      "144",
      "129",
      "126",
      "115",
      "102",
      "101",
      "094",
      "091",
      "079",
      "080",
      "076",
      "049",
      "044",
      "038",
      "035",
      "029",
      "027",
      "021"
    ],
    "swim:geom": "path",
    "swim:speeds": [
      167,
      170,
      231,
      275,
      290,
      307,
      319,
      333,
      361,
      370,
      369,
      374,
      385,
      402,
      407,
      430,
      442,
      463,
      470,
      476,
      475,
      473,
      473,
      472,
      472,
      473,
      474,
      473,
      473,
      473,
      472,
      473,
      473,
      473,
      471,
      471,
      469,
      471,
      471,
      468,
      466,
      462,
      454,
      454,
      444,
      442,
      422,
      423,
      406,
      351,
      346,
      332,
      334,
      329,
      324,
      315,
      308,
      311,
      305,
      301,
      292,
      270,
      269,
      256,
      246,
      203,
      187,
      191,
      180,
      182,
      162,
      166,
      163
    ],
    "swim:timestamps": [
      1785594933,
      1785594953,
      1785595013,
      1785595073,
      1785595193,
      1785595254,
      1785595314,
      1785595374,
      1785595433,
      1785595494,
      1785595554,
      1785595615,
      1785595675,
      1785595735,
      1785595795,
      1785595975,
      1785596035,
      1785596094,
      1785596155,
      1785596336,
      1785596396,
      1785596454,
      1785596516,
      1785596634,
      1785596696,
      1785596756,
      1785596809,
      1785596876,
      1785596887,
      1785596935,
      1785596947,
      1785596995,
      1785597007,
      1785597067,
      1785597127,
      1785597175,
      1785597235,
      1785597297,
      1785597355,
      1785597417,
      1785597477,
      1785597537,
      1785597657,
      1785597686,
      1785597698,
      1785597718,
      1785597758,
      1785597778,
      1785597819,
      1785597885,
      1785597898,
      1785597945,
      1785597958,
      1785598018,
      1785598078,
      1785598119,
      1785598179,
      1785598198,
      1785598240,
      1785598294,
      1785598318,
      1785598360,
      1785598378,
      1785598420,
      1785598439,
      1785598480,
      1785598601,
      1785598619,
      1785598661,
      1785598679,
      1785598721,
      1785598739,
      1785598799
    ],
    "wof:geomhash": "3d2e46428ee3558e204b6f39aa0a8828",
    "wof:id": 2032061019,
    "wof:repo": "sfomuseum-data-flights-2026-08"
  },
  "bbox": [
    -122.54472222222222,
    35.99888888888889,
    -114.94944444444445,
    37.66083333333333
  ],
  "geometry": {"coordinates":[[-122.4,37.63333333333333],[-122.40277777777779,37.630833333333335],[-122.47111111111111,37.66083333333333],[-122.54472222222222,37.64416666666666],[-122.4213888888889,37.53],[-122.32944444444443,37.486666666666665],[-122.23527777777778,37.43888888888888],[-122.13694444444445,37.38444444444444],[-122.01555555555555,37.336666666666666],[-121.90138888888889,37.31333333333333],[-121.77666666666667,37.28805555555555],[-121.64777777777779,37.26222222222222],[-121.51416666666667,37.23583333333333],[-121.37333333333332,37.20861111111111],[-121.23388888888888,37.17944444444444],[-120.79638888888888,37.09166666666667],[-120.64250000000001,37.064166666666665],[-120.47944444444444,37.05138888888889],[-120.31388888888888,37.038333333333334],[-119.81972222222223,36.99472222222222],[-119.65555555555557,36.980000000000004],[-119.48777777777778,36.96472222222223],[-119.33166666666666,36.95027777777778],[-119.00055555555555,36.91888888888889],[-118.82777777777777,36.902499999999996],[-118.66305555555556,36.88611111111111],[-118.51166666666667,36.87083333333334],[-118.33944444444444,36.853611111111114],[-118.30361111111111,36.849722222222226],[-118.17611111111111,36.836666666666666],[-118.13722222222223,36.8325],[-118.015,36.82],[-117.97638888888889,36.81472222222222],[-117.81527777777778,36.79861111111111],[-117.65444444444445,36.78055555555555],[-117.52472222222222,36.76833333333333],[-117.36388888888888,36.749722222222225],[-117.20611111111111,36.73277777777778],[-117.04583333333333,36.715],[-116.88527777777779,36.696666666666665],[-116.7286111111111,36.67833333333333],[-116.57277777777777,36.66027777777778],[-116.31416666666667,36.52611111111111],[-116.25166666666667,36.47916666666667],[-116.22638888888889,36.462500000000006],[-116.19722222222222,36.44277777777778],[-116.11555555555555,36.38472222222222],[-116.0886111111111,36.36555555555556],[-116.01,36.3075],[-115.90111111111112,36.23361111111111],[-115.88055555555555,36.22027777777778],[-115.80972222222222,36.17527777777777],[-115.78916666666666,36.16277777777778],[-115.69111111111111,36.120555555555555],[-115.5886111111111,36.08861111111111],[-115.51833333333333,36.066944444444445],[-115.41861111111112,36.03472222222222],[-115.39,36.02722222222222],[-115.31888888888888,36.014722222222225],[-115.22611111111111,36.00861111111111],[-115.18611111111112,36.007777777777775],[-115.11972222222222,36.00472222222222],[-115.09722222222221,36.00333333333333],[-115.02944444444444,35.99888888888889],[-115.00888888888889,35.99888888888889],[-114.95611111111111,36],[-114.94944444444445,36.071111111111115],[-114.9675,36.07194444444445],[-115.01194444444444,36.07277777777778],[-115.03027777777778,36.07361111111111],[-115.06916666666666,36.07333333333334],[-115.08666666666666,36.07361111111111],[-115.14055555555557,36.07361111111111]],"type":"LineString"}
}
