{
  "id": 2047997427,
  "type": "Feature",
  "properties": {
    "geom:area": 0,
    "geom:bbox": "-122.526910,37.627580,-121.242350,38.426280",
    "geom:latitude": 38.044339998471806,
    "geom:longitude": -121.96859031773263,
    "src:alt_label": "swim-takeoff",
    "src:geom": "swim",
    "swim:elevations": [
      213,
      519,
      982,
      1108,
      1284,
      1537,
      1953,
      2063,
      2779,
      3023,
      3048,
      3127,
      3223,
      3297,
      3692,
      4101,
      4325,
      4659,
      5087,
      5347,
      5663,
      5849,
      6208,
      6516,
      6833,
      7000,
      7354,
      7530,
      7777,
      7994,
      8220,
      8337
    ],
    "swim:geom": "takeoff",
    "swim:timestamps": [
      1786865180,
      1786865200,
      1786865246,
      1786865273,
      1786865286,
      1786865306,
      1786865335,
      1786865343,
      1786865394,
      1786865421,
      1786865456,
      1786865471,
      1786865490,
      1786865500,
      1786865541,
      1786865578,
      1786865595,
      1786865624,
      1786865665,
      1786865687,
      1786865726,
      1786865744,
      1786865782,
      1786865812,
      1786865848,
      1786865872,
      1786865908,
      1786865929,
      1786865957,
      1786865983,
      1786866012,
      1786866032
    ],
    "wof:geomhash": "0175c3a3197dfd2f87adac15b104017e",
    "wof:id": 2047997427,
    "wof:repo": "sfomuseum-data-flights-2026-08"
  },
  "bbox": [
    -122.52691,
    37.62758,
    -121.24235,
    38.42628
  ],
  "geometry": {"type":"LineString","coordinates":[[-122.39608,37.62758],[-122.41454,37.63554],[-122.45915,37.65494],[-122.49298,37.66943],[-122.51032,37.67753],[-122.52691,37.69728],[-122.52686,37.73608],[-122.52637,37.74616],[-122.50564,37.81171],[-122.464,37.82685],[-122.41019,37.84917],[-122.38786,37.86031],[-122.35768,37.87481],[-122.34175,37.88232],[-122.27024,37.91707],[-122.20134,37.95042],[-122.16984,37.96561],[-122.11512,37.99203],[-122.03559,38.02991],[-121.99259,38.05042],[-121.91206,38.08913],[-121.87446,38.10692],[-121.79669,38.14386],[-121.73106,38.17506],[-121.65258,38.21209],[-121.59944,38.2374],[-121.51797,38.2756],[-121.46962,38.29835],[-121.40578,38.32803],[-121.34835,38.36083],[-121.28654,38.3993],[-121.24235,38.42628]]}
}
