{
  "id": 2032098923,
  "type": "Feature",
  "properties": {
    "geom:area": 0,
    "geom:bbox": "-122.361160,37.445300,-121.253390,37.624570",
    "geom:latitude": 37.54616742899708,
    "geom:longitude": -121.81607327008138,
    "src:alt_label": "swim-approach",
    "src:geom": "swim",
    "swim:elevations": [
      4799,
      4635,
      4492,
      4247,
      4052,
      3950,
      3752,
      3420,
      3250,
      3068,
      3068,
      3048,
      2999,
      2748,
      2665,
      2441,
      2438,
      2386,
      2302,
      2251,
      2152,
      2134,
      2134,
      2133,
      2100,
      1828,
      1828,
      1811,
      1679,
      1541,
      1506,
      1412,
      1272,
      1139,
      955,
      842,
      766,
      541,
      397,
      319,
      211,
      133,
      0
    ],
    "swim:geom": "approach",
    "swim:timestamps": [
      1785881668,
      1785881689,
      1785881705,
      1785881735,
      1785881777,
      1785881801,
      1785881829,
      1785881876,
      1785881907,
      1785881935,
      1785881941,
      1785881989,
      1785882022,
      1785882056,
      1785882068,
      1785882116,
      1785882143,
      1785882167,
      1785882178,
      1785882183,
      1785882201,
      1785882212,
      1785882218,
      1785882221,
      1785882240,
      1785882296,
      1785882302,
      1785882316,
      1785882339,
      1785882356,
      1785882361,
      1785882377,
      1785882408,
      1785882428,
      1785882466,
      1785882497,
      1785882512,
      1785882565,
      1785882597,
      1785882621,
      1785882652,
      1785882672,
      1785882709
    ],
    "wof:geomhash": "b0ebcc23068e2de6220d12b5bdff0105",
    "wof:id": 2032098923,
    "wof:repo": "sfomuseum-data-flights-2026-08"
  },
  "bbox": [
    -122.36116,
    37.4453,
    -121.25339,
    37.62457
  ],
  "geometry": {"type":"LineString","coordinates":[[-121.25339,37.5939],[-121.29432,37.58855],[-121.3233,37.58544],[-121.37895,37.57918],[-121.45108,37.5709],[-121.48943,37.56652],[-121.53277,37.56153],[-121.6036,37.5638],[-121.64613,37.57927],[-121.68372,37.59279],[-121.69177,37.59564],[-121.75767,37.61897],[-121.80385,37.62457],[-121.83218,37.59565],[-121.8301,37.58234],[-121.81035,37.53133],[-121.80764,37.50168],[-121.81585,37.47584],[-121.8217,37.46478],[-121.82574,37.46052],[-121.84768,37.45051],[-121.86312,37.44863],[-121.87164,37.44789],[-121.87588,37.44756],[-121.90269,37.4453],[-121.9789,37.45188],[-121.9864,37.4549],[-122.00338,37.46195],[-122.03124,37.4739],[-122.05119,37.48226],[-122.05727,37.48486],[-122.07638,37.49294],[-122.10892,37.5068],[-122.12824,37.51484],[-122.1637,37.52978],[-122.19252,37.542],[-122.20569,37.54755],[-122.25301,37.56751],[-122.27961,37.57868],[-122.29733,37.58612],[-122.31977,37.59528],[-122.33454,37.6016],[-122.36116,37.61281]]}
}
