{
  "id": 2047928581,
  "type": "Feature",
  "properties": {
    "geom:area": 0,
    "geom:bbox": "-122.408333,37.651111,-74.983056,43.606944",
    "geom:latitude": 42.13410539621442,
    "geom:longitude": -98.68425635009586,
    "src:alt_label": "swim-path",
    "src:geom": "swim",
    "swim:altitudes": [
      "018",
      "020",
      "029",
      "037",
      "053",
      "073",
      "092",
      "108",
      "117",
      "124",
      "144",
      "162",
      "178",
      "191",
      "204",
      "215",
      "224",
      "240",
      "250",
      "252",
      "259",
      "262",
      "268",
      "270",
      "278",
      "290",
      "291",
      "294",
      "302",
      "303",
      "309C",
      "310C",
      "310C",
      "310C",
      "310C",
      "310C",
      "311C",
      "311C",
      "310C",
      "310C",
      "310C",
      "310C",
      "310C",
      "310C",
      "310C",
      "310C",
      "310C",
      "310C",
      "310C",
      "310C",
      "310C",
      "310C",
      "310C",
      "310C",
      "310C",
      "310C",
      "310C",
      "310C",
      "310C",
      "310C",
      "310C",
      "310C",
      "310C",
      "310C",
      "310C",
      "310C",
      "310C",
      "310C",
      "310C",
      "310C",
      "310C",
      "310C",
      "310C",
      "310C",
      "310C",
      "310C",
      "310C",
      "310C",
      "310C",
      "310C",
      "310C",
      "310C",
      "310C",
      "310C",
      "310",
      "310",
      "310",
      "310C",
      "310C",
      "310C",
      "310C",
      "310C",
      "310C",
      "310C",
      "310C",
      "310C",
      "310C",
      "310C",
      "310C",
      "310C",
      "310C",
      "310C",
      "310C",
      "310C",
      "310C",
      "310C",
      "310C",
      "310C",
      "310C",
      "310C",
      "310C",
      "310C",
      "310C",
      "311C",
      "310C",
      "310C",
      "310",
      "315",
      "322",
      "328C",
      "330C",
      "330C",
      "330C",
      "330C",
      "330C",
      "330C",
      "330C",
      "330C",
      "330C",
      "330C",
      "330C",
      "330C",
      "330C",
      "330C",
      "330C",
      "330C",
      "330C",
      "330C",
      "330C",
      "330C",
      "330C",
      "330C",
      "330C",
      "330C",
      "330C",
      "330C",
      "330C",
      "330C",
      "330C",
      "330C",
      "330C",
      "330C",
      "330C",
      "330C",
      "330C",
      "330C",
      "330C",
      "330C",
      "330C",
      "330C",
      "330C",
      "330C",
      "330C",
      "330C",
      "330C",
      "330C",
      "330C",
      "330C",
      "330C",
      "330C",
      "330C",
      "330C",
      "330C",
      "330C",
      "330C",
      "330C",
      "330C",
      "330C",
      "330C",
      "330C",
      "330C",
      "330C",
      "330C",
      "330C",
      "330C",
      "330C",
      "330C",
      "330C",
      "330C",
      "330C",
      "330C",
      "330C",
      "330C",
      "330C",
      "330C",
      "330C",
      "330C",
      "330C",
      "330C",
      "330C",
      "330C",
      "330C",
      "330C",
      "330C",
      "330C",
      "330C",
      "330C",
      "330C",
      "330C",
      "330C",
      "330C",
      "330C",
      "330C",
      "330C",
      "330C",
      "330C",
      "330C",
      "330C",
      "330C",
      "330C",
      "330C",
      "330C",
      "330C",
      "330C",
      "330C",
      "330C",
      "330C",
      "330C",
      "330C",
      "330C",
      "330C",
      "330C",
      "330C",
      "330C",
      "330C",
      "330C",
      "330C",
      "330C",
      "330C",
      "330C",
      "330C",
      "330C",
      "330C",
      "330C",
      "330C",
      "330C",
      "330C",
      "330C",
      "330C",
      "330C",
      "330C",
      "330C",
      "330C",
      "330C",
      "330C",
      "330C",
      "330C",
      "330C",
      "330C",
      "330C",
      "330C",
      "330C",
      "330C",
      "330C",
      "330C",
      "330C",
      "330C",
      "330C",
      "330C",
      "330C",
      "330C",
      "330C",
      "330C",
      "330C",
      "330C",
      "330C",
      "330C",
      "330C",
      "330C",
      "330C",
      "331C",
      "331C",
      "330C",
      "330C",
      "330C",
      "330C",
      "330C",
      "330C",
      "330C",
      "330C",
      "330C",
      "330C",
      "330C",
      "330C",
      "330",
      "324",
      "315",
      "309",
      "300",
      "294",
      "290C",
      "290C",
      "290C",
      "290C",
      "290C",
      "290C",
      "289",
      "281",
      "272",
      "262",
      "254",
      "250C",
      "250C",
      "250C",
      "250C",
      "250C",
      "250C",
      "250C",
      "250",
      "249",
      "244",
      "239",
      "233",
      "229",
      "223",
      "220",
      "213",
      "205",
      "197",
      "190",
      "178",
      "171",
      "161",
      "154",
      "141",
      "135",
      "130C",
      "131C",
      "130C",
      "131C",
      "130C",
      "131C",
      "130",
      "131",
      "130",
      "130",
      "130",
      "117",
      "106",
      "103",
      "095",
      "093",
      "082C",
      "080",
      "080C",
      "080",
      "080C",
      "068",
      "060",
      "060",
      "049",
      "040",
      "040",
      "039",
      "031",
      "030",
      "029",
      "027",
      "020",
      "020",
      "015",
      "014",
      "007",
      "80"
    ],
    "swim:geom": "path",
    "swim:speeds": [
      192,
      222,
      260,
      271,
      276,
      290,
      308,
      332,
      382,
      424,
      434,
      433,
      439,
      448,
      457,
      466,
      477,
      483,
      483,
      482,
      491,
      490,
      498,
      496,
      502,
      496,
      502,
      491,
      495,
      496,
      497,
      497,
      498,
      498,
      498,
      498,
      500,
      499,
      510,
      504,
      503,
      504,
      505,
      507,
      508,
      508,
      508,
      508,
      507,
      507,
      505,
      505,
      504,
      503,
      503,
      503,
      503,
      503,
      503,
      504,
      504,
      504,
      504,
      504,
      504,
      505,
      505,
      504,
      504,
      505,
      505,
      506,
      506,
      506,
      506,
      506,
      507,
      509,
      510,
      511,
      512,
      513,
      512,
      512,
      513,
      514,
      514,
      516,
      516,
      516,
      517,
      517,
      518,
      518,
      518,
      518,
      518,
      519,
      520,
      520,
      520,
      521,
      523,
      523,
      524,
      524,
      524,
      523,
      522,
      520,
      518,
      516,
      517,
      517,
      517,
      516,
      513,
      511,
      511,
      513,
      515,
      514,
      514,
      511,
      512,
      514,
      514,
      515,
      516,
      517,
      519,
      519,
      520,
      521,
      521,
      521,
      521,
      521,
      520,
      520,
      519,
      518,
      518,
      517,
      517,
      516,
      516,
      515,
      515,
      513,
      513,
      512,
      512,
      511,
      511,
      510,
      511,
      510,
      511,
      511,
      512,
      511,
      512,
      511,
      511,
      511,
      512,
      512,
      513,
      512,
      512,
      511,
      510,
      509,
      509,
      509,
      509,
      511,
      514,
      515,
      515,
      515,
      515,
      514,
      514,
      512,
      511,
      509,
      508,
      507,
      507,
      506,
      505,
      504,
      504,
      505,
      505,
      505,
      505,
      505,
      505,
      506,
      506,
      507,
      509,
      510,
      511,
      511,
      512,
      513,
      514,
      515,
      516,
      516,
      516,
      516,
      517,
      517,
      517,
      518,
      519,
      520,
      521,
      521,
      521,
      521,
      522,
      521,
      522,
      523,
      521,
      521,
      521,
      521,
      520,
      522,
      520,
      521,
      520,
      521,
      520,
      520,
      519,
      519,
      518,
      519,
      518,
      518,
      517,
      518,
      517,
      519,
      518,
      521,
      520,
      518,
      517,
      516,
      516,
      516,
      516,
      511,
      509,
      507,
      505,
      504,
      503,
      509,
      516,
      510,
      517,
      515,
      512,
      512,
      510,
      517,
      519,
      518,
      519,
      519,
      519,
      519,
      519,
      520,
      520,
      520,
      519,
      512,
      516,
      516,
      517,
      517,
      516,
      512,
      495,
      488,
      490,
      492,
      511,
      512,
      501,
      502,
      504,
      507,
      508,
      494,
      485,
      483,
      481,
      479,
      464,
      458,
      454,
      453,
      453,
      453,
      453,
      455,
      456,
      456,
      458,
      458,
      452,
      439,
      417,
      414,
      413,
      405,
      398,
      388,
      381,
      380,
      374,
      368,
      368,
      364,
      362,
      362,
      361,
      361,
      361,
      362,
      362,
      362,
      362,
      362,
      362,
      358,
      354,
      345,
      326,
      321,
      312,
      303,
      308,
      307,
      307,
      306,
      300,
      234,
      205,
      199,
      194,
      197,
      178,
      180,
      173,
      176,
      141,
      137,
      133,
      136,
      135,
      135
    ],
    "swim:timestamps": [
      1786473694,
      1786473706,
      1786473754,
      1786473766,
      1786473814,
      1786473874,
      1786473934,
      1786473994,
      1786474054,
      1786474114,
      1786474174,
      1786474234,
      1786474294,
      1786474354,
      1786474415,
      1786474475,
      1786474535,
      1786474595,
      1786474655,
      1786474665,
      1786474715,
      1786474725,
      1786474775,
      1786474785,
      1786474846,
      1786474895,
      1786474906,
      1786474955,
      1786475015,
      1786475026,
      1786475076,
      1786475086,
      1786475136,
      1786475146,
      1786475196,
      1786475206,
      1786475256,
      1786475266,
      1786475326,
      1786475386,
      1786475436,
      1786475446,
      1786475506,
      1786475566,
      1786475616,
      1786475627,
      1786475687,
      1786475747,
      1786475797,
      1786475807,
      1786475857,
      1786475867,
      1786475927,
      1786475977,
      1786475987,
      1786476037,
      1786476047,
      1786476097,
      1786476157,
      1786476167,
      1786476217,
      1786476227,
      1786476277,
      1786476360,
      1786476420,
      1786476480,
      1786476540,
      1786476660,
      1786476720,
      1786476780,
      1786476840,
      1786476900,
      1786476960,
      1786477020,
      1786477081,
      1786477141,
      1786477201,
      1786477261,
      1786477321,
      1786477381,
      1786477441,
      1786477561,
      1786477693,
      1786477753,
      1786477813,
      1786477874,
      1786477934,
      1786478174,
      1786478234,
      1786478294,
      1786478354,
      1786478426,
      1786478486,
      1786478546,
      1786478607,
      1786478667,
      1786478727,
      1786478787,
      1786478847,
      1786478907,
      1786478967,
      1786479027,
      1786479093,
      1786479147,
      1786479213,
      1786479267,
      1786479333,
      1786479393,
      1786479448,
      1786479508,
      1786479568,
      1786479628,
      1786479688,
      1786479748,
      1786479814,
      1786479874,
      1786479934,
      1786479994,
      1786480054,
      1786480114,
      1786480174,
      1786480234,
      1786480294,
      1786480354,
      1786480414,
      1786480475,
      1786480535,
      1786480595,
      1786480655,
      1786480715,
      1786480767,
      1786480775,
      1786480827,
      1786480835,
      1786480887,
      1786480895,
      1786480947,
      1786480955,
      1786481007,
      1786481015,
      1786481067,
      1786481075,
      1786481127,
      1786481135,
      1786481187,
      1786481196,
      1786481248,
      1786481256,
      1786481308,
      1786481316,
      1786481368,
      1786481376,
      1786481428,
      1786481436,
      1786481488,
      1786481496,
      1786481548,
      1786481556,
      1786481608,
      1786481616,
      1786481668,
      1786481676,
      1786481728,
      1786481736,
      1786481788,
      1786481848,
      1786481908,
      1786481969,
      1786482029,
      1786482089,
      1786482149,
      1786482209,
      1786482269,
      1786482329,
      1786482389,
      1786482449,
      1786482509,
      1786482569,
      1786482629,
      1786482690,
      1786482750,
      1786482810,
      1786482870,
      1786482930,
      1786482990,
      1786483050,
      1786483110,
      1786483170,
      1786483230,
      1786483290,
      1786483350,
      1786483410,
      1786483471,
      1786483531,
      1786483591,
      1786483651,
      1786483711,
      1786483771,
      1786483831,
      1786483891,
      1786483951,
      1786484011,
      1786484131,
      1786484192,
      1786484252,
      1786484312,
      1786484372,
      1786484432,
      1786484492,
      1786484564,
      1786484624,
      1786484684,
      1786484734,
      1786484744,
      1786484795,
      1786484804,
      1786484864,
      1786484925,
      1786484985,
      1786485045,
      1786485105,
      1786485165,
      1786485215,
      1786485275,
      1786485336,
      1786485396,
      1786485456,
      1786485516,
      1786485576,
      1786485627,
      1786485636,
      1786485688,
      1786485696,
      1786485748,
      1786485756,
      1786485808,
      1786485816,
      1786485868,
      1786485877,
      1786485928,
      1786485937,
      1786485988,
      1786485997,
      1786486048,
      1786486057,
      1786486108,
      1786486117,
      1786486168,
      1786486177,
      1786486228,
      1786486237,
      1786486289,
      1786486297,
      1786486349,
      1786486357,
      1786486417,
      1786486478,
      1786486529,
      1786486589,
      1786486649,
      1786486709,
      1786486769,
      1786486829,
      1786486890,
      1786486950,
      1786487010,
      1786487070,
      1786487098,
      1786487130,
      1786487158,
      1786487190,
      1786487218,
      1786487250,
      1786487278,
      1786487310,
      1786487370,
      1786487398,
      1786487430,
      1786487459,
      1786487491,
      1786487519,
      1786487551,
      1786487579,
      1786487611,
      1786487639,
      1786487671,
      1786487699,
      1786487731,
      1786487759,
      1786487791,
      1786487819,
      1786487851,
      1786487911,
      1786487939,
      1786487972,
      1786487999,
      1786488032,
      1786488060,
      1786488092,
      1786488120,
      1786488152,
      1786488180,
      1786488212,
      1786488240,
      1786488272,
      1786488300,
      1786488332,
      1786488360,
      1786488392,
      1786488420,
      1786488452,
      1786488480,
      1786488540,
      1786488572,
      1786488600,
      1786488633,
      1786488660,
      1786488693,
      1786488721,
      1786488753,
      1786488781,
      1786488813,
      1786488841,
      1786488873,
      1786488901,
      1786488933,
      1786488961,
      1786488993,
      1786489021,
      1786489053,
      1786489081,
      1786489113,
      1786489141,
      1786489171,
      1786489201,
      1786489231,
      1786489261,
      1786489291,
      1786489321,
      1786489351,
      1786489382,
      1786489411,
      1786489442,
      1786489471,
      1786489502,
      1786489520,
      1786489562,
      1786489634,
      1786489682,
      1786489697,
      1786489742,
      1786489756,
      1786489802,
      1786489823,
      1786489874,
      1786489880,
      1786489934,
      1786489995,
      1786490055,
      1786490115,
      1786490175,
      1786490235,
      1786490279,
      1786490295,
      1786490345,
      1786490355,
      1786490406,
      1786490415,
      1786490466,
      1786490475,
      1786490523,
      1786490535,
      1786490595,
      1786490656
    ],
    "wof:geomhash": "633ec10a54e2390087fc922daa3b78ce",
    "wof:id": 2047928581,
    "wof:repo": "sfomuseum-data-flights-2026-08"
  },
  "bbox": [
    -122.40833333333335,
    37.651111111111106,
    -74.98305555555555,
    43.606944444444444
  ],
  "geometry": {"type":"LineString","coordinates":[[-122.40833333333335,37.651111111111106],[-122.38333333333334,37.666666666666664],[-122.33555555555554,37.67805555555555],[-122.3,37.68333333333333],[-122.24944444444445,37.711666666666666],[-122.19694444444445,37.77833333333333],[-122.11749999999999,37.83416666666667],[-122.03194444444445,37.89388888888889],[-121.93527777777778,37.96083333333333],[-121.82527777777777,38.036944444444444],[-121.70333333333333,38.12138888888889],[-121.58805555555556,38.200833333333335],[-121.4713888888889,38.280833333333334],[-121.35138888888888,38.36027777777778],[-121.22527777777778,38.43833333333333],[-121.09916666666666,38.51611111111111],[-120.96888888888888,38.59638888888889],[-120.83361111111111,38.67916666666667],[-120.69805555555556,38.761944444444445],[-120.66250000000001,38.78138888888889],[-120.56027777777777,38.845555555555556],[-120.52277777777778,38.86611111111111],[-120.41861111111112,38.93138888888889],[-120.3825,38.95194444444445],[-120.23861111111111,39.03722222222222],[-120.13555555555556,39.10138888888889],[-120.09777777777778,39.121944444444445],[-119.98527777777778,39.191111111111105],[-119.84388888888888,39.275],[-119.81777777777778,39.28944444444444],[-119.70083333333334,39.35944444444445],[-119.67500000000001,39.375277777777775],[-119.55805555555555,39.44361111111111],[-119.5325,39.45916666666667],[-119.41472222222222,39.52777777777778],[-119.38916666666667,39.54277777777778],[-119.26944444444445,39.61222222222222],[-119.24333333333334,39.6275],[-119.095,39.71388888888889],[-118.94888888888889,39.79833333333333],[-118.83027777777778,39.86611111111111],[-118.80138888888888,39.880833333333335],[-118.64,39.94888888888889],[-118.47722222222222,40.015],[-118.34416666666667,40.06888888888889],[-118.315,40.080555555555556],[-118.15222222222222,40.14611111111111],[-117.98777777777778,40.20916666666667],[-117.84472222222222,40.25222222222222],[-117.81805555555555,40.26027777777778],[-117.67916666666667,40.30222222222222],[-117.64833333333334,40.311388888888885],[-117.47666666666667,40.362500000000004],[-117.33694444444444,40.40416666666667],[-117.30722222222222,40.41277777777778],[-117.16638888888889,40.45444444444445],[-117.13583333333334,40.46333333333334],[-116.99083333333333,40.505833333333335],[-116.81416666666667,40.5575],[-116.81638888888888,40.556666666666665],[-116.67555555555556,40.597500000000004],[-116.64305555555556,40.606944444444444],[-116.50277777777778,40.64722222222222],[-116.26138888888889,40.71611111111111],[-116.08916666666666,40.764722222222225],[-115.9175,40.812777777777775],[-115.74277777777777,40.861666666666665],[-115.39611111111111,40.9575],[-115.22027777777778,41.00555555555555],[-115.04555555555555,41.05305555555555],[-114.8711111111111,41.10027777777778],[-114.68666666666667,41.14944444444444],[-114.51138888888889,41.19638888888888],[-114.33583333333333,41.2425],[-114.15833333333335,41.28583333333333],[-113.97833333333334,41.32972222222222],[-113.79972222222221,41.37583333333333],[-113.62583333333333,41.42944444444444],[-113.45083333333334,41.48305555555556],[-113.27333333333333,41.536944444444444],[-113.09916666666666,41.589444444444446],[-112.74305555555556,41.69555555555555],[-112.35111111111111,41.81083333333333],[-112.16916666666667,41.85666666666667],[-111.9863888888889,41.900277777777774],[-111.80499999999999,41.94333333333333],[-111.62083333333332,41.986666666666665],[-110.89861111111112,42.15277777777778],[-110.71388888888889,42.19444444444444],[-110.52972222222222,42.23555555555556],[-110.34277777777777,42.276944444444446],[-110.15472222222223,42.318333333333335],[-109.93111111111112,42.36694444444444],[-109.7461111111111,42.40694444444444],[-109.55833333333334,42.44694444444444],[-109.37222222222222,42.48638888888889],[-109.18194444444445,42.52638888888889],[-108.99194444444444,42.56583333333333],[-108.80222222222221,42.605000000000004],[-108.61555555555555,42.643055555555556],[-108.42500000000001,42.681666666666665],[-108.23305555555555,42.72],[-108.00361111111111,42.76555555555556],[-107.85138888888888,42.79555555555555],[-107.6211111111111,42.84],[-107.46611111111112,42.87],[-107.26527777777778,42.908055555555556],[-107.06444444444445,42.94611111111111],[-106.87416666666665,42.98166666666667],[-106.68388888888889,43.016666666666666],[-106.495,43.05138888888889],[-106.30499999999999,43.08527777777778],[-106.10833333333333,43.10277777777778],[-105.91527777777779,43.11694444444444],[-105.71833333333333,43.13055555555555],[-105.52333333333333,43.14416666666666],[-105.3286111111111,43.15694444444444],[-105.13611111111112,43.169444444444444],[-104.94027777777778,43.181666666666665],[-104.74388888888889,43.19361111111111],[-104.54666666666667,43.20527777777778],[-104.35138888888888,43.21638888888889],[-104.15777777777778,43.227222222222224],[-103.96166666666667,43.23777777777778],[-103.76777777777778,43.24777777777778],[-103.56972222222223,43.25805555555556],[-103.37416666666665,43.2675],[-103.17888888888889,43.276666666666664],[-102.98194444444445,43.285555555555554],[-102.78611111111111,43.29416666666666],[-102.60222222222221,43.301944444444445],[-102.58694444444444,43.30277777777778],[-102.39694444444446,43.31027777777778],[-102.38972222222223,43.31055555555555],[-102.19888888888889,43.31777777777778],[-102.19083333333333,43.31805555555556],[-102.00111111111111,43.32527777777778],[-101.99111111111111,43.32555555555556],[-101.80972222222222,43.331944444444446],[-101.80361111111111,43.33222222222223],[-101.6111111111111,43.33861111111111],[-101.60805555555555,43.33861111111111],[-101.41388888888889,43.344722222222224],[-101.41388888888889,43.344722222222224],[-101.21861111111112,43.35055555555556],[-101.22,43.35055555555556],[-101.02222222222223,43.35611111111111],[-101.02416666666666,43.35611111111111],[-100.82888888888888,43.361111111111114],[-100.83027777777778,43.361111111111114],[-100.63777777777779,43.36638888888889],[-100.6363888888889,43.36638888888889],[-100.44472222222223,43.376111111111115],[-100.44333333333334,43.376111111111115],[-100.24722222222222,43.385555555555555],[-100.24888888888889,43.385555555555555],[-100.05611111111111,43.39416666666666],[-100.05583333333333,43.39416666666666],[-99.85944444444443,43.4],[-99.8611111111111,43.4],[-99.66666666666667,43.39972222222222],[-99.62833333333333,43.39972222222222],[-99.47277777777778,43.400555555555556],[-99.43305555555555,43.40083333333333],[-99.27638888888889,43.402499999999996],[-99.08305555555555,43.404444444444444],[-98.90333333333334,43.406388888888884],[-98.7088888888889,43.40888888888889],[-98.5125,43.41111111111111],[-98.31916666666666,43.4175],[-98.16388888888889,43.422777777777775],[-97.93111111111112,43.42972222222222],[-97.7375,43.43527777777778],[-97.54388888888889,43.440555555555555],[-97.35055555555554,43.445277777777775],[-97.15583333333333,43.44972222222222],[-97.00166666666667,43.45305555555556],[-96.80555555555556,43.45722222222223],[-96.53472222222221,43.46194444444445],[-96.33611111111111,43.46527777777778],[-96.14083333333333,43.468333333333334],[-95.94444444444444,43.47083333333334],[-95.74972222222222,43.473055555555554],[-95.595,43.474722222222226],[-95.35916666666667,43.48361111111111],[-95.165,43.50194444444445],[-94.97500000000001,43.52638888888889],[-94.78361111111111,43.55222222222222],[-94.59388888888888,43.57944444444445],[-94.40611111111112,43.605000000000004],[-94.20666666666666,43.606944444444444],[-94.04277777777777,43.60444444444445],[-93.85277777777777,43.60111111111111],[-93.66166666666668,43.597500000000004],[-93.46833333333333,43.593611111111116],[-93.27666666666667,43.58916666666667],[-93.06055555555555,43.58388888888889],[-92.86527777777778,43.57888888888889],[-92.67166666666667,43.57361111111111],[-92.47972222222222,43.56777777777778],[-92.28611111111111,43.56166666666666],[-92.09166666666667,43.555277777777775],[-91.70222222222222,43.541666666666664],[-91.50722222222223,43.534166666666664],[-91.31277777777777,43.52638888888889],[-91.11805555555554,43.51861111111111],[-90.92027777777778,43.51],[-90.7225,43.50111111111111],[-90.52722222222222,43.49194444444444],[-90.29333333333334,43.480555555555554],[-90.0975,43.47083333333334],[-89.94027777777778,43.46277777777778],[-89.74666666666667,43.452222222222225],[-89.7038888888889,43.45],[-89.55138888888888,43.44138888888889],[-89.50555555555556,43.43888888888888],[-89.31055555555555,43.42777777777778],[-89.11527777777778,43.41638888888889],[-88.91916666666667,43.404444444444444],[-88.72277777777778,43.39222222222222],[-88.53166666666667,43.38],[-88.3386111111111,43.367222222222225],[-88.18916666666667,43.35722222222223],[-87.99222222222222,43.343611111111116],[-87.79555555555555,43.32972222222222],[-87.59722222222221,43.31527777777777],[-87.40083333333334,43.30083333333333],[-87.20222222222222,43.28583333333333],[-87.00583333333333,43.27027777777778],[-86.80777777777777,43.25472222222222],[-86.80583333333333,43.254444444444445],[-86.61055555555555,43.23888888888889],[-86.6111111111111,43.23861111111111],[-86.41361111111112,43.222500000000004],[-86.41333333333334,43.222500000000004],[-86.215,43.205555555555556],[-86.215,43.205555555555556],[-86.015,43.18805555555555],[-86.015,43.18805555555555],[-85.8561111111111,43.174166666666665],[-85.8111111111111,43.17027777777778],[-85.65861111111111,43.156666666666666],[-85.61444444444444,43.152499999999996],[-85.45972222222223,43.138333333333335],[-85.42083333333333,43.13472222222222],[-85.26694444444445,43.12027777777778],[-85.22583333333334,43.11638888888889],[-85.07166666666666,43.10194444444445],[-85.02916666666667,43.09777777777778],[-84.87527777777777,43.08277777777778],[-84.83388888888888,43.07888888888889],[-84.67944444444444,43.06361111111111],[-84.64083333333333,43.05972222222222],[-84.48388888888888,43.04388888888889],[-84.44444444444444,43.04],[-84.25083333333333,43.019999999999996],[-84.05638888888889,43],[-83.88277777777778,42.981388888888894],[-83.69055555555556,42.96055555555556],[-83.49583333333334,42.934999999999995],[-83.30666666666666,42.904444444444444],[-83.12833333333333,42.85027777777778],[-82.95361111111112,42.79055555555556],[-82.78083333333333,42.730555555555554],[-82.60749999999999,42.669999999999995],[-82.43583333333333,42.609722222222224],[-82.26388888888889,42.549166666666665],[-82.19916666666667,42.5225],[-82.08888888888889,42.48694444444445],[-82.02361111111111,42.46083333333333],[-81.93194444444445,42.43055555555555],[-81.84805555555555,42.3975],[-81.75722222222223,42.367777777777775],[-81.67722222222223,42.33777777777778],[-81.58555555555554,42.30583333333333],[-81.41166666666668,42.2425],[-81.33,42.211111111111116],[-81.23666666666666,42.17833333333333],[-81.15666666666667,42.14611111111111],[-81.06055555555555,42.11361111111111],[-80.98222222222222,42.08222222222223],[-80.88722222222223,42.04888888888889],[-80.80888888888889,42.01861111111111],[-80.71194444444444,41.98361111111111],[-80.63583333333334,41.953611111111115],[-80.53861111111111,41.91861111111111],[-80.46277777777777,41.89055555555556],[-80.3561111111111,41.87888888888889],[-80.27361111111111,41.876666666666665],[-80.16555555555556,41.88],[-80.08055555555555,41.88],[-79.97111111111111,41.88194444444444],[-79.7786111111111,41.88361111111111],[-79.69861111111112,41.871944444444445],[-79.60638888888889,41.83888888888889],[-79.54277777777777,41.80277777777778],[-79.45305555555557,41.75333333333333],[-79.3963888888889,41.719166666666666],[-79.30222222222221,41.66888888888889],[-79.24222222222222,41.63472222222222],[-79.1525,41.584722222222226],[-79.08305555555555,41.54527777777778],[-79.005,41.50111111111111],[-78.93277777777779,41.46],[-78.85527777777777,41.41583333333333],[-78.78472222222221,41.37555555555556],[-78.71916666666667,41.338055555555556],[-78.64527777777778,41.29555555555555],[-78.57722222222222,41.256388888888885],[-78.4975,41.21027777777778],[-78.4388888888889,41.17666666666666],[-78.37472222222222,41.13944444444444],[-78.24305555555556,41.062777777777775],[-78.16027777777778,41.01444444444444],[-78.10888888888888,40.98444444444444],[-78.03111111111112,40.93888888888888],[-77.97777777777777,40.90694444444444],[-77.89944444444446,40.855000000000004],[-77.85138888888888,40.82361111111111],[-77.79916666666666,40.78916666666667],[-77.72277777777778,40.73861111111111],[-77.6713888888889,40.70472222222222],[-77.5975,40.655833333333334],[-77.54972222222221,40.62416666666667],[-77.47638888888889,40.57333333333334],[-77.44527777777778,40.54138888888889],[-77.38416666666667,40.473333333333336],[-77.34388888888888,40.42722222222222],[-77.30416666666666,40.38166666666667],[-77.26527777777778,40.33833333333334],[-77.22527777777778,40.29361111111111],[-77.19611111111111,40.26138888888889],[-77.14805555555556,40.20888888888889],[-77.11222222222221,40.18194444444444],[-77.03194444444445,40.17111111111111],[-76.9825,40.1675],[-76.90722222222223,40.1625],[-76.85111111111111,40.15888888888889],[-76.77055555555556,40.15333333333333],[-76.72055555555556,40.150277777777774],[-76.64500000000001,40.14527777777778],[-76.59027777777777,40.14138888888889],[-76.51777777777778,40.13666666666666],[-76.45944444444444,40.1325],[-76.38138888888888,40.12722222222222],[-76.33333333333333,40.11666666666667],[-76.2461111111111,40.11805555555556],[-76.08333333333333,40.1],[-75.99777777777778,40.10055555555556],[-75.96666666666667,40.1],[-75.86888888888888,40.09111111111111],[-75.85,40.083333333333336],[-75.75638888888889,40.08277777777778],[-75.71666666666667,40.083333333333336],[-75.62944444444443,40.07666666666667],[-75.61666666666666,40.083333333333336],[-75.51861111111111,40.07138888888889],[-75.4113888888889,40.055],[-75.30555555555556,40.03472222222222],[-75.21472222222222,40.01694444444444],[-75.14166666666668,40.00277777777778],[-75.07305555555556,39.99],[-75.01666666666667,39.983333333333334],[-75.00361111111111,39.97833333333333],[-74.98333333333333,39.95],[-74.98305555555555,39.94027777777777],[-75.01666666666667,39.916666666666664],[-75.03333333333333,39.913333333333334],[-75.08333333333333,39.9],[-75.08805555555556,39.901944444444446],[-75.13333333333334,39.9],[-75.13555555555556,39.89277777777778],[-75.18111111111112,39.88361111111111],[-75.22805555555556,39.87416666666667]]}
}
