{
  "id": 2047942345,
  "type": "Feature",
  "properties": {
    "geom:area": 0,
    "geom:bbox": "-122.548680,36.756520,-121.485800,37.668340",
    "geom:latitude": 37.22274911617141,
    "geom:longitude": -122.08651645821648,
    "src:alt_label": "swim-takeoff",
    "src:geom": "swim",
    "swim:elevations": [
      577,
      1867,
      2398,
      2870,
      3346,
      3495,
      4198,
      4753,
      5426,
      5852,
      6044,
      7047,
      7154,
      7644,
      7769,
      8131,
      8676,
      9165,
      9315,
      9634,
      9776,
      10048,
      10058,
      10058,
      10058
    ],
    "swim:geom": "takeoff",
    "swim:timestamps": [
      1786520738,
      1786520817,
      1786520848,
      1786520872,
      1786520902,
      1786520928,
      1786520976,
      1786521008,
      1786521051,
      1786521087,
      1786521101,
      1786521177,
      1786521187,
      1786521230,
      1786521243,
      1786521284,
      1786521324,
      1786521352,
      1786521365,
      1786521387,
      1786521398,
      1786521433,
      1786521453,
      1786521480,
      1786521486
    ],
    "wof:geomhash": "1e682f48118fbb75209105ce61dba4ae",
    "wof:id": 2047942345,
    "wof:repo": "sfomuseum-data-flights-2026-08"
  },
  "bbox": [
    -122.54868,
    36.75652,
    -121.4858,
    37.66834
  ],
  "geometry": {"type":"LineString","coordinates":[[-122.41556,37.63628],[-122.51428,37.66834],[-122.54868,37.64291],[-122.54526,37.6122],[-122.52427,37.57573],[-122.50371,37.53908],[-122.44797,37.4699],[-122.39494,37.431],[-122.32121,37.37666],[-122.25714,37.32947],[-122.23007,37.30958],[-122.08663,37.20356],[-122.0673,37.18917],[-121.98357,37.12698],[-121.95789,37.10779],[-121.87605,37.04661],[-121.79494,36.98712],[-121.74006,36.94598],[-121.71421,36.92741],[-121.67097,36.89597],[-121.65066,36.88056],[-121.58442,36.83108],[-121.54816,36.80381],[-121.49704,36.76499],[-121.4858,36.75652]]}
}
