{
  "id": 2048054941,
  "type": "Feature",
  "properties": {
    "date:cessation_lower": "1970-01-01",
    "date:cessation_upper": "1970-01-01",
    "date:inception_lower": "2026-08-18",
    "date:inception_upper": "2026-08-18",
    "edtf:cessation": "1970-01-01T00:00:00Z",
    "edtf:inception": "2026-08-18T01:57:04-07:00",
    "flysfo:actual_timestamp": -1,
    "flysfo:airline": "UA",
    "flysfo:base_airline": "",
    "flysfo:base_flight_number": "5289",
    "flysfo:date": "2026-08-18",
    "flysfo:estimated_timestamp": 1787066400,
    "flysfo:event": "D",
    "flysfo:flight_number": "UA1107",
    "flysfo:gate": "E8",
    "flysfo:journey": "SFO-AUS",
    "flysfo:scheduled_timestamp": 1787066700,
    "flysfo:timestamp": 1787066700,
    "geom:area": 0,
    "geom:bbox": "-122.370943,30.206175,-97.643029,37.617990",
    "geom:latitude": 33.9120825,
    "geom:longitude": -110.006986,
    "iata:airline": "UA",
    "iata:base_airline": "",
    "icao:aircraft": "A320",
    "icao:airline": "UAL",
    "icao:base_airline": "ACA",
    "lbl:latitude": 37.619197,
    "lbl:longitude": -122.384496,
    "sfomuseum:aircraft_id": 1159292085,
    "sfomuseum:airline_id": 1159285413,
    "sfomuseum:arrival_id": 102521851,
    "sfomuseum:base_flight_id": "20260818-D-ACA-5289",
    "sfomuseum:departure_id": 102527513,
    "sfomuseum:flight_id": "20260818-D-UAL-1107",
    "sfomuseum:flight_number": [
      "UAL1107",
      "UA1107"
    ],
    "sfomuseum:placetype": "flight",
    "src:geom": "flysfo",
    "src:geom_alt": [
      "swim-takeoff"
    ],
    "swim:tail_number": "N490UA",
    "wof:belongsto": [
      1947304067,
      102527513,
      1947304511,
      102191575,
      85633793,
      102087579,
      85922583,
      554784711,
      85688637,
      1947304515,
      1947304447,
      102085387
    ],
    "wof:country": "US",
    "wof:created": 1787156210,
    "wof:geomhash": "f1e29c4a83094711ef061292cfad3358",
    "wof:hierarchy": [
      {
        "building_id": 1947304067,
        "campus_id": 102527513,
        "concourse_id": 1947304511,
        "continent_id": 102191575,
        "country_id": 85633793,
        "county_id": 102087579,
        "custom_id": 2048054941,
        "flight_id": 2048054941,
        "locality_id": 85922583,
        "postalcode_id": 554784711,
        "region_id": 85688637,
        "venue_id": 1947304515,
        "wing_id": 1947304447
      },
      {
        "building_id": 1947304067,
        "campus_id": 102527513,
        "concourse_id": 1947304511,
        "continent_id": 102191575,
        "country_id": 85633793,
        "county_id": 102085387,
        "custom_id": 2048054941,
        "flight_id": 2048054941,
        "region_id": 85688637,
        "venue_id": 1947304515,
        "wing_id": 1947304447
      }
    ],
    "wof:id": 2048054941,
    "wof:involves": [
      102521851,
      102527513,
      1159285413,
      1947304515,
      1159283597,
      1159292085
    ],
    "wof:lastmodified": 1787156388,
    "wof:name": "UA1107 (SFO-AUS)",
    "wof:parent_id": 1947304515,
    "wof:placetype": "custom",
    "wof:placetype_alt": [
      "flight"
    ],
    "wof:repo": "sfomuseum-data-flights-2026-08",
    "wof:superseded_by": [],
    "wof:supersedes": []
  },
  "bbox": [
    -122.370943,
    30.206175,
    -97.643029,
    37.61799
  ],
  "geometry": {"type":"MultiPoint","coordinates":[[-122.370943,37.61799],[-97.643029,30.206175]]}
}
