{
  "id": 2047875781,
  "type": "Feature",
  "properties": {
    "geom:area": 0,
    "geom:bbox": "-122.825280,37.361870,-122.114910,38.422060",
    "geom:latitude": 37.75551034806657,
    "geom:longitude": -122.4686824243747,
    "src:alt_label": "swim-approach",
    "src:geom": "swim",
    "swim:elevations": [
      7529,
      7468,
      7051,
      6740,
      6581,
      6292,
      5930,
      5519,
      4839,
      4733,
      4627,
      4349,
      4073,
      3869,
      3730,
      3524,
      3433,
      3388,
      3371,
      3353,
      3353,
      3353,
      3353,
      3353,
      3320,
      3162,
      2916,
      2726,
      2701,
      2438,
      2407,
      2396,
      2273,
      2058,
      1963,
      1801,
      1550,
      1448,
      1314,
      1220,
      1219,
      1249,
      1216,
      1253,
      1090,
      920,
      914,
      787,
      666,
      527,
      455,
      326,
      267,
      252,
      164,
      123,
      58
    ],
    "swim:geom": "approach",
    "swim:timestamps": [
      1786086508,
      1786086517,
      1786086562,
      1786086598,
      1786086614,
      1786086643,
      1786086676,
      1786086715,
      1786086776,
      1786086784,
      1786086792,
      1786086820,
      1786086851,
      1786086872,
      1786086890,
      1786086924,
      1786086942,
      1786086954,
      1786086960,
      1786087014,
      1786087046,
      1786087076,
      1786087084,
      1786087104,
      1786087135,
      1786087163,
      1786087198,
      1786087226,
      1786087231,
      1786087280,
      1786087287,
      1786087290,
      1786087308,
      1786087338,
      1786087352,
      1786087372,
      1786087400,
      1786087410,
      1786087430,
      1786087467,
      1786087470,
      1786087497,
      1786087510,
      1786087553,
      1786087587,
      1786087616,
      1786087638,
      1786087673,
      1786087707,
      1786087736,
      1786087761,
      1786087796,
      1786087813,
      1786087816,
      1786087838,
      1786087855,
      1786087868
    ],
    "wof:geomhash": "393ae2e6f6974d6cb5e728b37af845cb",
    "wof:id": 2047875781,
    "wof:repo": "sfomuseum-data-flights-2026-08"
  },
  "bbox": [
    -122.82528,
    37.36187,
    -122.11491,
    38.42206
  ],
  "geometry": {"type":"LineString","coordinates":[[-122.82528,38.42206],[-122.8205,38.40575],[-122.79649,38.32395],[-122.7779,38.2603],[-122.77008,38.23368],[-122.75565,38.18416],[-122.73943,38.12865],[-122.72125,38.06611],[-122.69405,37.97176],[-122.6905,37.95954],[-122.68701,37.94735],[-122.67255,37.90456],[-122.63654,37.86487],[-122.60983,37.83985],[-122.58617,37.81759],[-122.54597,37.77976],[-122.52692,37.7616],[-122.51363,37.74902],[-122.50699,37.74272],[-122.45075,37.68977],[-122.42128,37.66224],[-122.39253,37.63497],[-122.38503,37.62792],[-122.36809,37.6094],[-122.34928,37.57708],[-122.33209,37.54891],[-122.31029,37.51323],[-122.29792,37.48213],[-122.29897,37.47667],[-122.32588,37.42581],[-122.3299,37.41859],[-122.33159,37.41552],[-122.33943,37.39686],[-122.32283,37.368],[-122.30359,37.36187],[-122.27642,37.36427],[-122.23938,37.3758],[-122.22633,37.38097],[-122.20052,37.39125],[-122.15545,37.41104],[-122.15269,37.4134],[-122.13286,37.43511],[-122.12441,37.44489],[-122.11491,37.48038],[-122.13109,37.50369],[-122.14926,37.52151],[-122.16721,37.5309],[-122.19873,37.5445],[-122.22792,37.55685],[-122.2531,37.56754],[-122.27232,37.57559],[-122.2984,37.5865],[-122.31056,37.59161],[-122.31286,37.59261],[-122.32786,37.59892],[-122.33999,37.604],[-122.34896,37.60774]]}
}
