{
  "id": 2032120941,
  "type": "Feature",
  "properties": {
    "geom:area": 0,
    "geom:bbox": "-122.461389,37.650000,-122.088333,48.548889",
    "geom:latitude": 43.05160752052746,
    "geom:longitude": -122.19449915724256,
    "src:alt_label": "swim-path",
    "src:geom": "swim",
    "swim:altitudes": [
      "016",
      "021",
      "032",
      "052",
      "075",
      "097",
      "127",
      "129",
      "143",
      "147",
      "162",
      "165",
      "178",
      "190",
      "194",
      "204",
      "208",
      "219",
      "223",
      "237",
      "246",
      "249",
      "260",
      "267",
      "279",
      "283",
      "294",
      "302",
      "304",
      "312",
      "314",
      "320",
      "321",
      "328",
      "329",
      "336",
      "340C",
      "340C",
      "340C",
      "340C",
      "340C",
      "340C",
      "340C",
      "340C",
      "340C",
      "340C",
      "340C",
      "340C",
      "340C",
      "340C",
      "340C",
      "340C",
      "340C",
      "340C",
      "340C",
      "340C",
      "340C",
      "340C",
      "340C",
      "340C",
      "340C",
      "340C",
      "340C",
      "340C",
      "340C",
      "340C",
      "340C",
      "340C",
      "340C",
      "340C",
      "340C",
      "340C",
      "340C",
      "340C",
      "340C",
      "340C",
      "340C",
      "340C",
      "340C",
      "340C",
      "340C",
      "340C",
      "340C",
      "340C",
      "340C",
      "340C",
      "340C",
      "340C",
      "340C",
      "340C",
      "340C",
      "340C",
      "340C",
      "340",
      "340",
      "340",
      "337",
      "318",
      "298",
      "276",
      "234",
      "216",
      "198",
      "180",
      "142"
    ],
    "swim:geom": "path",
    "swim:speeds": [
      191,
      190,
      204,
      279,
      288,
      298,
      357,
      351,
      364,
      359,
      370,
      373,
      377,
      387,
      384,
      395,
      392,
      403,
      401,
      406,
      412,
      411,
      423,
      433,
      439,
      444,
      444,
      447,
      447,
      449,
      450,
      453,
      452,
      457,
      460,
      458,
      460,
      461,
      460,
      461,
      460,
      459,
      459,
      458,
      457,
      457,
      457,
      457,
      456,
      456,
      456,
      456,
      456,
      455,
      456,
      456,
      457,
      457,
      458,
      458,
      458,
      458,
      458,
      458,
      457,
      457,
      456,
      456,
      455,
      455,
      456,
      457,
      458,
      459,
      459,
      460,
      460,
      459,
      459,
      459,
      459,
      459,
      460,
      460,
      459,
      458,
      457,
      457,
      457,
      456,
      456,
      456,
      455,
      455,
      455,
      455,
      455,
      450,
      438,
      431,
      412,
      398,
      382,
      371,
      356
    ],
    "swim:timestamps": [
      1785945119,
      1785945139,
      1785945201,
      1785945259,
      1785945319,
      1785945379,
      1785945499,
      1785945514,
      1785945560,
      1785945574,
      1785945620,
      1785945634,
      1785945694,
      1785945740,
      1785945754,
      1785945800,
      1785945814,
      1785945860,
      1785945874,
      1785945934,
      1785945980,
      1785945994,
      1785946054,
      1785946100,
      1785946160,
      1785946175,
      1785946235,
      1785946281,
      1785946295,
      1785946341,
      1785946355,
      1785946401,
      1785946415,
      1785946461,
      1785946475,
      1785946521,
      1785946581,
      1785946655,
      1785946701,
      1785946715,
      1785946775,
      1785946821,
      1785946835,
      1785946896,
      1785946941,
      1785946956,
      1785947002,
      1785947016,
      1785947062,
      1785947076,
      1785947122,
      1785947182,
      1785947196,
      1785947242,
      1785947256,
      1785947316,
      1785947436,
      1785947496,
      1785947542,
      1785947556,
      1785947602,
      1785947616,
      1785947677,
      1785947737,
      1785947797,
      1785947857,
      1785947917,
      1785947977,
      1785948037,
      1785948097,
      1785948157,
      1785948277,
      1785948337,
      1785948397,
      1785948457,
      1785948518,
      1785948578,
      1785948638,
      1785948758,
      1785948818,
      1785948878,
      1785948938,
      1785949058,
      1785949178,
      1785949238,
      1785949299,
      1785949359,
      1785949419,
      1785949479,
      1785949539,
      1785949599,
      1785949659,
      1785949719,
      1785949839,
      1785949899,
      1785949959,
      1785950019,
      1785950080,
      1785950140,
      1785950200,
      1785950320,
      1785950380,
      1785950440,
      1785950500,
      1785950620
    ],
    "wof:geomhash": "e3ce039afeb94a3ad2765460d7d3db57",
    "wof:id": 2032120941,
    "wof:repo": "sfomuseum-data-flights-2026-08"
  },
  "bbox": [
    -122.46138888888889,
    37.65,
    -122.08833333333332,
    48.54888888888889
  ],
  "geometry": {"type":"LineString","coordinates":[[-122.4,37.65],[-122.39333333333335,37.660555555555554],[-122.3386111111111,37.67444444444444],[-122.25805555555556,37.72361111111111],[-122.24472222222222,37.80333333333333],[-122.22500000000001,37.885555555555555],[-122.15027777777779,38.061388888888885],[-122.14166666666668,38.07777777777778],[-122.10222222222221,38.155],[-122.095,38.17166666666667],[-122.09527777777777,38.25861111111111],[-122.08944444444444,38.278055555555554],[-122.08833333333332,38.382777777777775],[-122.09805555555555,38.459722222222226],[-122.09861111111111,38.49111111111111],[-122.1,38.571111111111115],[-122.1,38.60194444444445],[-122.10194444444444,38.683611111111105],[-122.10083333333333,38.71527777777778],[-122.10333333333332,38.82888888888889],[-122.10555555555555,38.91305555555555],[-122.10527777777777,38.94472222222222],[-122.10666666666665,39.064166666666665],[-122.10972222222222,39.15361111111111],[-122.11194444444443,39.27861111111111],[-122.11222222222221,39.30916666666666],[-122.11388888888888,39.43277777777777],[-122.11611111111111,39.5325],[-122.11583333333333,39.55777777777777],[-122.11833333333333,39.657777777777774],[-122.11861111111111,39.68333333333333],[-122.12055555555555,39.784166666666664],[-122.11999999999999,39.80972222222222],[-122.12249999999999,39.911944444444444],[-122.12305555555555,39.936388888888885],[-122.12444444444444,40.038888888888884],[-122.12583333333333,40.163888888888884],[-122.12916666666666,40.33888888888889],[-122.13055555555555,40.415],[-122.13166666666666,40.46638888888889],[-122.13416666666667,40.59444444444445],[-122.13527777777779,40.67055555555555],[-122.1363888888889,40.72],[-122.13861111111112,40.84805555555556],[-122.13972222222223,40.92305555555555],[-122.14055555555557,40.973055555555554],[-122.14222222222223,41.05083333333333],[-122.14305555555556,41.1],[-122.14444444444445,41.17777777777778],[-122.14500000000001,41.22666666666667],[-122.1463888888889,41.30444444444444],[-122.14888888888889,41.43583333333333],[-122.14944444444446,41.462500000000006],[-122.15138888888889,41.56444444444444],[-122.15166666666667,41.58777777777778],[-122.1538888888889,41.71666666666667],[-122.15861111111111,41.97166666666667],[-122.16083333333334,42.10388888888889],[-122.16277777777778,42.20861111111111],[-122.16333333333334,42.233333333333334],[-122.16527777777779,42.33638888888889],[-122.16555555555556,42.36194444444445],[-122.16805555555555,42.48833333333334],[-122.17027777777778,42.61527777777778],[-122.17277777777778,42.74277777777778],[-122.17527777777778,42.870555555555555],[-122.17750000000001,42.99722222222222],[-122.17972222222222,43.12222222222222],[-122.18194444444445,43.24944444444444],[-122.18444444444445,43.37388888888889],[-122.18694444444445,43.500277777777775],[-122.19194444444445,43.75416666666667],[-122.19416666666667,43.88166666666667],[-122.19666666666667,44.00833333333333],[-122.19916666666667,44.13722222222222],[-122.20138888888889,44.263333333333335],[-122.2038888888889,44.39111111111111],[-122.20666666666666,44.51694444444444],[-122.21194444444444,44.7725],[-122.21444444444445,44.909444444444446],[-122.21666666666667,45.03527777777778],[-122.21944444444445,45.16305555555555],[-122.22444444444444,45.418055555555554],[-122.23,45.67222222222222],[-122.2325,45.79833333333333],[-122.235,45.92527777777777],[-122.23777777777778,46.05222222222222],[-122.24055555555556,46.17833333333333],[-122.24305555555556,46.31888888888889],[-122.24583333333334,46.44583333333333],[-122.24861111111112,46.57277777777778],[-122.25138888888888,46.698055555555555],[-122.2538888888889,46.82555555555556],[-122.25944444444444,47.0775],[-122.26222222222222,47.203611111111115],[-122.265,47.330000000000005],[-122.2675,47.455555555555556],[-122.27027777777778,47.5775],[-122.27277777777778,47.69638888888888],[-122.27555555555556,47.81666666666667],[-122.31277777777777,48.04138888888889],[-122.34416666666667,48.14972222222222],[-122.37444444444444,48.25333333333333],[-122.40416666666667,48.35444444444445],[-122.46138888888889,48.54888888888889]]}
}
