{
  "id": 2047931567,
  "type": "Feature",
  "properties": {
    "geom:area": 0,
    "geom:bbox": "-122.562222,32.670278,-117.103056,37.657778",
    "geom:latitude": 35.0709577095501,
    "geom:longitude": -120.14291573151107,
    "src:alt_label": "swim-path",
    "src:geom": "swim",
    "swim:altitudes": [
      "006",
      "012",
      "027",
      "036",
      "054",
      "081",
      "108",
      "117",
      "140",
      "162",
      "180",
      "201",
      "222",
      "239",
      "250",
      "263",
      "277",
      "296",
      "312",
      "330C",
      "330C",
      "330C",
      "330C",
      "330C",
      "330C",
      "330C",
      "330C",
      "330C",
      "330C",
      "330C",
      "330C",
      "330C",
      "330C",
      "330C",
      "330C",
      "330C",
      "330C",
      "330C",
      "330C",
      "330C",
      "330C",
      "330C",
      "330C",
      "330C",
      "330C",
      "330C",
      "330C",
      "330C",
      "330C",
      "330C",
      "330C",
      "330C",
      "330C",
      "330C",
      "330C",
      "330C"
    ],
    "swim:geom": "path",
    "swim:speeds": [
      174,
      174,
      186,
      183,
      256,
      278,
      288,
      296,
      382,
      399,
      414,
      428,
      433,
      442,
      461,
      474,
      478,
      475,
      468,
      461,
      460,
      458,
      456,
      454,
      453,
      452,
      452,
      453,
      454,
      455,
      456,
      457,
      457,
      457,
      457,
      458,
      459,
      460,
      461,
      461,
      462,
      463,
      463,
      464,
      464,
      465,
      465,
      465,
      464,
      462,
      460,
      456,
      453,
      452,
      453,
      452
    ],
    "swim:timestamps": [
      1786465065,
      1786465090,
      1786465119,
      1786465150,
      1786465210,
      1786465270,
      1786465330,
      1786465392,
      1786465452,
      1786465513,
      1786465570,
      1786465633,
      1786465693,
      1786465753,
      1786465813,
      1786465873,
      1786465933,
      1786465993,
      1786466053,
      1786466171,
      1786466231,
      1786466294,
      1786466351,
      1786466411,
      1786466474,
      1786466532,
      1786466592,
      1786466654,
      1786466712,
      1786466772,
      1786466835,
      1786466952,
      1786467015,
      1786467072,
      1786467132,
      1786467195,
      1786467255,
      1786467375,
      1786467435,
      1786467496,
      1786467556,
      1786467676,
      1786467736,
      1786467796,
      1786467856,
      1786467916,
      1786467976,
      1786468036,
      1786468096,
      1786468157,
      1786468217,
      1786468277,
      1786468337,
      1786468397,
      1786468457,
      1786468577
    ],
    "wof:geomhash": "3d7e3ad163696da4071f8df57a78fcaf",
    "wof:id": 2047931567,
    "wof:repo": "sfomuseum-data-flights-2026-08"
  },
  "bbox": [
    -122.56222222222222,
    32.67027777777778,
    -117.10305555555556,
    37.657777777777774
  ],
  "geometry": {"type":"LineString","coordinates":[[-122.4,37.63333333333333],[-122.41027777777778,37.63361111111111],[-122.45,37.65],[-122.46638888888889,37.657777777777774],[-122.53999999999999,37.651111111111106],[-122.54722222222222,37.57555555555556],[-122.54972222222221,37.495555555555555],[-122.55527777777777,37.40416666666667],[-122.55555555555556,37.30083333333333],[-122.5586111111111,37.190555555555555],[-122.56222222222222,37.073055555555555],[-122.53138888888888,36.962500000000006],[-122.455,36.85805555555556],[-122.37777777777777,36.7525],[-122.29638888888888,36.64111111111111],[-122.21444444444445,36.52861111111111],[-122.13027777777778,36.41277777777778],[-122.04805555555555,36.29888888888889],[-121.96833333333333,36.18833333333333],[-121.73666666666666,36.011944444444445],[-121.61277777777777,35.93666666666666],[-121.465,35.84861111111111],[-121.36194444444443,35.78638888888889],[-121.2375,35.71055555555556],[-121.09388888888888,35.623333333333335],[-120.99138888888889,35.56027777777778],[-120.87055555555555,35.486111111111114],[-120.7375,35.404444444444444],[-120.625,35.334722222222226],[-120.5025,35.25888888888889],[-120.36694444444444,35.174166666666665],[-120.11472222222221,35.01611111111111],[-119.99305555555556,34.93944444444444],[-119.86944444444444,34.86138888888889],[-119.7475,34.784166666666664],[-119.62777777777777,34.70805555555556],[-119.50416666666666,34.629444444444445],[-119.26583333333333,34.476111111111116],[-119.14277777777778,34.39694444444444],[-119.0213888888889,34.318333333333335],[-118.89888888888889,34.23777777777778],[-118.69305555555556,34.04666666666667],[-118.58999999999999,33.94972222222222],[-118.48694444444445,33.85305555555556],[-118.36638888888888,33.74027777777778],[-118.26472222222222,33.65333333333333],[-118.15555555555557,33.56361111111111],[-118.04472222222222,33.470555555555556],[-117.93805555555556,33.38055555555555],[-117.83,33.28972222222222],[-117.7225,33.198611111111106],[-117.61694444444444,33.10944444444445],[-117.51138888888889,33.01972222222222],[-117.40722222222223,32.93055555555555],[-117.30277777777778,32.84138888888889],[-117.10305555555556,32.67027777777778]]}
}
