{
  "id": 2047903333,
  "type": "Feature",
  "properties": {
    "date:cessation_lower": "2026-08-10",
    "date:cessation_upper": "2026-08-10",
    "date:inception_lower": "2026-08-09",
    "date:inception_upper": "2026-08-09",
    "edtf:cessation": "2026-08-10T03:46:43Z",
    "edtf:inception": "2026-08-09T15:18:00Z",
    "flysfo:actual_timestamp": -1,
    "flysfo:airline": "UA",
    "flysfo:date": "2026-08-09",
    "flysfo:estimated_timestamp": 1786287420,
    "flysfo:event": "D",
    "flysfo:flight_number": "UA3884",
    "flysfo:gate": "G10",
    "flysfo:journey": "SFO-XMN",
    "flysfo:scheduled_timestamp": 1786287600,
    "flysfo:timestamp": 1786287600,
    "geom:area": 0,
    "geom:bbox": "-122.370943,24.540839,118.135698,37.617990",
    "geom:latitude": 31.0794145,
    "geom:longitude": -2.117622499999996,
    "iata:airline": "UA",
    "icao:aircraft": "B772",
    "icao:airline": "UAL",
    "lbl:latitude": 37.618742,
    "lbl:longitude": -122.392935,
    "sfomuseum:aircraft_id": 1159289985,
    "sfomuseum:airline_id": 1159285413,
    "sfomuseum:arrival_id": 102550865,
    "sfomuseum:departure_id": 102527513,
    "sfomuseum:flight_id": "20260809-D-UAL-3884",
    "sfomuseum:flight_number": [
      "UAL3884",
      "UA3884"
    ],
    "sfomuseum:placetype": "flight",
    "src:geom": "flysfo",
    "src:geom_alt": [
      "swim-path",
      "swim-takeoff"
    ],
    "swim:tail_number": "N782UA",
    "wof:belongsto": [
      1947304067,
      102527513,
      1947304129,
      102191575,
      85633793,
      102087579,
      85922583,
      554784711,
      85688637,
      1947304157,
      1947304069,
      102085387
    ],
    "wof:concordances": {
      "swim:flight_ref": "154130223"
    },
    "wof:country": "US",
    "wof:created": 1786378677,
    "wof:geomhash": "325a27079583eb22ad4e829d7b21e0b3",
    "wof:hierarchy": [
      {
        "building_id": 1947304067,
        "campus_id": 102527513,
        "concourse_id": 1947304129,
        "continent_id": 102191575,
        "country_id": 85633793,
        "county_id": 102087579,
        "custom_id": 2047903333,
        "flight_id": 2047903333,
        "locality_id": 85922583,
        "postalcode_id": 554784711,
        "region_id": 85688637,
        "venue_id": 1947304157,
        "wing_id": 1947304069
      },
      {
        "building_id": 1947304067,
        "campus_id": 102527513,
        "concourse_id": 1947304129,
        "continent_id": 102191575,
        "country_id": 85633793,
        "county_id": 102085387,
        "custom_id": 2047903333,
        "flight_id": 2047903333,
        "region_id": 85688637,
        "venue_id": 1947304157,
        "wing_id": 1947304069
      }
    ],
    "wof:id": 2047903333,
    "wof:involves": [
      102527513,
      1159285413,
      1947304157,
      1159289985,
      102550865
    ],
    "wof:lastmodified": 1786378870,
    "wof:name": "UA3884 (SFO-XMN)",
    "wof:parent_id": 1947304157,
    "wof:placetype": "custom",
    "wof:placetype_alt": [
      "flight"
    ],
    "wof:repo": "sfomuseum-data-flights-2026-08",
    "wof:superseded_by": [],
    "wof:supersedes": []
  },
  "bbox": [
    -122.370943,
    24.540839,
    118.135698,
    37.61799
  ],
  "geometry": {"type":"MultiPoint","coordinates":[[-122.370943,37.61799],[118.135698,24.540839]]}
}
