{
  "id": 2047959983,
  "type": "Feature",
  "properties": {
    "geom:area": 0,
    "geom:bbox": "-122.516667,33.951111,-118.116667,37.666667",
    "geom:latitude": 35.65860154753746,
    "geom:longitude": -120.24644154545774,
    "src:alt_label": "swim-path",
    "src:geom": "swim",
    "swim:altitudes": [
      "017",
      "041",
      "065",
      "072",
      "101",
      "120",
      "138",
      "148",
      "161",
      "170",
      "181",
      "190",
      "201",
      "210",
      "220",
      "228",
      "235",
      "245",
      "253",
      "260",
      "269",
      "275",
      "283",
      "299",
      "309",
      "317",
      "320",
      "328C",
      "330C",
      "330C",
      "330C",
      "330C",
      "330C",
      "330C",
      "330C",
      "330C",
      "330C",
      "330C",
      "330C",
      "330C",
      "330C",
      "330C",
      "330C",
      "330C",
      "330C",
      "330",
      "330",
      "328",
      "326",
      "320",
      "310",
      "304",
      "300",
      "294",
      "293",
      "290",
      "290",
      "290",
      "290",
      "290",
      "290",
      "290",
      "287",
      "271",
      "266",
      "251",
      "234",
      "219",
      "202",
      "186",
      "169",
      "153",
      "146",
      "140",
      "132",
      "125",
      "119",
      "112",
      "107",
      "101",
      "097",
      "091",
      "085",
      "082",
      "079",
      "074",
      "069",
      "063",
      "059",
      "055",
      "050",
      "047",
      "043",
      "040",
      "040",
      "034",
      "027",
      "026",
      "026",
      "026",
      "026",
      "026",
      "016",
      "012",
      "001"
    ],
    "swim:geom": "path",
    "swim:speeds": [
      187,
      218,
      269,
      271,
      283,
      319,
      317,
      336,
      337,
      349,
      350,
      366,
      362,
      380,
      381,
      392,
      391,
      404,
      405,
      415,
      415,
      421,
      423,
      433,
      440,
      441,
      449,
      460,
      452,
      459,
      457,
      460,
      459,
      436,
      432,
      428,
      428,
      426,
      425,
      425,
      424,
      424,
      418,
      417,
      416,
      408,
      403,
      394,
      394,
      404,
      426,
      428,
      428,
      419,
      412,
      390,
      390,
      404,
      405,
      376,
      375,
      376,
      379,
      381,
      381,
      374,
      359,
      354,
      349,
      343,
      335,
      328,
      313,
      293,
      276,
      264,
      254,
      253,
      242,
      244,
      257,
      256,
      256,
      241,
      218,
      215,
      211,
      212,
      194,
      196,
      192,
      190,
      186,
      187,
      182,
      186,
      186,
      186,
      189,
      188,
      191,
      190,
      184,
      159,
      151
    ],
    "swim:timestamps": [
      1786643405,
      1786643449,
      1786643509,
      1786643537,
      1786643597,
      1786643657,
      1786643698,
      1786643717,
      1786643759,
      1786643777,
      1786643819,
      1786643838,
      1786643879,
      1786643898,
      1786643939,
      1786643958,
      1786643999,
      1786644018,
      1786644059,
      1786644078,
      1786644119,
      1786644138,
      1786644179,
      1786644258,
      1786644318,
      1786644359,
      1786644378,
      1786644420,
      1786644438,
      1786644480,
      1786644499,
      1786644540,
      1786644559,
      1786644600,
      1786644619,
      1786644660,
      1786644679,
      1786644720,
      1786644780,
      1786644799,
      1786644840,
      1786644859,
      1786644919,
      1786644960,
      1786644979,
      1786645020,
      1786645039,
      1786645081,
      1786645099,
      1786645141,
      1786645220,
      1786645261,
      1786645280,
      1786645321,
      1786645340,
      1786645381,
      1786645400,
      1786645441,
      1786645460,
      1786645501,
      1786645520,
      1786645561,
      1786645580,
      1786645621,
      1786645640,
      1786645681,
      1786645742,
      1786645802,
      1786645862,
      1786645922,
      1786645982,
      1786646042,
      1786646064,
      1786646102,
      1786646124,
      1786646162,
      1786646184,
      1786646222,
      1786646244,
      1786646282,
      1786646304,
      1786646342,
      1786646364,
      1786646403,
      1786646424,
      1786646463,
      1786646484,
      1786646523,
      1786646545,
      1786646583,
      1786646605,
      1786646643,
      1786646665,
      1786646703,
      1786646725,
      1786646763,
      1786646785,
      1786646823,
      1786646845,
      1786646883,
      1786646905,
      1786646943,
      1786647003,
      1786647025,
      1786647124
    ],
    "wof:geomhash": "93fdd74fdbcbce2d1921d7d4562d9727",
    "wof:id": 2047959983,
    "wof:repo": "sfomuseum-data-flights-2026-08"
  },
  "bbox": [
    -122.51666666666667,
    33.95111111111111,
    -118.11666666666666,
    37.666666666666664
  ],
  "geometry": {"type":"LineString","coordinates":[[-122.42833333333334,37.64055555555556],[-122.48333333333333,37.666666666666664],[-122.51666666666667,37.6],[-122.51361111111112,37.581944444444446],[-122.46000000000001,37.51611111111111],[-122.37972222222221,37.45777777777778],[-122.31527777777778,37.406388888888884],[-122.2786111111111,37.380833333333335],[-122.22888888888889,37.34055555555556],[-122.19222222222223,37.31472222222222],[-122.14027777777778,37.27111111111111],[-122.10055555555554,37.244166666666665],[-122.05055555555555,37.197222222222216],[-122.00444444444445,37.17027777777778],[-121.95166666666667,37.12361111111111],[-121.90694444444445,37.094722222222224],[-121.87222222222222,37.06166666666666],[-121.80666666666666,37.01694444444444],[-121.74666666666667,36.967777777777776],[-121.7025,36.93583333333333],[-121.64333333333335,36.885555555555555],[-121.59666666666666,36.85305555555556],[-121.53722222222223,36.801944444444445],[-121.39861111111112,36.69777777777777],[-121.29166666666667,36.61333333333334],[-121.21027777777778,36.54527777777778],[-121.18,36.525],[-121.09305555555555,36.45611111111111],[-121.06833333333333,36.43666666666666],[-120.97500000000001,36.37166666666667],[-120.94805555555556,36.35333333333333],[-120.85333333333332,36.2875],[-120.82722222222222,36.269444444444446],[-120.73861111111111,36.20666666666667],[-120.71333333333334,36.18861111111111],[-120.6286111111111,36.12888888888889],[-120.60416666666666,36.111666666666665],[-120.51833333333333,36.051111111111105],[-120.40777777777778,35.973055555555554],[-120.3825,35.955000000000005],[-120.29888888888888,35.895833333333336],[-120.27527777777777,35.87722222222222],[-120.19416666666667,35.78055555555555],[-120.13722222222223,35.70527777777778],[-120.11999999999999,35.6825],[-120.06861111111111,35.60333333333333],[-120.06416666666667,35.57916666666667],[-120.08416666666666,35.495555555555555],[-120.09194444444444,35.47138888888889],[-120.07166666666666,35.388333333333335],[-119.91444444444446,35.32972222222222],[-119.80499999999999,35.30611111111111],[-119.75916666666667,35.29611111111111],[-119.66666666666667,35.276944444444446],[-119.6363888888889,35.26861111111111],[-119.56722222222221,35.209722222222226],[-119.5586111111111,35.18527777777778],[-119.53222222222222,35.10111111111111],[-119.52472222222222,35.07611111111112],[-119.50111111111111,34.99722222222222],[-119.49416666666667,34.973888888888894],[-119.46083333333334,34.89888888888889],[-119.44444444444444,34.879444444444445],[-119.385,34.8125],[-119.36694444444444,34.79277777777778],[-119.31,34.72916666666667],[-119.23944444444444,34.647777777777776],[-119.17888888888889,34.5775],[-119.11027777777777,34.5],[-119.04333333333334,34.42388888888889],[-118.97777777777777,34.34805555555556],[-118.91250000000001,34.27611111111111],[-118.88333333333334,34.233333333333334],[-118.84972222222221,34.2075],[-118.81666666666666,34.18333333333333],[-118.7936111111111,34.14944444444444],[-118.76666666666667,34.11666666666667],[-118.7363888888889,34.09638888888889],[-118.71666666666667,34.06666666666667],[-118.68277777777779,34.04694444444444],[-118.65,34.03333333333333],[-118.60499999999999,34.024166666666666],[-118.56666666666666,34.016666666666666],[-118.52166666666666,34.01638888888889],[-118.48333333333333,34.016666666666666],[-118.44916666666667,34.01166666666666],[-118.41666666666667,34.016666666666666],[-118.38,34.02333333333333],[-118.35,34.03333333333333],[-118.315,34.03138888888889],[-118.28333333333333,34.03333333333333],[-118.25111111111111,34.03805555555555],[-118.21666666666667,34.03333333333333],[-118.19,34.04416666666666],[-118.16666666666667,34.05],[-118.12944444444443,34.04388888888889],[-118.11666666666666,34.016666666666666],[-118.12944444444443,33.99888888888889],[-118.15,33.983333333333334],[-118.18361111111112,33.973888888888894],[-118.21666666666667,33.96666666666667],[-118.24777777777778,33.967777777777776],[-118.30888888888889,33.961666666666666],[-118.33333333333333,33.96666666666667],[-118.41027777777778,33.95111111111111]]}
}
