{
  "id": 2047888177,
  "type": "Feature",
  "properties": {
    "geom:area": 0,
    "geom:bbox": "-122.404722,37.616667,-76.516667,40.756944",
    "geom:latitude": 39.70297158320539,
    "geom:longitude": -99.48932621539814,
    "src:alt_label": "swim-path",
    "src:geom": "swim",
    "swim:altitudes": [
      "005",
      "014",
      "024",
      "026",
      "042",
      "055",
      "072",
      "089",
      "105",
      "115",
      "126",
      "142",
      "160",
      "177",
      "191",
      "203",
      "215",
      "225",
      "237",
      "246",
      "258",
      "268",
      "277",
      "285",
      "292",
      "302",
      "311",
      "321",
      "330",
      "340",
      "348C",
      "350C",
      "350C",
      "350C",
      "350C",
      "350C",
      "350C",
      "350C",
      "350C",
      "350C",
      "350C",
      "350C",
      "350C",
      "350C",
      "350C",
      "350C",
      "350C",
      "350C",
      "350C",
      "350C",
      "350C",
      "350C",
      "350C",
      "350C",
      "350C",
      "350C",
      "350C",
      "350C",
      "350C",
      "350C",
      "350C",
      "350C",
      "350C",
      "350C",
      "350C",
      "350C",
      "350C",
      "350C",
      "350C",
      "350C",
      "350C",
      "350C",
      "350C",
      "350C",
      "350C",
      "350C",
      "350C",
      "350C",
      "350C",
      "350C",
      "350C",
      "350C",
      "350C",
      "350C",
      "350C",
      "350C",
      "350C",
      "350C",
      "350C",
      "350C",
      "350C",
      "350C",
      "350C",
      "350C",
      "350C",
      "350C",
      "350C",
      "350C",
      "350C",
      "350C",
      "350C",
      "350C",
      "350C",
      "350C",
      "350C",
      "350C",
      "350C",
      "350C",
      "350C",
      "350C",
      "350C",
      "350C",
      "350C",
      "350C",
      "350C",
      "350C",
      "350C",
      "350C",
      "350C",
      "350C",
      "350C",
      "350C",
      "350C",
      "350C",
      "350C",
      "350C",
      "350C",
      "350C",
      "350C",
      "350C",
      "350C",
      "350C",
      "350C",
      "350C",
      "350C",
      "350C",
      "350C",
      "350C",
      "350C",
      "350C",
      "350C",
      "350C",
      "350C",
      "350C",
      "350C",
      "355",
      "363",
      "370C",
      "370C",
      "370C",
      "370C",
      "370C",
      "370C",
      "370C",
      "370C",
      "370C",
      "370C",
      "370C",
      "370C",
      "370C",
      "370C",
      "370C",
      "370C",
      "370C",
      "370C",
      "370C",
      "370C",
      "370C",
      "370C",
      "370C",
      "370C",
      "370C",
      "370C",
      "370C",
      "370C",
      "370C",
      "370C",
      "370C",
      "370C",
      "370C",
      "370C",
      "370C",
      "370C",
      "370C",
      "370C",
      "370C",
      "370C",
      "370C",
      "370C",
      "370C",
      "370C",
      "370C",
      "370C",
      "370C",
      "370C",
      "370C",
      "370C",
      "370C",
      "370C",
      "370C",
      "370C",
      "370C",
      "370C",
      "370C",
      "370C",
      "370C",
      "370C",
      "370C",
      "370C",
      "370C",
      "370C",
      "370C",
      "370C",
      "370C",
      "370C",
      "370C",
      "370C",
      "370C",
      "370C",
      "370C",
      "370C",
      "370C",
      "370C",
      "370C",
      "370C",
      "370C",
      "370C",
      "370C",
      "370C",
      "370C",
      "370C",
      "370C",
      "370C",
      "370C",
      "370C",
      "370C",
      "370C",
      "370C",
      "370C",
      "370C",
      "370C",
      "370C",
      "370C",
      "370C",
      "370C",
      "370C",
      "370C",
      "370C",
      "370C",
      "370C",
      "370C",
      "370C",
      "370C",
      "370",
      "370",
      "370",
      "364",
      "360",
      "354",
      "350",
      "345",
      "341",
      "335",
      "331C",
      "330C",
      "330C",
      "330C",
      "330C",
      "330C",
      "330C",
      "330C",
      "330C",
      "330C",
      "330C",
      "330C",
      "330C",
      "330C",
      "330C",
      "330C",
      "330C",
      "330C",
      "330C",
      "330C",
      "330C",
      "330C",
      "330C",
      "330C",
      "330C",
      "330C",
      "330C",
      "330C",
      "330C",
      "330C",
      "330C",
      "330C",
      "330C",
      "330C",
      "330C",
      "330C",
      "330C",
      "330C",
      "330C",
      "330C",
      "330C",
      "330C",
      "330C",
      "330C",
      "330C",
      "330C",
      "330C",
      "330",
      "330",
      "330",
      "330",
      "330",
      "330",
      "330",
      "330",
      "330",
      "330",
      "330",
      "330",
      "330",
      "330",
      "330",
      "330",
      "330",
      "330",
      "330",
      "330",
      "330",
      "330",
      "330",
      "330",
      "325",
      "318",
      "309",
      "297",
      "290",
      "282",
      "276",
      "266",
      "259",
      "248",
      "237",
      "219",
      "203",
      "196",
      "190",
      "177",
      "170",
      "165",
      "157",
      "144",
      "134",
      "126",
      "122",
      "117",
      "112",
      "110",
      "110",
      "111",
      "110",
      "110",
      "110",
      "110",
      "110",
      "110",
      "110",
      "110",
      "108",
      "097",
      "091",
      "077",
      "070",
      "064",
      "055",
      "049",
      "040",
      "033",
      "024",
      "021",
      "020",
      "020",
      "020",
      "019",
      "014",
      "011",
      "006",
      "001"
    ],
    "swim:geom": "path",
    "swim:speeds": [
      163,
      180,
      220,
      221,
      234,
      267,
      277,
      292,
      302,
      336,
      375,
      382,
      386,
      392,
      405,
      415,
      425,
      439,
      437,
      457,
      461,
      469,
      479,
      484,
      488,
      494,
      494,
      495,
      494,
      491,
      489,
      487,
      486,
      487,
      487,
      488,
      488,
      488,
      488,
      489,
      490,
      491,
      493,
      495,
      495,
      495,
      493,
      490,
      488,
      488,
      489,
      491,
      492,
      492,
      493,
      493,
      494,
      495,
      496,
      498,
      500,
      501,
      502,
      504,
      504,
      505,
      506,
      507,
      507,
      507,
      507,
      508,
      510,
      508,
      510,
      508,
      509,
      508,
      508,
      507,
      507,
      506,
      506,
      506,
      506,
      506,
      506,
      506,
      507,
      507,
      507,
      507,
      507,
      507,
      507,
      507,
      507,
      507,
      507,
      507,
      507,
      507,
      507,
      507,
      507,
      507,
      508,
      508,
      509,
      509,
      509,
      510,
      511,
      511,
      512,
      512,
      512,
      513,
      514,
      515,
      514,
      512,
      511,
      511,
      511,
      510,
      509,
      508,
      507,
      506,
      507,
      508,
      507,
      508,
      508,
      506,
      505,
      504,
      503,
      504,
      504,
      505,
      506,
      506,
      506,
      506,
      504,
      502,
      501,
      501,
      500,
      500,
      499,
      499,
      498,
      501,
      499,
      498,
      498,
      498,
      498,
      498,
      498,
      498,
      498,
      498,
      499,
      499,
      499,
      499,
      489,
      488,
      487,
      486,
      485,
      485,
      484,
      483,
      483,
      482,
      482,
      482,
      482,
      483,
      484,
      484,
      484,
      484,
      484,
      484,
      484,
      483,
      483,
      483,
      483,
      483,
      484,
      485,
      486,
      487,
      488,
      489,
      489,
      490,
      490,
      490,
      490,
      488,
      484,
      482,
      481,
      480,
      480,
      481,
      481,
      482,
      482,
      483,
      484,
      484,
      485,
      484,
      484,
      483,
      482,
      484,
      486,
      490,
      492,
      494,
      494,
      495,
      495,
      495,
      494,
      496,
      494,
      496,
      493,
      493,
      494,
      493,
      494,
      494,
      495,
      495,
      497,
      497,
      498,
      499,
      499,
      499,
      500,
      500,
      500,
      499,
      499,
      499,
      500,
      501,
      503,
      503,
      503,
      504,
      504,
      503,
      503,
      502,
      499,
      496,
      494,
      492,
      489,
      488,
      488,
      488,
      488,
      488,
      489,
      490,
      491,
      492,
      492,
      492,
      492,
      492,
      492,
      493,
      493,
      493,
      494,
      493,
      493,
      493,
      492,
      493,
      490,
      492,
      490,
      492,
      490,
      492,
      491,
      491,
      491,
      491,
      490,
      490,
      490,
      489,
      489,
      489,
      489,
      489,
      490,
      491,
      492,
      493,
      494,
      495,
      496,
      497,
      497,
      499,
      501,
      503,
      504,
      506,
      507,
      509,
      511,
      512,
      514,
      515,
      515,
      515,
      515,
      503,
      494,
      480,
      468,
      451,
      446,
      438,
      434,
      428,
      417,
      419,
      411,
      402,
      367,
      363,
      353,
      353,
      339,
      339,
      331,
      334,
      331,
      330,
      315,
      318,
      316,
      316,
      313,
      315,
      315,
      315,
      311,
      313,
      312,
      315,
      315,
      299,
      297,
      291,
      293,
      291,
      291,
      290,
      291,
      285,
      208,
      165,
      163,
      159,
      157,
      145,
      148,
      148
    ],
    "swim:timestamps": [
      1786254422,
      1786254463,
      1786254506,
      1786254523,
      1786254583,
      1786254643,
      1786254703,
      1786254763,
      1786254823,
      1786254895,
      1786254955,
      1786255015,
      1786255075,
      1786255135,
      1786255195,
      1786255255,
      1786255315,
      1786255375,
      1786255437,
      1786255495,
      1786255557,
      1786255617,
      1786255675,
      1786255737,
      1786255797,
      1786255855,
      1786255915,
      1786255977,
      1786256037,
      1786256095,
      1786256157,
      1786256217,
      1786256276,
      1786256337,
      1786256398,
      1786256456,
      1786256518,
      1786256578,
      1786256636,
      1786256698,
      1786256758,
      1786256816,
      1786256878,
      1786256996,
      1786257058,
      1786257118,
      1786257178,
      1786257238,
      1786257298,
      1786257358,
      1786257418,
      1786257478,
      1786257538,
      1786257598,
      1786257658,
      1786257718,
      1786257778,
      1786257838,
      1786257899,
      1786257959,
      1786258019,
      1786258079,
      1786258139,
      1786258199,
      1786258259,
      1786258319,
      1786258379,
      1786258439,
      1786258499,
      1786258559,
      1786258619,
      1786258679,
      1786258716,
      1786258739,
      1786258776,
      1786258799,
      1786258836,
      1786258859,
      1786258896,
      1786258919,
      1786258956,
      1786258979,
      1786259016,
      1786259039,
      1786259076,
      1786259099,
      1786259136,
      1786259159,
      1786259196,
      1786259219,
      1786259256,
      1786259279,
      1786259316,
      1786259339,
      1786259376,
      1786259400,
      1786259436,
      1786259460,
      1786259496,
      1786259520,
      1786259556,
      1786259580,
      1786259616,
      1786259640,
      1786259676,
      1786259700,
      1786259737,
      1786259760,
      1786259797,
      1786259820,
      1786259857,
      1786259880,
      1786259917,
      1786259940,
      1786259977,
      1786260037,
      1786260097,
      1786260157,
      1786260217,
      1786260277,
      1786260337,
      1786260397,
      1786260457,
      1786260517,
      1786260577,
      1786260637,
      1786260697,
      1786260757,
      1786260817,
      1786260877,
      1786260937,
      1786260997,
      1786261057,
      1786261117,
      1786261177,
      1786261237,
      1786261297,
      1786261358,
      1786261418,
      1786261478,
      1786261538,
      1786261598,
      1786261658,
      1786261718,
      1786261778,
      1786261838,
      1786261898,
      1786261958,
      1786262018,
      1786262078,
      1786262138,
      1786262198,
      1786262258,
      1786262318,
      1786262378,
      1786262434,
      1786262441,
      1786262498,
      1786262558,
      1786262621,
      1786262681,
      1786262734,
      1786262741,
      1786262794,
      1786262801,
      1786262854,
      1786262914,
      1786262933,
      1786262977,
      1786262993,
      1786263034,
      1786263053,
      1786263094,
      1786263113,
      1786263155,
      1786263173,
      1786263216,
      1786263233,
      1786263276,
      1786263293,
      1786263337,
      1786263353,
      1786263394,
      1786263413,
      1786263454,
      1786263473,
      1786263514,
      1786263533,
      1786263577,
      1786263593,
      1786263637,
      1786263653,
      1786263697,
      1786263713,
      1786263755,
      1786263773,
      1786263815,
      1786263833,
      1786263875,
      1786263893,
      1786263935,
      1786263954,
      1786263996,
      1786264014,
      1786264055,
      1786264116,
      1786264175,
      1786264235,
      1786264298,
      1786264358,
      1786264418,
      1786264475,
      1786264535,
      1786264597,
      1786264655,
      1786264711,
      1786264771,
      1786264832,
      1786264891,
      1786264953,
      1786265016,
      1786265075,
      1786265135,
      1786265196,
      1786265256,
      1786265316,
      1786265377,
      1786265435,
      1786265495,
      1786265555,
      1786265616,
      1786265676,
      1786265737,
      1786265796,
      1786265857,
      1786265892,
      1786265916,
      1786265952,
      1786265978,
      1786266038,
      1786266072,
      1786266097,
      1786266132,
      1786266158,
      1786266192,
      1786266216,
      1786266255,
      1786266279,
      1786266312,
      1786266337,
      1786266372,
      1786266397,
      1786266432,
      1786266458,
      1786266493,
      1786266517,
      1786266554,
      1786266577,
      1786266612,
      1786266638,
      1786266672,
      1786266696,
      1786266732,
      1786266756,
      1786266793,
      1786266816,
      1786266855,
      1786266912,
      1786266972,
      1786267032,
      1786267093,
      1786267155,
      1786267212,
      1786267274,
      1786267332,
      1786267392,
      1786267452,
      1786267513,
      1786267572,
      1786267634,
      1786267694,
      1786267754,
      1786267817,
      1786267873,
      1786267935,
      1786267994,
      1786268058,
      1786268113,
      1786268173,
      1786268232,
      1786268297,
      1786268353,
      1786268418,
      1786268478,
      1786268534,
      1786268540,
      1786268577,
      1786268593,
      1786268635,
      1786268654,
      1786268695,
      1786268714,
      1786268755,
      1786268776,
      1786268815,
      1786268834,
      1786268877,
      1786268895,
      1786268938,
      1786268955,
      1786268995,
      1786269016,
      1786269057,
      1786269080,
      1786269115,
      1786269135,
      1786269176,
      1786269197,
      1786269236,
      1786269257,
      1786269295,
      1786269318,
      1786269340,
      1786269356,
      1786269378,
      1786269397,
      1786269417,
      1786269438,
      1786269457,
      1786269475,
      1786269498,
      1786269520,
      1786269537,
      1786269558,
      1786269578,
      1786269595,
      1786269618,
      1786269656,
      1786269678,
      1786269716,
      1786269739,
      1786269776,
      1786269799,
      1786269837,
      1786269859,
      1786269897,
      1786269932,
      1786269957,
      1786269980,
      1786270017,
      1786270046,
      1786270075,
      1786270098,
      1786270135,
      1786270161,
      1786270195,
      1786270220,
      1786270256,
      1786270281,
      1786270316,
      1786270335,
      1786270376,
      1786270395,
      1786270436,
      1786270455,
      1786270496,
      1786270515,
      1786270556,
      1786270581,
      1786270616,
      1786270635,
      1786270676,
      1786270695,
      1786270761,
      1786270796,
      1786270815,
      1786270856,
      1786270875,
      1786270916,
      1786270935,
      1786270976,
      1786270989,
      1786271036,
      1786271049,
      1786271097,
      1786271109,
      1786271157,
      1786271175,
      1786271217,
      1786271277
    ],
    "wof:geomhash": "59b9465b7da37a07cadf16c06b889bb5",
    "wof:id": 2047888177,
    "wof:repo": "sfomuseum-data-flights-2026-08"
  },
  "bbox": [
    -122.40472222222223,
    37.61666666666667,
    -76.51666666666667,
    40.75694444444444
  ],
  "geometry": {"type":"LineString","coordinates":[[-122.38333333333334,37.61666666666667],[-122.40472222222223,37.64527777777778],[-122.36666666666666,37.68333333333333],[-122.36444444444444,37.69277777777778],[-122.34083333333332,37.75194444444445],[-122.37388888888889,37.81944444444445],[-122.385,37.894444444444446],[-122.32138888888889,37.95305555555556],[-122.21916666666667,37.97416666666667],[-122.10777777777777,37.99638888888889],[-121.9575,38.02611111111111],[-121.8275,38.05222222222222],[-121.69611111111111,38.07805555555556],[-121.5611111111111,38.10444444444445],[-121.42277777777778,38.13138888888889],[-121.28222222222222,38.15861111111111],[-121.1375,38.186388888888885],[-120.9863888888889,38.21277777777778],[-120.80583333333333,38.239444444444445],[-120.67333333333333,38.257222222222225],[-120.48194444444445,38.28194444444444],[-120.3175,38.30583333333333],[-120.14722222222223,38.32972222222222],[-119.98,38.35],[-119.81027777777777,38.37388888888889],[-119.63388888888889,38.39805555555556],[-119.46555555555555,38.419999999999995],[-119.29305555555555,38.44083333333333],[-119.12249999999999,38.46277777777778],[-118.95166666666667,38.48527777777778],[-118.78388888888888,38.504444444444445],[-118.61583333333333,38.52611111111111],[-118.44416666666667,38.54722222222222],[-118.27666666666667,38.56722222222223],[-118.10694444444444,38.58722222222222],[-117.93277777777779,38.6075],[-117.76222222222222,38.62722222222222],[-117.58999999999999,38.64666666666667],[-117.41472222222222,38.66638888888889],[-117.24472222222222,38.69277777777778],[-117.07555555555555,38.73527777777778],[-116.90611111111112,38.77777777777778],[-116.73972222222223,38.81916666666667],[-116.43277777777779,38.89472222222222],[-116.2325,38.94361111111111],[-116.06416666666667,38.984722222222224],[-115.8963888888889,39.02361111111111],[-115.72972222222222,39.059999999999995],[-115.5611111111111,39.09722222222222],[-115.39277777777778,39.13444444444444],[-115.23388888888888,39.16916666666666],[-115.06388888888888,39.20583333333334],[-114.89472222222223,39.24194444444444],[-114.72638888888889,39.27777777777778],[-114.55611111111111,39.31388888888888],[-114.38472222222222,39.349722222222226],[-114.2075,39.38638888888889],[-114.03666666666666,39.421388888888885],[-113.86277777777777,39.456944444444446],[-113.68916666666667,39.492222222222225],[-113.51472222222222,39.52722222222222],[-113.34138888888889,39.56166666666666],[-113.16333333333334,39.596944444444446],[-112.98555555555555,39.63166666666667],[-112.81027777777777,39.66555555555556],[-112.63305555555554,39.69944444444444],[-112.46805555555555,39.73111111111111],[-112.29194444444444,39.76444444444444],[-112.11388888888888,39.797777777777775],[-111.93527777777778,39.83083333333334],[-111.75833333333334,39.86333333333334],[-111.57638888888889,39.896388888888886],[-111.46527777777779,39.91638888888889],[-111.39111111111112,39.92972222222222],[-111.28472222222221,39.94888888888889],[-111.21388888888889,39.96138888888889],[-111.10777777777777,39.98027777777778],[-111.03444444444445,39.99333333333333],[-110.92666666666668,40.01222222222222],[-110.85499999999999,40.02472222222222],[-110.74833333333333,40.04333333333333],[-110.67583333333334,40.05583333333333],[-110.57111111111111,40.073888888888895],[-110.49666666666667,40.086666666666666],[-110.39,40.10472222222222],[-110.31805555555555,40.11694444444444],[-110.21194444444444,40.13472222222222],[-110.13833333333334,40.14722222222222],[-110.03166666666667,40.16361111111111],[-109.95694444444445,40.17388888888889],[-109.84833333333333,40.18861111111111],[-109.77694444444444,40.198611111111106],[-109.66833333333334,40.21388888888889],[-109.59472222222222,40.224444444444444],[-109.48694444444445,40.239444444444445],[-109.41305555555556,40.249722222222225],[-109.30499999999999,40.26444444444444],[-109.23166666666667,40.27472222222222],[-109.12194444444444,40.28972222222222],[-109.04944444444445,40.29944444444444],[-108.93916666666667,40.314166666666665],[-108.86749999999999,40.32361111111111],[-108.7575,40.33833333333334],[-108.67805555555556,40.34861111111111],[-108.5761111111111,40.36194444444445],[-108.49555555555555,40.3725],[-108.3913888888889,40.38583333333333],[-108.34972222222221,40.39138888888889],[-108.21388888888889,40.40861111111111],[-108.13055555555555,40.41916666666666],[-108.03083333333333,40.43138888888889],[-107.94916666666667,40.44166666666666],[-107.84944444444444,40.45388888888889],[-107.76277777777777,40.46472222222223],[-107.67,40.476111111111116],[-107.48583333333333,40.49861111111111],[-107.3025,40.52027777777778],[-107.11833333333333,40.540277777777774],[-106.93222222222222,40.559999999999995],[-106.74944444444445,40.57944444444445],[-106.56305555555555,40.59861111111111],[-106.35694444444444,40.61972222222222],[-106.1725,40.638333333333335],[-105.98666666666666,40.656388888888884],[-105.80083333333333,40.67444444444444],[-105.61638888888888,40.69194444444444],[-105.43277777777779,40.70916666666667],[-105.24722222222222,40.726111111111116],[-105.06305555555555,40.74277777777778],[-104.87666666666667,40.75694444444444],[-104.69250000000001,40.75694444444444],[-104.50527777777778,40.75666666666667],[-104.31861111111111,40.75555555555555],[-104.1713888888889,40.73583333333333],[-103.99027777777778,40.70305555555556],[-103.81083333333333,40.669999999999995],[-103.63166666666666,40.63722222222222],[-103.45472222222223,40.60388888888889],[-103.275,40.57055555555556],[-103.09555555555555,40.53638888888889],[-102.91722222222222,40.50222222222222],[-102.73861111111111,40.467777777777776],[-102.53861111111111,40.42861111111111],[-102.35944444444443,40.393055555555556],[-102.18194444444445,40.35805555555556],[-102.00416666666666,40.322500000000005],[-101.82972222222222,40.286944444444444],[-101.6538888888889,40.25111111111111],[-101.47916666666667,40.21527777777778],[-101.30666666666666,40.17944444444444],[-101.13277777777778,40.14333333333333],[-100.95916666666668,40.10666666666667],[-100.785,40.06944444444445],[-100.61222222222221,40.0325],[-100.44222222222223,39.995555555555555],[-100.28527777777778,39.961111111111116],[-100.24861111111112,39.953611111111115],[-100.09527777777777,39.919999999999995],[-99.92500000000001,39.882222222222225],[-99.75166666666667,39.843611111111116],[-99.58111111111111,39.805277777777775],[-99.41472222222222,39.7675],[-99.40833333333335,39.76611111111111],[-99.23111111111112,39.725833333333334],[-99.23416666666667,39.72638888888889],[-99.06388888888888,39.68722222222222],[-98.88388888888889,39.64555555555555],[-98.8561111111111,39.63916666666667],[-98.72166666666666,39.60777777777778],[-98.6863888888889,39.60166666666667],[-98.55027777777778,39.603611111111114],[-98.51333333333334,39.6075],[-98.37666666666667,39.62166666666667],[-98.33833333333332,39.62555555555556],[-98.20472222222223,39.638888888888886],[-98.16694444444445,39.64277777777778],[-98.03138888888888,39.65611111111111],[-97.995,39.65972222222222],[-97.86083333333333,39.67305555555555],[-97.825,39.67666666666666],[-97.70361111111112,39.68833333333333],[-97.65333333333334,39.69333333333333],[-97.52888888888889,39.697222222222216],[-97.48083333333334,39.69694444444444],[-97.35583333333332,39.696666666666665],[-97.27,39.69694444444444],[-97.16416666666667,39.697222222222216],[-97.09583333333333,39.69583333333333],[-96.98722222222223,39.69361111111111],[-96.92361111111111,39.69222222222222],[-96.815,39.69],[-96.74888888888889,39.689166666666665],[-96.66000000000001,39.68805555555555],[-96.57583333333334,39.684999999999995],[-96.48472222222222,39.67944444444444],[-96.40416666666667,39.67166666666667],[-96.3125,39.661944444444444],[-96.22944444444444,39.65277777777778],[-96.13666666666667,39.64333333333333],[-96.05499999999999,39.63472222222222],[-95.96138888888889,39.625277777777775],[-95.88,39.617222222222225],[-95.78444444444445,39.60916666666667],[-95.7075,39.61277777777778],[-95.60777777777777,39.61833333333333],[-95.43166666666667,39.62777777777778],[-95.2538888888889,39.61833333333333],[-95.08083333333333,39.59111111111111],[-94.90722222222223,39.5825],[-94.73777777777778,39.6],[-94.56472222222222,39.61694444444444],[-94.39333333333335,39.63333333333333],[-94.2213888888889,39.64944444444444],[-94.04972222222221,39.66555555555556],[-93.87722222222222,39.68138888888889],[-93.7125,39.69638888888888],[-93.5425,39.71138888888889],[-93.36805555555554,39.72666666666667],[-93.19500000000001,39.74138888888889],[-93.02361111111111,39.755833333333335],[-92.84861111111111,39.769999999999996],[-92.67666666666668,39.78],[-92.50305555555556,39.790277777777774],[-92.29916666666666,39.80222222222222],[-92.125,39.81222222222222],[-91.9538888888889,39.82166666666667],[-91.7761111111111,39.831388888888895],[-91.60055555555554,39.84055555555556],[-91.42222222222223,39.849444444444444],[-91.24388888888889,39.858333333333334],[-91.06583333333333,39.86694444444444],[-90.88611111111112,39.875277777777775],[-90.70777777777778,39.88333333333333],[-90.53,39.89083333333333],[-90.35249999999999,39.89833333333333],[-90.27555555555556,39.901666666666664],[-90.17527777777778,39.90555555555555],[-90.09666666666666,39.90833333333333],[-90.00083333333333,39.911944444444444],[-89.82222222222222,39.91888888888889],[-89.74222222222222,39.92166666666667],[-89.64722222222223,39.925],[-89.56305555555555,39.92805555555555],[-89.46722222222222,39.93111111111111],[-89.38388888888889,39.93388888888889],[-89.28833333333333,39.93694444444444],[-89.205,39.93944444444444],[-89.10833333333333,39.942499999999995],[-89.02444444444444,39.94499999999999],[-88.92972222222222,39.94777777777777],[-88.83388888888888,39.95055555555556],[-88.75083333333333,39.95277777777778],[-88.65361111111112,39.95527777777778],[-88.57027777777778,39.9575],[-88.4738888888889,39.96],[-88.38861111111112,39.96194444444445],[-88.29194444444444,39.96416666666667],[-88.21194444444444,39.965833333333336],[-88.1036111111111,39.968333333333334],[-88.02722222222222,39.97],[-87.92166666666667,39.971944444444446],[-87.84694444444445,39.973333333333336],[-87.73694444444445,39.97555555555556],[-87.66027777777778,39.977222222222224],[-87.55444444444444,39.97888888888889],[-87.4775,39.980000000000004],[-87.37472222222222,39.98166666666667],[-87.19,39.98416666666667],[-87.01083333333334,39.986666666666665],[-86.8325,39.98888888888889],[-86.655,39.99055555555556],[-86.47638888888889,39.99194444444444],[-86.30166666666666,39.99305555555556],[-86.12333333333332,39.99388888888889],[-85.94611111111111,39.99444444444445],[-85.77055555555556,39.995],[-85.59222222222222,39.995],[-85.41722222222222,39.99472222222222],[-85.24,39.994166666666665],[-85.05722222222222,39.993611111111115],[-84.87583333333333,39.9925],[-84.72472222222223,39.99138888888889],[-84.51083333333334,39.98972222222222],[-84.36916666666666,39.98833333333334],[-84.19,39.98583333333333],[-84.01166666666667,39.98361111111111],[-83.79833333333333,39.980555555555554],[-83.63972222222223,39.97805555555556],[-83.46138888888889,39.974722222222226],[-83.28333333333333,39.97138888888889],[-83.11638888888888,39.967777777777776],[-82.915,39.96333333333334],[-82.74916666666667,39.95944444444445],[-82.5736111111111,39.955000000000005],[-82.38611111111112,39.94972222222222],[-82.39472222222223,39.95],[-82.2713888888889,39.945277777777775],[-82.21055555555556,39.939722222222215],[-82.09416666666667,39.93222222222222],[-82.03444444444445,39.92611111111111],[-81.91722222222222,39.91694444444444],[-81.85694444444444,39.91222222222222],[-81.74027777777778,39.90361111111111],[-81.68833333333333,39.89888888888889],[-81.56333333333333,39.888888888888886],[-81.51138888888889,39.88444444444444],[-81.38722222222223,39.87416666666667],[-81.33638888888889,39.87],[-81.2125,39.859722222222224],[-81.16000000000001,39.85527777777778],[-81.0363888888889,39.845],[-80.985,39.84055555555556],[-80.86277777777777,39.830000000000005],[-80.79277777777777,39.82361111111111],[-80.68361111111112,39.81361111111111],[-80.63194444444444,39.80888888888889],[-80.50805555555556,39.79805555555556],[-80.4375,39.791666666666664],[-80.32916666666667,39.78194444444444],[-80.25694444444444,39.775],[-80.15694444444445,39.76555555555556],[-80.0786111111111,39.75805555555556],[-80.025,39.753055555555555],[-79.97111111111111,39.74805555555556],[-79.89694444444446,39.740833333333335],[-79.84166666666667,39.73555555555556],[-79.7911111111111,39.730555555555554],[-79.71666666666667,39.723333333333336],[-79.66111111111111,39.71805555555556],[-79.60805555555555,39.71277777777778],[-79.53166666666667,39.70527777777778],[-79.4738888888889,39.69972222222222],[-79.42222222222223,39.69444444444444],[-79.35027777777778,39.68722222222222],[-79.29138888888889,39.68138888888889],[-79.23527777777778,39.675555555555555],[-79.16111111111111,39.668055555555554],[-79.05749999999999,39.65333333333333],[-78.98722222222223,39.63777777777778],[-78.90527777777778,39.62],[-78.83888888888889,39.605555555555554],[-78.74722222222222,39.58555555555556],[-78.68305555555555,39.571111111111115],[-78.59472222222222,39.55166666666666],[-78.53472222222221,39.53861111111111],[-78.43444444444445,39.51777777777777],[-78.33333333333333,39.5],[-78.28999999999999,39.48555555555556],[-78.245,39.47527777777778],[-78.16250000000001,39.45666666666667],[-78.06666666666666,39.45],[-78.02666666666667,39.45111111111111],[-77.97888888888889,39.45111111111111],[-77.90361111111112,39.450833333333335],[-77.83333333333333,39.45],[-77.76944444444445,39.45055555555556],[-77.71666666666667,39.45],[-77.65,39.44972222222222],[-77.6,39.45],[-77.53166666666667,39.448611111111106],[-77.5,39.45],[-77.42083333333333,39.447222222222216],[-77.38333333333334,39.45],[-77.30805555555555,39.44472222222222],[-77.26666666666667,39.45],[-77.19388888888889,39.43944444444444],[-77.15,39.43333333333333],[-77.08222222222221,39.43527777777778],[-77.03333333333333,39.43333333333333],[-76.97083333333333,39.43055555555555],[-76.93333333333334,39.43333333333333],[-76.85888888888888,39.42583333333333],[-76.81666666666666,39.416666666666664],[-76.73333333333333,39.36666666666667],[-76.69888888888889,39.32666666666667],[-76.68333333333334,39.3],[-76.63361111111112,39.26361111111111],[-76.61666666666666,39.233333333333334],[-76.57888888888888,39.19583333333333],[-76.56666666666666,39.166666666666664],[-76.53027777777778,39.12277777777778],[-76.51666666666667,39.1],[-76.53666666666666,39.059444444444445],[-76.55,39.06666666666667],[-76.58416666666666,39.07944444444445],[-76.6,39.083333333333336],[-76.61694444444444,39.11472222222223],[-76.63333333333334,39.13333333333333],[-76.64722222222223,39.147777777777776],[-76.67194444444445,39.17444444444444]]}
}
