{
  "id": 2048055073,
  "type": "Feature",
  "properties": {
    "geom:area": 0,
    "geom:bbox": "-122.402780,37.623000,-121.432290,38.516910",
    "geom:latitude": 38.11960243969113,
    "geom:longitude": -122.0185688276972,
    "src:alt_label": "swim-takeoff",
    "src:geom": "swim",
    "swim:elevations": [
      122,
      515,
      858,
      1067,
      1215,
      1385,
      1701,
      1811,
      2137,
      2698,
      3009,
      3174,
      3200,
      3354,
      3446,
      3896,
      4014,
      4265,
      4560,
      4848,
      4992,
      5223,
      5411,
      5662,
      5800,
      6014,
      6180,
      6334
    ],
    "swim:geom": "takeoff",
    "swim:timestamps": [
      1787116069,
      1787116104,
      1787116134,
      1787116164,
      1787116197,
      1787116227,
      1787116257,
      1787116266,
      1787116293,
      1787116341,
      1787116371,
      1787116399,
      1787116411,
      1787116462,
      1787116477,
      1787116525,
      1787116537,
      1787116569,
      1787116604,
      1787116642,
      1787116663,
      1787116693,
      1787116723,
      1787116762,
      1787116785,
      1787116820,
      1787116844,
      1787116865
    ],
    "wof:geomhash": "450b76312f2edcd755a9bf1d17d6db96",
    "wof:id": 2048055073,
    "wof:repo": "sfomuseum-data-flights-2026-08"
  },
  "bbox": [
    -122.40278,
    37.623,
    -121.43229,
    38.51691
  ],
  "geometry": {"type":"LineString","coordinates":[[-122.38514,37.623],[-122.40278,37.6432],[-122.38778,37.66452],[-122.36912,37.68501],[-122.34631,37.71229],[-122.33813,37.74602],[-122.35456,37.78232],[-122.36025,37.79318],[-122.37711,37.82643],[-122.38434,37.89006],[-122.38013,37.93137],[-122.34914,37.96247],[-122.33089,37.97373],[-122.24471,38.02534],[-122.21727,38.04214],[-122.12841,38.09672],[-122.10582,38.11032],[-122.04564,38.14662],[-121.97676,38.18837],[-121.90206,38.23356],[-121.85988,38.259],[-121.79895,38.29572],[-121.73724,38.33281],[-121.65536,38.38193],[-121.60594,38.41144],[-121.52968,38.45697],[-121.47793,38.48884],[-121.43229,38.51691]]}
}
