{
  "id": 2032088779,
  "type": "Feature",
  "properties": {
    "geom:area": 0,
    "geom:bbox": "-122.578056,33.274722,-111.764167,37.666667",
    "geom:latitude": 34.833555145453744,
    "geom:longitude": -117.36042414097854,
    "src:alt_label": "swim-path",
    "src:geom": "swim",
    "swim:altitudes": [
      "019",
      "026",
      "033",
      "043",
      "053",
      "074",
      "098",
      "117",
      "132",
      "156",
      "171",
      "192",
      "208",
      "222",
      "228",
      "235",
      "246",
      "256",
      "275",
      "282",
      "305",
      "316",
      "322",
      "334",
      "345",
      "355",
      "365",
      "369C",
      "370C",
      "370C",
      "370C",
      "370C",
      "370C",
      "370C",
      "370C",
      "370C",
      "370C",
      "370C",
      "370C",
      "370C",
      "370C",
      "370C",
      "370C",
      "370C",
      "370C",
      "370C",
      "370C",
      "370C",
      "370C",
      "370C",
      "370C",
      "370C",
      "370C",
      "370C",
      "370C",
      "370C",
      "370",
      "370",
      "370",
      "370",
      "366",
      "364",
      "357",
      "347",
      "340",
      "318",
      "310",
      "294",
      "272",
      "266",
      "252",
      "249",
      "242",
      "239",
      "230",
      "228",
      "218",
      "209",
      "208",
      "199",
      "197",
      "190",
      "187",
      "176",
      "175",
      "164",
      "161",
      "155",
      "148",
      "147",
      "138",
      "132",
      "130",
      "123",
      "122",
      "116",
      "115",
      "108",
      "106",
      "090",
      "090",
      "088",
      "085",
      "076",
      "073",
      "069",
      "066",
      "060",
      "060",
      "053",
      "050",
      "043",
      "040",
      "033",
      "030",
      "024",
      "017",
      "015",
      "011"
    ],
    "swim:geom": "path",
    "swim:speeds": [
      171,
      211,
      241,
      255,
      261,
      287,
      291,
      314,
      340,
      342,
      358,
      368,
      377,
      391,
      424,
      441,
      459,
      468,
      484,
      485,
      486,
      486,
      485,
      482,
      471,
      467,
      460,
      460,
      466,
      470,
      471,
      471,
      471,
      471,
      472,
      471,
      471,
      471,
      471,
      471,
      471,
      471,
      471,
      471,
      472,
      472,
      472,
      472,
      472,
      472,
      471,
      471,
      470,
      469,
      470,
      470,
      470,
      470,
      470,
      470,
      469,
      469,
      467,
      467,
      468,
      467,
      468,
      463,
      448,
      444,
      432,
      421,
      414,
      414,
      411,
      408,
      402,
      399,
      398,
      394,
      392,
      381,
      380,
      380,
      380,
      367,
      353,
      353,
      333,
      333,
      321,
      311,
      315,
      308,
      312,
      304,
      308,
      303,
      306,
      305,
      264,
      259,
      260,
      255,
      258,
      233,
      232,
      227,
      230,
      219,
      219,
      204,
      206,
      197,
      190,
      150,
      140,
      143,
      131
    ],
    "swim:timestamps": [
      1785800857,
      1785800879,
      1785800917,
      1785800939,
      1785800977,
      1785801037,
      1785801098,
      1785801158,
      1785801218,
      1785801280,
      1785801338,
      1785801398,
      1785801458,
      1785801518,
      1785801578,
      1785801640,
      1785801698,
      1785801758,
      1785801879,
      1785801939,
      1785802059,
      1785802121,
      1785802179,
      1785802239,
      1785802299,
      1785802359,
      1785802419,
      1785802479,
      1785802539,
      1785802600,
      1785802720,
      1785802782,
      1785802840,
      1785802900,
      1785802962,
      1785803020,
      1785803082,
      1785803142,
      1785803202,
      1785803323,
      1785803383,
      1785803443,
      1785803563,
      1785803623,
      1785803683,
      1785803743,
      1785803803,
      1785803863,
      1785803923,
      1785803984,
      1785804044,
      1785804104,
      1785804164,
      1785804344,
      1785804404,
      1785804422,
      1785804464,
      1785804483,
      1785804524,
      1785804543,
      1785804584,
      1785804603,
      1785804645,
      1785804705,
      1785804723,
      1785804765,
      1785804783,
      1785804825,
      1785804885,
      1785804903,
      1785804945,
      1785804963,
      1785805005,
      1785805023,
      1785805065,
      1785805083,
      1785805144,
      1785805185,
      1785805204,
      1785805245,
      1785805264,
      1785805305,
      1785805324,
      1785805366,
      1785805384,
      1785805444,
      1785805457,
      1785805504,
      1785805547,
      1785805564,
      1785805624,
      1785805661,
      1785805684,
      1785805727,
      1785805744,
      1785805781,
      1785805805,
      1785805841,
      1785805865,
      1785805925,
      1785805985,
      1785806010,
      1785806045,
      1785806075,
      1785806105,
      1785806135,
      1785806165,
      1785806196,
      1785806225,
      1785806256,
      1785806285,
      1785806316,
      1785806345,
      1785806370,
      1785806405,
      1785806430,
      1785806496,
      1785806526,
      1785806586
    ],
    "wof:geomhash": "7ff2e2d283eff80970e6072ce9721ebc",
    "wof:id": 2032088779,
    "wof:repo": "sfomuseum-data-flights-2026-08"
  },
  "bbox": [
    -122.57805555555555,
    33.27472222222222,
    -111.76416666666667,
    37.666666666666664
  ],
  "geometry": {"type":"LineString","coordinates":[[-122.41055555555556,37.634166666666665],[-122.45,37.65],[-122.47805555555556,37.663333333333334],[-122.51666666666667,37.666666666666664],[-122.55499999999999,37.640277777777776],[-122.57805555555555,37.569722222222225],[-122.54972222222221,37.49111111111111],[-122.47888888888889,37.428888888888885],[-122.38777777777779,37.37388888888889],[-122.27666666666667,37.305],[-122.19027777777778,37.25388888888889],[-122.08722222222222,37.19138888888889],[-121.98194444444445,37.12722222222222],[-121.87527777777777,37.06194444444444],[-121.76083333333334,36.99194444444444],[-121.62277777777777,36.90333333333333],[-121.51027777777777,36.83777777777778],[-121.35888888888888,36.74388888888889],[-121.095,36.57916666666667],[-120.98916666666666,36.51277777777778],[-120.70333333333333,36.32333333333334],[-120.57777777777777,36.23888888888889],[-120.47166666666666,36.1675],[-120.34472222222222,36.08166666666667],[-120.22027777777778,35.99722222222222],[-120.09833333333333,35.913888888888884],[-119.97694444444444,35.83111111111111],[-119.85138888888888,35.742222222222225],[-119.7375,35.661944444444444],[-119.61388888888888,35.574444444444445],[-119.37083333333332,35.401666666666664],[-119.22916666666667,35.30027777777777],[-119.12944444444443,35.228611111111114],[-119.01,35.14277777777778],[-118.86861111111111,35.040277777777774],[-118.76944444444445,34.968333333333334],[-118.64055555555557,34.87444444444444],[-118.52055555555556,34.78722222222222],[-118.38416666666667,34.73111111111111],[-118.08611111111111,34.64277777777778],[-117.93833333333333,34.59861111111111],[-117.79055555555556,34.55416666666667],[-117.49416666666667,34.46472222222223],[-117.34638888888888,34.41972222222222],[-117.18388888888889,34.37],[-117.05027777777778,34.32888888888889],[-116.87333333333332,34.274166666666666],[-116.72527777777778,34.22805555555556],[-116.57833333333333,34.18222222222222],[-116.43111111111112,34.13611111111111],[-116.28138888888888,34.08888888888889],[-116.13527777777779,34.0425],[-115.9875,33.995555555555555],[-115.5475,33.85388888888889],[-115.42972222222222,33.815555555555555],[-115.38527777777779,33.80222222222222],[-115.28444444444445,33.76833333333333],[-115.24111111111111,33.75333333333333],[-115.13666666666667,33.719722222222224],[-115.09583333333333,33.70638888888889],[-114.99277777777777,33.6725],[-114.95166666666667,33.65888888888889],[-114.84666666666666,33.62416666666667],[-114.70055555555555,33.58444444444444],[-114.65861111111111,33.57638888888889],[-114.54916666666666,33.555],[-114.505,33.546388888888885],[-114.39916666666667,33.525277777777774],[-114.25222222222222,33.49638888888889],[-114.21361111111112,33.48888888888889],[-114.11333333333333,33.46888888888889],[-114.07444444444444,33.461111111111116],[-113.97972222222222,33.44222222222222],[-113.9413888888889,33.43444444444444],[-113.83333333333333,33.41277777777778],[-113.80777777777777,33.407777777777774],[-113.67972222222222,33.38166666666667],[-113.5761111111111,33.36055555555556],[-113.55333333333333,33.35611111111111],[-113.44916666666667,33.335],[-113.42527777777778,33.33111111111111],[-113.32638888888889,33.31388888888888],[-113.3025,33.30972222222222],[-113.20166666666667,33.293055555555554],[-113.17722222222223,33.28972222222222],[-113.05527777777777,33.27472222222222],[-113,33.28333333333333],[-112.93722222222223,33.277499999999996],[-112.83333333333333,33.28333333333333],[-112.82555555555555,33.280277777777776],[-112.72027777777778,33.29],[-112.63333333333334,33.3],[-112.61749999999999,33.29944444444444],[-112.51666666666667,33.3],[-112.51472222222222,33.30888888888889],[-112.43333333333334,33.31666666666667],[-112.41638888888889,33.31805555555556],[-112.33333333333333,33.333333333333336],[-112.315,33.327222222222225],[-112.21527777777779,33.33638888888889],[-112.125,33.34444444444445],[-112.06666666666666,33.35],[-112.03972222222222,33.34666666666667],[-111.98333333333333,33.35],[-111.95555555555556,33.345555555555556],[-111.9,33.35],[-111.87638888888888,33.34444444444445],[-111.81666666666666,33.35],[-111.80305555555556,33.355555555555554],[-111.76666666666667,33.38333333333333],[-111.76416666666667,33.403055555555554],[-111.78333333333333,33.43333333333333],[-111.80583333333333,33.43944444444444],[-111.85,33.43333333333333],[-111.86999999999999,33.440555555555555],[-111.9,33.43333333333333],[-111.95,33.43333333333333],[-111.96916666666667,33.44083333333333],[-112.01694444444445,33.44083333333333]]}
}
