{
  "id": 2032116357,
  "type": "Feature",
  "properties": {
    "geom:area": 0,
    "geom:bbox": "-122.351530,37.492610,-121.307710,37.611130",
    "geom:latitude": 37.540019172466785,
    "geom:longitude": -121.83618575969861,
    "src:alt_label": "swim-approach",
    "src:geom": "swim",
    "swim:elevations": [
      4198,
      4035,
      3935,
      3636,
      3431,
      3329,
      3110,
      3047,
      2776,
      2608,
      2552,
      2331,
      2174,
      1887,
      1827,
      1805,
      1748,
      1221,
      1066,
      988,
      908,
      788,
      704,
      680,
      648,
      639,
      509,
      454,
      406,
      352,
      334,
      48
    ],
    "swim:geom": "approach",
    "swim:timestamps": [
      1785923721,
      1785923740,
      1785923752,
      1785923786,
      1785923811,
      1785923821,
      1785923853,
      1785923885,
      1785923933,
      1785923966,
      1785923972,
      1785924014,
      1785924044,
      1785924088,
      1785924101,
      1785924146,
      1785924153,
      1785924204,
      1785924228,
      1785924248,
      1785924260,
      1785924278,
      1785924296,
      1785924300,
      1785924304,
      1785924309,
      1785924332,
      1785924341,
      1785924351,
      1785924364,
      1785924367,
      1785924438
    ],
    "wof:geomhash": "16fe6fd1c7257a8b2412c280e0b04465",
    "wof:id": 2032116357,
    "wof:repo": "sfomuseum-data-flights-2026-08"
  },
  "bbox": [
    -122.35153,
    37.49261,
    -121.30771,
    37.61113
  ],
  "geometry": {"type":"LineString","coordinates":[[-121.30771,37.58709],[-121.34721,37.58283],[-121.37022,37.58034],[-121.43768,37.57273],[-121.4857,37.56717],[-121.50637,37.56471],[-121.56687,37.55761],[-121.6249,37.54989],[-121.7022,37.53242],[-121.75516,37.51963],[-121.76473,37.51735],[-121.82918,37.50188],[-121.87521,37.49261],[-121.94256,37.49443],[-121.96315,37.49568],[-122.03134,37.49986],[-122.04209,37.50047],[-122.1174,37.51224],[-122.14864,37.52558],[-122.17501,37.53679],[-122.18901,37.54279],[-122.2101,37.55167],[-122.23053,37.56026],[-122.23421,37.56181],[-122.23905,37.56387],[-122.24378,37.56591],[-122.26698,37.57567],[-122.27523,37.57913],[-122.28438,37.58292],[-122.29485,37.58738],[-122.29721,37.58835],[-122.35153,37.61113]]}
}
