{
  "id": 2047956713,
  "type": "Feature",
  "properties": {
    "geom:area": 0,
    "geom:bbox": "-122.526667,37.650000,-87.432778,45.354167",
    "geom:latitude": 41.71262952298415,
    "geom:longitude": -103.50337212480474,
    "src:alt_label": "swim-path",
    "src:geom": "swim",
    "swim:altitudes": [
      "020",
      "024",
      "040",
      "064",
      "086",
      "103",
      "114",
      "131",
      "155",
      "176",
      "198",
      "216",
      "234",
      "250",
      "265",
      "276",
      "286",
      "300",
      "314",
      "329",
      "338",
      "345",
      "350C",
      "350C",
      "350C",
      "350C",
      "350C",
      "350C",
      "350C",
      "350C",
      "350C",
      "350C",
      "350C",
      "350C",
      "350C",
      "350C",
      "350C",
      "350C",
      "350C",
      "350C",
      "350C",
      "350C",
      "350C",
      "350C",
      "350C",
      "350C",
      "350C",
      "350C",
      "350C",
      "350C",
      "350C",
      "350C",
      "350C",
      "350C",
      "350C",
      "350C",
      "350C",
      "350C",
      "350C",
      "350C",
      "350C",
      "350C",
      "350C",
      "350C",
      "350C",
      "350C",
      "350C",
      "350C",
      "350C",
      "350C",
      "350C",
      "350C",
      "350C",
      "350C",
      "350C",
      "350C",
      "350C",
      "350C",
      "350C",
      "350C",
      "350C",
      "350C",
      "350C",
      "350C",
      "350C",
      "350C",
      "350C",
      "350C",
      "350C",
      "350C",
      "350C",
      "350C",
      "350C",
      "350C",
      "350C",
      "350C",
      "350C",
      "350C",
      "350C",
      "350C",
      "350C",
      "350C",
      "350C",
      "350",
      "357",
      "365",
      "370C",
      "370C",
      "370C",
      "370C",
      "370C",
      "370C",
      "370C",
      "370C",
      "370C",
      "370C",
      "370C",
      "370C",
      "370C",
      "370C",
      "370C",
      "370C",
      "370C",
      "370C",
      "370C",
      "370C",
      "370C",
      "370C",
      "370C",
      "370C",
      "370C",
      "370C",
      "370C",
      "370C",
      "370C",
      "370C",
      "370C",
      "370C",
      "370C",
      "370C",
      "370C",
      "370C",
      "370C",
      "370C",
      "370C",
      "370C",
      "370C",
      "370C",
      "370C",
      "370C",
      "370C",
      "370C",
      "370C",
      "370C",
      "370C",
      "370C",
      "370C",
      "370C",
      "370C",
      "370C",
      "370C",
      "370C",
      "370C",
      "370C",
      "370C",
      "370C",
      "370C",
      "370C",
      "370C",
      "370C",
      "370C",
      "370C",
      "370C",
      "370C",
      "370C",
      "370C",
      "370C",
      "370C",
      "370C",
      "370C",
      "370C",
      "370C",
      "370C",
      "370C",
      "370C",
      "370C",
      "370C",
      "370C",
      "370C",
      "370C",
      "370C",
      "370C",
      "370C",
      "370C",
      "370C",
      "370C",
      "370C",
      "370C",
      "370C",
      "370C",
      "370C",
      "370C",
      "370C",
      "370C",
      "370C",
      "370C",
      "370C",
      "370C",
      "370C",
      "370C",
      "370C",
      "370C",
      "370C",
      "370C",
      "370C",
      "370C",
      "370C",
      "370C",
      "366",
      "356",
      "356",
      "346",
      "347",
      "337",
      "337",
      "328",
      "318",
      "310",
      "310",
      "310",
      "310",
      "310",
      "310",
      "310",
      "310",
      "310",
      "302",
      "301",
      "293",
      "291",
      "283",
      "281",
      "265",
      "261",
      "242",
      "237",
      "227",
      "225",
      "191",
      "179",
      "174",
      "163",
      "147",
      "142C",
      "138",
      "134",
      "133",
      "131",
      "129",
      "130",
      "130",
      "129",
      "130",
      "127",
      "122",
      "117",
      "116",
      "113",
      "108",
      "109",
      "110",
      "108",
      "109",
      "108",
      "100",
      "100",
      "100",
      "100",
      "093",
      "079",
      "070",
      "070",
      "066",
      "050",
      "040",
      "040",
      "040",
      "040",
      "040",
      "040",
      "036",
      "025",
      "016",
      "009"
    ],
    "swim:geom": "path",
    "swim:speeds": [
      209,
      233,
      260,
      278,
      294,
      311,
      363,
      390,
      396,
      407,
      415,
      424,
      433,
      441,
      451,
      461,
      471,
      475,
      474,
      470,
      465,
      466,
      469,
      471,
      471,
      472,
      472,
      472,
      472,
      472,
      473,
      473,
      475,
      477,
      478,
      479,
      480,
      481,
      482,
      482,
      483,
      484,
      484,
      485,
      486,
      486,
      486,
      479,
      470,
      469,
      469,
      469,
      470,
      472,
      474,
      475,
      476,
      477,
      477,
      479,
      479,
      486,
      489,
      490,
      491,
      489,
      489,
      488,
      489,
      488,
      489,
      490,
      493,
      492,
      493,
      494,
      492,
      491,
      489,
      489,
      490,
      491,
      500,
      501,
      501,
      497,
      494,
      494,
      492,
      492,
      491,
      489,
      488,
      488,
      488,
      487,
      487,
      487,
      488,
      489,
      493,
      494,
      495,
      498,
      501,
      503,
      503,
      503,
      503,
      504,
      503,
      500,
      494,
      492,
      492,
      491,
      490,
      488,
      489,
      491,
      491,
      491,
      490,
      488,
      487,
      487,
      488,
      489,
      490,
      508,
      491,
      502,
      493,
      498,
      494,
      498,
      495,
      494,
      496,
      495,
      497,
      497,
      502,
      503,
      503,
      503,
      504,
      503,
      504,
      504,
      505,
      505,
      505,
      505,
      506,
      506,
      506,
      506,
      506,
      506,
      506,
      507,
      506,
      506,
      506,
      505,
      504,
      504,
      504,
      505,
      505,
      507,
      511,
      512,
      512,
      508,
      507,
      506,
      506,
      508,
      509,
      509,
      509,
      508,
      506,
      504,
      501,
      500,
      500,
      499,
      500,
      500,
      493,
      479,
      479,
      481,
      482,
      484,
      485,
      486,
      487,
      509,
      525,
      525,
      525,
      525,
      525,
      526,
      526,
      526,
      526,
      527,
      527,
      528,
      528,
      528,
      529,
      530,
      523,
      510,
      510,
      510,
      510,
      511,
      511,
      518,
      520,
      521,
      524,
      525,
      526,
      530,
      531,
      532,
      530,
      511,
      506,
      506,
      506,
      506,
      492,
      485,
      460,
      460,
      455,
      456,
      459,
      455,
      422,
      405,
      399,
      391,
      393,
      391,
      369,
      368,
      376,
      373,
      374,
      376,
      374,
      374,
      382,
      384,
      384,
      387,
      383,
      372,
      371,
      371,
      360,
      365,
      364,
      357,
      351,
      356,
      352,
      342,
      295,
      285,
      276,
      275,
      274,
      275,
      274,
      272,
      253,
      232,
      232,
      227,
      230,
      198,
      166,
      152
    ],
    "swim:timestamps": [
      1786626680,
      1786626686,
      1786626740,
      1786626800,
      1786626860,
      1786626920,
      1786626980,
      1786627040,
      1786627100,
      1786627160,
      1786627220,
      1786627280,
      1786627341,
      1786627401,
      1786627461,
      1786627521,
      1786627581,
      1786627641,
      1786627701,
      1786627762,
      1786627821,
      1786627881,
      1786627942,
      1786628002,
      1786628061,
      1786628121,
      1786628183,
      1786628241,
      1786628301,
      1786628363,
      1786628421,
      1786628482,
      1786628543,
      1786628602,
      1786628662,
      1786628723,
      1786628782,
      1786628842,
      1786628904,
      1786628962,
      1786629022,
      1786629084,
      1786629142,
      1786629202,
      1786629264,
      1786629324,
      1786629384,
      1786629444,
      1786629504,
      1786629564,
      1786629625,
      1786629685,
      1786629745,
      1786629805,
      1786629865,
      1786629925,
      1786629985,
      1786630045,
      1786630105,
      1786630165,
      1786630225,
      1786630285,
      1786630346,
      1786630406,
      1786630466,
      1786630526,
      1786630586,
      1786630646,
      1786630706,
      1786630766,
      1786630826,
      1786630886,
      1786630953,
      1786631006,
      1786631074,
      1786631134,
      1786631194,
      1786631247,
      1786631307,
      1786631314,
      1786631374,
      1786631427,
      1786631487,
      1786631547,
      1786631614,
      1786631667,
      1786631727,
      1786631734,
      1786631795,
      1786631848,
      1786631908,
      1786631975,
      1786632028,
      1786632095,
      1786632155,
      1786632215,
      1786632275,
      1786632335,
      1786632395,
      1786632455,
      1786632516,
      1786632576,
      1786632636,
      1786632696,
      1786632756,
      1786632816,
      1786632876,
      1786632936,
      1786632996,
      1786633056,
      1786633116,
      1786633176,
      1786633237,
      1786633297,
      1786633357,
      1786633417,
      1786633477,
      1786633537,
      1786633597,
      1786633657,
      1786633717,
      1786633777,
      1786633837,
      1786633897,
      1786633958,
      1786634018,
      1786634078,
      1786634138,
      1786634198,
      1786634226,
      1786634258,
      1786634286,
      1786634318,
      1786634346,
      1786634378,
      1786634406,
      1786634438,
      1786634466,
      1786634498,
      1786634526,
      1786634558,
      1786634586,
      1786634618,
      1786634646,
      1786634679,
      1786634706,
      1786634739,
      1786634766,
      1786634799,
      1786634826,
      1786634859,
      1786634886,
      1786634919,
      1786634947,
      1786634979,
      1786635007,
      1786635039,
      1786635067,
      1786635099,
      1786635127,
      1786635159,
      1786635187,
      1786635219,
      1786635247,
      1786635279,
      1786635307,
      1786635367,
      1786635427,
      1786635487,
      1786635547,
      1786635607,
      1786635668,
      1786635728,
      1786635788,
      1786635848,
      1786635968,
      1786636028,
      1786636088,
      1786636148,
      1786636208,
      1786636268,
      1786636328,
      1786636389,
      1786636449,
      1786636509,
      1786636569,
      1786636629,
      1786636689,
      1786636749,
      1786636869,
      1786636929,
      1786636989,
      1786637049,
      1786637110,
      1786637170,
      1786637230,
      1786637290,
      1786637350,
      1786637410,
      1786637470,
      1786637530,
      1786637590,
      1786637650,
      1786637710,
      1786637770,
      1786637831,
      1786637891,
      1786637951,
      1786638011,
      1786638131,
      1786638191,
      1786638251,
      1786638311,
      1786638371,
      1786638431,
      1786638491,
      1786638502,
      1786638562,
      1786638622,
      1786638672,
      1786638682,
      1786638732,
      1786638742,
      1786638792,
      1786638802,
      1786638862,
      1786638922,
      1786638972,
      1786638982,
      1786639032,
      1786639042,
      1786639092,
      1786639102,
      1786639152,
      1786639163,
      1786639223,
      1786639273,
      1786639283,
      1786639333,
      1786639343,
      1786639393,
      1786639403,
      1786639453,
      1786639463,
      1786639513,
      1786639523,
      1786639573,
      1786639583,
      1786639657,
      1786639693,
      1786639703,
      1786639715,
      1786639753,
      1786639763,
      1786639775,
      1786639824,
      1786639835,
      1786639873,
      1786639884,
      1786639895,
      1786639933,
      1786639944,
      1786639958,
      1786639994,
      1786640004,
      1786640018,
      1786640054,
      1786640064,
      1786640114,
      1786640124,
      1786640144,
      1786640174,
      1786640184,
      1786640244,
      1786640301,
      1786640367,
      1786640421,
      1786640481,
      1786640545,
      1786640605,
      1786640665,
      1786640725,
      1786640785,
      1786640845,
      1786640905,
      1786640965,
      1786640973,
      1786641026,
      1786641087,
      1786641147,
      1786641208,
      1786641266,
      1786641326,
      1786641382
    ],
    "wof:geomhash": "32f1e7950b21204eab98dae372042abd",
    "wof:id": 2047956713,
    "wof:repo": "sfomuseum-data-flights-2026-08"
  },
  "bbox": [
    -122.52666666666667,
    37.65,
    -87.43277777777779,
    45.35416666666667
  ],
  "geometry": {"type":"LineString","coordinates":[[-122.45416666666667,37.65277777777778],[-122.46666666666667,37.65],[-122.5225,37.69472222222222],[-122.52666666666667,37.7725],[-122.46388888888889,37.82805555555556],[-122.36472222222221,37.85388888888889],[-122.24916666666667,37.88527777777778],[-122.11888888888888,37.92027777777778],[-121.98666666666666,37.955555555555556],[-121.85249999999999,37.99194444444444],[-121.71972222222223,38.027499999999996],[-121.57916666666667,38.06444444444444],[-121.43472222222222,38.102222222222224],[-121.28583333333333,38.14111111111111],[-121.13805555555557,38.17972222222222],[-120.98111111111112,38.21388888888889],[-120.81805555555555,38.23722222222222],[-120.65555555555557,38.26],[-120.49027777777778,38.282777777777774],[-120.31888888888888,38.30555555555555],[-120.16888888888889,38.32694444444445],[-120.00527777777778,38.348888888888894],[-119.83138888888888,38.37027777777778],[-119.66694444444445,38.391666666666666],[-119.51083333333334,38.41416666666667],[-119.33777777777777,38.43666666666666],[-119.17527777777778,38.45611111111111],[-119.01083333333334,38.477222222222224],[-118.84583333333333,38.49805555555556],[-118.68277777777779,38.518055555555556],[-118.51861111111111,38.53861111111111],[-118.35166666666666,38.55833333333333],[-118.18527777777778,38.57777777777778],[-118.015,38.59777777777778],[-117.84638888888888,38.617222222222225],[-117.67861111111111,38.63666666666666],[-117.50472222222223,38.656388888888884],[-117.33361111111111,38.67527777777777],[-117.16666666666667,38.69472222222222],[-116.99305555555556,38.71555555555556],[-116.82027777777778,38.73583333333333],[-116.65194444444445,38.75527777777778],[-116.47972222222222,38.77472222222222],[-116.30749999999999,38.79416666666666],[-116.13805555555557,38.81305555555555],[-115.96611111111112,38.83166666666667],[-115.7925,38.85027777777778],[-115.625,38.86833333333333],[-115.4575,38.885555555555555],[-115.30499999999999,38.90138888888889],[-115.14,38.91833333333333],[-114.9725,38.934999999999995],[-114.80555555555556,38.95166666666667],[-114.63722222222223,38.96805555555556],[-114.46972222222223,38.98416666666667],[-114.30166666666666,39.000277777777775],[-114.13166666666666,39.01583333333333],[-113.96166666666667,39.031666666666666],[-113.79305555555555,39.04666666666667],[-113.62249999999999,39.06194444444444],[-113.45,39.07694444444445],[-113.2775,39.09166666666667],[-113.10527777777777,39.10638888888889],[-112.93,39.120555555555555],[-112.7538888888889,39.13472222222222],[-112.57944444444443,39.14861111111111],[-112.40805555555556,39.16694444444444],[-112.235,39.18722222222222],[-112.06138888888889,39.20722222222223],[-111.88861111111112,39.22694444444445],[-111.69638888888889,39.248333333333335],[-111.52277777777778,39.26777777777777],[-111.33944444444444,39.28777777777778],[-111.20277777777778,39.302499999999995],[-110.99,39.32527777777778],[-110.815,39.343611111111116],[-110.63916666666667,39.36194444444445],[-110.50055555555555,39.376111111111115],[-110.3261111111111,39.39333333333333],[-110.29472222222222,39.396388888888886],[-110.11861111111111,39.41361111111111],[-109.94250000000001,39.43111111111111],[-109.78083333333333,39.48638888888889],[-109.6275,39.55583333333333],[-109.4675,39.6275],[-109.34222222222222,39.683611111111105],[-109.19027777777778,39.75138888888889],[-109.15805555555556,39.76555555555556],[-109.00277777777778,39.83416666666667],[-108.87916666666666,39.888888888888886],[-108.71583333333334,39.96055555555556],[-108.53666666666666,40.03861111111111],[-108.41527777777779,40.09166666666667],[-108.23,40.17194444444444],[-108.07638888888889,40.23777777777778],[-107.9238888888889,40.30277777777778],[-107.76916666666666,40.368611111111115],[-107.61833333333333,40.4325],[-107.46305555555556,40.49777777777778],[-107.30638888888889,40.56361111111111],[-107.15,40.62888888888889],[-106.99166666666667,40.69472222222222],[-106.83333333333333,40.76],[-106.66305555555556,40.82972222222222],[-106.50055555555555,40.89527777777778],[-106.3386111111111,40.961111111111116],[-106.17555555555556,41.02722222222222],[-106.0038888888889,41.096111111111114],[-105.8425,41.16083333333333],[-105.67777777777778,41.226111111111116],[-105.51361111111112,41.29083333333333],[-105.35166666666666,41.35444444444445],[-105.19166666666668,41.41694444444444],[-105.03,41.47972222222222],[-104.86861111111111,41.54194444444444],[-104.70833333333334,41.603611111111114],[-104.54694444444445,41.665],[-104.3863888888889,41.725833333333334],[-104.22555555555556,41.78666666666666],[-104.06333333333333,41.84777777777778],[-103.89972222222222,41.90861111111111],[-103.73694444444445,41.969166666666666],[-103.57555555555555,42.02861111111111],[-103.41194444444444,42.08861111111111],[-103.25138888888888,42.14694444444444],[-103.08777777777777,42.20638888888889],[-102.92194444444445,42.26611111111111],[-102.76166666666667,42.32916666666667],[-102.63138888888888,42.42444444444444],[-102.55611111111111,42.47083333333334],[-102.50027777777778,42.52166666666667],[-102.43083333333334,42.571111111111115],[-102.36944444444444,42.61833333333333],[-102.30361111111111,42.670833333333334],[-102.23861111111111,42.71472222222223],[-102.16638888888889,42.76555555555556],[-102.10444444444444,42.81305555555555],[-102.03472222222221,42.86388888888889],[-101.97055555555556,42.910555555555554],[-101.90166666666667,42.96055555555556],[-101.83694444444444,43.00805555555556],[-101.76555555555555,43.059999999999995],[-101.67166666666667,43.11055555555556],[-101.61027777777777,43.143055555555556],[-101.51805555555555,43.19194444444444],[-101.45472222222223,43.22527777777778],[-101.35555555555555,43.266666666666666],[-101.28694444444444,43.28638888888889],[-101.17833333333334,43.316944444444445],[-101.1061111111111,43.33694444444445],[-100.99694444444445,43.367222222222225],[-100.92888888888889,43.385555555555555],[-100.8175,43.41583333333333],[-100.74416666666667,43.43583333333333],[-100.63416666666667,43.46416666666667],[-100.56083333333333,43.47944444444445],[-100.45333333333333,43.501666666666665],[-100.37638888888888,43.5175],[-100.26666666666667,43.54],[-100.18861111111111,43.55583333333333],[-100.07777777777777,43.578611111111115],[-100.005,43.593333333333334],[-99.89444444444445,43.61611111111111],[-99.81694444444445,43.63166666666667],[-99.71055555555556,43.65333333333333],[-99.63388888888889,43.66861111111111],[-99.44694444444445,43.705555555555556],[-99.2611111111111,43.742222222222225],[-99.07833333333333,43.77777777777778],[-98.8913888888889,43.81388888888888],[-98.70361111111112,43.849722222222226],[-98.48805555555556,43.89055555555556],[-98.29444444444444,43.92666666666666],[-98.10416666666666,43.96194444444445],[-97.91527777777779,43.99666666666667],[-97.52555555555556,44.01972222222222],[-97.33333333333333,44.02166666666667],[-97.13805555555557,44.02333333333333],[-96.94388888888889,44.02444444444444],[-96.74722222222222,44.025555555555556],[-96.55222222222221,44.02583333333333],[-96.35916666666667,44.02611111111111],[-96.16888888888889,44.02611111111111],[-95.97611111111111,44.02583333333333],[-95.7825,44.025],[-95.58833333333332,44.024166666666666],[-95.39666666666668,44.0225],[-95.20305555555557,44.02111111111111],[-95.01,44.01888888888889],[-94.62777777777777,44.01361111111111],[-94.43527777777778,44.01083333333333],[-94.22638888888889,44.007222222222225],[-94.06472222222222,44.06583333333333],[-93.98583333333333,44.18611111111111],[-93.9088888888889,44.30694444444444],[-93.83111111111111,44.430277777777775],[-93.75277777777778,44.553888888888885],[-93.67500000000001,44.67583333333333],[-93.595,44.80138888888889],[-93.51416666666667,44.927499999999995],[-93.45,45.026944444444446],[-93.33999999999999,45.13944444444444],[-93.14111111111112,45.17972222222222],[-92.93666666666667,45.21055555555556],[-92.73277777777778,45.24],[-92.53166666666667,45.26888888888889],[-92.36916666666666,45.29194444444444],[-92.12249999999999,45.32638888888889],[-91.92055555555557,45.35416666666667],[-91.51027777777777,45.353611111111114],[-91.30222222222221,45.330000000000005],[-91.09805555555555,45.30638888888888],[-90.89277777777778,45.282222222222224],[-90.6875,45.257777777777775],[-90.45277777777778,45.22916666666667],[-90.24555555555555,45.203611111111115],[-90.25111111111111,45.20388888888889],[-90.04833333333333,45.1725],[-89.86444444444444,45.111666666666665],[-89.67805555555556,45.05138888888889],[-89.68111111111112,45.052499999999995],[-89.49638888888889,44.99166666666667],[-89.49972222222222,44.99277777777778],[-89.31472222222222,44.93222222222222],[-89.31777777777778,44.93333333333333],[-89.13222222222221,44.87222222222222],[-88.94916666666667,44.81111111111111],[-88.79722222222222,44.75944444444445],[-88.76361111111112,44.74805555555556],[-88.61138888888888,44.696666666666665],[-88.57722222222222,44.68527777777778],[-88.42361111111111,44.63305555555556],[-88.38777777777779,44.62083333333334],[-88.2375,44.566944444444445],[-88.20777777777778,44.55027777777777],[-88.0911111111111,44.43472222222222],[-88.00527777777778,44.33694444444445],[-87.98777777777778,44.316944444444445],[-87.90111111111112,44.2175],[-87.88361111111112,44.19694444444444],[-87.81472222222222,44.095],[-87.81055555555555,44.07027777777778],[-87.82166666666666,43.964444444444446],[-87.82472222222222,43.94277777777778],[-87.83888888888889,43.83916666666667],[-87.8425,43.815555555555555],[-87.84555555555555,43.71138888888889],[-87.84444444444443,43.69027777777777],[-87.83333333333333,43.53333333333333],[-87.83638888888889,43.473333333333336],[-87.8411111111111,43.45444444444445],[-87.85,43.416666666666664],[-87.86388888888888,43.365833333333335],[-87.86555555555555,43.34777777777778],[-87.85,43.31666666666667],[-87.82055555555556,43.248333333333335],[-87.8,43.21666666666667],[-87.77472222222222,43.16916666666666],[-87.76527777777778,43.15277777777778],[-87.75,43.11666666666667],[-87.71888888888888,43.07277777777778],[-87.70777777777778,43.05583333333333],[-87.68333333333334,43.03333333333333],[-87.61749999999999,43],[-87.59583333333333,42.98888888888889],[-87.55,42.96666666666667],[-87.52361111111111,42.94888888888889],[-87.50138888888888,42.91416666666667],[-87.46333333333334,42.818333333333335],[-87.46194444444444,42.815],[-87.45,42.78333333333333],[-87.43277777777779,42.723888888888894],[-87.43333333333334,42.717222222222226],[-87.46972222222223,42.62277777777778],[-87.51666666666667,42.516666666666666],[-87.51666666666667,42.416666666666664],[-87.55,42.333333333333336],[-87.61666666666666,42.25],[-87.69500000000001,42.18611111111111],[-87.76,42.125],[-87.84472222222222,42.092222222222226],[-87.94638888888889,42.09138888888889],[-88.04833333333333,42.09166666666667],[-88.15944444444445,42.09138888888889],[-88.2611111111111,42.090833333333336],[-88.36083333333333,42.08833333333334],[-88.36666666666666,42.083333333333336],[-88.385,42.035],[-88.3,42],[-88.21666666666667,42],[-88.13333333333334,42],[-88.06027777777777,42.0025],[-87.99555555555555,42.00277777777778],[-87.93333333333334,42]]}
}
