{
  "id": 2032106615,
  "type": "Feature",
  "properties": {
    "geom:area": 0,
    "geom:bbox": "-122.402980,37.624390,-121.418580,38.317200",
    "geom:latitude": 37.9673910183028,
    "geom:longitude": -121.9205261869405,
    "src:alt_label": "swim-takeoff",
    "src:geom": "swim",
    "swim:elevations": [
      183,
      213,
      355,
      505,
      1020,
      1346,
      1869,
      2642,
      3374,
      3813,
      4017,
      4162,
      4342,
      4727,
      5020,
      5212,
      5602,
      5811,
      6133,
      6463,
      6971
    ],
    "swim:geom": "takeoff",
    "swim:timestamps": [
      1785874662,
      1785874665,
      1785874676,
      1785874689,
      1785874729,
      1785874761,
      1785874804,
      1785874854,
      1785874912,
      1785874978,
      1785874994,
      1785875010,
      1785875029,
      1785875068,
      1785875092,
      1785875111,
      1785875151,
      1785875176,
      1785875216,
      1785875254,
      1785875316
    ],
    "wof:geomhash": "574d101b55bb47f6be71bce951d4e3b1",
    "wof:id": 2032106615,
    "wof:repo": "sfomuseum-data-flights-2026-08"
  },
  "bbox": [
    -122.40298,
    37.62439,
    -121.41858,
    38.3172
  ],
  "geometry": {"type":"LineString","coordinates":[[-122.38828,37.62439],[-122.39086,37.6255],[-122.39989,37.63188],[-122.40298,37.64182],[-122.36738,37.6624],[-122.32679,37.67313],[-122.26631,37.69703],[-122.19769,37.73467],[-122.13961,37.80135],[-122.0557,37.88661],[-122.02907,37.90648],[-122.00211,37.92474],[-121.96786,37.94755],[-121.89848,37.99378],[-121.85312,38.02428],[-121.82003,38.04683],[-121.7451,38.09855],[-121.69695,38.13136],[-121.61961,38.18317],[-121.54386,38.23357],[-121.41858,38.3172]]}
}
