{
  "id": 2047916267,
  "type": "Feature",
  "properties": {
    "geom:area": 0,
    "geom:bbox": "-122.527222,37.629444,-83.275556,43.121667",
    "geom:latitude": 41.92771993667011,
    "geom:longitude": -103.16868907410644,
    "src:alt_label": "swim-path",
    "src:geom": "swim",
    "swim:altitudes": [
      "006",
      "010",
      "026",
      "043",
      "066",
      "087",
      "106",
      "116",
      "134",
      "156",
      "174",
      "190",
      "205",
      "221",
      "234",
      "247",
      "260",
      "272",
      "277",
      "281",
      "286",
      "290",
      "296",
      "300",
      "305",
      "310",
      "315",
      "319",
      "324",
      "331",
      "336",
      "341",
      "344",
      "349C",
      "350C",
      "350C",
      "350C",
      "350C",
      "350C",
      "350C",
      "350C",
      "350C",
      "350C",
      "350C",
      "350C",
      "350C",
      "350C",
      "350C",
      "350C",
      "350C",
      "350C",
      "350C",
      "350C",
      "350C",
      "350C",
      "350C",
      "350C",
      "350C",
      "350C",
      "350C",
      "350C",
      "350C",
      "350C",
      "350C",
      "350C",
      "350C",
      "350C",
      "350C",
      "350C",
      "350C",
      "350C",
      "350C",
      "350C",
      "350C",
      "350C",
      "350C",
      "350C",
      "350C",
      "350C",
      "350C",
      "350C",
      "350C",
      "350C",
      "350C",
      "350C",
      "350C",
      "350C",
      "350C",
      "350C",
      "350C",
      "350C",
      "350C",
      "350C",
      "350C",
      "350C",
      "350C",
      "350C",
      "350C",
      "350C",
      "350C",
      "350C",
      "350C",
      "350C",
      "350C",
      "350C",
      "350C",
      "350C",
      "350C",
      "350C",
      "350C",
      "350C",
      "350C",
      "350C",
      "350C",
      "350C",
      "350C",
      "350C",
      "350C",
      "350C",
      "350C",
      "350C",
      "350C",
      "350C",
      "350C",
      "350C",
      "350C",
      "350C",
      "350C",
      "350C",
      "350C",
      "350C",
      "350C",
      "350C",
      "350C",
      "350C",
      "350C",
      "350C",
      "350C",
      "350C",
      "350C",
      "350C",
      "350C",
      "350C",
      "350C",
      "350C",
      "350C",
      "350C",
      "350C",
      "350C",
      "350C",
      "350C",
      "350C",
      "350C",
      "350C",
      "350C",
      "350C",
      "350C",
      "350C",
      "350C",
      "350C",
      "350C",
      "350C",
      "350C",
      "350C",
      "350C",
      "350C",
      "350C",
      "350C",
      "350C",
      "350C",
      "350C",
      "350C",
      "350C",
      "350C",
      "350C",
      "350C",
      "350C",
      "350C",
      "350C",
      "350C",
      "350C",
      "350C",
      "350C",
      "350C",
      "350C",
      "350C",
      "350C",
      "350C",
      "350C",
      "350C",
      "350C",
      "350C",
      "350C",
      "350C",
      "350C",
      "350C",
      "350C",
      "350C",
      "350C",
      "350C",
      "350C",
      "350C",
      "350C",
      "350C",
      "350C",
      "350C",
      "350C",
      "350C",
      "350C",
      "350C",
      "350C",
      "350C",
      "350C",
      "350C",
      "350C",
      "350C",
      "350C",
      "350C",
      "350C",
      "350C",
      "350C",
      "350C",
      "350C",
      "350C",
      "350C",
      "350C",
      "350C",
      "350C",
      "350C",
      "350C",
      "350C",
      "350C",
      "350C",
      "350C",
      "350C",
      "350C",
      "350C",
      "350C",
      "350C",
      "350C",
      "350C",
      "350C",
      "350C",
      "350C",
      "350C",
      "350C",
      "350C",
      "350C",
      "350C",
      "350C",
      "350C",
      "350C",
      "350C",
      "350C",
      "350C",
      "350C",
      "350C",
      "350C",
      "350C",
      "350C",
      "350C",
      "350C",
      "347",
      "337",
      "330C",
      "330C",
      "330C",
      "330C",
      "330C",
      "330C",
      "330",
      "323",
      "299",
      "279",
      "224",
      "210C",
      "210",
      "210",
      "198",
      "171",
      "153",
      "148",
      "131",
      "127",
      "118",
      "105",
      "096",
      "085",
      "075",
      "062",
      "053",
      "044",
      "030",
      "027",
      "017",
      "010"
    ],
    "swim:geom": "path",
    "swim:speeds": [
      169,
      169,
      215,
      260,
      281,
      303,
      320,
      375,
      401,
      407,
      412,
      432,
      443,
      450,
      462,
      470,
      473,
      475,
      478,
      485,
      484,
      492,
      492,
      494,
      497,
      498,
      498,
      499,
      499,
      500,
      500,
      498,
      498,
      497,
      498,
      497,
      497,
      498,
      498,
      499,
      498,
      499,
      498,
      499,
      500,
      499,
      502,
      499,
      500,
      499,
      500,
      499,
      500,
      500,
      501,
      501,
      502,
      503,
      503,
      503,
      503,
      503,
      503,
      503,
      502,
      502,
      502,
      501,
      501,
      501,
      502,
      502,
      503,
      503,
      503,
      503,
      503,
      504,
      503,
      502,
      502,
      503,
      503,
      504,
      505,
      506,
      507,
      507,
      506,
      505,
      504,
      503,
      502,
      500,
      500,
      500,
      501,
      501,
      501,
      502,
      503,
      503,
      504,
      504,
      503,
      502,
      501,
      501,
      502,
      502,
      503,
      505,
      506,
      507,
      510,
      505,
      509,
      504,
      502,
      503,
      503,
      502,
      502,
      500,
      501,
      500,
      501,
      500,
      500,
      501,
      501,
      501,
      501,
      502,
      502,
      502,
      502,
      502,
      501,
      501,
      501,
      501,
      500,
      500,
      499,
      498,
      498,
      499,
      500,
      501,
      502,
      502,
      503,
      503,
      503,
      502,
      502,
      500,
      498,
      497,
      495,
      493,
      489,
      489,
      489,
      491,
      493,
      494,
      496,
      497,
      497,
      496,
      495,
      494,
      493,
      493,
      491,
      491,
      490,
      490,
      488,
      487,
      486,
      486,
      487,
      489,
      490,
      491,
      490,
      490,
      488,
      486,
      484,
      483,
      484,
      485,
      485,
      485,
      484,
      484,
      484,
      484,
      484,
      484,
      484,
      485,
      484,
      485,
      488,
      492,
      494,
      494,
      494,
      494,
      493,
      494,
      494,
      494,
      494,
      495,
      496,
      500,
      502,
      504,
      505,
      506,
      506,
      506,
      505,
      504,
      504,
      503,
      503,
      502,
      502,
      503,
      503,
      503,
      504,
      504,
      505,
      506,
      506,
      506,
      507,
      507,
      507,
      507,
      507,
      507,
      507,
      507,
      508,
      508,
      508,
      510,
      511,
      510,
      513,
      512,
      514,
      515,
      516,
      516,
      517,
      517,
      516,
      514,
      514,
      514,
      515,
      516,
      517,
      517,
      487,
      474,
      470,
      469,
      464,
      456,
      440,
      442,
      430,
      423,
      376,
      352,
      317,
      304,
      295,
      287,
      267,
      236,
      225,
      221,
      169,
      151
    ],
    "swim:timestamps": [
      1786366310,
      1786366327,
      1786366387,
      1786366447,
      1786366507,
      1786366567,
      1786366627,
      1786366687,
      1786366747,
      1786366807,
      1786366867,
      1786366927,
      1786366987,
      1786367047,
      1786367107,
      1786367167,
      1786367227,
      1786367287,
      1786367312,
      1786367347,
      1786367372,
      1786367407,
      1786367432,
      1786367467,
      1786367492,
      1786367527,
      1786367552,
      1786367587,
      1786367612,
      1786367647,
      1786367672,
      1786367707,
      1786367732,
      1786367767,
      1786367792,
      1786367827,
      1786367852,
      1786367888,
      1786367912,
      1786367948,
      1786367972,
      1786368008,
      1786368033,
      1786368068,
      1786368093,
      1786368128,
      1786368153,
      1786368188,
      1786368213,
      1786368248,
      1786368273,
      1786368308,
      1786368333,
      1786368368,
      1786368393,
      1786368428,
      1786368453,
      1786368488,
      1786368513,
      1786368548,
      1786368573,
      1786368608,
      1786368633,
      1786368668,
      1786368693,
      1786368728,
      1786368753,
      1786368788,
      1786368813,
      1786368848,
      1786368874,
      1786368908,
      1786368934,
      1786368968,
      1786368994,
      1786369029,
      1786369054,
      1786369114,
      1786369174,
      1786369234,
      1786369294,
      1786369354,
      1786369414,
      1786369474,
      1786369534,
      1786369595,
      1786369655,
      1786369715,
      1786369775,
      1786369835,
      1786369895,
      1786369955,
      1786370015,
      1786370075,
      1786370135,
      1786370195,
      1786370255,
      1786370316,
      1786370376,
      1786370436,
      1786370496,
      1786370556,
      1786370616,
      1786370676,
      1786370736,
      1786370796,
      1786370856,
      1786370916,
      1786370931,
      1786370976,
      1786371037,
      1786371097,
      1786371157,
      1786371217,
      1786371231,
      1786371277,
      1786371291,
      1786371337,
      1786371351,
      1786371397,
      1786371411,
      1786371457,
      1786371471,
      1786371517,
      1786371531,
      1786371577,
      1786371591,
      1786371637,
      1786371652,
      1786371697,
      1786371712,
      1786371757,
      1786371772,
      1786371818,
      1786371832,
      1786371878,
      1786371892,
      1786371952,
      1786371998,
      1786372012,
      1786372058,
      1786372072,
      1786372118,
      1786372132,
      1786372192,
      1786372238,
      1786372252,
      1786372298,
      1786372312,
      1786372358,
      1786372373,
      1786372418,
      1786372433,
      1786372478,
      1786372493,
      1786372539,
      1786372553,
      1786372613,
      1786372673,
      1786372733,
      1786372793,
      1786372853,
      1786372973,
      1786373033,
      1786373094,
      1786373154,
      1786373214,
      1786373274,
      1786373334,
      1786373394,
      1786373454,
      1786373514,
      1786373574,
      1786373634,
      1786373694,
      1786373754,
      1786373814,
      1786373875,
      1786373935,
      1786373995,
      1786374055,
      1786374115,
      1786374175,
      1786374235,
      1786374295,
      1786374355,
      1786374415,
      1786374475,
      1786374535,
      1786374596,
      1786374656,
      1786374716,
      1786374776,
      1786374840,
      1786374900,
      1786374960,
      1786375020,
      1786375080,
      1786375140,
      1786375201,
      1786375261,
      1786375321,
      1786375381,
      1786375441,
      1786375501,
      1786375561,
      1786375621,
      1786375693,
      1786375753,
      1786375813,
      1786375873,
      1786375934,
      1786375994,
      1786376054,
      1786376174,
      1786376234,
      1786376278,
      1786376294,
      1786376338,
      1786376354,
      1786376414,
      1786376474,
      1786376519,
      1786376579,
      1786376639,
      1786376699,
      1786376759,
      1786376775,
      1786376835,
      1786376879,
      1786376895,
      1786376939,
      1786376955,
      1786377075,
      1786377135,
      1786377180,
      1786377195,
      1786377240,
      1786377255,
      1786377315,
      1786377375,
      1786377420,
      1786377436,
      1786377496,
      1786377540,
      1786377556,
      1786377616,
      1786377676,
      1786377721,
      1786377736,
      1786377781,
      1786377796,
      1786377856,
      1786377916,
      1786377976,
      1786378036,
      1786378081,
      1786378096,
      1786378141,
      1786378157,
      1786378201,
      1786378261,
      1786378322,
      1786378382,
      1786378442,
      1786378502,
      1786378562,
      1786378629,
      1786378689,
      1786378749,
      1786378809,
      1786378869,
      1786378929,
      1786378983,
      1786379110,
      1786379170,
      1786379230,
      1786379290,
      1786379343,
      1786379410,
      1786379458,
      1786379470,
      1786379521,
      1786379530,
      1786379590,
      1786379650,
      1786379711,
      1786379771,
      1786379831,
      1786379891,
      1786379951,
      1786380011,
      1786380071,
      1786380131,
      1786380191,
      1786380245
    ],
    "wof:geomhash": "d9340a04f82630fcec6cfabbc558a69f",
    "wof:id": 2047916267,
    "wof:repo": "sfomuseum-data-flights-2026-08"
  },
  "bbox": [
    -122.52722222222222,
    37.629444444444445,
    -83.27555555555556,
    43.12166666666667
  ],
  "geometry": {"type":"LineString","coordinates":[[-122.4,37.63333333333333],[-122.40111111111112,37.629444444444445],[-122.4625,37.655833333333334],[-122.525,37.69916666666666],[-122.52722222222222,37.777499999999996],[-122.45583333333333,37.8325],[-122.36749999999999,37.885],[-122.27277777777778,37.95027777777778],[-122.16583333333334,38.02388888888889],[-122.05777777777777,38.098333333333336],[-121.94861111111112,38.17361111111111],[-121.81611111111111,38.24805555555556],[-121.68027777777779,38.308055555555555],[-121.53916666666666,38.37],[-121.39666666666668,38.43277777777777],[-121.25583333333333,38.49444444444445],[-121.11333333333333,38.55638888888888],[-120.96611111111112,38.62027777777778],[-120.89111111111112,38.65083333333333],[-120.81694444444445,38.68444444444444],[-120.73833333333333,38.715833333333336],[-120.6613888888889,38.75138888888889],[-120.58388888888888,38.78333333333333],[-120.50638888888889,38.8175],[-120.42722222222223,38.84916666666667],[-120.34888888888888,38.884166666666665],[-120.27083333333333,38.91583333333333],[-120.19222222222223,38.95055555555556],[-120.11388888888888,38.98222222222223],[-120.01777777777778,39.02388888888889],[-119.9563888888889,39.04805555555556],[-119.86277777777777,39.08861111111111],[-119.80166666666666,39.11388888888889],[-119.70583333333333,39.15416666666667],[-119.64472222222223,39.17833333333333],[-119.54916666666666,39.21888888888889],[-119.48833333333333,39.24388888888889],[-119.39194444444445,39.28388888888889],[-119.32972222222222,39.30888888888889],[-119.23166666666667,39.349722222222226],[-119.17111111111112,39.373333333333335],[-119.07444444444444,39.41416666666667],[-119.04416666666667,39.42638888888889],[-118.91861111111112,39.47666666666667],[-118.85555555555555,39.50055555555556],[-118.78,39.53],[-118.71833333333333,39.555],[-118.61722222222221,39.596111111111114],[-118.55749999999999,39.62027777777778],[-118.4563888888889,39.66138888888889],[-118.39583333333334,39.68555555555555],[-118.29777777777778,39.724722222222226],[-118.23416666666667,39.75],[-118.13527777777779,39.78916666666667],[-118.07416666666666,39.81305555555555],[-117.97500000000001,39.85194444444445],[-117.91222222222223,39.876666666666665],[-117.81277777777777,39.91555555555556],[-117.72444444444444,39.95],[-117.65805555555556,39.97555555555556],[-117.5625,40.01277777777778],[-117.48777777777778,40.041666666666664],[-117.39972222222222,40.07527777777778],[-117.32305555555556,40.10472222222222],[-117.23861111111111,40.136944444444445],[-117.1725,40.16222222222222],[-117.07805555555555,40.19833333333333],[-116.97833333333334,40.236111111111114],[-116.91611111111112,40.25972222222222],[-116.84555555555555,40.28638888888889],[-116.75861111111111,40.31916666666667],[-116.68222222222222,40.34777777777778],[-116.5975,40.379444444444445],[-116.4961111111111,40.4175],[-116.43361111111112,40.440555555555555],[-116.33277777777778,40.47805555555556],[-116.26972222222223,40.50138888888889],[-116.10527777777777,40.56222222222222],[-115.9388888888889,40.623333333333335],[-115.77444444444444,40.683055555555555],[-115.60916666666667,40.74305555555556],[-115.44333333333334,40.80277777777778],[-115.27583333333334,40.863055555555555],[-115.10833333333333,40.9225],[-114.93972222222223,40.9825],[-114.7725,41.04111111111111],[-114.5936111111111,41.103611111111114],[-114.42500000000001,41.16222222222222],[-114.25694444444444,41.220555555555556],[-114.08611111111111,41.27916666666667],[-113.91777777777779,41.336666666666666],[-113.74166666666667,41.38111111111111],[-113.56305555555555,41.413888888888884],[-113.38138888888888,41.446666666666665],[-113.20222222222222,41.478611111111114],[-113.02333333333333,41.51027777777778],[-112.84083333333332,41.54222222222222],[-112.66000000000001,41.57361111111111],[-112.47666666666667,41.60527777777778],[-112.29444444444444,41.63638888888889],[-112.11166666666666,41.66722222222222],[-111.9263888888889,41.698055555555555],[-111.7425,41.72833333333333],[-111.5611111111111,41.75805555555556],[-111.37694444444443,41.78777777777778],[-111.19583333333334,41.816944444444445],[-111.01194444444444,41.84583333333334],[-110.84888888888888,41.87138888888889],[-110.81333333333333,41.87833333333333],[-110.66638888888889,41.89944444444444],[-110.47972222222222,41.92805555555555],[-110.29583333333333,41.955555555555556],[-110.11,41.98361111111111],[-109.92222222222223,42.01222222222222],[-109.8863888888889,42.01916666666666],[-109.74,42.043055555555554],[-109.70472222222223,42.04944444444444],[-109.55638888888889,42.07361111111111],[-109.52,42.080000000000005],[-109.37277777777777,42.10305555555556],[-109.33583333333333,42.109722222222224],[-109.18805555555556,42.1325],[-109.14972222222222,42.13861111111111],[-109.0038888888889,42.16166666666666],[-108.9675,42.1675],[-108.82222222222222,42.19027777777777],[-108.78472222222221,42.19611111111111],[-108.63777777777779,42.21888888888889],[-108.6,42.225],[-108.45166666666667,42.2475],[-108.41805555555555,42.2525],[-108.26833333333333,42.275],[-108.23138888888889,42.28055555555555],[-108.08055555555555,42.29388888888889],[-108.04555555555555,42.296388888888885],[-107.89361111111111,42.306666666666665],[-107.8561111111111,42.30916666666666],[-107.67055555555557,42.32138888888889],[-107.51944444444445,42.331388888888895],[-107.48222222222222,42.33361111111111],[-107.33333333333333,42.34277777777778],[-107.29638888888888,42.34527777777778],[-107.14416666666668,42.35444444444445],[-107.11083333333333,42.35638888888889],[-106.92277777777778,42.3675],[-106.77527777777777,42.376111111111115],[-106.72277777777778,42.37888888888889],[-106.57249999999999,42.38722222222222],[-106.53277777777778,42.38944444444444],[-106.38388888888889,42.3975],[-106.34472222222222,42.39972222222222],[-106.19416666666667,42.4075],[-106.15611111111112,42.409444444444446],[-106.00694444444444,42.41694444444444],[-105.97083333333333,42.41888888888889],[-105.81805555555555,42.42638888888889],[-105.78388888888888,42.42805555555555],[-105.59722222222221,42.43694444444444],[-105.40972222222223,42.44555555555555],[-105.22611111111111,42.453611111111115],[-105.0425,42.461111111111116],[-104.85888888888888,42.46888888888889],[-104.50138888888888,42.4825],[-104.32222222222222,42.48916666666667],[-104.1388888888889,42.49527777777778],[-103.95527777777778,42.50111111111111],[-103.76777777777778,42.50194444444445],[-103.58138888888888,42.5025],[-103.39500000000001,42.50333333333333],[-103.20805555555556,42.50416666666667],[-103.02361111111111,42.504444444444445],[-102.8386111111111,42.50416666666667],[-102.65083333333334,42.50388888888889],[-102.46694444444445,42.503055555555555],[-102.28027777777778,42.50194444444445],[-102.05944444444444,42.50055555555556],[-101.87777777777777,42.51361111111111],[-101.71444444444445,42.53111111111111],[-101.53083333333333,42.55083333333333],[-101.34944444444444,42.569722222222225],[-101.16861111111112,42.58833333333334],[-100.98527777777778,42.60722222222223],[-100.80555555555556,42.62555555555556],[-100.62222222222222,42.64333333333333],[-100.44,42.66111111111111],[-100.2575,42.67833333333333],[-100.07333333333332,42.69555555555555],[-99.88861111111112,42.71277777777778],[-99.70611111111111,42.72944444444445],[-99.52444444444444,42.74527777777778],[-99.34055555555555,42.76138888888889],[-99.16277777777778,42.776666666666664],[-98.98388888888888,42.791666666666664],[-98.77722222222222,42.808611111111105],[-98.59527777777777,42.82333333333334],[-98.415,42.83722222222222],[-98.23333333333333,42.85138888888889],[-98.05194444444444,42.86527777777778],[-97.87083333333332,42.87861111111111],[-97.68694444444445,42.89194444444444],[-97.50583333333333,42.90472222222222],[-97.32444444444444,42.9175],[-97.14250000000001,42.92972222222222],[-96.96055555555556,42.94138888888889],[-96.77916666666667,42.95333333333333],[-96.595,42.96472222222223],[-96.41305555555556,42.975833333333334],[-96.23111111111112,42.986666666666665],[-96.04694444444445,42.9975],[-95.8236111111111,43.00833333333333],[-95.63777777777779,43.01611111111111],[-95.44777777777779,43.02444444444444],[-95.26194444444444,43.0325],[-95.07666666666667,43.03972222222222],[-94.70194444444445,43.05361111111111],[-94.51638888888888,43.06027777777778],[-94.37333333333332,43.06527777777777],[-94.33027777777778,43.06666666666667],[-94.18805555555556,43.07138888888889],[-94.14861111111112,43.072500000000005],[-93.99777777777778,43.07694444444445],[-93.76944444444445,43.083333333333336],[-93.61861111111111,43.08722222222222],[-93.42472222222223,43.09166666666667],[-93.23361111111112,43.09583333333334],[-93.0425,43.099722222222226],[-92.84944444444444,43.103611111111114],[-92.8111111111111,43.10416666666667],[-92.61999999999999,43.1075],[-92.46583333333334,43.109722222222224],[-92.42777777777778,43.11],[-92.27583333333334,43.11222222222222],[-92.235,43.11277777777778],[-91.85249999999999,43.11694444444444],[-91.66055555555556,43.118611111111115],[-91.5075,43.11972222222222],[-91.46722222222222,43.12],[-91.3125,43.120555555555555],[-91.27277777777778,43.120555555555555],[-91.0786111111111,43.12138888888889],[-90.88861111111112,43.12166666666667],[-90.735,43.12166666666667],[-90.69333333333334,43.12166666666667],[-90.54055555555556,43.12138888888889],[-90.3461111111111,43.12083333333334],[-90.31,43.120555555555555],[-90.11916666666666,43.11972222222222],[-89.92750000000001,43.11833333333333],[-89.77805555555555,43.11694444444444],[-89.73666666666666,43.11666666666667],[-89.58666666666666,43.115],[-89.55138888888888,43.11527777777778],[-89.35944444444443,43.11361111111111],[-89.16666666666667,43.10888888888889],[-88.9738888888889,43.106944444444444],[-88.78083333333333,43.10305555555556],[-88.6236111111111,43.100833333333334],[-88.55027777777778,43.09777777777778],[-88.43166666666667,43.096944444444446],[-88.35694444444444,43.09305555555556],[-88.23694444444445,43.09277777777778],[-88.04333333333334,43.088055555555556],[-87.84777777777778,43.083333333333336],[-87.65333333333334,43.07833333333333],[-87.4588888888889,43.07277777777778],[-87.26388888888889,43.06666666666667],[-87.07083333333333,43.06055555555555],[-86.83805555555556,43.051944444444445],[-86.64305555555556,43.045833333333334],[-86.44972222222222,43.038333333333334],[-86.25833333333334,43.03111111111111],[-86.03527777777778,43.02194444444444],[-85.84138888888889,43.01361111111111],[-85.68694444444445,43.00666666666667],[-85.2775,42.987500000000004],[-85.09916666666666,42.97916666666667],[-84.92027777777778,42.969722222222224],[-84.75083333333333,42.93333333333333],[-84.62249999999999,42.89388888888889],[-84.43222222222222,42.835],[-84.30499999999999,42.79388888888889],[-84.27388888888889,42.785555555555554],[-84.15944444444445,42.749722222222225],[-84.12527777777777,42.73777777777778],[-83.98805555555556,42.69472222222222],[-83.85888888888888,42.66777777777777],[-83.7388888888889,42.64388888888889],[-83.63166666666666,42.61055555555556],[-83.54305555555555,42.58222222222223],[-83.4525,42.54222222222222],[-83.36388888888888,42.48305555555556],[-83.295,42.43583333333333],[-83.27555555555556,42.37861111111111],[-83.30444444444444,42.32194444444445],[-83.33444444444444,42.27361111111111],[-83.35749999999999,42.23833333333334]]}
}
