{
  "id": 2032113107,
  "type": "Feature",
  "properties": {
    "geom:area": 0,
    "geom:bbox": "-122.364930,37.502950,-121.305960,37.612980",
    "geom:latitude": 37.542693498002656,
    "geom:longitude": -121.84157085220964,
    "src:alt_label": "swim-approach",
    "src:geom": "swim",
    "swim:elevations": [
      4221,
      3781,
      3636,
      3284,
      3185,
      3080,
      2862,
      2621,
      2496,
      2435,
      2426,
      2221,
      1997,
      1889,
      1830,
      1826,
      1682,
      1492,
      1323,
      1074,
      913,
      914,
      882,
      759,
      600,
      538,
      438,
      321,
      189,
      36,
      311
    ],
    "swim:geom": "approach",
    "swim:timestamps": [
      1785960695,
      1785960740,
      1785960757,
      1785960797,
      1785960812,
      1785960846,
      1785960884,
      1785960906,
      1785960935,
      1785960953,
      1785960982,
      1785961010,
      1785961036,
      1785961052,
      1785961066,
      1785961082,
      1785961107,
      1785961130,
      1785961151,
      1785961186,
      1785961213,
      1785961241,
      1785961254,
      1785961280,
      1785961316,
      1785961330,
      1785961352,
      1785961381,
      1785961418,
      1785961459,
      1785961475
    ],
    "wof:geomhash": "c2a2598e81883a3bb78034a2e155993f",
    "wof:id": 2032113107,
    "wof:repo": "sfomuseum-data-flights-2026-08"
  },
  "bbox": [
    -122.36493,
    37.50295,
    -121.30596,
    37.61298
  ],
  "geometry": {"type":"LineString","coordinates":[[-121.30596,37.58734],[-121.39495,37.57742],[-121.42699,37.57373],[-121.50393,37.56478],[-121.53179,37.56157],[-121.59251,37.55452],[-121.65443,37.54361],[-121.69009,37.53496],[-121.736,37.52412],[-121.76301,37.51766],[-121.80405,37.50778],[-121.84493,37.50295],[-121.88386,37.50399],[-121.9075,37.50469],[-121.92839,37.50528],[-121.95152,37.50593],[-121.9887,37.50696],[-122.0225,37.50792],[-122.05251,37.50872],[-122.10158,37.51029],[-122.13637,37.51895],[-122.16837,37.5319],[-122.18071,37.53705],[-122.20625,37.5477],[-122.2416,37.56263],[-122.25468,37.56816],[-122.27318,37.57596],[-122.29615,37.58559],[-122.32331,37.597],[-122.35266,37.60931],[-122.36493,37.61298]]}
}
