{
  "id": 2047913499,
  "type": "Feature",
  "properties": {
    "geom:area": 0,
    "geom:bbox": "-122.359090,37.493630,-121.245600,37.614440",
    "geom:latitude": 37.54334496467905,
    "geom:longitude": -121.80946879718459,
    "src:alt_label": "swim-approach",
    "src:geom": "swim",
    "swim:elevations": [
      4590,
      4512,
      4012,
      3717,
      3442,
      3269,
      3110,
      3077,
      2876,
      2724,
      2531,
      2308,
      2257,
      1980,
      1867,
      1664,
      1543,
      1431,
      1301,
      1148,
      1037,
      967,
      887,
      630,
      583,
      350,
      264,
      171,
      0
    ],
    "swim:geom": "approach",
    "swim:timestamps": [
      1786410173,
      1786410182,
      1786410235,
      1786410268,
      1786410297,
      1786410318,
      1786410357,
      1786410372,
      1786410412,
      1786410433,
      1786410460,
      1786410508,
      1786410515,
      1786410568,
      1786410586,
      1786410623,
      1786410654,
      1786410675,
      1786410703,
      1786410732,
      1786410756,
      1786410775,
      1786410787,
      1786410835,
      1786410847,
      1786410895,
      1786410916,
      1786410939,
      1786410978
    ],
    "wof:geomhash": "00844920d088d154bed8ed35eec1ff1c",
    "wof:id": 2047913499,
    "wof:repo": "sfomuseum-data-flights-2026-08"
  },
  "bbox": [
    -122.35909,
    37.49363,
    -121.2456,
    37.61444
  ],
  "geometry": {"type":"LineString","coordinates":[[-121.2456,37.59506],[-121.26364,37.59261],[-121.36936,37.5806],[-121.43383,37.5732],[-121.49034,37.56662],[-121.52929,37.56204],[-121.60063,37.55359],[-121.62614,37.55014],[-121.68814,37.53555],[-121.7203,37.52788],[-121.76193,37.51802],[-121.83335,37.50088],[-121.84333,37.49845],[-121.92198,37.49363],[-121.94771,37.49512],[-121.99812,37.4978],[-122.03916,37.50016],[-122.06687,37.50178],[-122.10185,37.50644],[-122.1348,37.5186],[-122.1597,37.52924],[-122.17773,37.53753],[-122.18949,37.54336],[-122.2394,37.56407],[-122.25171,37.56921],[-122.29443,37.58719],[-122.31111,37.59417],[-122.3292,37.6019],[-122.35909,37.61444]]}
}
