{
  "id": 2047875621,
  "type": "Feature",
  "properties": {
    "geom:area": 0,
    "geom:bbox": "-122.337778,36.075000,-86.750000,38.646111",
    "geom:latitude": 37.39120216205588,
    "geom:longitude": -104.61765945248717,
    "src:alt_label": "swim-path",
    "src:geom": "swim",
    "swim:altitudes": [
      "031",
      "054",
      "060",
      "073",
      "079",
      "103",
      "118",
      "141",
      "167",
      "188",
      "207",
      "228",
      "242",
      "256",
      "267",
      "280",
      "292",
      "305",
      "316",
      "329",
      "340",
      "351",
      "360C",
      "360C",
      "360C",
      "360C",
      "360C",
      "360C",
      "360C",
      "360C",
      "360C",
      "360C",
      "360C",
      "360C",
      "360C",
      "360C",
      "360C",
      "360C",
      "360C",
      "360C",
      "360C",
      "360C",
      "360C",
      "360C",
      "360C",
      "360C",
      "360C",
      "360C",
      "360C",
      "360C",
      "360C",
      "360C",
      "360C",
      "360C",
      "360C",
      "360C",
      "360C",
      "360C",
      "360C",
      "360C",
      "360C",
      "360C",
      "360C",
      "360C",
      "360C",
      "360C",
      "360C",
      "360C",
      "360C",
      "360C",
      "360C",
      "360C",
      "360C",
      "360C",
      "360C",
      "360C",
      "360C",
      "360C",
      "360C",
      "360C",
      "360C",
      "360C",
      "360C",
      "360C",
      "360C",
      "360C",
      "360C",
      "360C",
      "360C",
      "360C",
      "360C",
      "360C",
      "360C",
      "360C",
      "360C",
      "360C",
      "360C",
      "360C",
      "360C",
      "360C",
      "360C",
      "360C",
      "360C",
      "360C",
      "360C",
      "360C",
      "360C",
      "360C",
      "360C",
      "360C",
      "360C",
      "360C",
      "360C",
      "360C",
      "360C",
      "360C",
      "360C",
      "360C",
      "360C",
      "360C",
      "360C",
      "360C",
      "360C",
      "360C",
      "360C",
      "360C",
      "360C",
      "360C",
      "360C",
      "360C",
      "360C",
      "360C",
      "360C",
      "360C",
      "360C",
      "360C",
      "360C",
      "360C",
      "360C",
      "360C",
      "360C",
      "360C",
      "360C",
      "360C",
      "360C",
      "360C",
      "360C",
      "360C",
      "360C",
      "360C",
      "360C",
      "360C",
      "360C",
      "360C",
      "360C",
      "360C",
      "360C",
      "360C",
      "360C",
      "360C",
      "360C",
      "360C",
      "360C",
      "360C",
      "360C",
      "360C",
      "360C",
      "360C",
      "360C",
      "360C",
      "360C",
      "360C",
      "360C",
      "360C",
      "360C",
      "360C",
      "360C",
      "360C",
      "360C",
      "360C",
      "360C",
      "360C",
      "360C",
      "360C",
      "360C",
      "360C",
      "360C",
      "360C",
      "360C",
      "360C",
      "360C",
      "360C",
      "360C",
      "360C",
      "360C",
      "360C",
      "360C",
      "360C",
      "360C",
      "360C",
      "360C",
      "360C",
      "360C",
      "360C",
      "360C",
      "360C",
      "360C",
      "360C",
      "360C",
      "360C",
      "360C",
      "360C",
      "360C",
      "360C",
      "360C",
      "360C",
      "360C",
      "360C",
      "360C",
      "360C",
      "360C",
      "360C",
      "360C",
      "360C",
      "360C",
      "360C",
      "360C",
      "360C",
      "360C",
      "360C",
      "360C",
      "360C",
      "360C",
      "360C",
      "360C",
      "360C",
      "360C",
      "360C",
      "360C",
      "360C",
      "360C",
      "360C",
      "360C",
      "360C",
      "360C",
      "360C",
      "360C",
      "360C",
      "360C",
      "360C",
      "360C",
      "360C",
      "360C",
      "360C",
      "360C",
      "360C",
      "360C",
      "360C",
      "360C",
      "360C",
      "360C",
      "360C",
      "360C",
      "360C",
      "360C",
      "360C",
      "360C",
      "360C",
      "360C",
      "360C",
      "360C",
      "360C",
      "360C",
      "360C",
      "360C",
      "360C",
      "360C",
      "360C",
      "360C",
      "360C",
      "360C",
      "360C",
      "360C",
      "360C",
      "360C",
      "360C",
      "360C",
      "360C",
      "360C",
      "360C",
      "360C",
      "360C",
      "360C",
      "360C",
      "360C",
      "360C",
      "360C",
      "360C",
      "360C",
      "360",
      "360",
      "357",
      "314",
      "301",
      "278",
      "261",
      "236",
      "231",
      "213",
      "208",
      "190",
      "185",
      "167",
      "163",
      "146",
      "141",
      "125",
      "122",
      "113",
      "112",
      "104",
      "100",
      "087",
      "085",
      "079",
      "077",
      "069",
      "067",
      "060",
      "050",
      "047",
      "041",
      "039",
      "028",
      "021",
      "019",
      "011",
      "006",
      "003"
    ],
    "swim:geom": "path",
    "swim:speeds": [
      233,
      261,
      267,
      277,
      282,
      282,
      337,
      362,
      363,
      371,
      387,
      393,
      407,
      418,
      430,
      439,
      446,
      449,
      455,
      455,
      456,
      456,
      453,
      452,
      453,
      453,
      453,
      453,
      453,
      452,
      452,
      452,
      452,
      451,
      451,
      451,
      451,
      451,
      451,
      451,
      451,
      450,
      450,
      450,
      449,
      449,
      449,
      448,
      448,
      447,
      442,
      441,
      440,
      439,
      438,
      438,
      438,
      438,
      439,
      439,
      440,
      440,
      441,
      441,
      442,
      441,
      439,
      438,
      438,
      437,
      438,
      438,
      438,
      438,
      438,
      437,
      436,
      434,
      433,
      431,
      431,
      430,
      430,
      430,
      429,
      428,
      427,
      427,
      430,
      432,
      433,
      435,
      435,
      435,
      435,
      436,
      436,
      435,
      435,
      433,
      433,
      434,
      435,
      436,
      438,
      439,
      439,
      441,
      439,
      442,
      439,
      441,
      442,
      441,
      441,
      441,
      441,
      441,
      440,
      440,
      440,
      440,
      440,
      440,
      440,
      440,
      441,
      440,
      440,
      439,
      440,
      438,
      439,
      439,
      443,
      438,
      438,
      439,
      440,
      439,
      441,
      440,
      441,
      441,
      441,
      442,
      442,
      442,
      442,
      441,
      441,
      441,
      441,
      441,
      441,
      439,
      438,
      438,
      439,
      439,
      440,
      440,
      439,
      439,
      439,
      439,
      440,
      440,
      440,
      440,
      440,
      441,
      441,
      441,
      441,
      441,
      442,
      442,
      442,
      441,
      440,
      440,
      440,
      440,
      441,
      442,
      442,
      440,
      442,
      441,
      441,
      441,
      441,
      439,
      441,
      439,
      439,
      441,
      439,
      439,
      441,
      441,
      439,
      441,
      440,
      439,
      436,
      434,
      432,
      430,
      429,
      429,
      429,
      430,
      430,
      431,
      431,
      431,
      431,
      431,
      430,
      430,
      430,
      430,
      430,
      429,
      429,
      430,
      431,
      431,
      431,
      430,
      429,
      429,
      427,
      426,
      426,
      426,
      427,
      428,
      429,
      430,
      431,
      429,
      430,
      428,
      429,
      430,
      433,
      435,
      435,
      437,
      439,
      439,
      440,
      441,
      441,
      442,
      443,
      442,
      443,
      442,
      441,
      439,
      437,
      437,
      436,
      436,
      436,
      436,
      436,
      435,
      435,
      435,
      435,
      435,
      436,
      436,
      436,
      436,
      436,
      436,
      435,
      435,
      435,
      435,
      436,
      437,
      438,
      438,
      439,
      440,
      440,
      439,
      438,
      437,
      436,
      437,
      438,
      440,
      442,
      444,
      445,
      443,
      430,
      420,
      407,
      409,
      396,
      399,
      388,
      389,
      378,
      381,
      367,
      368,
      357,
      358,
      321,
      312,
      277,
      272,
      249,
      250,
      246,
      248,
      238,
      242,
      234,
      230,
      224,
      191,
      195,
      188,
      178,
      181,
      150,
      147,
      143
    ],
    "swim:timestamps": [
      1786141089,
      1786141149,
      1786141209,
      1786141269,
      1786141275,
      1786141329,
      1786141389,
      1786141449,
      1786141509,
      1786141569,
      1786141630,
      1786141690,
      1786141750,
      1786141810,
      1786141870,
      1786141930,
      1786141990,
      1786142050,
      1786142110,
      1786142175,
      1786142230,
      1786142290,
      1786142351,
      1786142471,
      1786142535,
      1786142591,
      1786142656,
      1786142711,
      1786142771,
      1786142831,
      1786142891,
      1786142932,
      1786142951,
      1786143011,
      1786143052,
      1786143071,
      1786143112,
      1786143132,
      1786143172,
      1786143192,
      1786143232,
      1786143252,
      1786143292,
      1786143312,
      1786143372,
      1786143413,
      1786143473,
      1786143492,
      1786143533,
      1786143552,
      1786143612,
      1786143653,
      1786143672,
      1786143713,
      1786143732,
      1786143792,
      1786143833,
      1786143852,
      1786143893,
      1786143913,
      1786143953,
      1786143973,
      1786144013,
      1786144033,
      1786144074,
      1786144093,
      1786144134,
      1786144153,
      1786144213,
      1786144254,
      1786144273,
      1786144314,
      1786144333,
      1786144374,
      1786144393,
      1786144434,
      1786144453,
      1786144494,
      1786144513,
      1786144554,
      1786144573,
      1786144614,
      1786144674,
      1786144735,
      1786144795,
      1786144855,
      1786144915,
      1786144975,
      1786145035,
      1786145095,
      1786145155,
      1786145215,
      1786145275,
      1786145335,
      1786145395,
      1786145456,
      1786145516,
      1786145576,
      1786145636,
      1786145696,
      1786145756,
      1786145816,
      1786145860,
      1786145876,
      1786145920,
      1786145936,
      1786145980,
      1786145996,
      1786146040,
      1786146056,
      1786146100,
      1786146116,
      1786146161,
      1786146177,
      1786146221,
      1786146237,
      1786146281,
      1786146297,
      1786146341,
      1786146357,
      1786146408,
      1786146417,
      1786146468,
      1786146477,
      1786146528,
      1786146537,
      1786146581,
      1786146597,
      1786146649,
      1786146657,
      1786146709,
      1786146717,
      1786146769,
      1786146829,
      1786146889,
      1786146898,
      1786146958,
      1786147002,
      1786147009,
      1786147018,
      1786147069,
      1786147078,
      1786147122,
      1786147138,
      1786147182,
      1786147198,
      1786147249,
      1786147258,
      1786147302,
      1786147318,
      1786147362,
      1786147370,
      1786147378,
      1786147430,
      1786147438,
      1786147498,
      1786147550,
      1786147603,
      1786147663,
      1786147670,
      1786147723,
      1786147730,
      1786147783,
      1786147790,
      1786147843,
      1786147850,
      1786147903,
      1786147910,
      1786147970,
      1786148023,
      1786148030,
      1786148083,
      1786148091,
      1786148143,
      1786148151,
      1786148211,
      1786148271,
      1786148331,
      1786148391,
      1786148451,
      1786148511,
      1786148571,
      1786148631,
      1786148691,
      1786148751,
      1786148810,
      1786148870,
      1786148932,
      1786148990,
      1786149051,
      1786149111,
      1786149171,
      1786149231,
      1786149292,
      1786149351,
      1786149412,
      1786149472,
      1786149531,
      1786149593,
      1786149653,
      1786149711,
      1786149771,
      1786149833,
      1786149892,
      1786149952,
      1786150013,
      1786150073,
      1786150132,
      1786150193,
      1786150253,
      1786150312,
      1786150374,
      1786150434,
      1786150492,
      1786150554,
      1786150614,
      1786150673,
      1786150734,
      1786150794,
      1786150853,
      1786150913,
      1786150974,
      1786151033,
      1786151093,
      1786151155,
      1786151213,
      1786151273,
      1786151334,
      1786151394,
      1786151454,
      1786151514,
      1786151574,
      1786151634,
      1786151694,
      1786151754,
      1786151814,
      1786151874,
      1786151934,
      1786151994,
      1786152054,
      1786152115,
      1786152175,
      1786152235,
      1786152295,
      1786152355,
      1786152415,
      1786152475,
      1786152535,
      1786152595,
      1786152655,
      1786152682,
      1786152715,
      1786152742,
      1786152775,
      1786152802,
      1786152836,
      1786152862,
      1786152896,
      1786152922,
      1786152956,
      1786152982,
      1786153016,
      1786153042,
      1786153076,
      1786153102,
      1786153136,
      1786153162,
      1786153196,
      1786153222,
      1786153256,
      1786153282,
      1786153316,
      1786153342,
      1786153376,
      1786153402,
      1786153436,
      1786153463,
      1786153496,
      1786153523,
      1786153556,
      1786153583,
      1786153643,
      1786153677,
      1786153703,
      1786153737,
      1786153763,
      1786153797,
      1786153823,
      1786153857,
      1786153883,
      1786153917,
      1786153943,
      1786154003,
      1786154063,
      1786154123,
      1786154183,
      1786154243,
      1786154304,
      1786154364,
      1786154424,
      1786154484,
      1786154544,
      1786154629,
      1786154664,
      1786154724,
      1786154767,
      1786154827,
      1786154844,
      1786154888,
      1786154904,
      1786154948,
      1786154964,
      1786155008,
      1786155024,
      1786155068,
      1786155084,
      1786155128,
      1786155145,
      1786155182,
      1786155205,
      1786155242,
      1786155265,
      1786155308,
      1786155325,
      1786155368,
      1786155385,
      1786155423,
      1786155445,
      1786155488,
      1786155542,
      1786155565,
      1786155602,
      1786155625,
      1786155685,
      1786155728,
      1786155745,
      1786155805,
      1786155843,
      1786155865
    ],
    "wof:geomhash": "38e924de1df9dd0d604c841d2d8ade61",
    "wof:id": 2047875621,
    "wof:repo": "sfomuseum-data-flights-2026-08"
  },
  "bbox": [
    -122.33777777777777,
    36.075,
    -86.75,
    38.64611111111111
  ],
  "geometry": {"type":"LineString","coordinates":[[-86.75,36.083333333333336],[-86.82694444444444,36.07916666666667],[-86.91916666666667,36.075],[-87.00694444444444,36.091944444444444],[-87.01666666666667,36.1],[-87.08722222222222,36.13638888888889],[-87.18444444444445,36.177499999999995],[-87.30555555555556,36.19888888888889],[-87.43027777777779,36.21055555555556],[-87.55666666666666,36.22083333333334],[-87.6888888888889,36.2325],[-87.82416666666666,36.24444444444445],[-87.96166666666667,36.25611111111111],[-88.10527777777777,36.26833333333333],[-88.24222222222222,36.27972222222222],[-88.39416666666668,36.29083333333333],[-88.54583333333333,36.301944444444445],[-88.70277777777778,36.3125],[-88.85944444444443,36.32333333333334],[-89.01666666666667,36.33444444444444],[-89.17305555555556,36.344722222222224],[-89.33944444444444,36.35583333333334],[-89.49833333333333,36.36638888888889],[-89.81166666666667,36.38611111111111],[-89.96444444444445,36.39527777777778],[-90.12166666666666,36.40472222222222],[-90.27638888888889,36.413333333333334],[-90.43527777777778,36.422777777777775],[-90.59166666666667,36.43138888888889],[-90.74555555555555,36.43944444444444],[-90.90194444444445,36.44777777777777],[-90.9961111111111,36.45277777777778],[-91.05694444444444,36.45583333333334],[-91.21416666666667,36.46361111111111],[-91.30749999999999,36.468333333333334],[-91.36722222222221,36.471111111111114],[-91.46000000000001,36.47555555555556],[-91.5225,36.478611111111114],[-91.61777777777777,36.48305555555556],[-91.67694444444444,36.48583333333333],[-91.77222222222223,36.49],[-91.81805555555555,36.49194444444444],[-91.92222222222223,36.49666666666667],[-91.97416666666666,36.49888888888889],[-92.13805555555557,36.51611111111111],[-92.23277777777778,36.52722222222222],[-92.38277777777778,36.54527777777778],[-92.44416666666667,36.552499999999995],[-92.53555555555555,36.5625],[-92.59666666666666,36.56916666666667],[-92.74638888888889,36.58555555555556],[-92.83666666666666,36.59527777777778],[-92.89583333333334,36.60166666666667],[-92.9775,36.61083333333333],[-93.0436111111111,36.61805555555556],[-93.19250000000001,36.63388888888889],[-93.28166666666667,36.64361111111111],[-93.34166666666667,36.65],[-93.43083333333334,36.659444444444446],[-93.49194444444444,36.66555555555556],[-93.58361111111111,36.67527777777777],[-93.64333333333335,36.681666666666665],[-93.73416666666667,36.69083333333333],[-93.79583333333333,36.697222222222216],[-93.8863888888889,36.70638888888889],[-93.94555555555556,36.712500000000006],[-94.0363888888889,36.72138888888889],[-94.09527777777777,36.727222222222224],[-94.245,36.74194444444444],[-94.33388888888888,36.75083333333333],[-94.39222222222223,36.756388888888885],[-94.48361111111112,36.765277777777776],[-94.54277777777777,36.770833333333336],[-94.63472222222222,36.77972222222222],[-94.66361111111112,36.7825],[-94.78416666666666,36.79388888888889],[-94.84444444444443,36.79944444444444],[-94.9325,36.8075],[-94.99027777777778,36.812777777777775],[-95.08027777777778,36.82083333333334],[-95.13666666666667,36.82472222222223],[-95.22722222222222,36.83111111111111],[-95.37583333333333,36.84166666666667],[-95.52472222222222,36.8525],[-95.6713888888889,36.862500000000004],[-95.82305555555556,36.87305555555555],[-95.97111111111111,36.882777777777775],[-96.11805555555554,36.8925],[-96.27,36.90222222222222],[-96.41972222222223,36.911944444444444],[-96.56861111111111,36.92111111111111],[-96.72083333333333,36.930277777777775],[-96.87277777777777,36.939166666666665],[-97.02166666666666,36.94777777777777],[-97.17500000000001,36.95638888888889],[-97.32388888888889,36.965],[-97.47527777777778,36.973055555555554],[-97.62833333333333,36.98111111111111],[-97.77722222222222,36.98888888888889],[-97.92694444444444,36.99638888888889],[-98.07944444444443,37.0025],[-98.22972222222222,37.005833333333335],[-98.35638888888889,37.009166666666665],[-98.38111111111111,37.00972222222222],[-98.50916666666667,37.0125],[-98.53777777777778,37.01361111111111],[-98.66222222222223,37.01611111111111],[-98.69250000000001,37.01694444444444],[-98.81472222222222,37.01916666666666],[-98.84527777777777,37.02027777777778],[-98.96722222222222,37.022777777777776],[-98.99777777777778,37.02305555555555],[-99.12249999999999,37.025],[-99.15166666666667,37.02611111111111],[-99.27333333333333,37.02861111111111],[-99.30416666666666,37.02861111111111],[-99.42722222222223,37.03055555555555],[-99.45555555555556,37.03111111111111],[-99.55472222222222,37.033055555555556],[-99.61583333333333,37.03361111111111],[-99.73861111111111,37.03472222222222],[-99.76833333333333,37.035555555555554],[-99.89194444444445,37.04222222222222],[-99.92055555555557,37.049166666666665],[-100.04138888888889,37.064166666666665],[-100.06888888888888,37.0675],[-100.16305555555556,37.078611111111115],[-100.22305555555556,37.086111111111116],[-100.34305555555555,37.099722222222226],[-100.37388888888889,37.10444444444445],[-100.49472222222222,37.11888888888889],[-100.52555555555556,37.1225],[-100.6463888888889,37.13611111111111],[-100.79833333333333,37.152499999999996],[-100.95305555555557,37.17222222222222],[-100.98166666666667,37.17527777777777],[-101.13166666666666,37.19222222222222],[-101.22472222222223,37.20277777777778],[-101.25583333333333,37.20638888888889],[-101.28472222222221,37.209722222222226],[-101.40944444444445,37.22361111111111],[-101.43805555555556,37.22666666666667],[-101.5325,37.23694444444445],[-101.59194444444444,37.243611111111115],[-101.68694444444445,37.25388888888889],[-101.74527777777777,37.26],[-101.86999999999999,37.27333333333333],[-101.89805555555556,37.27638888888889],[-101.99111111111111,37.28611111111111],[-102.05111111111111,37.2925],[-102.14416666666668,37.30222222222222],[-102.17500000000001,37.30555555555555],[-102.20222222222222,37.30833333333333],[-102.32666666666667,37.321111111111115],[-102.3536111111111,37.323888888888895],[-102.50638888888889,37.339444444444446],[-102.63777777777779,37.3525],[-102.75861111111111,37.364444444444445],[-102.91111111111111,37.37916666666667],[-102.94,37.382222222222225],[-103.06277777777777,37.39388888888889],[-103.0925,37.39694444444444],[-103.21611111111112,37.40888888888889],[-103.24444444444444,37.41166666666666],[-103.36777777777777,37.42305555555555],[-103.39833333333334,37.42583333333333],[-103.51888888888888,37.43694444444444],[-103.55166666666666,37.44],[-103.70472222222223,37.45388888888889],[-103.82583333333334,37.46472222222223],[-103.85749999999999,37.467777777777776],[-103.97972222222222,37.478611111111114],[-103.98333333333333,37.47888888888889],[-104.13333333333334,37.49194444444444],[-104.14333333333335,37.49277777777778],[-104.29833333333333,37.50611111111111],[-104.45138888888889,37.51888888888889],[-104.60499999999999,37.53194444444444],[-104.75944444444444,37.544444444444444],[-104.91250000000001,37.55694444444444],[-105.06472222222222,37.56888888888889],[-105.21833333333333,37.58083333333334],[-105.37083333333332,37.5925],[-105.52472222222222,37.60416666666667],[-105.67777777777778,37.61527777777778],[-105.82083333333333,37.625],[-105.97583333333334,37.634166666666665],[-106.13666666666667,37.64833333333333],[-106.28111111111112,37.655833333333334],[-106.43361111111112,37.66694444444444],[-106.58777777777777,37.67722222222222],[-106.74083333333333,37.68805555555555],[-106.89416666666668,37.69694444444444],[-107.05055555555555,37.70805555555556],[-107.20194444444445,37.714444444444446],[-107.38722222222223,37.72833333333333],[-107.53888888888889,37.73722222222222],[-107.66166666666668,37.74333333333333],[-107.84444444444443,37.75416666666667],[-107.99805555555555,37.7625],[-108.12527777777777,37.76777777777777],[-108.2786111111111,37.77638888888889],[-108.45916666666668,37.78638888888889],[-108.58583333333333,37.79194444444444],[-108.73861111111111,37.79972222222222],[-108.91833333333334,37.808055555555555],[-109.06833333333333,37.82416666666667],[-109.19277777777778,37.83777777777778],[-109.36638888888888,37.856944444444444],[-109.51666666666667,37.87305555555555],[-109.64194444444445,37.88666666666666],[-109.81222222222222,37.904444444444444],[-109.96277777777777,37.92027777777778],[-110.09027777777777,37.93333333333333],[-110.26305555555555,37.950833333333335],[-110.41361111111112,37.965833333333336],[-110.5425,37.97888888888889],[-110.71361111111112,37.995555555555555],[-110.87222222222222,38.01083333333333],[-111.0075,38.02361111111111],[-111.1575,38.03777777777778],[-111.30638888888889,38.05138888888889],[-111.4575,38.06527777777777],[-111.60749999999999,38.078611111111115],[-111.75805555555556,38.091944444444444],[-111.90611111111112,38.105000000000004],[-112.05694444444444,38.117777777777775],[-112.20666666666666,38.13055555555555],[-112.35694444444444,38.143055555555556],[-112.50805555555556,38.15555555555555],[-112.6563888888889,38.1675],[-112.80638888888889,38.17944444444444],[-112.95472222222223,38.19083333333333],[-113.10666666666665,38.2025],[-113.25416666666666,38.21361111111111],[-113.40333333333334,38.224722222222226],[-113.55138888888888,38.23555555555556],[-113.70083333333334,38.24638888888889],[-113.85166666666666,38.25694444444444],[-114.00194444444445,38.26722222222222],[-114.1538888888889,38.277499999999996],[-114.285,38.32805555555556],[-114.37472222222222,38.42527777777777],[-114.47944444444444,38.541666666666664],[-114.57055555555556,38.63861111111111],[-114.71222222222222,38.64611111111111],[-114.86,38.61972222222222],[-115.01,38.595],[-115.16083333333334,38.569722222222225],[-115.31277777777777,38.54388888888889],[-115.37055555555555,38.535],[-115.45861111111111,38.51861111111111],[-115.52222222222223,38.50805555555556],[-115.6125,38.492222222222225],[-115.67500000000001,38.481944444444444],[-115.76694444444445,38.465],[-115.82805555555555,38.455000000000005],[-115.91916666666667,38.43805555555555],[-115.98111111111112,38.42722222222222],[-116.07277777777777,38.41083333333333],[-116.13416666666667,38.39972222222222],[-116.22444444444444,38.38333333333333],[-116.28694444444444,38.37222222222222],[-116.3736111111111,38.35666666666667],[-116.43694444444445,38.345],[-116.525,38.32916666666667],[-116.58583333333333,38.31805555555556],[-116.67333333333333,38.301944444444445],[-116.73555555555555,38.290277777777774],[-116.82444444444444,38.27388888888889],[-116.885,38.2625],[-116.97083333333333,38.24666666666667],[-117.03333333333333,38.235],[-117.12166666666666,38.218333333333334],[-117.18,38.20722222222223],[-117.26388888888889,38.19138888888889],[-117.32833333333333,38.17916666666667],[-117.40916666666668,38.16361111111111],[-117.47083333333333,38.151944444444446],[-117.55888888888889,38.135],[-117.62055555555555,38.12305555555555],[-117.76805555555555,38.09444444444445],[-117.85722222222222,38.07694444444445],[-117.91638888888889,38.06527777777777],[-118.00611111111111,38.047777777777775],[-118.06527777777778,38.03611111111111],[-118.15472222222223,38.01833333333333],[-118.21583333333334,38.00611111111111],[-118.30416666666666,37.98861111111111],[-118.36749999999999,37.975833333333334],[-118.45555555555556,37.958333333333336],[-118.51777777777778,37.94583333333333],[-118.66694444444445,37.91555555555556],[-118.8175,37.88972222222222],[-118.96833333333333,37.8725],[-119.13277777777778,37.853611111111114],[-119.28416666666666,37.83583333333333],[-119.43666666666667,37.81777777777778],[-119.58833333333332,37.79972222222222],[-119.74305555555556,37.78138888888889],[-119.89750000000001,37.7625],[-120.0525,37.74333333333333],[-120.28333333333333,37.71666666666667],[-120.35833333333333,37.70527777777778],[-120.50722222222223,37.68694444444444],[-120.61666666666666,37.68333333333333],[-120.76666666666667,37.65],[-120.79527777777777,37.653055555555554],[-120.9,37.63333333333333],[-120.93388888888889,37.63666666666666],[-121.03333333333333,37.61666666666667],[-121.06888888888888,37.61888888888889],[-121.16666666666667,37.6],[-121.19277777777778,37.602222222222224],[-121.3,37.583333333333336],[-121.32111111111111,37.58555555555556],[-121.41666666666667,37.56666666666667],[-121.44555555555556,37.57194444444445],[-121.53333333333333,37.56666666666667],[-121.56138888888889,37.55833333333333],[-121.63333333333334,37.55],[-121.65416666666667,37.54361111111111],[-121.71666666666667,37.53333333333333],[-121.73972222222223,37.52333333333333],[-121.8,37.5],[-121.82222222222222,37.50361111111111],[-121.88333333333334,37.483333333333334],[-121.90527777777778,37.4925],[-121.96666666666667,37.5],[-122.05,37.5],[-122.06694444444445,37.501666666666665],[-122.11666666666666,37.516666666666666],[-122.13055555555555,37.51777777777777],[-122.18861111111111,37.5425],[-122.23333333333333,37.56666666666667],[-122.24333333333334,37.56583333333333],[-122.29333333333334,37.586666666666666],[-122.31666666666666,37.6],[-122.33777777777777,37.60527777777778]]}
}
