{
  "id": 2047993183,
  "type": "Feature",
  "properties": {
    "date:cessation_lower": "2026-08-17",
    "date:cessation_upper": "2026-08-17",
    "date:inception_lower": "1970-01-01",
    "date:inception_upper": "1970-01-01",
    "edtf:cessation": "2026-08-16T23:13:00-07:00",
    "edtf:inception": "1970-01-01T00:00:00Z",
    "flysfo:actual_timestamp": -1,
    "flysfo:airline": "UA",
    "flysfo:base_airline": "",
    "flysfo:base_flight_number": "4893",
    "flysfo:date": "2026-08-16",
    "flysfo:estimated_timestamp": 1786886400,
    "flysfo:event": "A",
    "flysfo:flight_number": "UA2367",
    "flysfo:gate": "D15",
    "flysfo:journey": "DEN-SFO",
    "flysfo:scheduled_timestamp": 1786887660,
    "flysfo:timestamp": 1786887660,
    "geom:area": 0,
    "geom:bbox": "-104.672219,0.000000,0.000000,39.864939",
    "geom:latitude": 19.9324695,
    "geom:longitude": -52.3361095,
    "iata:airline": "UA",
    "iata:base_airline": "",
    "icao:aircraft": "B39M",
    "icao:airline": "UAL",
    "icao:base_airline": "ACA",
    "lbl:latitude": 37.617921,
    "lbl:longitude": -122.38181,
    "sfomuseum:aircraft_id": 1528104577,
    "sfomuseum:airline_id": 1159285413,
    "sfomuseum:arrival_id": 102527513,
    "sfomuseum:base_flight_id": "20260816-A-ACA-4893",
    "sfomuseum:departure_id": 102531189,
    "sfomuseum:flight_id": "20260816-A-UAL-2367",
    "sfomuseum:flight_number": [
      "UAL2367",
      "UA2367"
    ],
    "sfomuseum:placetype": "flight",
    "src:geom": "flysfo",
    "src:geom_alt": [
      "swim-approach"
    ],
    "wof:belongsto": [
      1947304067,
      102527513,
      1947304595,
      102191575,
      85633793,
      102087579,
      85922583,
      554784711,
      85688637,
      1947304623,
      1947304591,
      102085387
    ],
    "wof:country": "US",
    "wof:created": 1786983364,
    "wof:geomhash": "99e65aa816be3b1eb7fad98062ee05bf",
    "wof:hierarchy": [
      {
        "building_id": 1947304067,
        "campus_id": 102527513,
        "concourse_id": 1947304595,
        "continent_id": 102191575,
        "country_id": 85633793,
        "county_id": 102087579,
        "custom_id": 2047993183,
        "flight_id": 2047993183,
        "locality_id": 85922583,
        "postalcode_id": 554784711,
        "region_id": 85688637,
        "venue_id": 1947304623,
        "wing_id": 1947304591
      },
      {
        "building_id": 1947304067,
        "campus_id": 102527513,
        "concourse_id": 1947304595,
        "continent_id": 102191575,
        "country_id": 85633793,
        "county_id": 102085387,
        "custom_id": 2047993183,
        "flight_id": 2047993183,
        "region_id": 85688637,
        "venue_id": 1947304623,
        "wing_id": 1947304591
      }
    ],
    "wof:id": 2047993183,
    "wof:involves": [
      1947304623,
      1159283597,
      1528104577,
      102527513,
      102531189,
      1159285413
    ],
    "wof:lastmodified": 1786984051,
    "wof:name": "UA2367 (DEN-SFO)",
    "wof:parent_id": 1947304623,
    "wof:placetype": "custom",
    "wof:placetype_alt": [
      "flight"
    ],
    "wof:repo": "sfomuseum-data-flights-2026-08",
    "wof:superseded_by": [],
    "wof:supersedes": []
  },
  "bbox": [
    -104.672219,
    0,
    0,
    39.864939
  ],
  "geometry": {"type":"MultiPoint","coordinates":[[-104.672219,39.864939],[0,0]]}
}
