{
  "id": 2048066375,
  "type": "Feature",
  "properties": {
    "geom:area": 0,
    "geom:bbox": "-123.317190,37.626440,-122.393580,38.493110",
    "geom:latitude": 38.018195153014176,
    "geom:longitude": -122.8887523122511,
    "src:alt_label": "swim-takeoff",
    "src:geom": "swim",
    "swim:elevations": [
      183,
      545,
      905,
      935,
      1098,
      1249,
      1466,
      1993,
      2127,
      2715,
      3025,
      3281,
      3432,
      3616,
      3877,
      4373,
      4713,
      5005,
      5128,
      5618,
      5893,
      6169,
      6259,
      6669,
      7041,
      7163
    ],
    "swim:geom": "takeoff",
    "swim:timestamps": [
      1787190628,
      1787190657,
      1787190687,
      1787190690,
      1787190711,
      1787190744,
      1787190765,
      1787190805,
      1787190817,
      1787190862,
      1787190886,
      1787190922,
      1787190952,
      1787190981,
      1787191005,
      1787191047,
      1787191077,
      1787191107,
      1787191119,
      1787191159,
      1787191189,
      1787191220,
      1787191231,
      1787191273,
      1787191313,
      1787191325
    ],
    "wof:geomhash": "2d55c13f6f899e8a59324a3dd42a91e7",
    "wof:id": 2048066375,
    "wof:repo": "sfomuseum-data-flights-2026-08"
  },
  "bbox": [
    -123.31719,
    37.62644,
    -122.39358,
    38.49311
  ],
  "geometry": {"type":"LineString","coordinates":[[-122.39358,37.62644],[-122.41999,37.63792],[-122.44789,37.65033],[-122.45074,37.65158],[-122.47134,37.66063],[-122.50983,37.67851],[-122.5355,37.69382],[-122.58706,37.7241],[-122.60295,37.73343],[-122.664,37.76945],[-122.69733,37.78904],[-122.74963,37.82066],[-122.78684,37.85981],[-122.82231,37.90244],[-122.85317,37.93984],[-122.90821,38.00633],[-122.94856,38.05476],[-122.99005,38.10426],[-123.00692,38.12442],[-123.06449,38.19322],[-123.10814,38.24533],[-123.15425,38.30008],[-123.17137,38.32036],[-123.2358,38.39689],[-123.29797,38.47064],[-123.31719,38.49311]]}
}
