{
  "id": 2048064855,
  "type": "Feature",
  "properties": {
    "geom:area": 0,
    "geom:bbox": "-122.361750,37.491500,-121.247800,37.616320",
    "geom:latitude": 37.54351800907033,
    "geom:longitude": -121.81192562433121,
    "src:alt_label": "swim-approach",
    "src:geom": "swim",
    "swim:elevations": [
      4790,
      4346,
      4145,
      4036,
      3961,
      3598,
      3396,
      3157,
      3107,
      3075,
      3030,
      2909,
      2783,
      2707,
      2561,
      2457,
      2266,
      2076,
      1918,
      1758,
      1607,
      1521,
      1450,
      1218,
      1187,
      1134,
      911,
      698,
      565,
      392,
      324,
      230,
      26,
      0
    ],
    "swim:geom": "approach",
    "swim:timestamps": [
      1787128575,
      1787128613,
      1787128638,
      1787128652,
      1787128661,
      1787128707,
      1787128734,
      1787128765,
      1787128789,
      1787128808,
      1787128823,
      1787128841,
      1787128857,
      1787128869,
      1787128890,
      1787128921,
      1787128960,
      1787129002,
      1787129036,
      1787129068,
      1787129095,
      1787129114,
      1787129130,
      1787129181,
      1787129192,
      1787129200,
      1787129229,
      1787129266,
      1787129294,
      1787129331,
      1787129351,
      1787129377,
      1787129423,
      1787129432
    ],
    "wof:geomhash": "016b37cdf7b0d82cb92f1cdb493d499e",
    "wof:id": 2048064855,
    "wof:repo": "sfomuseum-data-flights-2026-08"
  },
  "bbox": [
    -122.36175,
    37.4915,
    -121.2478,
    37.61632
  ],
  "geometry": {"type":"LineString","coordinates":[[-121.2478,37.59482],[-121.30935,37.58727],[-121.34811,37.58306],[-121.37136,37.58031],[-121.38548,37.57864],[-121.45736,37.57043],[-121.49914,37.56543],[-121.54793,37.55977],[-121.58461,37.55556],[-121.61432,37.55209],[-121.63696,37.548],[-121.66221,37.54197],[-121.6865,37.53625],[-121.70415,37.53204],[-121.73448,37.52472],[-121.78027,37.51363],[-121.8343,37.50073],[-121.89057,37.4915],[-121.93685,37.49434],[-121.98074,37.49675],[-122.01614,37.49888],[-122.04234,37.50039],[-122.06259,37.50154],[-122.12706,37.51665],[-122.14054,37.52244],[-122.14926,37.52623],[-122.18459,37.54102],[-122.22459,37.55781],[-122.25155,37.56915],[-122.28403,37.58275],[-122.29979,37.58937],[-122.31986,37.59789],[-122.35607,37.6131],[-122.36175,37.61632]]}
}
