{
  "id": 2032092083,
  "type": "Feature",
  "properties": {
    "date:cessation_lower": "2026-08-04",
    "date:cessation_upper": "2026-08-04",
    "date:inception_lower": "2026-08-03",
    "date:inception_upper": "2026-08-03",
    "edtf:cessation": "2026-08-04T04:49:10Z",
    "edtf:inception": "2026-08-03T21:04:00Z",
    "flysfo:actual_timestamp": -1,
    "flysfo:airline": "UA",
    "flysfo:date": "2026-08-03",
    "flysfo:estimated_timestamp": 1785789360,
    "flysfo:event": "D",
    "flysfo:flight_number": "UA115",
    "flysfo:gate": "G1",
    "flysfo:journey": "SFO-PPT",
    "flysfo:scheduled_timestamp": 1785788700,
    "flysfo:timestamp": 1785789360,
    "geom:area": 0,
    "geom:bbox": "-149.617144,-17.573463,-122.370943,37.617990",
    "geom:latitude": 10.0222635,
    "geom:longitude": -135.9940435,
    "iata:airline": "UA",
    "icao:airline": "UAL",
    "lbl:latitude": 37.617321,
    "lbl:longitude": -122.389477,
    "sfomuseum:airline_id": 1159285413,
    "sfomuseum:arrival_id": 102558779,
    "sfomuseum:departure_id": 102527513,
    "sfomuseum:flight_id": "20260803-D-UAL-115",
    "sfomuseum:flight_number": [
      "UAL115",
      "UA115"
    ],
    "sfomuseum:placetype": "flight",
    "src:geom": "flysfo",
    "src:geom_alt": [
      "swim-path"
    ],
    "wof:belongsto": [
      1947304067,
      102527513,
      1947304129,
      102191575,
      85633793,
      102087579,
      85922583,
      554784711,
      85688637,
      1947304155,
      1947304069,
      102085387
    ],
    "wof:concordances": {
      "swim:flight_ref": "153631213"
    },
    "wof:country": "US",
    "wof:created": 1785860213,
    "wof:geomhash": "f971d3f872ee602b2fa6051cf4be0e69",
    "wof:hierarchy": [
      {
        "building_id": 1947304067,
        "campus_id": 102527513,
        "concourse_id": 1947304129,
        "continent_id": 102191575,
        "country_id": 85633793,
        "county_id": 102087579,
        "custom_id": 2032092083,
        "flight_id": 2032092083,
        "locality_id": 85922583,
        "postalcode_id": 554784711,
        "region_id": 85688637,
        "venue_id": 1947304155,
        "wing_id": 1947304069
      },
      {
        "building_id": 1947304067,
        "campus_id": 102527513,
        "concourse_id": 1947304129,
        "continent_id": 102191575,
        "country_id": 85633793,
        "county_id": 102085387,
        "custom_id": 2032092083,
        "flight_id": 2032092083,
        "region_id": 85688637,
        "venue_id": 1947304155,
        "wing_id": 1947304069
      }
    ],
    "wof:id": 2032092083,
    "wof:involves": [
      102558779,
      102527513,
      1159285413,
      1947304155
    ],
    "wof:lastmodified": 1785860448,
    "wof:name": "UA115 (SFO-PPT)",
    "wof:parent_id": 1947304155,
    "wof:placetype": "custom",
    "wof:placetype_alt": [
      "flight"
    ],
    "wof:repo": "sfomuseum-data-flights-2026-08",
    "wof:superseded_by": [],
    "wof:supersedes": []
  },
  "bbox": [
    -149.617144,
    -17.573463,
    -122.370943,
    37.61799
  ],
  "geometry": {"type":"MultiPoint","coordinates":[[-122.370943,37.61799],[-149.617144,-17.573463]]}
}
