{
  "id": 2047992999,
  "type": "Feature",
  "properties": {
    "geom:area": 0,
    "geom:bbox": "-122.340990,37.491340,-121.257290,37.607020",
    "geom:latitude": 37.54531880647235,
    "geom:longitude": -121.8036814276044,
    "src:alt_label": "swim-approach",
    "src:geom": "swim",
    "swim:elevations": [
      4691,
      4321,
      4236,
      3795,
      3554,
      3219,
      3185,
      3020,
      2917,
      2619,
      2468,
      2262,
      2088,
      2025,
      1860,
      1777,
      1742,
      1681,
      1456,
      1396,
      1126,
      969,
      806,
      731,
      622,
      429,
      380,
      276,
      241,
      229,
      214,
      188,
      180,
      176,
      108
    ],
    "swim:geom": "approach",
    "swim:timestamps": [
      1786919446,
      1786919482,
      1786919491,
      1786919536,
      1786919557,
      1786919601,
      1786919610,
      1786919655,
      1786919674,
      1786919728,
      1786919746,
      1786919779,
      1786919813,
      1786919826,
      1786919872,
      1786919888,
      1786919891,
      1786919903,
      1786919942,
      1786919951,
      1786919996,
      1786920023,
      1786920056,
      1786920071,
      1786920095,
      1786920139,
      1786920150,
      1786920169,
      1786920182,
      1786920185,
      1786920188,
      1786920191,
      1786920194,
      1786920197,
      1786920212
    ],
    "wof:geomhash": "b8a306457344b24c34ace1330134f7f9",
    "wof:id": 2047992999,
    "wof:repo": "sfomuseum-data-flights-2026-08"
  },
  "bbox": [
    -122.34099,
    37.49134,
    -121.25729,
    37.60702
  ],
  "geometry": {"type":"LineString","coordinates":[[-121.25729,37.59353],[-121.33184,37.58471],[-121.35034,37.5827],[-121.44142,37.57231],[-121.48509,37.56726],[-121.5723,37.55691],[-121.58799,37.5551],[-121.66748,37.54048],[-121.69754,37.53345],[-121.77958,37.51375],[-121.80472,37.50783],[-121.84914,37.49719],[-121.89512,37.49134],[-121.91305,37.49185],[-121.97656,37.49382],[-121.99829,37.49793],[-122.00225,37.49913],[-122.01765,37.50432],[-122.06782,37.52053],[-122.07934,37.52432],[-122.13501,37.54246],[-122.16468,37.55197],[-122.19879,37.56306],[-122.21407,37.56802],[-122.23805,37.57574],[-122.27955,37.58841],[-122.28981,37.59144],[-122.30563,37.59617],[-122.31621,37.59921],[-122.31874,37.59995],[-122.32127,37.60071],[-122.32383,37.60144],[-122.32633,37.6022],[-122.32881,37.60296],[-122.34099,37.60702]]}
}
