{
  "id": 2032134613,
  "type": "Feature",
  "properties": {
    "geom:area": 0,
    "geom:bbox": "-122.400833,37.651111,-70.916111,43.616944",
    "geom:latitude": 41.78003622148355,
    "geom:longitude": -96.76001584473366,
    "src:alt_label": "swim-path",
    "src:geom": "swim",
    "swim:altitudes": [
      "017",
      "025",
      "044",
      "063",
      "081",
      "097",
      "109",
      "117",
      "132",
      "149",
      "165",
      "181",
      "195",
      "206",
      "219",
      "227",
      "237",
      "246",
      "250",
      "254",
      "257",
      "261",
      "263",
      "267",
      "270",
      "274",
      "276",
      "280",
      "284",
      "288",
      "291",
      "295",
      "299",
      "303",
      "305",
      "309",
      "313",
      "316",
      "320",
      "324",
      "326",
      "330C",
      "330C",
      "330C",
      "330C",
      "330C",
      "330C",
      "330C",
      "330C",
      "330C",
      "330C",
      "330C",
      "330C",
      "330C",
      "330C",
      "330C",
      "330C",
      "330C",
      "330C",
      "330C",
      "330C",
      "330C",
      "330C",
      "330C",
      "330C",
      "330C",
      "330C",
      "330C",
      "330C",
      "330C",
      "330C",
      "330C",
      "330C",
      "330C",
      "330C",
      "330C",
      "330C",
      "330C",
      "330C",
      "330C",
      "330C",
      "330C",
      "330C",
      "330C",
      "330C",
      "330C",
      "330C",
      "330C",
      "330C",
      "330C",
      "330C",
      "330C",
      "330C",
      "330C",
      "330C",
      "330C",
      "330C",
      "330C",
      "330C",
      "330C",
      "335",
      "346",
      "350C",
      "350C",
      "350C",
      "350C",
      "350C",
      "350C",
      "350C",
      "350C",
      "350C",
      "350C",
      "350C",
      "350C",
      "350C",
      "350C",
      "350C",
      "350C",
      "350C",
      "350C",
      "350C",
      "350C",
      "350C",
      "350C",
      "350C",
      "350C",
      "350C",
      "350C",
      "350C",
      "350C",
      "350C",
      "350C",
      "350C",
      "350C",
      "350C",
      "350C",
      "350C",
      "350C",
      "350C",
      "350C",
      "350C",
      "350C",
      "350C",
      "350C",
      "350C",
      "350C",
      "350C",
      "350C",
      "350C",
      "350C",
      "350C",
      "350C",
      "350",
      "350C",
      "350C",
      "350C",
      "350C",
      "350C",
      "350C",
      "350C",
      "350C",
      "350C",
      "350C",
      "350C",
      "350C",
      "350C",
      "350C",
      "350C",
      "350C",
      "350C",
      "350C",
      "350C",
      "350C",
      "350C",
      "350C",
      "350C",
      "350C",
      "350C",
      "350C",
      "350C",
      "350C",
      "350C",
      "350C",
      "350C",
      "350C",
      "350C",
      "350C",
      "350C",
      "350C",
      "350C",
      "350C",
      "350C",
      "350C",
      "350C",
      "350C",
      "350C",
      "351C",
      "350C",
      "350C",
      "350C",
      "350C",
      "350C",
      "350C",
      "350C",
      "350C",
      "350C",
      "350C",
      "350C",
      "350C",
      "350C",
      "350C",
      "350C",
      "350C",
      "350C",
      "350C",
      "350C",
      "350C",
      "350C",
      "350C",
      "350C",
      "350C",
      "350C",
      "350C",
      "350C",
      "350C",
      "350C",
      "350C",
      "350C",
      "350C",
      "350C",
      "350C",
      "350C",
      "350C",
      "350C",
      "350C",
      "350C",
      "350C",
      "350C",
      "350C",
      "350C",
      "350C",
      "350C",
      "350C",
      "350C",
      "350C",
      "350C",
      "350C",
      "350C",
      "350C",
      "350C",
      "350C",
      "350C",
      "350C",
      "350C",
      "350C",
      "350C",
      "350C",
      "350C",
      "350C",
      "350C",
      "350C",
      "350C",
      "350C",
      "350C",
      "350C",
      "350C",
      "350C",
      "350C",
      "350C",
      "350C",
      "350C",
      "350C",
      "350C",
      "350C",
      "350C",
      "350C",
      "350C",
      "350C",
      "350C",
      "350C",
      "350C",
      "350C",
      "351C",
      "350C",
      "350C",
      "350C",
      "350C",
      "350C",
      "350C",
      "350C",
      "350C",
      "350C",
      "350C",
      "350C",
      "350C",
      "350C",
      "350C",
      "350C",
      "350C",
      "370C",
      "370C",
      "370C",
      "370C",
      "370C",
      "370C",
      "370C",
      "370C",
      "370C",
      "370C",
      "370C",
      "370C",
      "371C",
      "370C",
      "370C",
      "370C",
      "370C",
      "370C",
      "370C",
      "370C",
      "370C",
      "371C",
      "370C",
      "370C",
      "370C",
      "370C",
      "370C",
      "370C",
      "370C",
      "370C",
      "370C",
      "370C",
      "370C",
      "370C",
      "370C",
      "370C",
      "370C",
      "368",
      "348",
      "330",
      "327",
      "317",
      "307",
      "289",
      "266",
      "244",
      "205",
      "185",
      "167",
      "160",
      "148",
      "134",
      "131",
      "115",
      "103",
      "090",
      "078",
      "068",
      "058",
      "052",
      "050",
      "041",
      "035",
      "029",
      "017",
      "010",
      "001"
    ],
    "swim:geom": "path",
    "swim:speeds": [
      186,
      258,
      270,
      281,
      296,
      305,
      333,
      371,
      387,
      393,
      400,
      402,
      410,
      423,
      430,
      443,
      452,
      456,
      458,
      462,
      461,
      471,
      466,
      478,
      479,
      482,
      487,
      486,
      488,
      488,
      490,
      489,
      490,
      489,
      490,
      490,
      491,
      490,
      491,
      490,
      491,
      490,
      491,
      490,
      490,
      490,
      491,
      491,
      491,
      492,
      492,
      491,
      490,
      490,
      491,
      491,
      491,
      491,
      491,
      491,
      490,
      491,
      491,
      491,
      489,
      489,
      489,
      489,
      490,
      490,
      491,
      490,
      491,
      491,
      490,
      490,
      489,
      490,
      491,
      492,
      493,
      494,
      494,
      493,
      491,
      489,
      488,
      487,
      489,
      490,
      489,
      489,
      489,
      490,
      490,
      488,
      488,
      487,
      486,
      486,
      487,
      482,
      480,
      480,
      478,
      478,
      478,
      479,
      478,
      477,
      476,
      476,
      476,
      477,
      479,
      481,
      482,
      484,
      485,
      485,
      486,
      486,
      488,
      489,
      491,
      492,
      492,
      492,
      491,
      490,
      490,
      490,
      491,
      492,
      493,
      494,
      494,
      494,
      494,
      495,
      496,
      498,
      500,
      502,
      504,
      505,
      506,
      505,
      503,
      503,
      504,
      506,
      496,
      508,
      502,
      510,
      511,
      511,
      512,
      511,
      513,
      512,
      511,
      512,
      511,
      512,
      512,
      512,
      513,
      513,
      514,
      514,
      514,
      514,
      515,
      515,
      516,
      515,
      516,
      515,
      516,
      515,
      516,
      516,
      516,
      516,
      515,
      514,
      513,
      513,
      512,
      512,
      512,
      513,
      506,
      506,
      506,
      506,
      506,
      506,
      507,
      507,
      505,
      502,
      503,
      506,
      507,
      507,
      506,
      509,
      510,
      512,
      512,
      513,
      513,
      513,
      513,
      512,
      512,
      512,
      512,
      512,
      510,
      509,
      509,
      508,
      508,
      506,
      504,
      503,
      503,
      502,
      501,
      501,
      501,
      501,
      500,
      500,
      499,
      499,
      498,
      498,
      499,
      499,
      499,
      499,
      499,
      498,
      500,
      497,
      500,
      493,
      494,
      495,
      494,
      493,
      493,
      492,
      491,
      489,
      484,
      482,
      482,
      479,
      479,
      477,
      476,
      476,
      475,
      474,
      473,
      472,
      471,
      471,
      470,
      472,
      472,
      473,
      474,
      478,
      479,
      483,
      483,
      485,
      484,
      487,
      487,
      490,
      490,
      491,
      490,
      492,
      495,
      498,
      500,
      503,
      505,
      506,
      508,
      516,
      517,
      518,
      519,
      520,
      521,
      521,
      520,
      512,
      510,
      511,
      515,
      517,
      517,
      514,
      518,
      517,
      515,
      496,
      494,
      494,
      492,
      492,
      491,
      486,
      482,
      479,
      477,
      476,
      479,
      482,
      482,
      484,
      485,
      486,
      486,
      486,
      483,
      472,
      479,
      484,
      483,
      485,
      486,
      477,
      463,
      426,
      413,
      403,
      393,
      389,
      373,
      376,
      345,
      331,
      310,
      295,
      274,
      243,
      209,
      211,
      212,
      190,
      187,
      184,
      150,
      150
    ],
    "swim:timestamps": [
      1786093314,
      1786093374,
      1786093434,
      1786093494,
      1786093554,
      1786093614,
      1786093674,
      1786093734,
      1786093794,
      1786093854,
      1786093914,
      1786093974,
      1786094034,
      1786094094,
      1786094154,
      1786094214,
      1786094274,
      1786094334,
      1786094353,
      1786094394,
      1786094413,
      1786094454,
      1786094473,
      1786094514,
      1786094533,
      1786094574,
      1786094593,
      1786094634,
      1786094653,
      1786094694,
      1786094713,
      1786094754,
      1786094773,
      1786094814,
      1786094833,
      1786094874,
      1786094893,
      1786094934,
      1786094953,
      1786094994,
      1786095013,
      1786095054,
      1786095073,
      1786095114,
      1786095133,
      1786095174,
      1786095193,
      1786095234,
      1786095253,
      1786095294,
      1786095354,
      1786095373,
      1786095414,
      1786095433,
      1786095474,
      1786095493,
      1786095534,
      1786095553,
      1786095594,
      1786095613,
      1786095654,
      1786095673,
      1786095714,
      1786095733,
      1786095774,
      1786095834,
      1786095853,
      1786095894,
      1786095913,
      1786095954,
      1786095973,
      1786096033,
      1786096093,
      1786096153,
      1786096213,
      1786096273,
      1786096333,
      1786096393,
      1786096453,
      1786096513,
      1786096573,
      1786096633,
      1786096693,
      1786096753,
      1786096814,
      1786096934,
      1786096994,
      1786097054,
      1786097114,
      1786097174,
      1786097234,
      1786097294,
      1786097354,
      1786097414,
      1786097474,
      1786097534,
      1786097594,
      1786097654,
      1786097714,
      1786097774,
      1786097834,
      1786097894,
      1786097954,
      1786098014,
      1786098074,
      1786098134,
      1786098194,
      1786098254,
      1786098314,
      1786098374,
      1786098434,
      1786098494,
      1786098554,
      1786098615,
      1786098674,
      1786098735,
      1786098795,
      1786098854,
      1786098915,
      1786098975,
      1786099035,
      1786099095,
      1786099155,
      1786099215,
      1786099275,
      1786099335,
      1786099395,
      1786099455,
      1786099515,
      1786099575,
      1786099635,
      1786099695,
      1786099755,
      1786099815,
      1786099875,
      1786099935,
      1786099995,
      1786100055,
      1786100115,
      1786100175,
      1786100235,
      1786100295,
      1786100355,
      1786100415,
      1786100475,
      1786100535,
      1786100595,
      1786100655,
      1786100775,
      1786100835,
      1786100895,
      1786100955,
      1786100984,
      1786101015,
      1786101044,
      1786101075,
      1786101104,
      1786101135,
      1786101164,
      1786101196,
      1786101224,
      1786101256,
      1786101284,
      1786101316,
      1786101344,
      1786101376,
      1786101404,
      1786101436,
      1786101465,
      1786101496,
      1786101525,
      1786101556,
      1786101585,
      1786101616,
      1786101645,
      1786101676,
      1786101705,
      1786101736,
      1786101765,
      1786101796,
      1786101825,
      1786101856,
      1786101885,
      1786101916,
      1786101945,
      1786102005,
      1786102065,
      1786102125,
      1786102185,
      1786102245,
      1786102305,
      1786102365,
      1786102425,
      1786102485,
      1786102545,
      1786102605,
      1786102665,
      1786102726,
      1786102786,
      1786102846,
      1786102906,
      1786102966,
      1786103026,
      1786103077,
      1786103137,
      1786103146,
      1786103206,
      1786103266,
      1786103317,
      1786103326,
      1786103386,
      1786103446,
      1786103497,
      1786103506,
      1786103566,
      1786103626,
      1786103686,
      1786103798,
      1786103858,
      1786103867,
      1786103918,
      1786103927,
      1786103978,
      1786104038,
      1786104047,
      1786104098,
      1786104107,
      1786104167,
      1786104227,
      1786104279,
      1786104287,
      1786104347,
      1786104407,
      1786104459,
      1786104467,
      1786104519,
      1786104579,
      1786104587,
      1786104639,
      1786104647,
      1786104708,
      1786104760,
      1786104820,
      1786104828,
      1786104880,
      1786104888,
      1786104948,
      1786105000,
      1786105008,
      1786105060,
      1786105068,
      1786105128,
      1786105188,
      1786105240,
      1786105300,
      1786105361,
      1786105421,
      1786105481,
      1786105541,
      1786105601,
      1786105661,
      1786105701,
      1786105721,
      1786105761,
      1786105781,
      1786105822,
      1786105841,
      1786105882,
      1786105901,
      1786105942,
      1786105962,
      1786106002,
      1786106022,
      1786106062,
      1786106082,
      1786106122,
      1786106142,
      1786106182,
      1786106202,
      1786106242,
      1786106262,
      1786106302,
      1786106322,
      1786106362,
      1786106382,
      1786106422,
      1786106442,
      1786106483,
      1786106502,
      1786106543,
      1786106563,
      1786106603,
      1786106663,
      1786106723,
      1786106783,
      1786106843,
      1786106903,
      1786106963,
      1786107023,
      1786107432,
      1786107492,
      1786107552,
      1786107612,
      1786107672,
      1786107733,
      1786107793,
      1786107853,
      1786107913,
      1786107973,
      1786108033,
      1786108093,
      1786108153,
      1786108273,
      1786108331,
      1786108394,
      1786108452,
      1786108514,
      1786108572,
      1786108634,
      1786108692,
      1786108754,
      1786108812,
      1786108874,
      1786108995,
      1786109052,
      1786109113,
      1786109173,
      1786109233,
      1786109295,
      1786109353,
      1786109415,
      1786109473,
      1786109533,
      1786109593,
      1786109653,
      1786109713,
      1786109774,
      1786109834,
      1786109894,
      1786109954,
      1786110014,
      1786110074,
      1786110134,
      1786110194,
      1786110254,
      1786110374,
      1786110435,
      1786110495,
      1786110514,
      1786110555,
      1786110604,
      1786110615,
      1786110675,
      1786110730,
      1786110790,
      1786110850,
      1786110915,
      1786110975,
      1786111024,
      1786111035,
      1786111096,
      1786111156,
      1786111205,
      1786111276,
      1786111325,
      1786111396
    ],
    "wof:geomhash": "76ca9be636d1ddccb8743ced2acfd247",
    "wof:id": 2032134613,
    "wof:repo": "sfomuseum-data-flights-2026-08"
  },
  "bbox": [
    -122.40083333333334,
    37.651111111111106,
    -70.91611111111112,
    43.61694444444444
  ],
  "geometry": {"type":"LineString","coordinates":[[-122.40083333333334,37.651111111111106],[-122.35416666666666,37.70444444444445],[-122.35138888888888,37.772777777777776],[-122.3863888888889,37.84583333333334],[-122.37777777777777,37.92666666666666],[-122.28416666666666,37.961666666666666],[-122.17361111111111,37.98305555555556],[-122.04777777777778,37.98861111111111],[-121.91250000000001,37.989444444444445],[-121.76055555555556,37.99027777777778],[-121.61999999999999,37.990833333333335],[-121.47833333333334,37.990833333333335],[-121.33416666666666,37.99111111111111],[-121.18611111111112,37.99111111111111],[-121.03666666666666,38.00055555555556],[-120.88416666666667,38.025],[-120.7286111111111,38.04888888888889],[-120.57138888888889,38.07277777777778],[-120.51444444444445,38.080555555555556],[-120.4113888888889,38.096944444444446],[-120.35305555555556,38.10444444444445],[-120.24861111111112,38.12111111111111],[-120.19027777777778,38.12972222222222],[-120.08166666666666,38.145833333333336],[-120.0225,38.153055555555554],[-119.91416666666667,38.17027777777778],[-119.85305555555556,38.17666666666666],[-119.74388888888889,38.19499999999999],[-119.68416666666667,38.20138888888889],[-119.57583333333334,38.219166666666666],[-119.51555555555555,38.22638888888889],[-119.41250000000001,38.24194444444444],[-119.34555555555555,38.249722222222225],[-119.24416666666667,38.26555555555556],[-119.17694444444444,38.274166666666666],[-119.07305555555556,38.28916666666667],[-119.00611111111111,38.297777777777775],[-118.90416666666667,38.31222222222222],[-118.83638888888889,38.32083333333334],[-118.73416666666667,38.33527777777778],[-118.66611111111112,38.344166666666666],[-118.53055555555555,38.362500000000004],[-118.49944444444445,38.36666666666667],[-118.3611111111111,38.385],[-118.31555555555555,38.39083333333333],[-118.19083333333333,38.407222222222224],[-118.14277777777778,38.413333333333334],[-118.03999999999999,38.42666666666666],[-117.97166666666666,38.43527777777778],[-117.86527777777778,38.44888888888889],[-117.69611111111111,38.48388888888889],[-117.63277777777778,38.50388888888889],[-117.53416666666666,38.53472222222222],[-117.47027777777778,38.55444444444444],[-117.37027777777777,38.58555555555556],[-117.30888888888889,38.60444444444445],[-117.20777777777778,38.635555555555555],[-117.14222222222223,38.65555555555555],[-117.04444444444444,38.68527777777778],[-116.98055555555555,38.70472222222222],[-116.88027777777778,38.735],[-116.84888888888888,38.74444444444445],[-116.71583333333334,38.78444444444444],[-116.68666666666667,38.793055555555554],[-116.55472222222222,38.83277777777778],[-116.3913888888889,38.88138888888889],[-116.36055555555555,38.89055555555556],[-116.245,38.92472222222222],[-116.19611111111111,38.939166666666665],[-116.08194444444445,38.97277777777778],[-116.03305555555555,38.98722222222222],[-115.86749999999999,39.03527777777778],[-115.70138888888889,39.08361111111111],[-115.53777777777778,39.130833333333335],[-115.36361111111111,39.18055555555555],[-115.20055555555555,39.22694444444445],[-115.0375,39.27305555555555],[-114.87277777777777,39.31944444444445],[-114.70583333333333,39.36611111111111],[-114.54083333333332,39.411944444444444],[-114.37333333333332,39.45805555555556],[-114.20055555555555,39.50527777777778],[-114.03277777777778,39.551111111111105],[-113.86638888888888,39.596111111111114],[-113.70027777777779,39.64055555555556],[-113.36833333333333,39.72888888888889],[-113.2088888888889,39.770833333333336],[-113.04305555555555,39.814166666666665],[-112.87638888888888,39.8575],[-112.70972222222223,39.900555555555556],[-112.54027777777777,39.94416666666666],[-112.37305555555555,39.98638888888889],[-112.2063888888889,40.02861111111111],[-112.03861111111111,40.07055555555556],[-111.87027777777777,40.112500000000004],[-111.70277777777778,40.15416666666667],[-111.52555555555556,40.1975],[-111.35777777777777,40.23833333333334],[-111.19027777777778,40.27916666666667],[-111.02027777777778,40.32],[-110.85222222222221,40.36],[-110.68194444444445,40.400277777777774],[-110.51388888888889,40.44],[-110.34805555555555,40.478611111111114],[-110.18277777777779,40.51694444444444],[-110.015,40.55555555555555],[-109.84805555555555,40.593611111111116],[-109.68138888888889,40.63138888888889],[-109.51194444444444,40.66972222222222],[-109.3461111111111,40.70638888888889],[-109.16694444444445,40.74611111111111],[-109.00027777777778,40.782777777777774],[-108.83416666666666,40.81888888888889],[-108.66777777777779,40.855000000000004],[-108.49916666666667,40.89111111111111],[-108.32777777777777,40.92777777777778],[-108.16333333333334,40.962500000000006],[-107.98527777777778,40.999722222222225],[-107.81194444444444,41.03583333333333],[-107.64277777777778,41.07055555555556],[-107.4713888888889,41.105555555555554],[-107.29916666666666,41.140277777777776],[-107.12555555555555,41.175],[-106.95166666666667,41.21],[-106.77472222222222,41.245],[-106.60055555555554,41.27916666666667],[-106.41555555555556,41.315],[-106.23861111111111,41.34861111111111],[-106.06583333333333,41.38166666666667],[-105.89083333333333,41.414722222222224],[-105.71527777777779,41.4475],[-105.54083333333332,41.47972222222222],[-105.36277777777777,41.5125],[-105.18666666666667,41.54472222222222],[-105.00888888888889,41.57666666666667],[-104.83111111111111,41.608333333333334],[-104.65416666666667,41.63944444444444],[-104.47666666666667,41.67055555555555],[-104.29916666666666,41.70138888888889],[-104.1211111111111,41.73166666666667],[-103.9413888888889,41.7625],[-103.76027777777777,41.793055555555554],[-103.57833333333333,41.823055555555555],[-103.39444444444445,41.85333333333333],[-103.21055555555556,41.88333333333333],[-103.02916666666667,41.9125],[-102.8436111111111,41.94194444444444],[-102.6613888888889,41.971111111111114],[-102.29722222222222,42.027499999999996],[-102.09916666666666,42.0575],[-101.91166666666668,42.08583333333333],[-101.72416666666666,42.11388888888889],[-101.66833333333334,42.12416666666667],[-101.53722222222223,42.14138888888889],[-101.46222222222222,42.15333333333333],[-101.35027777777778,42.16861111111111],[-101.26916666666666,42.178888888888885],[-101.16333333333334,42.195277777777775],[-101.08138888888888,42.20611111111111],[-100.97333333333333,42.22222222222222],[-100.89222222222223,42.2325],[-100.78361111111111,42.24888888888889],[-100.70611111111111,42.25944444444445],[-100.595,42.27472222222222],[-100.51611111111112,42.28583333333333],[-100.40694444444445,42.300555555555555],[-100.32777777777777,42.311388888888885],[-100.21777777777778,42.325833333333335],[-100.13944444444445,42.33638888888889],[-100.02722222222222,42.35138888888889],[-99.95027777777779,42.36138888888889],[-99.83472222222221,42.376666666666665],[-99.75861111111111,42.38638888888889],[-99.68388888888889,42.39611111111111],[-99.58999999999999,42.408055555555556],[-99.49083333333333,42.420833333333334],[-99.39833333333334,42.4325],[-99.30194444444444,42.44472222222222],[-99.2075,42.45638888888889],[-99.1086111111111,42.46888888888889],[-99.01666666666667,42.480000000000004],[-98.88361111111112,42.49638888888889],[-98.82416666666666,42.50361111111111],[-98.69333333333334,42.51916666666666],[-98.63416666666667,42.52638888888889],[-98.44111111111111,42.549166666666665],[-98.25083333333333,42.571111111111115],[-98.0586111111111,42.593333333333334],[-97.86944444444444,42.61472222222223],[-97.68,42.63583333333333],[-97.48694444444445,42.657222222222224],[-97.29777777777778,42.677499999999995],[-97.07249999999999,42.70138888888889],[-96.88166666666666,42.72138888888889],[-96.69416666666667,42.74055555555556],[-96.50583333333333,42.75944444444445],[-96.3175,42.778055555555554],[-96.12638888888888,42.79666666666667],[-95.94027777777778,42.81444444444444],[-95.75055555555555,42.83222222222223],[-95.55833333333334,42.85],[-95.36999999999999,42.86694444444444],[-95.17916666666667,42.88388888888889],[-95.03861111111111,42.89527777777778],[-94.8475,42.91111111111111],[-94.80083333333333,42.91638888888889],[-94.60777777777777,42.9325],[-94.42777777777778,42.9475],[-94.27555555555556,42.959722222222226],[-94.2363888888889,42.96277777777778],[-94.04222222222222,42.97805555555556],[-93.84944444444444,42.99277777777778],[-93.69638888888889,43.00416666666667],[-93.65611111111112,43.007222222222225],[-93.46277777777777,43.021388888888886],[-93.26888888888888,43.03527777777778],[-93.07583333333334,43.04861111111111],[-92.7275,43.072500000000005],[-92.53416666666666,43.08527777777778],[-92.4961111111111,43.08777777777778],[-92.33888888888889,43.09722222222222],[-92.30055555555555,43.099722222222226],[-92.14805555555556,43.10916666666667],[-91.9538888888889,43.120555555555555],[-91.91250000000001,43.12305555555555],[-91.76,43.13194444444444],[-91.72194444444445,43.134166666666665],[-91.52666666666667,43.144999999999996],[-91.33694444444444,43.15555555555555],[-91.18555555555555,43.16361111111111],[-91.14527777777778,43.16583333333333],[-90.95305555555557,43.175555555555555],[-90.76527777777778,43.18472222222222],[-90.61305555555555,43.19222222222222],[-90.5736111111111,43.193888888888885],[-90.4238888888889,43.200833333333335],[-90.2425,43.20916666666667],[-90.19861111111112,43.211111111111116],[-90.0525,43.216944444444444],[-90.00972222222222,43.21888888888889],[-89.82,43.22666666666667],[-89.67611111111111,43.2325],[-89.48472222222222,43.23972222222222],[-89.44305555555556,43.24138888888889],[-89.29583333333333,43.24638888888889],[-89.25194444444445,43.24805555555556],[-89.07305555555556,43.254444444444445],[-88.92027777777778,43.25944444444445],[-88.88416666666667,43.26027777777778],[-88.73305555555555,43.265277777777776],[-88.69777777777779,43.26555555555556],[-88.50805555555556,43.27222222222222],[-88.3236111111111,43.276944444444446],[-88.14305555555556,43.28194444444444],[-87.95583333333333,43.28666666666666],[-87.76888888888888,43.29083333333333],[-87.58138888888888,43.294999999999995],[-87.39472222222223,43.29861111111111],[-87.205,43.30222222222222],[-87.02194444444444,43.305],[-86.83722222222222,43.30777777777777],[-86.72638888888889,43.309999999999995],[-86.65305555555557,43.31027777777778],[-86.545,43.31222222222222],[-86.47277777777778,43.3125],[-86.36277777777777,43.31361111111111],[-86.29083333333332,43.31444444444444],[-86.18277777777779,43.31527777777777],[-86.14500000000001,43.315555555555555],[-86.00055555555555,43.31666666666667],[-85.96444444444445,43.316944444444445],[-85.82111111111111,43.3175],[-85.78361111111111,43.31777777777778],[-85.64027777777778,43.31861111111112],[-85.60249999999999,43.31888888888889],[-85.46027777777778,43.31916666666667],[-85.42,43.31916666666667],[-85.27583333333334,43.31916666666667],[-85.23916666666666,43.31916666666667],[-85.09277777777777,43.31916666666667],[-85.05638888888889,43.31916666666667],[-84.90777777777778,43.31888888888889],[-84.8711111111111,43.31861111111112],[-84.72361111111111,43.31805555555556],[-84.68555555555555,43.31777777777778],[-84.53472222222221,43.31722222222223],[-84.49861111111112,43.316944444444445],[-84.34833333333333,43.316111111111105],[-84.30916666666667,43.31583333333333],[-84.1588888888889,43.31444444444444],[-84.12277777777777,43.314166666666665],[-83.9725,43.3125],[-83.80222222222221,43.31055555555555],[-83.60972222222222,43.308055555555555],[-83.41944444444445,43.305],[-83.22555555555556,43.301944444444445],[-83.03,43.29833333333333],[-82.83611111111111,43.294444444444444],[-82.64166666666668,43.290277777777774],[-81.3261111111111,43.3875],[-81.13583333333334,43.41722222222222],[-80.94055555555556,43.44888888888889],[-80.7475,43.480555555555554],[-80.55222222222221,43.51222222222222],[-80.35888888888888,43.54333333333333],[-80.16861111111112,43.558611111111105],[-79.97055555555556,43.55611111111111],[-79.77638888888889,43.55972222222222],[-79.58166666666666,43.57944444444445],[-79.39055555555557,43.59861111111111],[-79.19444444444444,43.615],[-78.99555555555555,43.61694444444444],[-78.60444444444444,43.559444444444445],[-78.41055555555556,43.5325],[-78.215,43.501666666666665],[-78.02555555555556,43.473055555555554],[-77.83055555555555,43.44333333333333],[-77.64472222222223,43.414722222222224],[-77.45944444444444,43.385555555555555],[-77.27583333333334,43.35638888888889],[-77.09055555555555,43.32666666666667],[-76.90944444444445,43.29722222222222],[-76.69888888888889,43.26305555555555],[-76.34166666666667,43.20333333333333],[-76.16166666666668,43.17305555555555],[-75.9863888888889,43.143055555555556],[-75.81222222222222,43.113055555555555],[-75.63805555555557,43.0825],[-75.46416666666667,43.051944444444445],[-75.2875,43.02055555555555],[-75.11222222222221,42.98916666666667],[-74.9363888888889,42.9575],[-74.75861111111111,42.92472222222222],[-74.58083333333333,42.89222222222222],[-74.40222222222222,42.85888888888889],[-74.22527777777778,42.82777777777778],[-74.04861111111111,42.81361111111111],[-73.87277777777777,42.79833333333333],[-73.69250000000001,42.782777777777774],[-73.51222222222222,42.766666666666666],[-73.33222222222221,42.75055555555556],[-73.14555555555556,42.733333333333334],[-72.96055555555556,42.715833333333336],[-72.78027777777778,42.69888888888889],[-72.60833333333333,42.68222222222222],[-72.27777777777777,42.64138888888889],[-72.11194444444443,42.62222222222222],[-71.96361111111112,42.60444444444445],[-71.91666666666667,42.6],[-71.82027777777778,42.586666666666666],[-71.7,42.56666666666667],[-71.68222222222222,42.56527777777777],[-71.55277777777778,42.54222222222222],[-71.43333333333334,42.516666666666666],[-71.31666666666666,42.5],[-71.21666666666667,42.46666666666667],[-71.1086111111111,42.47944444444445],[-71.04638888888888,42.52638888888889],[-71.01666666666667,42.583333333333336],[-71.01833333333333,42.58277777777778],[-70.95277777777778,42.59583333333334],[-70.91611111111112,42.55444444444444],[-70.93333333333334,42.516666666666666],[-70.96000000000001,42.4575],[-70.98333333333333,42.416666666666664],[-70.99944444444445,42.37694444444445]]}
}
