{
  "id": 2032071847,
  "type": "Feature",
  "properties": {
    "geom:area": 0,
    "geom:bbox": "-122.378056,35.888611,-115.212500,37.700000",
    "geom:latitude": 37.18034169414106,
    "geom:longitude": -118.70630850256374,
    "src:alt_label": "swim-path",
    "src:geom": "swim",
    "swim:altitudes": [
      "042",
      "071",
      "091",
      "122",
      "140",
      "157",
      "173",
      "189",
      "207",
      "220",
      "232",
      "246",
      "278",
      "305",
      "315",
      "320C",
      "320C",
      "320C",
      "320C",
      "320C",
      "320C",
      "320C",
      "319C",
      "320C",
      "320C",
      "320C",
      "320C",
      "320C",
      "320C",
      "320",
      "320",
      "320",
      "316",
      "307",
      "283",
      "279",
      "260",
      "257",
      "242",
      "235",
      "224",
      "216",
      "210",
      "202",
      "185",
      "172",
      "166",
      "157",
      "154",
      "149",
      "146",
      "136",
      "133",
      "119",
      "111",
      "110",
      "110",
      "105",
      "101",
      "099",
      "100",
      "095",
      "091",
      "080",
      "076",
      "072",
      "062",
      "060",
      "053",
      "042",
      "038",
      "028",
      "024",
      "017",
      "008",
      "003",
      "001"
    ],
    "swim:geom": "path",
    "swim:speeds": [
      193,
      272,
      277,
      331,
      354,
      373,
      386,
      400,
      406,
      410,
      419,
      421,
      437,
      457,
      459,
      459,
      458,
      457,
      443,
      439,
      436,
      432,
      431,
      432,
      433,
      433,
      421,
      420,
      420,
      420,
      418,
      416,
      415,
      415,
      424,
      423,
      421,
      417,
      410,
      401,
      393,
      370,
      354,
      336,
      329,
      331,
      330,
      330,
      313,
      291,
      271,
      265,
      258,
      252,
      254,
      253,
      249,
      251,
      249,
      250,
      250,
      251,
      251,
      245,
      249,
      240,
      237,
      234,
      234,
      226,
      203,
      175,
      172,
      170,
      135,
      138,
      119
    ],
    "swim:timestamps": [
      1785725169,
      1785725289,
      1785725351,
      1785725472,
      1785725532,
      1785725592,
      1785725652,
      1785725712,
      1785725772,
      1785725832,
      1785725892,
      1785725952,
      1785726133,
      1785726313,
      1785726373,
      1785726433,
      1785726493,
      1785726553,
      1785726673,
      1785726734,
      1785726794,
      1785726914,
      1785726974,
      1785727034,
      1785727094,
      1785727154,
      1785727214,
      1785727276,
      1785727336,
      1785727456,
      1785727516,
      1785727576,
      1785727697,
      1785727757,
      1785727817,
      1785727827,
      1785727877,
      1785727888,
      1785727937,
      1785727948,
      1785727997,
      1785728013,
      1785728057,
      1785728073,
      1785728133,
      1785728177,
      1785728188,
      1785728237,
      1785728254,
      1785728297,
      1785728308,
      1785728357,
      1785728368,
      1785728428,
      1785728477,
      1785728537,
      1785728554,
      1785728598,
      1785728614,
      1785728658,
      1785728674,
      1785728718,
      1785728728,
      1785728788,
      1785728838,
      1785728848,
      1785728898,
      1785728908,
      1785728968,
      1785729028,
      1785729078,
      1785729138,
      1785729148,
      1785729198,
      1785729268,
      1785729318,
      1785729378
    ],
    "wof:geomhash": "0de251dc682d9f1b13a86bc549000025",
    "wof:id": 2032071847,
    "wof:repo": "sfomuseum-data-flights-2026-08"
  },
  "bbox": [
    -122.37805555555555,
    35.88861111111111,
    -115.2125,
    37.7
  ],
  "geometry": {"coordinates":[[-115.2125,36.07666666666667],[-115.30777777777777,35.97277777777778],[-115.35277777777777,35.90277777777778],[-115.55722222222222,35.88861111111111],[-115.67777777777778,35.89083333333333],[-115.79472222222222,35.9175],[-115.89472222222223,35.98777777777778],[-115.99916666666667,36.05888888888889],[-116.1061111111111,36.13194444444444],[-116.20611111111111,36.20027777777778],[-116.31055555555555,36.270833333333336],[-116.42194444444445,36.34638888888889],[-116.77277777777778,36.58638888888889],[-117.04388888888889,36.89083333333333],[-117.11944444444444,37.00694444444444],[-117.19277777777778,37.11944444444445],[-117.2675,37.23305555555556],[-117.3536111111111,37.33916666666667],[-117.58805555555556,37.49777777777778],[-117.74027777777778,37.51083333333333],[-117.88972222222223,37.52472222222222],[-118.19166666666668,37.54833333333333],[-118.31472222222222,37.55777777777777],[-118.46527777777779,37.56916666666667],[-118.64527777777778,37.5825],[-118.79583333333333,37.593611111111116],[-118.9413888888889,37.60416666666667],[-119.08972222222222,37.614444444444445],[-119.2363888888889,37.624722222222225],[-119.52972222222222,37.64472222222222],[-119.67444444444445,37.65416666666667],[-119.81861111111111,37.66305555555555],[-120.11055555555555,37.68111111111111],[-120.25444444444445,37.69],[-120.40444444444445,37.69833333333333],[-120.43333333333334,37.7],[-120.55166666666666,37.68138888888889],[-120.56666666666666,37.68333333333333],[-120.66555555555556,37.66888888888889],[-120.71666666666667,37.666666666666664],[-120.80222222222221,37.652499999999996],[-120.86666666666666,37.65],[-120.92916666666667,37.636944444444445],[-120.98333333333333,37.63333333333333],[-121.1,37.61666666666667],[-121.16916666666667,37.60166666666667],[-121.2,37.583333333333336],[-121.23777777777778,37.52916666666667],[-121.26666666666667,37.5],[-121.30138888888888,37.463055555555556],[-121.33333333333333,37.46666666666667],[-121.38527777777779,37.485],[-121.4,37.5],[-121.48333333333333,37.516666666666666],[-121.54583333333333,37.54416666666666],[-121.62666666666667,37.57194444444445],[-121.65,37.583333333333336],[-121.7075,37.599722222222226],[-121.73333333333333,37.61666666666667],[-121.78694444444444,37.624722222222225],[-121.81666666666666,37.61666666666667],[-121.83166666666666,37.57694444444445],[-121.83333333333333,37.56666666666667],[-121.85,37.5],[-121.86638888888888,37.4475],[-121.88333333333334,37.43333333333333],[-121.9413888888889,37.4325],[-121.96666666666667,37.45],[-122.03333333333333,37.46666666666667],[-122.1,37.5],[-122.15,37.524166666666666],[-122.20416666666667,37.54694444444444],[-122.21666666666667,37.55],[-122.25638888888889,37.56888888888889],[-122.31666666666666,37.6],[-122.34527777777777,37.60638888888889],[-122.37805555555555,37.62]],"type":"LineString"}
}
