{
  "id": 2048096009,
  "type": "Feature",
  "properties": {
    "geom:area": 0,
    "geom:bbox": "-122.546380,36.727510,-121.253080,37.667120",
    "geom:latitude": 37.20873625724903,
    "geom:longitude": -121.97617164106869,
    "src:alt_label": "swim-takeoff",
    "src:geom": "swim",
    "swim:elevations": [
      295,
      540,
      759,
      1062,
      1248,
      1830,
      1948,
      2132,
      2395,
      2719,
      3206,
      3240,
      3480,
      3755,
      3957,
      4323,
      4652,
      4870,
      5380,
      5489,
      6013,
      6168,
      6528,
      6658,
      6848,
      7351,
      7426,
      7581,
      7682,
      7927,
      8046,
      8233,
      8367,
      8662,
      8782
    ],
    "swim:geom": "takeoff",
    "swim:timestamps": [
      1787350093,
      1787350124,
      1787350154,
      1787350184,
      1787350211,
      1787350256,
      1787350263,
      1787350277,
      1787350299,
      1787350329,
      1787350378,
      1787350387,
      1787350434,
      1787350467,
      1787350488,
      1787350521,
      1787350551,
      1787350569,
      1787350616,
      1787350629,
      1787350678,
      1787350694,
      1787350735,
      1787350750,
      1787350771,
      1787350827,
      1787350834,
      1787350855,
      1787350873,
      1787350911,
      1787350936,
      1787350962,
      1787350985,
      1787351030,
      1787351045
    ],
    "wof:geomhash": "10845393204080851f1e2784e4c1a70a",
    "wof:id": 2048096009,
    "wof:repo": "sfomuseum-data-flights-2026-08"
  },
  "bbox": [
    -122.54638,
    36.72751,
    -121.25308,
    37.66712
  ],
  "geometry": {"type":"LineString","coordinates":[[-122.39599,37.62789],[-122.42183,37.63913],[-122.45245,37.65229],[-122.48768,37.66712],[-122.52496,37.66438],[-122.54638,37.61767],[-122.54223,37.60952],[-122.53417,37.59463],[-122.52043,37.57034],[-122.50111,37.53649],[-122.46273,37.48096],[-122.45168,37.4721],[-122.38669,37.4248],[-122.33676,37.38849],[-122.30444,37.36454],[-122.25298,37.32641],[-122.20527,37.29127],[-122.17642,37.27005],[-122.09762,37.21755],[-122.07038,37.20647],[-121.96971,37.16593],[-121.93533,37.15219],[-121.84742,37.11749],[-121.81484,37.10459],[-121.76896,37.0862],[-121.64469,37.0373],[-121.6289,37.03105],[-121.58586,37.00789],[-121.55499,36.98465],[-121.48924,36.928],[-121.44739,36.89252],[-121.40088,36.85312],[-121.36031,36.81899],[-121.27998,36.75026],[-121.25308,36.72751]]}
}
