{
  "id": 2047955681,
  "type": "Feature",
  "properties": {
    "geom:area": 0,
    "geom:bbox": "-122.359890,36.738440,-121.888890,37.612350",
    "geom:latitude": 37.220858315275485,
    "geom:longitude": -122.07380106540647,
    "src:alt_label": "swim-approach",
    "src:geom": "swim",
    "swim:elevations": [
      5624,
      5242,
      5042,
      4659,
      4344,
      3923,
      3607,
      3453,
      3268,
      3012,
      2917,
      2631,
      2556,
      2436,
      2170,
      2060,
      1754,
      1613,
      1544,
      1386,
      1155,
      1009,
      892,
      700,
      578,
      484,
      391,
      318,
      137,
      88,
      0
    ],
    "swim:geom": "approach",
    "swim:timestamps": [
      1786660034,
      1786660070,
      1786660087,
      1786660120,
      1786660148,
      1786660185,
      1786660215,
      1786660227,
      1786660245,
      1786660277,
      1786660308,
      1786660338,
      1786660367,
      1786660397,
      1786660432,
      1786660447,
      1786660495,
      1786660525,
      1786660536,
      1786660566,
      1786660615,
      1786660646,
      1786660667,
      1786660703,
      1786660731,
      1786660752,
      1786660780,
      1786660801,
      1786660856,
      1786660870,
      1786660896
    ],
    "wof:geomhash": "b68057a3e4e8be6f3b95566afd2d1292",
    "wof:id": 2047955681,
    "wof:repo": "sfomuseum-data-flights-2026-08"
  },
  "bbox": [
    -122.35989,
    36.73844,
    -121.88889,
    37.61235
  ],
  "geometry": {"type":"LineString","coordinates":[[-121.88889,36.73844],[-121.91002,36.79861],[-121.91814,36.82737],[-121.93325,36.88175],[-121.94629,36.92871],[-121.96693,36.98702],[-121.98513,37.03416],[-121.99237,37.05297],[-122.00314,37.08112],[-122.02294,37.13102],[-122.03937,37.17306],[-122.05542,37.21211],[-122.06883,37.24745],[-122.08103,37.27971],[-122.09632,37.31842],[-122.10299,37.33473],[-122.12266,37.38582],[-122.13274,37.41499],[-122.13604,37.4245],[-122.1454,37.4522],[-122.1603,37.49612],[-122.16952,37.52367],[-122.18448,37.53864],[-122.22142,37.55413],[-122.24731,37.56518],[-122.26436,37.57219],[-122.28309,37.58016],[-122.2971,37.58599],[-122.33348,37.60131],[-122.34283,37.60516],[-122.35989,37.61235]]}
}
