{
  "id": 2032057553,
  "type": "Feature",
  "properties": {
    "geom:area": 0,
    "geom:bbox": "-122.216880,36.719610,-121.876910,37.545660",
    "geom:latitude": 37.16708704193674,
    "geom:longitude": -122.05898953202174,
    "src:alt_label": "swim-approach",
    "src:geom": "swim",
    "swim:elevations": [
      4736,
      4524,
      4271,
      4116,
      3997,
      3734,
      3649,
      3477,
      3254,
      3171,
      2804,
      2605,
      2438,
      2438,
      2438,
      2438,
      2186,
      1921,
      1895,
      1829,
      1794,
      1685,
      1512,
      1404,
      1351,
      1218,
      1219,
      1165,
      1084,
      886,
      762
    ],
    "swim:geom": "approach",
    "swim:timestamps": [
      1785598078,
      1785598098,
      1785598130,
      1785598148,
      1785598161,
      1785598194,
      1785598206,
      1785598227,
      1785598255,
      1785598263,
      1785598310,
      1785598338,
      1785598376,
      1785598394,
      1785598434,
      1785598445,
      1785598486,
      1785598526,
      1785598533,
      1785598581,
      1785598617,
      1785598632,
      1785598659,
      1785598676,
      1785598684,
      1785598723,
      1785598748,
      1785598796,
      1785598810,
      1785598855,
      1785598882
    ],
    "wof:geomhash": "0200d31954defb963e8e5c116188a572",
    "wof:id": 2032057553,
    "wof:repo": "sfomuseum-data-flights-2026-08"
  },
  "bbox": [
    -122.21688,
    36.71961,
    -121.87691,
    37.54566
  ],
  "geometry": {"coordinates":[[-121.87691,36.71961],[-121.89694,36.7515],[-121.91122,36.8033],[-121.91954,36.83339],[-121.9255,36.85441],[-121.94019,36.90606],[-121.94554,36.92506],[-121.95488,36.95714],[-121.97133,36.9991],[-121.97602,37.01086],[-122.00291,37.0793],[-122.01809,37.11812],[-122.03816,37.16973],[-122.05105,37.18958],[-122.10131,37.21184],[-122.11502,37.21675],[-122.16606,37.23534],[-122.20582,37.26339],[-122.20855,37.27093],[-122.21688,37.32125],[-122.17916,37.34488],[-122.16137,37.35372],[-122.13904,37.37705],[-122.12567,37.39197],[-122.11939,37.39889],[-122.09673,37.4354],[-122.1036,37.46132],[-122.12223,37.50447],[-122.13227,37.51401],[-122.17464,37.53444],[-122.20116,37.54566]],"type":"LineString"}
}
