{
  "id": 2048077825,
  "type": "Feature",
  "properties": {
    "geom:area": 0,
    "geom:bbox": "-122.373830,36.733380,-121.887090,37.612110",
    "geom:latitude": 37.23001125101065,
    "geom:longitude": -122.18143445699644,
    "src:alt_label": "swim-approach",
    "src:geom": "swim",
    "swim:elevations": [
      4990,
      4795,
      4667,
      4574,
      4552,
      4494,
      4389,
      4129,
      4056,
      3826,
      3711,
      3563,
      3472,
      3127,
      3081,
      2901,
      2653,
      2464,
      2307,
      2193,
      2008,
      1838,
      1829,
      1829,
      1795,
      1690,
      1550,
      1379,
      1251,
      1219,
      1219,
      1219,
      1219,
      1219,
      1219,
      1186,
      1130,
      1063,
      901,
      798,
      649,
      600,
      473,
      393,
      386,
      369,
      363,
      359,
      42,
      0
    ],
    "swim:geom": "approach",
    "swim:timestamps": [
      1787263037,
      1787263059,
      1787263080,
      1787263104,
      1787263110,
      1787263119,
      1787263140,
      1787263194,
      1787263206,
      1787263256,
      1787263280,
      1787263311,
      1787263323,
      1787263376,
      1787263384,
      1787263420,
      1787263465,
      1787263494,
      1787263517,
      1787263535,
      1787263567,
      1787263613,
      1787263648,
      1787263656,
      1787263671,
      1787263686,
      1787263704,
      1787263731,
      1787263749,
      1787263786,
      1787263812,
      1787263851,
      1787263854,
      1787263872,
      1787263887,
      1787263915,
      1787263930,
      1787263954,
      1787264004,
      1787264025,
      1787264066,
      1787264081,
      1787264115,
      1787264133,
      1787264137,
      1787264140,
      1787264143,
      1787264149,
      1787264239,
      1787264248
    ],
    "wof:geomhash": "e4571a660da80357d47abac30d493172",
    "wof:id": 2048077825,
    "wof:repo": "sfomuseum-data-flights-2026-08"
  },
  "bbox": [
    -122.37383,
    36.73338,
    -121.88709,
    37.61211
  ],
  "geometry": {"type":"LineString","coordinates":[[-121.88709,36.73338],[-121.90288,36.77036],[-121.92034,36.80245],[-121.95352,36.83182],[-121.96179,36.83877],[-121.97405,36.8491],[-122.00195,36.87293],[-122.07225,36.93417],[-122.08721,36.94726],[-122.14784,37.00091],[-122.17639,37.02621],[-122.2122,37.05818],[-122.22589,37.07047],[-122.2847,37.12429],[-122.29171,37.13252],[-122.32038,37.17536],[-122.34733,37.22597],[-122.36515,37.25754],[-122.37383,37.28355],[-122.36884,37.30404],[-122.35702,37.34061],[-122.34018,37.38841],[-122.30082,37.40299],[-122.29079,37.40166],[-122.2721,37.39864],[-122.2535,37.39563],[-122.23071,37.39397],[-122.19687,37.39319],[-122.17464,37.39278],[-122.12786,37.39212],[-122.1019,37.40677],[-122.08095,37.44231],[-122.07929,37.44516],[-122.07111,37.46222],[-122.07382,37.47676],[-122.09441,37.49816],[-122.10889,37.50593],[-122.13207,37.51637],[-122.17998,37.53677],[-122.19816,37.54439],[-122.2309,37.55814],[-122.24322,37.56332],[-122.26863,37.574],[-122.28215,37.57973],[-122.28501,37.58091],[-122.28712,37.58177],[-122.28923,37.58266],[-122.29352,37.58451],[-122.3543,37.61002],[-122.35967,37.61211]]}
}
