{
  "id": 2047970501,
  "type": "Feature",
  "properties": {
    "geom:area": 0,
    "geom:bbox": "-122.340030,36.733810,-121.886610,37.606430",
    "geom:latitude": 37.21141558405517,
    "geom:longitude": -122.0668659087995,
    "src:alt_label": "swim-approach",
    "src:geom": "swim",
    "swim:elevations": [
      4724,
      4486,
      3779,
      3567,
      3411,
      3236,
      2988,
      2948,
      2584,
      2463,
      2438,
      2438,
      2438,
      2257,
      1967,
      1831,
      1796,
      1707,
      1447,
      1298,
      1103,
      791,
      606,
      472,
      355,
      305,
      149,
      42
    ],
    "swim:geom": "approach",
    "swim:timestamps": [
      1786712546,
      1786712569,
      1786712630,
      1786712651,
      1786712689,
      1786712720,
      1786712751,
      1786712767,
      1786712814,
      1786712830,
      1786712871,
      1786712890,
      1786712938,
      1786712967,
      1786712990,
      1786713019,
      1786713053,
      1786713063,
      1786713110,
      1786713139,
      1786713157,
      1786713187,
      1786713230,
      1786713255,
      1786713289,
      1786713304,
      1786713350,
      1786713360
    ],
    "wof:geomhash": "358e37665a812e6d3f6ef0e6b93de3ca",
    "wof:id": 2047970501,
    "wof:repo": "sfomuseum-data-flights-2026-08"
  },
  "bbox": [
    -122.34003,
    36.73381,
    -121.88661,
    37.60643
  ],
  "geometry": {"type":"LineString","coordinates":[[-121.88661,36.73381],[-121.90139,36.77136],[-121.92889,36.86841],[-121.93758,36.89947],[-121.95386,36.95585],[-121.9706,36.99852],[-121.98703,37.04064],[-121.99529,37.06048],[-122.01913,37.12278],[-122.02792,37.14501],[-122.04892,37.19826],[-122.05863,37.22287],[-122.08326,37.28606],[-122.09818,37.32389],[-122.10962,37.35306],[-122.12323,37.38941],[-122.1378,37.43174],[-122.14171,37.44313],[-122.15939,37.49626],[-122.16903,37.52476],[-122.18067,37.53752],[-122.20882,37.55096],[-122.25004,37.56847],[-122.27166,37.57759],[-122.29521,37.58746],[-122.30457,37.59136],[-122.33426,37.60392],[-122.34003,37.60643]]}
}
