{
  "id": 2032088197,
  "type": "Feature",
  "properties": {
    "geom:area": 0,
    "geom:bbox": "-122.333333,32.766667,-97.050000,38.130833",
    "geom:latitude": 36.35191109343246,
    "geom:longitude": -109.49570936854431,
    "src:alt_label": "swim-path",
    "src:geom": "swim",
    "swim:altitudes": [
      "015",
      "026",
      "048",
      "051",
      "069",
      "092",
      "108",
      "122",
      "139",
      "158",
      "173",
      "187",
      "215",
      "227",
      "236",
      "247",
      "256",
      "288",
      "294",
      "306",
      "317",
      "327",
      "339C",
      "340C",
      "340C",
      "340C",
      "340C",
      "340C",
      "340C",
      "340C",
      "340C",
      "340C",
      "340C",
      "340C",
      "340C",
      "340C",
      "340C",
      "340C",
      "340C",
      "340C",
      "340C",
      "340C",
      "340C",
      "340C",
      "340C",
      "340C",
      "340C",
      "340C",
      "340C",
      "340C",
      "340C",
      "340C",
      "340C",
      "340C",
      "340C",
      "340C",
      "340C",
      "340C",
      "340C",
      "340C",
      "340C",
      "340C",
      "340C",
      "340C",
      "340C",
      "340C",
      "340C",
      "340C",
      "340C",
      "340C",
      "340C",
      "340C",
      "340C",
      "340C",
      "339C",
      "340C",
      "339C",
      "340C",
      "340C",
      "340C",
      "340C",
      "340C",
      "339C",
      "340C",
      "339C",
      "340C",
      "339C",
      "340C",
      "339C",
      "340C",
      "340C",
      "340C",
      "340C",
      "340C",
      "340C",
      "340C",
      "340C",
      "340C",
      "340C",
      "340C",
      "340C",
      "342",
      "343",
      "346",
      "348",
      "356",
      "357",
      "360C",
      "360C",
      "360C",
      "360C",
      "360C",
      "360C",
      "360C",
      "360C",
      "360C",
      "360C",
      "360C",
      "360C",
      "360C",
      "360C",
      "360C",
      "360C",
      "360C",
      "360C",
      "360C",
      "360C",
      "360C",
      "360C",
      "360C",
      "360C",
      "360C",
      "360C",
      "360C",
      "360C",
      "360C",
      "360C",
      "360C",
      "360C",
      "360C",
      "360C",
      "360C",
      "360C",
      "360C",
      "360C",
      "360C",
      "360C",
      "360C",
      "360C",
      "360C",
      "360C",
      "360C",
      "360C",
      "360C",
      "360C",
      "360C",
      "360C",
      "360C",
      "360C",
      "360C",
      "360C",
      "360C",
      "360C",
      "360C",
      "360C",
      "360C",
      "360C",
      "360C",
      "360C",
      "360C",
      "360C",
      "360C",
      "360C",
      "360C",
      "360C",
      "360C",
      "360C",
      "360C",
      "359C",
      "360C",
      "359C",
      "360C",
      "360C",
      "360C",
      "359C",
      "360C",
      "359C",
      "360C",
      "360C",
      "360C",
      "360C",
      "360C",
      "360C",
      "360C",
      "360C",
      "360C",
      "360C",
      "360C",
      "360C",
      "360C",
      "360C",
      "360C",
      "360C",
      "360C",
      "360C",
      "360C",
      "360C",
      "360C",
      "360C",
      "360C",
      "360C",
      "360C",
      "360C",
      "360C",
      "360C",
      "360C",
      "360C",
      "360C",
      "360C",
      "360C",
      "360C",
      "360C",
      "360C",
      "360C",
      "360C",
      "360C",
      "360C",
      "360C",
      "360C",
      "359",
      "355",
      "333",
      "320",
      "308",
      "288",
      "282",
      "210",
      "204",
      "188",
      "173",
      "153",
      "151",
      "135",
      "121",
      "109",
      "095",
      "081",
      "080",
      "076",
      "074",
      "063",
      "059",
      "056",
      "049",
      "034",
      "024",
      "015",
      "013",
      "005"
    ],
    "swim:geom": "path",
    "swim:speeds": [
      163,
      209,
      237,
      240,
      279,
      284,
      319,
      363,
      377,
      382,
      397,
      408,
      421,
      426,
      434,
      440,
      446,
      476,
      483,
      483,
      480,
      477,
      463,
      464,
      461,
      461,
      459,
      459,
      458,
      458,
      458,
      457,
      457,
      457,
      457,
      457,
      457,
      457,
      457,
      457,
      459,
      460,
      461,
      464,
      465,
      468,
      469,
      469,
      469,
      469,
      469,
      469,
      467,
      466,
      465,
      464,
      463,
      463,
      463,
      463,
      463,
      463,
      462,
      462,
      462,
      461,
      460,
      459,
      459,
      458,
      458,
      458,
      457,
      457,
      457,
      456,
      457,
      457,
      457,
      457,
      456,
      456,
      455,
      454,
      451,
      450,
      450,
      450,
      450,
      450,
      450,
      450,
      449,
      447,
      446,
      445,
      445,
      445,
      445,
      445,
      445,
      445,
      445,
      448,
      448,
      444,
      444,
      444,
      444,
      442,
      442,
      442,
      442,
      440,
      440,
      437,
      438,
      436,
      436,
      436,
      436,
      435,
      436,
      435,
      435,
      436,
      436,
      435,
      436,
      433,
      436,
      432,
      430,
      431,
      426,
      425,
      425,
      425,
      426,
      424,
      424,
      425,
      425,
      425,
      425,
      426,
      427,
      427,
      427,
      427,
      428,
      428,
      427,
      425,
      423,
      423,
      422,
      421,
      421,
      421,
      421,
      420,
      419,
      419,
      417,
      416,
      416,
      416,
      416,
      415,
      413,
      413,
      414,
      414,
      414,
      414,
      415,
      416,
      416,
      417,
      420,
      416,
      416,
      416,
      418,
      417,
      417,
      417,
      417,
      418,
      417,
      417,
      415,
      415,
      415,
      415,
      415,
      415,
      416,
      416,
      417,
      417,
      417,
      417,
      418,
      418,
      418,
      418,
      417,
      417,
      417,
      416,
      416,
      415,
      415,
      414,
      414,
      414,
      413,
      414,
      414,
      415,
      415,
      416,
      417,
      417,
      417,
      417,
      417,
      419,
      419,
      423,
      429,
      430,
      439,
      431,
      388,
      380,
      364,
      366,
      360,
      354,
      348,
      338,
      295,
      250,
      247,
      243,
      246,
      246,
      244,
      242,
      238,
      240,
      234,
      200,
      178,
      159,
      143
    ],
    "swim:timestamps": [
      1785755653,
      1785755707,
      1785755766,
      1785755773,
      1785755833,
      1785755886,
      1785755946,
      1785756006,
      1785756066,
      1785756127,
      1785756187,
      1785756247,
      1785756367,
      1785756427,
      1785756487,
      1785756547,
      1785756607,
      1785756847,
      1785756907,
      1785756967,
      1785757027,
      1785757088,
      1785757148,
      1785757176,
      1785757208,
      1785757237,
      1785757268,
      1785757297,
      1785757328,
      1785757355,
      1785757388,
      1785757415,
      1785757448,
      1785757475,
      1785757508,
      1785757535,
      1785757568,
      1785757598,
      1785757628,
      1785757658,
      1785757715,
      1785757748,
      1785757778,
      1785757808,
      1785757836,
      1785757896,
      1785757928,
      1785757958,
      1785757989,
      1785758016,
      1785758049,
      1785758077,
      1785758139,
      1785758169,
      1785758196,
      1785758229,
      1785758256,
      1785758289,
      1785758316,
      1785758349,
      1785758409,
      1785758436,
      1785758496,
      1785758529,
      1785758556,
      1785758589,
      1785758616,
      1785758649,
      1785758676,
      1785758709,
      1785758738,
      1785758798,
      1785758830,
      1785758858,
      1785758904,
      1785758919,
      1785758964,
      1785758976,
      1785759024,
      1785759036,
      1785759084,
      1785759096,
      1785759144,
      1785759157,
      1785759204,
      1785759216,
      1785759264,
      1785759278,
      1785759324,
      1785759338,
      1785759399,
      1785759445,
      1785759459,
      1785759565,
      1785759625,
      1785759637,
      1785759685,
      1785759697,
      1785759745,
      1785759757,
      1785759805,
      1785759865,
      1785759877,
      1785759925,
      1785759938,
      1785759985,
      1785759998,
      1785760045,
      1785760058,
      1785760105,
      1785760118,
      1785760165,
      1785760178,
      1785760225,
      1785760240,
      1785760285,
      1785760300,
      1785760345,
      1785760357,
      1785760399,
      1785760460,
      1785760478,
      1785760520,
      1785760526,
      1785760586,
      1785760646,
      1785760700,
      1785760706,
      1785760760,
      1785760826,
      1785760880,
      1785760886,
      1785760946,
      1785761000,
      1785761066,
      1785761186,
      1785761240,
      1785761246,
      1785761300,
      1785761306,
      1785761366,
      1785761420,
      1785761480,
      1785761486,
      1785761540,
      1785761600,
      1785761661,
      1785761667,
      1785761727,
      1785761787,
      1785761841,
      1785761847,
      1785761901,
      1785761967,
      1785762021,
      1785762027,
      1785762087,
      1785762141,
      1785762201,
      1785762207,
      1785762261,
      1785762267,
      1785762321,
      1785762327,
      1785762441,
      1785762501,
      1785762561,
      1785762621,
      1785762682,
      1785762742,
      1785762982,
      1785763042,
      1785763102,
      1785763162,
      1785763222,
      1785763282,
      1785763342,
      1785763402,
      1785763462,
      1785763523,
      1785763549,
      1785763583,
      1785763643,
      1785763703,
      1785763729,
      1785763763,
      1785763789,
      1785763823,
      1785763883,
      1785763909,
      1785763943,
      1785763969,
      1785764003,
      1785764030,
      1785764063,
      1785764090,
      1785764123,
      1785764150,
      1785764210,
      1785764270,
      1785764304,
      1785764330,
      1785764364,
      1785764390,
      1785764424,
      1785764450,
      1785764484,
      1785764510,
      1785764570,
      1785764604,
      1785764630,
      1785764664,
      1785764690,
      1785764724,
      1785764750,
      1785764784,
      1785764810,
      1785764844,
      1785764904,
      1785764930,
      1785764964,
      1785764990,
      1785765050,
      1785765110,
      1785765171,
      1785765231,
      1785765291,
      1785765351,
      1785765411,
      1785765471,
      1785765531,
      1785765591,
      1785765651,
      1785765711,
      1785765771,
      1785765778,
      1785765951,
      1785765958,
      1785766018,
      1785766071,
      1785766131,
      1785766138,
      1785766199,
      1785766252,
      1785766312,
      1785766373,
      1785766432,
      1785766438,
      1785766492,
      1785766498,
      1785766552,
      1785766612,
      1785766625,
      1785766672,
      1785766732,
      1785766792,
      1785766852,
      1785766859,
      1785766919
    ],
    "wof:geomhash": "f9f3f17d243e1c1a9bae80a4cb0fee78",
    "wof:id": 2032088197,
    "wof:repo": "sfomuseum-data-flights-2026-08"
  },
  "bbox": [
    -122.33333333333333,
    32.766666666666666,
    -97.05,
    38.130833333333335
  ],
  "geometry": {"type":"LineString","coordinates":[[-97.05,32.88333333333333],[-97.05,32.833333333333336],[-97.0825,32.781666666666666],[-97.08333333333333,32.78333333333333],[-97.16666666666667,32.766666666666666],[-97.25361111111111,32.77444444444444],[-97.34972222222221,32.7975],[-97.46388888888889,32.825],[-97.58388888888888,32.85388888888889],[-97.7075,32.88305555555556],[-97.83194444444445,32.92166666666667],[-97.94833333333334,32.959722222222226],[-98.21000000000001,33.04527777777778],[-98.34222222222222,33.08833333333334],[-98.46583333333334,33.12861111111111],[-98.6036111111111,33.17305555555555],[-98.74194444444444,33.217777777777776],[-99.31833333333333,33.40083333333333],[-99.4713888888889,33.44888888888889],[-99.62277777777777,33.4925],[-99.77416666666666,33.53472222222222],[-99.94,33.580555555555556],[-100.08666666666666,33.62111111111111],[-100.14333333333335,33.63638888888889],[-100.23055555555555,33.663333333333334],[-100.28583333333333,33.68583333333333],[-100.36638888888888,33.721111111111114],[-100.42083333333333,33.74472222222222],[-100.50194444444445,33.78],[-100.55722222222222,33.803888888888885],[-100.63694444444445,33.83833333333334],[-100.69305555555556,33.862500000000004],[-100.77277777777778,33.89694444444444],[-100.82833333333333,33.920833333333334],[-100.9075,33.95472222222222],[-100.965,33.97916666666667],[-101.04416666666667,34.01305555555555],[-101.10055555555554,34.03722222222222],[-101.18027777777779,34.071111111111115],[-101.23611111111111,34.094722222222224],[-101.37305555555555,34.15277777777778],[-101.45583333333333,34.187777777777775],[-101.51305555555555,34.21194444444445],[-101.595,34.24638888888889],[-101.6525,34.27055555555555],[-101.79472222222222,34.330000000000005],[-101.87972222222221,34.36555555555556],[-101.9375,34.38972222222222],[-102.02055555555556,34.424166666666665],[-102.07888888888888,34.44833333333333],[-102.16194444444444,34.48277777777778],[-102.22,34.50666666666667],[-102.3611111111111,34.56472222222222],[-102.44250000000001,34.59805555555556],[-102.50055555555555,34.621944444444445],[-102.58388888888888,34.655833333333334],[-102.6413888888889,34.67944444444444],[-102.72333333333333,34.71277777777778],[-102.78138888888888,34.73638888888889],[-102.86333333333333,34.769444444444446],[-102.97666666666667,34.81527777777777],[-103.06,34.848888888888894],[-103.19833333333334,34.904444444444444],[-103.25611111111111,34.927499999999995],[-103.33833333333332,34.96027777777778],[-103.3963888888889,34.98361111111111],[-103.47694444444444,35.01555555555556],[-103.53666666666666,35.03916666666667],[-103.61722222222221,35.071111111111115],[-103.6763888888889,35.09444444444445],[-103.75472222222223,35.12555555555556],[-103.89500000000001,35.18055555555555],[-103.95555555555556,35.20416666666667],[-104.04027777777777,35.23722222222222],[-104.15,35.27777777777778],[-104.18138888888889,35.29222222222222],[-104.29277777777777,35.33277777777778],[-104.31527777777778,35.344166666666666],[-104.435,35.39],[-104.44388888888889,35.39388888888889],[-104.56666666666666,35.43944444444444],[-104.58138888888888,35.446666666666665],[-104.70833333333334,35.49388888888889],[-104.72083333333333,35.500277777777775],[-104.84916666666666,35.54722222222222],[-104.86027777777777,35.55333333333333],[-104.98972222222223,35.602222222222224],[-104.99833333333333,35.60583333333334],[-105.13111111111111,35.655],[-105.13861111111112,35.65888888888889],[-105.27555555555556,35.711666666666666],[-105.4063888888889,35.761944444444445],[-105.41472222222222,35.765],[-105.68333333333334,35.867222222222225],[-105.82166666666666,35.919444444444444],[-105.84388888888888,35.92805555555555],[-105.95361111111112,35.96944444444445],[-105.98416666666667,35.98083333333334],[-106.0925,36.021388888888886],[-106.12416666666665,36.03333333333333],[-106.22944444444444,36.07277777777778],[-106.36916666666666,36.124722222222225],[-106.39583333333334,36.13444444444444],[-106.51,36.17666666666666],[-106.5286111111111,36.183611111111105],[-106.64861111111112,36.22777777777778],[-106.67527777777778,36.237500000000004],[-106.78583333333333,36.278055555555554],[-106.81388888888888,36.288333333333334],[-106.92416666666666,36.328611111111115],[-106.95083333333334,36.33833333333334],[-107.0625,36.37888888888889],[-107.09055555555555,36.38916666666667],[-107.20027777777779,36.42861111111111],[-107.22694444444444,36.43833333333333],[-107.33583333333333,36.47777777777778],[-107.36305555555555,36.487500000000004],[-107.47166666666666,36.52638888888889],[-107.49833333333333,36.53583333333333],[-107.57388888888889,36.565],[-107.7125,36.613055555555555],[-107.77166666666666,36.63333333333333],[-107.84944444444444,36.66222222222222],[-107.88222222222221,36.67222222222222],[-108.01944444444445,36.72083333333334],[-108.15916666666668,36.76722222222222],[-108.26694444444445,36.80166666666666],[-108.29722222222222,36.80972222222222],[-108.40805555555556,36.844722222222224],[-108.57666666666667,36.89555555555555],[-108.68916666666667,36.92944444444444],[-108.71583333333334,36.937777777777775],[-108.85499999999999,36.980000000000004],[-108.96694444444445,37.013333333333335],[-109.13,37.0625],[-109.40361111111112,37.14388888888889],[-109.52027777777778,37.177499999999995],[-109.54194444444444,37.18472222222222],[-109.67694444444444,37.224444444444444],[-109.67916666666667,37.225],[-109.81888888888888,37.26583333333333],[-109.95333333333333,37.305],[-110.09388888888888,37.345555555555556],[-110.0961111111111,37.34638888888889],[-110.23138888888889,37.38527777777778],[-110.37138888888889,37.42527777777777],[-110.51138888888889,37.46527777777778],[-110.51583333333333,37.46638888888889],[-110.65694444444445,37.506388888888885],[-110.79888888888888,37.546388888888885],[-110.93527777777778,37.5825],[-110.94027777777778,37.58361111111111],[-111.07805555555555,37.61611111111111],[-111.22555555555556,37.650555555555556],[-111.36138888888888,37.68222222222222],[-111.36583333333333,37.68333333333333],[-111.50694444444444,37.715833333333336],[-111.64416666666668,37.7475],[-111.78611111111111,37.78],[-111.79055555555556,37.780833333333334],[-111.92527777777778,37.81166666666666],[-111.93194444444445,37.81305555555555],[-112.06861111111111,37.840833333333336],[-112.07305555555556,37.84166666666667],[-112.35083333333333,37.89194444444444],[-112.49083333333333,37.91694444444444],[-112.63361111111112,37.94222222222222],[-112.7761111111111,37.9675],[-112.91666666666667,37.992222222222225],[-113.05638888888889,38.01638888888889],[-113.65194444444445,38.117777777777775],[-113.79722222222222,38.130833333333335],[-113.94111111111111,38.12694444444445],[-114.08694444444444,38.12305555555555],[-114.23277777777778,38.118611111111115],[-114.37805555555555,38.11416666666667],[-114.52472222222222,38.10944444444445],[-114.67,38.10472222222222],[-114.81888888888888,38.099722222222226],[-114.96333333333334,38.094722222222224],[-115.01777777777778,38.09305555555556],[-115.10388888888889,38.089444444444446],[-115.25166666666667,38.08388888888889],[-115.39583333333334,38.07833333333333],[-115.4575,38.07611111111112],[-115.54527777777777,38.07222222222222],[-115.60305555555556,38.07027777777778],[-115.69,38.066111111111105],[-115.83888888888889,38.05972222222222],[-115.89916666666667,38.05722222222222],[-115.98555555555555,38.05333333333333],[-116.04333333333334,38.050555555555555],[-116.13083333333333,38.04666666666667],[-116.19083333333333,38.04388888888889],[-116.27555555555556,38.03972222222222],[-116.33611111111111,38.036944444444444],[-116.42277777777778,38.032777777777774],[-116.48111111111112,38.03],[-116.62972222222221,38.0225],[-116.77555555555556,38.015277777777776],[-116.86416666666666,38.010555555555555],[-116.92472222222223,38.0075],[-117.01138888888889,38.00277777777778],[-117.07333333333332,37.99944444444444],[-117.16111111111111,37.99472222222222],[-117.22166666666666,37.99138888888889],[-117.28138888888888,37.988055555555555],[-117.37222222222222,37.98277777777778],[-117.52,37.974444444444444],[-117.5775,37.971111111111114],[-117.63861111111112,37.9675],[-117.72472222222223,37.962500000000006],[-117.785,37.95888888888889],[-117.86888888888888,37.953611111111115],[-117.92944444444444,37.95],[-118.01472222222222,37.94472222222222],[-118.07333333333332,37.941111111111105],[-118.15916666666668,37.93555555555555],[-118.30499999999999,37.92638888888889],[-118.36388888888888,37.9225],[-118.45055555555555,37.91694444444444],[-118.51055555555556,37.91277777777778],[-118.6575,37.903055555555554],[-118.80138888888888,37.891666666666666],[-118.94805555555556,37.875],[-119.11527777777778,37.855555555555554],[-119.26083333333334,37.83861111111111],[-119.4063888888889,37.82166666666667],[-119.55,37.80444444444444],[-119.6975,37.786944444444444],[-119.84388888888888,37.76916666666666],[-119.99055555555556,37.75111111111111],[-120.14083333333333,37.73222222222223],[-120.28833333333333,37.71388888888889],[-120.41166666666668,37.69833333333333],[-120.45,37.7],[-120.83694444444444,37.64805555555556],[-120.88333333333334,37.65],[-121,37.63333333333333],[-121.09222222222222,37.61555555555556],[-121.23166666666667,37.596944444444446],[-121.25,37.6],[-121.36666666666666,37.583333333333336],[-121.47055555555556,37.56888888888889],[-121.57805555555555,37.55611111111111],[-121.66666666666667,37.53333333333333],[-121.75111111111111,37.52055555555555],[-121.76666666666667,37.516666666666666],[-121.83388888888888,37.50055555555556],[-121.85,37.5],[-121.91638888888889,37.49333333333333],[-122.00027777777778,37.49805555555556],[-122.01666666666667,37.5],[-122.08194444444445,37.50277777777778],[-122.1563888888889,37.528888888888886],[-122.21944444444445,37.55555555555555],[-122.27666666666667,37.57972222222222],[-122.28333333333333,37.583333333333336],[-122.33333333333333,37.6]]}
}
