{
  "id": 2047928521,
  "type": "Feature",
  "properties": {
    "geom:area": 0,
    "geom:bbox": "-122.765770,37.401210,-122.100320,38.510170",
    "geom:latitude": 37.80618206108114,
    "geom:longitude": -122.47799078102862,
    "src:alt_label": "swim-approach",
    "src:geom": "swim",
    "swim:elevations": [
      7894,
      7752,
      7505,
      7483,
      6928,
      6658,
      6177,
      6050,
      5517,
      5471,
      5151,
      4789,
      4337,
      4088,
      3744,
      3461,
      3354,
      3353,
      3353,
      3353,
      3353,
      3377,
      3346,
      3081,
      2968,
      2754,
      2388,
      2284,
      1890,
      1830,
      1829,
      1769,
      1398,
      1275,
      1175,
      1043,
      873,
      853,
      837,
      550,
      455,
      373,
      303,
      162,
      54
    ],
    "swim:geom": "approach",
    "swim:timestamps": [
      1786448968,
      1786448981,
      1786449007,
      1786449013,
      1786449067,
      1786449094,
      1786449141,
      1786449154,
      1786449208,
      1786449212,
      1786449246,
      1786449283,
      1786449328,
      1786449355,
      1786449390,
      1786449434,
      1786449454,
      1786449491,
      1786449510,
      1786449533,
      1786449563,
      1786449581,
      1786449606,
      1786449648,
      1786449664,
      1786449693,
      1786449740,
      1786449755,
      1786449806,
      1786449823,
      1786449851,
      1786449887,
      1786449955,
      1786449979,
      1786449994,
      1786450026,
      1786450068,
      1786450092,
      1786450111,
      1786450162,
      1786450193,
      1786450212,
      1786450235,
      1786450266,
      1786450297
    ],
    "wof:geomhash": "f38f249ab3c040be4aa0e4f806561776",
    "wof:id": 2047928521,
    "wof:repo": "sfomuseum-data-flights-2026-08"
  },
  "bbox": [
    -122.76577,
    37.40121,
    -122.10032,
    38.51017
  ],
  "geometry": {"type":"LineString","coordinates":[[-122.75836,38.51017],[-122.75932,38.4866],[-122.76037,38.43752],[-122.7605,38.42774],[-122.76402,38.33027],[-122.76577,38.28203],[-122.76012,38.1998],[-122.75378,38.17802],[-122.72786,38.08787],[-122.72595,38.08126],[-122.71011,38.02625],[-122.69285,37.96709],[-122.66641,37.8969],[-122.63365,37.8623],[-122.58826,37.81904],[-122.53343,37.76718],[-122.50836,37.7437],[-122.46821,37.70595],[-122.44903,37.68793],[-122.42737,37.66744],[-122.39978,37.6415],[-122.38252,37.62521],[-122.36182,37.60352],[-122.33902,37.55986],[-122.32898,37.5439],[-122.31117,37.51441],[-122.29982,37.46526],[-122.30079,37.4489],[-122.27553,37.40244],[-122.25239,37.40121],[-122.21431,37.40524],[-122.16408,37.41045],[-122.10359,37.45864],[-122.10032,37.48323],[-122.10564,37.49772],[-122.1171,37.52743],[-122.15324,37.54549],[-122.17731,37.54967],[-122.19593,37.55113],[-122.24366,37.56403],[-122.27009,37.57471],[-122.28492,37.58091],[-122.30305,37.58826],[-122.32656,37.59819],[-122.3509,37.60847]]}
}
