{
  "id": 2047931287,
  "type": "Feature",
  "properties": {
    "geom:area": 0,
    "geom:bbox": "-122.559444,32.693333,-116.965833,37.668056",
    "geom:latitude": 34.98782319093583,
    "geom:longitude": -119.9607549327962,
    "src:alt_label": "swim-path",
    "src:geom": "swim",
    "swim:altitudes": [
      "006",
      "027",
      "047",
      "077",
      "112",
      "134",
      "171",
      "195",
      "200",
      "224",
      "228",
      "250",
      "267",
      "291",
      "312",
      "331",
      "335",
      "353",
      "370C",
      "370C",
      "370C",
      "370C",
      "370C",
      "370C",
      "370C",
      "370C",
      "370C",
      "370C",
      "370C",
      "370C",
      "370C",
      "370C",
      "370C",
      "370C",
      "370C",
      "370C",
      "370C",
      "370C",
      "370C",
      "370C",
      "370C",
      "370C",
      "370C",
      "370C",
      "370C",
      "370C",
      "370C",
      "370C",
      "370C",
      "370C",
      "370C",
      "370C",
      "370C",
      "370C",
      "370C",
      "370C",
      "370C",
      "367",
      "357",
      "347",
      "333",
      "296",
      "268",
      "256",
      "240",
      "212",
      "185",
      "162",
      "158",
      "135",
      "131",
      "111",
      "110",
      "101",
      "100",
      "092",
      "082",
      "081",
      "062",
      "061",
      "056",
      "056",
      "049",
      "048",
      "040",
      "029",
      "021",
      "020",
      "010",
      "001"
    ],
    "swim:geom": "path",
    "swim:speeds": [
      144,
      206,
      258,
      279,
      295,
      363,
      391,
      402,
      403,
      417,
      420,
      438,
      450,
      462,
      469,
      466,
      464,
      457,
      445,
      437,
      435,
      434,
      434,
      433,
      433,
      433,
      434,
      434,
      439,
      445,
      446,
      448,
      448,
      450,
      452,
      452,
      454,
      454,
      455,
      455,
      446,
      443,
      437,
      437,
      435,
      434,
      434,
      433,
      433,
      432,
      432,
      431,
      430,
      431,
      437,
      447,
      450,
      452,
      456,
      463,
      465,
      465,
      458,
      445,
      442,
      426,
      412,
      397,
      399,
      383,
      386,
      371,
      373,
      323,
      321,
      282,
      271,
      274,
      201,
      205,
      201,
      203,
      199,
      201,
      194,
      189,
      180,
      184,
      152,
      135
    ],
    "swim:timestamps": [
      1786505090,
      1786505150,
      1786505210,
      1786505270,
      1786505330,
      1786505390,
      1786505460,
      1786505510,
      1786505520,
      1786505571,
      1786505580,
      1786505640,
      1786505691,
      1786505761,
      1786505821,
      1786505871,
      1786505881,
      1786505931,
      1786505991,
      1786506171,
      1786506241,
      1786506291,
      1786506301,
      1786506361,
      1786506411,
      1786506421,
      1786506471,
      1786506482,
      1786506542,
      1786506592,
      1786506602,
      1786506652,
      1786506662,
      1786506722,
      1786506772,
      1786506782,
      1786506832,
      1786506842,
      1786506892,
      1786506902,
      1786506952,
      1786506962,
      1786507012,
      1786507022,
      1786507082,
      1786507132,
      1786507142,
      1786507192,
      1786507252,
      1786507323,
      1786507383,
      1786507443,
      1786507503,
      1786507563,
      1786507623,
      1786507683,
      1786507743,
      1786507803,
      1786507864,
      1786507924,
      1786507984,
      1786508044,
      1786508104,
      1786508126,
      1786508164,
      1786508224,
      1786508284,
      1786508333,
      1786508344,
      1786508393,
      1786508404,
      1786508453,
      1786508464,
      1786508513,
      1786508524,
      1786508584,
      1786508633,
      1786508645,
      1786508753,
      1786508765,
      1786508813,
      1786508825,
      1786508874,
      1786508885,
      1786508934,
      1786509005,
      1786509052,
      1786509065,
      1786509125,
      1786509185
    ],
    "wof:geomhash": "4f4ed78e2abec95e8b58bfab60bb779e",
    "wof:id": 2047931287,
    "wof:repo": "sfomuseum-data-flights-2026-08"
  },
  "bbox": [
    -122.55944444444444,
    32.69333333333333,
    -116.96583333333334,
    37.668055555555554
  ],
  "geometry": {"type":"LineString","coordinates":[[-122.38333333333334,37.6225],[-122.44,37.64666666666667],[-122.51611111111112,37.668055555555554],[-122.5475,37.60138888888889],[-122.55027777777778,37.52111111111111],[-122.55305555555556,37.4225],[-122.55666666666666,37.28777777777778],[-122.55888888888889,37.20333333333333],[-122.55944444444444,37.1825],[-122.52111111111111,37.096111111111114],[-122.50416666666666,37.078611111111115],[-122.41305555555556,36.98222222222223],[-122.33666666666666,36.900555555555556],[-122.22277777777778,36.77861111111111],[-122.12527777777777,36.674166666666665],[-122.04638888888888,36.589444444444446],[-122.02833333333334,36.57],[-121.95333333333333,36.48916666666667],[-121.86166666666666,36.38972222222222],[-121.59222222222222,36.095555555555556],[-121.48805555555556,35.981388888888894],[-121.41666666666667,35.902499999999996],[-121.40083333333334,35.885],[-121.31361111111111,35.788333333333334],[-121.24111111111111,35.70805555555556],[-121.22611111111111,35.69138888888889],[-121.13722222222223,35.5925],[-121.13166666666666,35.586666666666666],[-121.03138888888888,35.49472222222222],[-120.91666666666667,35.42805555555555],[-120.90861111111111,35.42333333333333],[-120.7911111111111,35.35472222222222],[-120.78222222222222,35.349722222222226],[-120.6575,35.276944444444446],[-120.54472222222222,35.211111111111116],[-120.53055555555555,35.20277777777778],[-120.41972222222223,35.13722222222222],[-120.40361111111112,35.12777777777778],[-120.2975,35.06527777777777],[-120.27638888888889,35.05277777777778],[-120.17305555555556,34.99166666666667],[-120.15472222222223,34.98083333333334],[-120.05611111111111,34.92222222222222],[-120.03472222222221,34.909444444444446],[-119.91694444444445,34.83916666666667],[-119.82055555555556,34.78138888888889],[-119.79833333333333,34.768055555555556],[-119.70166666666667,34.71],[-119.585,34.63972222222222],[-119.45472222222223,34.56111111111111],[-119.33749999999999,34.49],[-119.22111111111111,34.41916666666666],[-119.10444444444444,34.34805555555556],[-118.9888888888889,34.27722222222222],[-118.87138888888889,34.205000000000005],[-118.75055555555555,34.13055555555555],[-118.6275,34.05444444444444],[-118.50555555555556,33.978611111111114],[-118.38555555555556,33.89722222222222],[-118.26861111111111,33.80694444444444],[-118.15111111111112,33.71666666666667],[-118.03583333333333,33.62888888888889],[-117.92333333333333,33.5425],[-117.88333333333334,33.5],[-117.82055555555556,33.45333333333333],[-117.72555555555556,33.36555555555556],[-117.63333333333334,33.278888888888886],[-117.55,33.2],[-117.545,33.19555555555555],[-117.46666666666667,33.13333333333333],[-117.46444444444445,33.11388888888889],[-117.4,33.03333333333333],[-117.39611111111111,33.032222222222224],[-117.33333333333333,32.96666666666667],[-117.33222222222221,32.95611111111111],[-117.2775,32.89055555555556],[-117.23333333333333,32.833333333333336],[-117.22638888888889,32.82888888888889],[-117.1,32.78333333333333],[-117.08972222222222,32.78444444444444],[-117.03333333333333,32.766666666666666],[-117.02583333333334,32.769444444444446],[-116.96666666666667,32.75],[-116.96583333333334,32.74916666666667],[-116.96666666666667,32.7],[-117.02388888888889,32.69333333333333],[-117.08333333333333,32.7],[-117.08194444444445,32.7075],[-117.13333333333334,32.719722222222224],[-117.17527777777778,32.730000000000004]]}
}
