{
  "id": 2048049655,
  "type": "Feature",
  "properties": {
    "geom:area": 0,
    "geom:bbox": "-122.360500,37.491390,-121.255440,37.615220",
    "geom:latitude": 37.551093306424505,
    "geom:longitude": -121.81134817109539,
    "src:alt_label": "swim-approach",
    "src:geom": "swim",
    "swim:elevations": [
      4547,
      4387,
      4344,
      3999,
      3939,
      3559,
      3422,
      3351,
      3322,
      3107,
      3048,
      3011,
      2801,
      2734,
      2608,
      2242,
      2160,
      2043,
      1895,
      1831,
      1578,
      1331,
      1220,
      1206,
      1010,
      880,
      820,
      689,
      445,
      355,
      241,
      107,
      0
    ],
    "swim:geom": "approach",
    "swim:timestamps": [
      1787081217,
      1787081247,
      1787081256,
      1787081305,
      1787081316,
      1787081364,
      1787081391,
      1787081415,
      1787081444,
      1787081486,
      1787081503,
      1787081528,
      1787081564,
      1787081572,
      1787081587,
      1787081636,
      1787081653,
      1787081678,
      1787081720,
      1787081740,
      1787081780,
      1787081815,
      1787081840,
      1787081859,
      1787081894,
      1787081936,
      1787081945,
      1787081973,
      1787082020,
      1787082046,
      1787082072,
      1787082108,
      1787082139
    ],
    "wof:geomhash": "e3e0bf1dcd7afa71854321f9882c4e3d",
    "wof:id": 2048049655,
    "wof:repo": "sfomuseum-data-flights-2026-08"
  },
  "bbox": [
    -122.3605,
    37.49139,
    -121.25544,
    37.61522
  ],
  "geometry": {"type":"LineString","coordinates":[[-121.25544,37.59376],[-121.30952,37.58709],[-121.32529,37.58538],[-121.40727,37.57617],[-121.42482,37.57412],[-121.50166,37.56522],[-121.54464,37.5602],[-121.57994,37.55841],[-121.62375,37.56695],[-121.68333,37.58043],[-121.70717,37.58156],[-121.7352,37.56537],[-121.75667,37.52894],[-121.76359,37.5215],[-121.77965,37.51121],[-121.84568,37.49635],[-121.86919,37.49226],[-121.90277,37.49139],[-121.95934,37.49316],[-121.98345,37.49473],[-122.02756,37.50741],[-122.06565,37.51992],[-122.09289,37.52877],[-122.11197,37.53499],[-122.14774,37.54666],[-122.18949,37.56016],[-122.19895,37.56327],[-122.22652,37.57211],[-122.27309,37.58654],[-122.29452,37.59278],[-122.31379,37.59799],[-122.34034,37.60631],[-122.3605,37.61522]]}
}
