{
  "id": 2032077815,
  "type": "Feature",
  "properties": {
    "date:cessation_lower": "2026-08-02",
    "date:cessation_upper": "2026-08-02",
    "date:inception_lower": "2026-08-02",
    "date:inception_upper": "2026-08-02",
    "edtf:cessation": "2026-08-02T23:29:48Z",
    "edtf:inception": "2026-08-02T18:55:00Z",
    "flysfo:actual_timestamp": -1,
    "flysfo:airline": "UA",
    "flysfo:date": "2026-08-02",
    "flysfo:estimated_timestamp": 1785694380,
    "flysfo:event": "D",
    "flysfo:flight_number": "UA3877",
    "flysfo:gate": "",
    "flysfo:journey": "SFO-IAD",
    "flysfo:scheduled_timestamp": 1785690900,
    "flysfo:timestamp": 1785694380,
    "geom:area": 0,
    "geom:bbox": "-122.370943,37.617990,-77.453702,38.949246",
    "geom:latitude": 38.283618000000004,
    "geom:longitude": -99.9123225,
    "iata:airline": "UA",
    "icao:aircraft": "B763",
    "icao:airline": "UAL",
    "lbl:latitude": 37.61799,
    "lbl:longitude": -122.370943,
    "sfomuseum:aircraft_id": 1159289965,
    "sfomuseum:airline_id": 1159285413,
    "sfomuseum:arrival_id": 102528817,
    "sfomuseum:departure_id": 102527513,
    "sfomuseum:flight_id": "20260802-D-UAL-3877",
    "sfomuseum:flight_number": [
      "UAL3877",
      "UA3877"
    ],
    "sfomuseum:placetype": "flight",
    "src:geom": "flysfo",
    "src:geom_alt": [
      "swim-path",
      "swim-takeoff"
    ],
    "swim:tail_number": "N664UA",
    "wof:belongsto": [],
    "wof:concordances": {
      "swim:flight_ref": "153596348"
    },
    "wof:country": "US",
    "wof:created": 1785773836,
    "wof:geomhash": "1c4ce661f6692034a082b31062a17f5e",
    "wof:hierarchy": [
      {
        "custom_id": 2032077815,
        "flight_id": 2032077815
      }
    ],
    "wof:id": 2032077815,
    "wof:involves": [
      102528817,
      102527513,
      1159285413,
      1159289965
    ],
    "wof:lastmodified": 1785773962,
    "wof:name": "UA3877 (SFO-IAD)",
    "wof:parent_id": -1,
    "wof:placetype": "custom",
    "wof:placetype_alt": [
      "flight"
    ],
    "wof:repo": "sfomuseum-data-flights-2026-08",
    "wof:superseded_by": [],
    "wof:supersedes": []
  },
  "bbox": [
    -122.370943,
    37.61799,
    -77.453702,
    38.949246
  ],
  "geometry": {"coordinates":[[-122.370943,37.61799],[-77.453702,38.949246]],"type":"MultiPoint"}
}
