{
  "id": 2047960073,
  "type": "Feature",
  "properties": {
    "geom:area": 0,
    "geom:bbox": "-122.719444,37.479722,-122.398889,37.693611",
    "geom:latitude": 37.63395666601943,
    "geom:longitude": -122.60681794661598,
    "src:alt_label": "swim-path",
    "src:geom": "swim",
    "swim:altitudes": [
      "007",
      "009",
      "036",
      "054",
      "088",
      "118",
      "136",
      "136",
      "158"
    ],
    "swim:geom": "path",
    "swim:speeds": [
      171,
      170,
      185,
      256,
      275,
      286,
      313,
      329,
      347
    ],
    "swim:timestamps": [
      1786665924,
      1786665938,
      1786665998,
      1786666058,
      1786666118,
      1786666178,
      1786666232,
      1786666238,
      1786666292
    ],
    "wof:geomhash": "033089beacbb439640b64fdcac06b842",
    "wof:id": 2047960073,
    "wof:repo": "sfomuseum-data-flights-2026-08"
  },
  "bbox": [
    -122.71944444444445,
    37.47972222222222,
    -122.39888888888889,
    37.69361111111111
  ],
  "geometry": {"type":"LineString","coordinates":[[-122.4,37.63333333333333],[-122.39888888888889,37.62916666666667],[-122.45472222222223,37.65333333333333],[-122.52722222222222,37.68111111111111],[-122.61777777777777,37.69361111111111],[-122.705,37.659444444444446],[-122.71944444444445,37.581388888888895],[-122.71666666666667,37.57916666666667],[-122.69583333333334,37.47972222222222]]}
}
