{
  "id": 2032102211,
  "type": "Feature",
  "properties": {
    "geom:area": 0,
    "geom:bbox": "-122.359560,37.443760,-121.246120,37.614360",
    "geom:latitude": 37.5333869822095,
    "geom:longitude": -121.81039695759023,
    "src:alt_label": "swim-approach",
    "src:geom": "swim",
    "swim:elevations": [
      4642,
      4622,
      4454,
      4422,
      4233,
      4064,
      3770,
      3597,
      3483,
      3383,
      3236,
      3124,
      3047,
      3048,
      2978,
      2802,
      2643,
      2465,
      2450,
      2371,
      2186,
      1990,
      1926,
      1853,
      1558,
      1281,
      1189,
      1057,
      820,
      764,
      663,
      612,
      429,
      262,
      225,
      122,
      38,
      0
    ],
    "swim:geom": "approach",
    "swim:timestamps": [
      1785880496,
      1785880500,
      1785880524,
      1785880527,
      1785880551,
      1785880575,
      1785880612,
      1785880643,
      1785880678,
      1785880700,
      1785880734,
      1785880758,
      1785880794,
      1785880802,
      1785880820,
      1785880853,
      1785880882,
      1785880916,
      1785880927,
      1785880973,
      1785881005,
      1785881038,
      1785881045,
      1785881054,
      1785881090,
      1785881124,
      1785881147,
      1785881167,
      1785881212,
      1785881226,
      1785881248,
      1785881255,
      1785881294,
      1785881333,
      1785881342,
      1785881372,
      1785881396,
      1785881402
    ],
    "wof:geomhash": "44bcfcfb39dba40de4d39039d0da45e8",
    "wof:id": 2032102211,
    "wof:repo": "sfomuseum-data-flights-2026-08"
  },
  "bbox": [
    -122.35956,
    37.44376,
    -121.24612,
    37.61436
  ],
  "geometry": {"type":"LineString","coordinates":[[-121.24612,37.59519],[-121.25213,37.59438],[-121.29651,37.58851],[-121.30204,37.58787],[-121.34647,37.58305],[-121.38997,37.57822],[-121.45814,37.57032],[-121.51227,37.56402],[-121.56971,37.55752],[-121.6031,37.5535],[-121.6536,37.55704],[-121.68769,37.56415],[-121.73666,37.55621],[-121.74339,37.54878],[-121.75487,37.52983],[-121.7744,37.49546],[-121.79152,37.46607],[-121.83399,37.44928],[-121.84869,37.44826],[-121.91419,37.44376],[-121.95831,37.44691],[-122.00108,37.46328],[-122.00835,37.46635],[-122.01921,37.47093],[-122.0636,37.48976],[-122.10606,37.50764],[-122.13329,37.51924],[-122.156,37.52877],[-122.20236,37.54841],[-122.21586,37.5541],[-122.23723,37.56313],[-122.24415,37.56604],[-122.28131,37.58162],[-122.31179,37.59454],[-122.31793,37.59706],[-122.33874,37.60574],[-122.3551,37.61265],[-122.35956,37.61436]]}
}
