{
  "id": 2047898705,
  "type": "Feature",
  "properties": {
    "geom:area": 0,
    "geom:bbox": "-122.843780,37.523950,-122.079620,38.485670",
    "geom:latitude": 37.92520126763751,
    "geom:longitude": -122.54229375709488,
    "src:alt_label": "swim-approach",
    "src:geom": "swim",
    "swim:elevations": [
      7590,
      7357,
      7177,
      6948,
      6644,
      6554,
      5781,
      5408,
      5282,
      4962,
      4581,
      4457,
      4325,
      3892,
      3584,
      3394,
      3323,
      3351,
      3353,
      3353,
      3036,
      2977,
      2923,
      2852,
      2750,
      2435,
      1881,
      1846,
      1647,
      1448,
      1403,
      955
    ],
    "swim:geom": "approach",
    "swim:timestamps": [
      1786289183,
      1786289204,
      1786289222,
      1786289244,
      1786289273,
      1786289285,
      1786289364,
      1786289398,
      1786289410,
      1786289445,
      1786289486,
      1786289500,
      1786289535,
      1786289566,
      1786289597,
      1786289632,
      1786289657,
      1786289672,
      1786289722,
      1786289733,
      1786289786,
      1786289794,
      1786289798,
      1786289813,
      1786289836,
      1786289882,
      1786289937,
      1786289940,
      1786289961,
      1786289999,
      1786290006,
      1786290057
    ],
    "wof:geomhash": "303fc982061f027174cb7e3e76f3f45c",
    "wof:id": 2047898705,
    "wof:repo": "sfomuseum-data-flights-2026-08"
  },
  "bbox": [
    -122.84378,
    37.52395,
    -122.07962,
    38.48567
  ],
  "geometry": {"type":"LineString","coordinates":[[-122.84378,38.48567],[-122.83201,38.44537],[-122.82265,38.41383],[-122.81071,38.37319],[-122.79526,38.32026],[-122.78942,38.30047],[-122.74931,38.16322],[-122.73273,38.10621],[-122.72656,38.08489],[-122.70994,38.02739],[-122.69093,37.9617],[-122.68419,37.9385],[-122.65992,37.88741],[-122.62072,37.8499],[-122.58023,37.81209],[-122.53614,37.77056],[-122.50596,37.74218],[-122.48705,37.72693],[-122.41007,37.70442],[-122.39394,37.70032],[-122.31622,37.68036],[-122.30578,37.67771],[-122.29903,37.67598],[-122.27835,37.6707],[-122.24588,37.66221],[-122.18905,37.64738],[-122.13306,37.61661],[-122.13036,37.6146],[-122.11095,37.60047],[-122.08115,37.57377],[-122.07962,37.56651],[-122.09786,37.52395]]}
}
