{
  "id": 2032130939,
  "type": "Feature",
  "properties": {
    "geom:area": 0,
    "geom:bbox": "-122.354920,37.491580,-121.259490,37.612550",
    "geom:latitude": 37.54283930195707,
    "geom:longitude": -121.8139074359149,
    "src:alt_label": "swim-approach",
    "src:geom": "swim",
    "swim:elevations": [
      4587,
      4511,
      4393,
      4141,
      3844,
      3732,
      3553,
      3382,
      3279,
      3178,
      3132,
      3054,
      2973,
      2881,
      2513,
      2312,
      2134,
      2134,
      2119,
      2071,
      2050,
      2038,
      2005,
      1889,
      1867,
      1129,
      1057,
      908,
      825,
      585,
      489,
      292,
      221,
      154,
      25
    ],
    "swim:geom": "approach",
    "swim:timestamps": [
      1786005400,
      1786005408,
      1786005420,
      1786005456,
      1786005497,
      1786005513,
      1786005539,
      1786005562,
      1786005590,
      1786005620,
      1786005631,
      1786005656,
      1786005679,
      1786005692,
      1786005740,
      1786005759,
      1786005802,
      1786005805,
      1786005808,
      1786005817,
      1786005823,
      1786005828,
      1786005837,
      1786005863,
      1786005868,
      1786005976,
      1786006005,
      1786006040,
      1786006052,
      1786006093,
      1786006121,
      1786006163,
      1786006182,
      1786006201,
      1786006235
    ],
    "wof:geomhash": "1691a5ef77d54c14c21e71a71a01dc56",
    "wof:id": 2032130939,
    "wof:repo": "sfomuseum-data-flights-2026-08"
  },
  "bbox": [
    -122.35492,
    37.49158,
    -121.25949,
    37.61255
  ],
  "geometry": {"type":"LineString","coordinates":[[-121.25949,37.59335],[-121.27353,37.59147],[-121.29363,37.58897],[-121.35772,37.58182],[-121.42918,37.57375],[-121.45721,37.57056],[-121.50178,37.56533],[-121.54287,37.56059],[-121.58964,37.55521],[-121.63713,37.54808],[-121.6537,37.54404],[-121.68864,37.53569],[-121.721,37.52793],[-121.73813,37.52389],[-121.7993,37.50941],[-121.82446,37.50335],[-121.88083,37.49158],[-121.88508,37.49172],[-121.88933,37.49196],[-121.90278,37.49283],[-121.91084,37.49336],[-121.91795,37.4938],[-121.9306,37.49446],[-121.96723,37.49635],[-121.97389,37.49673],[-122.11689,37.51275],[-122.1508,37.52664],[-122.1906,37.54345],[-122.20373,37.54905],[-122.24566,37.56676],[-122.27225,37.5779],[-122.3058,37.59198],[-122.31908,37.59751],[-122.33192,37.60304],[-122.35492,37.61255]]}
}
