{
  "id": 2047989549,
  "type": "Feature",
  "properties": {
    "geom:area": 0,
    "geom:bbox": "-122.356220,36.729900,-121.884500,37.610740",
    "geom:latitude": 37.22732333282687,
    "geom:longitude": -122.06546240685852,
    "src:alt_label": "swim-approach",
    "src:geom": "swim",
    "swim:elevations": [
      4696,
      4374,
      4138,
      3952,
      3814,
      3780,
      3657,
      3481,
      3119,
      3020,
      2778,
      2581,
      2351,
      2107,
      1899,
      1829,
      1829,
      1829,
      1747,
      1613,
      1554,
      1358,
      1147,
      981,
      721,
      605,
      505,
      366,
      268,
      227,
      128,
      29
    ],
    "swim:geom": "approach",
    "swim:timestamps": [
      1786899882,
      1786899918,
      1786899952,
      1786899979,
      1786900016,
      1786900027,
      1786900056,
      1786900090,
      1786900137,
      1786900152,
      1786900186,
      1786900212,
      1786900248,
      1786900282,
      1786900318,
      1786900338,
      1786900378,
      1786900398,
      1786900436,
      1786900460,
      1786900472,
      1786900515,
      1786900553,
      1786900571,
      1786900613,
      1786900639,
      1786900664,
      1786900698,
      1786900722,
      1786900738,
      1786900763,
      1786900789
    ],
    "wof:geomhash": "96f779a6440ab28509f5bbc8d76242b1",
    "wof:id": 2047989549,
    "wof:repo": "sfomuseum-data-flights-2026-08"
  },
  "bbox": [
    -122.35622,
    36.7299,
    -121.8845,
    37.61074
  ],
  "geometry": {"type":"LineString","coordinates":[[-121.8845,36.7299],[-121.90633,36.78737],[-121.92197,36.84271],[-121.93353,36.88368],[-121.94865,36.9387],[-121.95353,36.95425],[-121.96867,36.99256],[-121.98506,37.03433],[-122.00747,37.09229],[-122.01458,37.11032],[-122.0307,37.15115],[-122.04259,37.1818],[-122.0592,37.22417],[-122.07456,37.26361],[-122.09117,37.30572],[-122.10037,37.32908],[-122.09656,37.3738],[-122.08517,37.39554],[-122.07516,37.43647],[-122.08384,37.46126],[-122.08864,37.47428],[-122.11545,37.50895],[-122.15367,37.52571],[-122.17189,37.5333],[-122.21172,37.55001],[-122.23692,37.5607],[-122.25814,37.56961],[-122.28526,37.58115],[-122.30404,37.58892],[-122.31661,37.59425],[-122.33597,37.60236],[-122.35622,37.61074]]}
}
