{
  "id": 2047997593,
  "type": "Feature",
  "properties": {
    "geom:area": 0,
    "geom:bbox": "-122.543680,36.725620,-121.565600,37.669140",
    "geom:latitude": 37.22211665409973,
    "geom:longitude": -122.12475077545054,
    "src:alt_label": "swim-takeoff",
    "src:geom": "swim",
    "swim:elevations": [
      183,
      358,
      1003,
      1430,
      1599,
      2110,
      2599,
      3282,
      3426,
      3868,
      4190,
      4482,
      5147,
      5238,
      5728,
      5939,
      6035,
      6470,
      6955,
      7156,
      7295,
      7805,
      7890,
      8078,
      8654,
      8960,
      9144,
      9141
    ],
    "swim:geom": "takeoff",
    "swim:timestamps": [
      1786905102,
      1786905120,
      1786905161,
      1786905203,
      1786905216,
      1786905251,
      1786905281,
      1786905327,
      1786905355,
      1786905388,
      1786905409,
      1786905428,
      1786905475,
      1786905483,
      1786905528,
      1786905568,
      1786905576,
      1786905614,
      1786905657,
      1786905678,
      1786905693,
      1786905747,
      1786905763,
      1786905783,
      1786905852,
      1786905889,
      1786905927,
      1786905930
    ],
    "wof:geomhash": "821e7c5ae9e2f0631ae7f8be191cf3f2",
    "wof:id": 2047997593,
    "wof:repo": "sfomuseum-data-flights-2026-08"
  },
  "bbox": [
    -122.54368,
    36.72562,
    -121.5656,
    37.66914
  ],
  "geometry": {"type":"LineString","coordinates":[[-122.38406,37.62244],[-122.39917,37.62875],[-122.43832,37.64528],[-122.48485,37.66613],[-122.5041,37.66914],[-122.54368,37.64497],[-122.53771,37.60807],[-122.50766,37.55141],[-122.4865,37.51228],[-122.4494,37.46913],[-122.41877,37.44359],[-122.39082,37.42024],[-122.32253,37.36379],[-122.31021,37.35355],[-122.24273,37.29762],[-122.18037,37.24561],[-122.16756,37.23494],[-122.10663,37.18415],[-122.03719,37.12612],[-122.0037,37.09797],[-121.97809,37.07657],[-121.88686,36.99941],[-121.85899,36.97704],[-121.824,36.94762],[-121.70311,36.84375],[-121.63907,36.78883],[-121.57102,36.73049],[-121.5656,36.72562]]}
}
