{
  "id": 2047872651,
  "type": "Feature",
  "properties": {
    "geom:area": 0,
    "geom:bbox": "-123.797222,37.416389,-122.083333,49.158889",
    "geom:latitude": 43.245188090684586,
    "geom:longitude": -123.19838556568656,
    "src:alt_label": "swim-path",
    "src:geom": "swim",
    "swim:altitudes": [
      "028",
      "043",
      "065",
      "070",
      "081",
      "104",
      "114",
      "154",
      "173",
      "187",
      "203",
      "216",
      "230",
      "237",
      "245",
      "254",
      "260",
      "267",
      "276",
      "286",
      "295",
      "304",
      "316",
      "325",
      "334",
      "342",
      "348C",
      "350C",
      "350C",
      "350C",
      "350C",
      "350C",
      "350C",
      "350C",
      "350C",
      "350C",
      "350C",
      "350C",
      "350C",
      "350C",
      "350C",
      "350C",
      "350C",
      "350C",
      "350C",
      "350C",
      "350C",
      "350C",
      "350C",
      "350C",
      "350C",
      "350C",
      "350C",
      "350C",
      "350C",
      "350C",
      "350C",
      "350C",
      "350C",
      "350C",
      "350C",
      "350C",
      "350C",
      "350C",
      "350C",
      "350",
      "345",
      "341",
      "335",
      "330C",
      "330C",
      "330C",
      "330C",
      "330C",
      "330C",
      "330C",
      "330C",
      "330C",
      "330C",
      "330C",
      "330C",
      "330C",
      "330C",
      "330C",
      "330C",
      "330C",
      "330C",
      "330C",
      "330C",
      "330C",
      "330C",
      "330C",
      "330C",
      "330C",
      "330C",
      "330C",
      "330C",
      "330C",
      "330C",
      "330C",
      "330C",
      "329C",
      "330C",
      "330C",
      "330C",
      "330C",
      "330C",
      "330C",
      "330C",
      "330C",
      "330C",
      "330C",
      "330C",
      "330",
      "330",
      "330",
      "330",
      "330",
      "330",
      "328",
      "313",
      "293",
      "271",
      "256",
      "234",
      "217",
      "209",
      "201",
      "185",
      "171",
      "169",
      "157",
      "155",
      "142",
      "126",
      "113",
      "108",
      "093",
      "074",
      "060",
      "060",
      "060",
      "060",
      "059",
      "050",
      "050",
      "050",
      "049",
      "036",
      "035",
      "021",
      "012",
      "005"
    ],
    "swim:geom": "path",
    "swim:speeds": [
      213,
      277,
      278,
      278,
      278,
      282,
      339,
      361,
      358,
      359,
      363,
      387,
      389,
      400,
      413,
      415,
      421,
      429,
      437,
      445,
      451,
      455,
      455,
      447,
      445,
      443,
      443,
      444,
      443,
      441,
      439,
      439,
      439,
      439,
      439,
      439,
      440,
      440,
      441,
      440,
      438,
      437,
      437,
      435,
      435,
      435,
      434,
      433,
      433,
      433,
      434,
      434,
      434,
      436,
      437,
      438,
      437,
      435,
      435,
      434,
      433,
      433,
      430,
      429,
      428,
      428,
      428,
      428,
      428,
      428,
      429,
      429,
      429,
      429,
      428,
      428,
      428,
      429,
      429,
      429,
      432,
      433,
      434,
      435,
      435,
      435,
      434,
      434,
      434,
      434,
      433,
      433,
      432,
      431,
      429,
      428,
      428,
      428,
      428,
      429,
      430,
      431,
      432,
      433,
      434,
      435,
      435,
      435,
      434,
      434,
      432,
      432,
      431,
      433,
      433,
      434,
      434,
      433,
      431,
      443,
      445,
      440,
      429,
      420,
      408,
      391,
      374,
      364,
      353,
      340,
      344,
      331,
      335,
      341,
      325,
      305,
      255,
      251,
      241,
      239,
      240,
      241,
      237,
      241,
      225,
      229,
      193,
      197,
      192,
      195,
      192,
      152,
      136
    ],
    "swim:timestamps": [
      1786115872,
      1786115932,
      1786115992,
      1786116052,
      1786116112,
      1786116172,
      1786116232,
      1786116352,
      1786116412,
      1786116472,
      1786116533,
      1786116593,
      1786116653,
      1786116713,
      1786116773,
      1786116833,
      1786116893,
      1786116953,
      1786117013,
      1786117073,
      1786117133,
      1786117193,
      1786117253,
      1786117314,
      1786117374,
      1786117434,
      1786117494,
      1786117554,
      1786117614,
      1786117674,
      1786117734,
      1786117794,
      1786117854,
      1786117914,
      1786117974,
      1786118034,
      1786118094,
      1786118155,
      1786118215,
      1786118275,
      1786118335,
      1786118395,
      1786118455,
      1786118575,
      1786118635,
      1786118695,
      1786118755,
      1786118815,
      1786118875,
      1786118935,
      1786118996,
      1786119056,
      1786119116,
      1786119176,
      1786119236,
      1786119263,
      1786119296,
      1786119323,
      1786119356,
      1786119383,
      1786119416,
      1786119443,
      1786119476,
      1786119504,
      1786119536,
      1786119564,
      1786119596,
      1786119624,
      1786119656,
      1786119684,
      1786119717,
      1786119744,
      1786119777,
      1786119804,
      1786119837,
      1786119864,
      1786119897,
      1786119924,
      1786119957,
      1786119984,
      1786120017,
      1786120044,
      1786120077,
      1786120104,
      1786120137,
      1786120165,
      1786120197,
      1786120225,
      1786120257,
      1786120285,
      1786120317,
      1786120345,
      1786120377,
      1786120405,
      1786120437,
      1786120465,
      1786120498,
      1786120525,
      1786120558,
      1786120585,
      1786120618,
      1786120645,
      1786120678,
      1786120705,
      1786120738,
      1786120765,
      1786120798,
      1786120825,
      1786120858,
      1786120886,
      1786120918,
      1786120946,
      1786120978,
      1786121038,
      1786121066,
      1786121098,
      1786121126,
      1786121186,
      1786121246,
      1786121306,
      1786121366,
      1786121426,
      1786121486,
      1786121546,
      1786121607,
      1786121667,
      1786121694,
      1786121724,
      1786121787,
      1786121839,
      1786121847,
      1786121899,
      1786121907,
      1786121958,
      1786122027,
      1786122087,
      1786122147,
      1786122207,
      1786122264,
      1786122319,
      1786122388,
      1786122448,
      1786122499,
      1786122508,
      1786122559,
      1786122568,
      1786122619,
      1786122628,
      1786122679,
      1786122688,
      1786122748,
      1786122808,
      1786122859
    ],
    "wof:geomhash": "5a1fa179f6c569e7b983bf53a775ab89",
    "wof:id": 2047872651,
    "wof:repo": "sfomuseum-data-flights-2026-08"
  },
  "bbox": [
    -123.79722222222222,
    37.41638888888889,
    -122.08333333333333,
    49.15888888888889
  ],
  "geometry": {"type":"LineString","coordinates":[[-123.06722222222221,49.15888888888889],[-122.97444444444444,49.12388888888889],[-122.99388888888889,49.0575],[-123.10722222222222,49.022777777777776],[-123.22,48.99916666666667],[-123.33361111111111,48.980000000000004],[-123.44277777777778,48.93833333333333],[-123.4738888888889,48.74527777777778],[-123.51083333333334,48.64666666666667],[-123.63416666666667,48.59277777777778],[-123.76055555555556,48.538333333333334],[-123.79722222222222,48.442499999999995],[-123.765,48.33722222222222],[-123.73194444444445,48.228611111111114],[-123.69777777777779,48.11666666666667],[-123.66277777777778,48.00111111111111],[-123.62777777777777,47.885],[-123.59277777777777,47.76777777777777],[-123.55694444444444,47.6475],[-123.5213888888889,47.527499999999996],[-123.48472222222222,47.403888888888886],[-123.44861111111112,47.280833333333334],[-123.41305555555556,47.158055555555556],[-123.40611111111112,47.03527777777778],[-123.40194444444445,46.91222222222222],[-123.39805555555556,46.78916666666667],[-123.39416666666668,46.66777777777777],[-123.39027777777778,46.544444444444444],[-123.3863888888889,46.419999999999995],[-123.38305555555554,46.309444444444445],[-123.37916666666666,46.18666666666666],[-123.37555555555555,46.06666666666667],[-123.37194444444444,45.942499999999995],[-123.36805555555554,45.82138888888889],[-123.36444444444444,45.69972222222222],[-123.36055555555555,45.57611111111112],[-123.35694444444444,45.45388888888889],[-123.35333333333332,45.33083333333334],[-123.34972222222221,45.20916666666667],[-123.3461111111111,45.08583333333333],[-123.3425,44.963055555555556],[-123.33888888888889,44.839444444444446],[-123.33527777777778,44.715833333333336],[-123.32805555555555,44.47361111111111],[-123.32305555555556,44.35388888888889],[-123.31805555555555,44.23166666666667],[-123.31333333333333,44.11055555555556],[-123.30833333333334,43.985],[-123.30361111111111,43.86527777777778],[-123.29888888888888,43.743611111111115],[-123.29416666666667,43.62305555555555],[-123.28944444444444,43.50277777777778],[-123.28472222222221,43.3825],[-123.28,43.26],[-123.27527777777777,43.13805555555555],[-123.27111111111111,43.09277777777778],[-123.27083333333333,43.01722222222222],[-123.26861111111111,42.972500000000004],[-123.26611111111112,42.897777777777776],[-123.26277777777777,42.85305555555556],[-123.26138888888889,42.776666666666664],[-123.25972222222222,42.733333333333334],[-123.25722222222223,42.6625],[-123.25416666666666,42.61527777777778],[-123.25277777777778,42.54416666666666],[-123.25166666666667,42.49777777777778],[-123.24833333333333,42.42611111111111],[-123.24638888888889,42.37861111111111],[-123.24388888888889,42.306666666666665],[-123.24222222222222,42.25972222222222],[-123.23944444444444,42.189166666666665],[-123.23777777777778,42.14111111111111],[-123.23527777777778,42.07083333333334],[-123.23333333333333,42.02305555555555],[-123.23083333333334,41.950833333333335],[-123.22916666666667,41.903055555555554],[-123.22666666666667,41.833333333333336],[-123.22472222222223,41.78388888888889],[-123.22222222222223,41.71333333333334],[-123.22055555555556,41.66583333333333],[-123.21777777777778,41.594722222222224],[-123.21611111111112,41.545833333333334],[-123.21361111111112,41.47361111111111],[-123.21194444444444,41.425],[-123.20944444444444,41.348888888888894],[-123.20777777777778,41.29194444444444],[-123.2063888888889,41.22944444444445],[-123.20472222222223,41.171388888888885],[-123.20305555555557,41.10777777777778],[-123.20166666666667,41.05083333333333],[-123.20027777777779,40.98694444444445],[-123.19888888888889,40.93888888888888],[-123.19722222222222,40.86888888888889],[-123.19583333333334,40.819722222222225],[-123.19416666666667,40.749722222222225],[-123.19277777777778,40.69555555555555],[-123.19111111111111,40.63027777777778],[-123.19,40.57666666666667],[-123.18805555555556,40.50888888888889],[-123.18694444444445,40.45638888888889],[-123.185,40.388888888888886],[-123.18388888888889,40.33861111111111],[-123.18222222222222,40.266666666666666],[-123.18083333333334,40.215833333333336],[-123.17916666666667,40.144999999999996],[-123.17805555555556,40.09722222222222],[-123.17611111111111,40.02305555555555],[-123.17500000000001,39.976111111111116],[-123.17194444444445,39.903055555555554],[-123.16972222222223,39.856944444444444],[-123.16638888888889,39.78388888888889],[-123.16444444444446,39.738055555555555],[-123.16083333333334,39.663888888888884],[-123.15527777777778,39.54222222222222],[-123.15333333333334,39.49805555555556],[-123.14972222222222,39.421388888888885],[-123.14777777777779,39.379444444444445],[-123.14250000000001,39.26083333333333],[-123.13694444444445,39.14083333333333],[-123.08444444444444,39.029444444444444],[-122.99833333333333,38.92305555555555],[-122.94055555555556,38.81166666666666],[-122.89916666666667,38.67222222222222],[-122.87222222222222,38.580555555555556],[-122.83277777777778,38.446666666666665],[-122.80138888888888,38.34027777777778],[-122.78333333333333,38.3],[-122.76666666666667,38.25],[-122.74472222222222,38.14555555555555],[-122.71666666666667,38.06666666666667],[-122.71777777777778,38.05305555555555],[-122.7,37.96666666666667],[-122.69194444444445,37.96388888888889],[-122.66666666666667,37.88333333333333],[-122.58083333333333,37.81222222222222],[-122.5125,37.7475],[-122.45083333333334,37.689722222222215],[-122.39416666666668,37.63638888888889],[-122.35,37.583333333333336],[-122.31666666666666,37.516666666666666],[-122.27722222222222,37.459722222222226],[-122.2075,37.42722222222222],[-122.13333333333334,37.416666666666664],[-122.12583333333333,37.41638888888889],[-122.08333333333333,37.46666666666667],[-122.08416666666666,37.47138888888889],[-122.11666666666666,37.516666666666666],[-122.12333333333332,37.51222222222222],[-122.18333333333334,37.53333333333333],[-122.18166666666667,37.53805555555555],[-122.24055555555556,37.56194444444444],[-122.29083333333332,37.583333333333336],[-122.33333333333333,37.6]]}
}
