{
  "id": 2032087817,
  "type": "Feature",
  "properties": {
    "geom:area": 0,
    "geom:bbox": "-122.361070,37.440420,-121.295830,37.641420",
    "geom:latitude": 37.54604804618566,
    "geom:longitude": -121.83307287280296,
    "src:alt_label": "swim-approach",
    "src:geom": "swim",
    "swim:elevations": [
      4293,
      3956,
      3908,
      3810,
      3681,
      3468,
      3321,
      3163,
      3107,
      3049,
      3048,
      3069,
      3048,
      3048,
      2958,
      2776,
      2754,
      2710,
      2606,
      2463,
      2393,
      2176,
      2058,
      1998,
      1858,
      1832,
      1730,
      1545,
      1300,
      1060,
      911,
      871,
      790,
      637,
      478,
      417,
      220,
      177,
      78,
      0
    ],
    "swim:geom": "approach",
    "swim:timestamps": [
      1785789658,
      1785789702,
      1785789712,
      1785789725,
      1785789757,
      1785789794,
      1785789836,
      1785789857,
      1785789865,
      1785789890,
      1785789905,
      1785789932,
      1785789986,
      1785789995,
      1785790025,
      1785790059,
      1785790073,
      1785790081,
      1785790135,
      1785790163,
      1785790181,
      1785790220,
      1785790247,
      1785790258,
      1785790285,
      1785790305,
      1785790325,
      1785790352,
      1785790381,
      1785790414,
      1785790442,
      1785790454,
      1785790483,
      1785790517,
      1785790548,
      1785790560,
      1785790610,
      1785790623,
      1785790647,
      1785790665
    ],
    "wof:geomhash": "7c311f9a0644665eba0e250a42e1b222",
    "wof:id": 2032087817,
    "wof:repo": "sfomuseum-data-flights-2026-08"
  },
  "bbox": [
    -122.36107,
    37.44042,
    -121.29583,
    37.64142
  ],
  "geometry": {"type":"LineString","coordinates":[[-121.29583,37.58838],[-121.37447,37.58005],[-121.3933,37.57795],[-121.4162,37.57539],[-121.46957,37.56949],[-121.52697,37.56276],[-121.58836,37.55573],[-121.6178,37.56288],[-121.62829,37.56802],[-121.65896,37.58421],[-121.67676,37.59375],[-121.70901,37.61088],[-121.77558,37.64142],[-121.78776,37.64115],[-121.8212,37.619],[-121.82092,37.57953],[-121.81814,37.56281],[-121.8167,37.55396],[-121.81053,37.49184],[-121.81993,37.46025],[-121.83697,37.44486],[-121.89139,37.44042],[-121.92949,37.44221],[-121.94514,37.44294],[-121.98005,37.45383],[-122.0039,37.46438],[-122.02969,37.47538],[-122.06382,37.4899],[-122.09931,37.50473],[-122.13591,37.5204],[-122.16481,37.53248],[-122.17711,37.53774],[-122.20564,37.5498],[-122.23903,37.56385],[-122.26842,37.57624],[-122.28028,37.58122],[-122.31937,37.59761],[-122.33013,37.60207],[-122.34823,37.60975],[-122.36107,37.61559]]}
}
