{
  "id": 2032087817,
  "type": "Feature",
  "properties": {
    "geom:area": 0,
    "geom:bbox": "-122.347500,37.440833,-74.043889,41.548611",
    "geom:latitude": 40.21832704464854,
    "geom:longitude": -98.26247419525069,
    "src:alt_label": "swim-path",
    "src:geom": "swim",
    "swim:altitudes": [
      "032",
      "051",
      "060",
      "065",
      "092",
      "120",
      "135",
      "163",
      "170",
      "170",
      "170",
      "170",
      "175",
      "216",
      "244",
      "264",
      "284",
      "294",
      "300C",
      "300C",
      "300C",
      "300C",
      "300C",
      "300C",
      "300C",
      "300C",
      "300C",
      "300C",
      "300C",
      "300C",
      "300C",
      "300C",
      "300C",
      "300C",
      "300C",
      "300C",
      "300C",
      "300C",
      "300C",
      "300C",
      "300C",
      "300C",
      "300C",
      "300C",
      "300",
      "300",
      "300",
      "311",
      "320",
      "320",
      "338C",
      "340C",
      "340C",
      "340C",
      "340C",
      "340C",
      "340C",
      "340C",
      "340C",
      "340C",
      "340C",
      "340C",
      "340C",
      "340C",
      "340C",
      "340C",
      "340C",
      "340C",
      "340C",
      "340C",
      "340C",
      "340C",
      "340C",
      "340C",
      "340C",
      "340C",
      "340C",
      "340C",
      "340C",
      "340C",
      "340C",
      "340C",
      "340C",
      "340C",
      "340C",
      "340C",
      "340C",
      "340C",
      "340C",
      "340C",
      "340C",
      "340C",
      "340C",
      "340C",
      "340C",
      "340C",
      "340C",
      "340C",
      "340C",
      "340C",
      "340C",
      "340C",
      "340C",
      "340C",
      "340C",
      "340C",
      "340C",
      "340C",
      "340C",
      "340C",
      "340C",
      "340C",
      "340C",
      "340C",
      "340C",
      "340C",
      "340C",
      "340C",
      "340C",
      "340C",
      "340C",
      "340C",
      "340C",
      "340C",
      "340C",
      "340C",
      "340C",
      "340C",
      "340C",
      "340C",
      "340C",
      "340C",
      "340C",
      "340C",
      "340",
      "340",
      "349",
      "351",
      "360C",
      "360C",
      "360C",
      "360C",
      "360C",
      "360C",
      "360C",
      "360C",
      "360C",
      "360C",
      "360C",
      "360C",
      "360C",
      "360C",
      "360C",
      "372",
      "380C",
      "380C",
      "380C",
      "380C",
      "380C",
      "380C",
      "380C",
      "380C",
      "380C",
      "380C",
      "380C",
      "380C",
      "380C",
      "380C",
      "380C",
      "380C",
      "380C",
      "380C",
      "380C",
      "380C",
      "380C",
      "380C",
      "380C",
      "380C",
      "380C",
      "380C",
      "380C",
      "380C",
      "380C",
      "380C",
      "380C",
      "380C",
      "380C",
      "380C",
      "380C",
      "380C",
      "380C",
      "380C",
      "380C",
      "380C",
      "380C",
      "380C",
      "380C",
      "380C",
      "380C",
      "380C",
      "380C",
      "380C",
      "380C",
      "380C",
      "380C",
      "380C",
      "380C",
      "380C",
      "380C",
      "380C",
      "380C",
      "380C",
      "380C",
      "380C",
      "380C",
      "380C",
      "380C",
      "380C",
      "380C",
      "380C",
      "380C",
      "380C",
      "380C",
      "380C",
      "380C",
      "380C",
      "380C",
      "380C",
      "380C",
      "380C",
      "380C",
      "380C",
      "380C",
      "380C",
      "380C",
      "380C",
      "380C",
      "380C",
      "380C",
      "380C",
      "380C",
      "380C",
      "380C",
      "380C",
      "380C",
      "380C",
      "380C",
      "380C",
      "380C",
      "380C",
      "380C",
      "380C",
      "380C",
      "380C",
      "380C",
      "380C",
      "380C",
      "380C",
      "380C",
      "380C",
      "380C",
      "380C",
      "380C",
      "380C",
      "380C",
      "380C",
      "380C",
      "380C",
      "380C",
      "380C",
      "380C",
      "380C",
      "380C",
      "380C",
      "380C",
      "380C",
      "380C",
      "380C",
      "380C",
      "380C",
      "380C",
      "380C",
      "380C",
      "380C",
      "380C",
      "380C",
      "380C",
      "380C",
      "380C",
      "380C",
      "380C",
      "380C",
      "380C",
      "380C",
      "380C",
      "380C",
      "380C",
      "380C",
      "380C",
      "380C",
      "380C",
      "380C",
      "380C",
      "380C",
      "380C",
      "380C",
      "380C",
      "380C",
      "380C",
      "380",
      "371",
      "340",
      "311",
      "288",
      "269",
      "248",
      "226",
      "208",
      "189",
      "171",
      "171",
      "153",
      "151",
      "134",
      "122",
      "113",
      "104",
      "102",
      "100",
      "099",
      "093",
      "088",
      "080",
      "070",
      "062",
      "060",
      "037",
      "036",
      "027",
      "020",
      "019",
      "011",
      "002"
    ],
    "swim:geom": "path",
    "swim:speeds": [
      223,
      280,
      281,
      260,
      263,
      274,
      335,
      347,
      352,
      354,
      356,
      357,
      374,
      376,
      419,
      406,
      406,
      416,
      451,
      459,
      460,
      446,
      445,
      446,
      454,
      469,
      470,
      472,
      475,
      475,
      477,
      478,
      479,
      482,
      483,
      484,
      484,
      484,
      484,
      485,
      486,
      486,
      487,
      488,
      489,
      489,
      490,
      492,
      495,
      494,
      487,
      472,
      474,
      476,
      479,
      483,
      487,
      488,
      490,
      490,
      490,
      492,
      495,
      496,
      498,
      499,
      498,
      496,
      495,
      496,
      498,
      500,
      501,
      502,
      501,
      500,
      500,
      499,
      498,
      497,
      497,
      491,
      490,
      488,
      485,
      481,
      484,
      485,
      486,
      486,
      486,
      485,
      485,
      485,
      484,
      483,
      482,
      479,
      477,
      475,
      474,
      474,
      474,
      475,
      475,
      474,
      473,
      472,
      471,
      470,
      469,
      469,
      468,
      468,
      467,
      466,
      466,
      465,
      465,
      466,
      466,
      466,
      465,
      467,
      466,
      464,
      465,
      464,
      465,
      465,
      465,
      465,
      464,
      464,
      464,
      464,
      463,
      462,
      458,
      458,
      457,
      457,
      456,
      454,
      439,
      436,
      434,
      433,
      433,
      432,
      433,
      433,
      446,
      440,
      438,
      437,
      433,
      436,
      436,
      435,
      436,
      434,
      433,
      432,
      434,
      434,
      432,
      434,
      432,
      436,
      437,
      434,
      438,
      435,
      438,
      435,
      439,
      439,
      446,
      441,
      447,
      444,
      450,
      446,
      452,
      446,
      453,
      447,
      454,
      452,
      454,
      452,
      454,
      452,
      453,
      453,
      452,
      453,
      452,
      452,
      452,
      451,
      450,
      452,
      447,
      442,
      442,
      441,
      442,
      441,
      442,
      442,
      444,
      442,
      446,
      450,
      452,
      451,
      452,
      452,
      452,
      452,
      452,
      452,
      453,
      453,
      452,
      453,
      453,
      452,
      452,
      451,
      451,
      450,
      450,
      448,
      448,
      448,
      448,
      448,
      449,
      449,
      449,
      449,
      448,
      448,
      448,
      447,
      447,
      448,
      448,
      448,
      448,
      448,
      448,
      448,
      448,
      448,
      446,
      445,
      446,
      448,
      449,
      450,
      451,
      451,
      451,
      451,
      450,
      449,
      451,
      453,
      455,
      455,
      451,
      445,
      445,
      444,
      443,
      444,
      444,
      443,
      444,
      445,
      445,
      445,
      445,
      446,
      446,
      447,
      448,
      448,
      449,
      449,
      449,
      450,
      450,
      451,
      451,
      451,
      451,
      451,
      451,
      452,
      452,
      452,
      451,
      451,
      451,
      452,
      442,
      442,
      451,
      448,
      434,
      420,
      410,
      399,
      376,
      359,
      364,
      356,
      359,
      317,
      302,
      260,
      258,
      255,
      246,
      249,
      254,
      249,
      251,
      248,
      243,
      245,
      220,
      223,
      196,
      191,
      193,
      157,
      150
    ],
    "swim:timestamps": [
      1785797289,
      1785797345,
      1785797405,
      1785797465,
      1785797525,
      1785797585,
      1785797645,
      1785797705,
      1785797766,
      1785797826,
      1785797886,
      1785797946,
      1785798006,
      1785798131,
      1785798192,
      1785798252,
      1785798312,
      1785798372,
      1785798487,
      1785798552,
      1785798612,
      1785798667,
      1785798727,
      1785798793,
      1785798853,
      1785798913,
      1785798973,
      1785799028,
      1785799088,
      1785799148,
      1785799208,
      1785799273,
      1785799328,
      1785799454,
      1785799514,
      1785799574,
      1785799634,
      1785799694,
      1785799754,
      1785799874,
      1785799994,
      1785800055,
      1785800115,
      1785800175,
      1785800235,
      1785800295,
      1785800355,
      1785800415,
      1785800475,
      1785800536,
      1785800596,
      1785800656,
      1785800772,
      1785800832,
      1785800896,
      1785800956,
      1785801012,
      1785801072,
      1785801136,
      1785801192,
      1785801252,
      1785801317,
      1785801373,
      1785801433,
      1785801493,
      1785801553,
      1785801613,
      1785801673,
      1785801793,
      1785801853,
      1785801973,
      1785802094,
      1785802154,
      1785802274,
      1785802334,
      1785802394,
      1785802514,
      1785802574,
      1785802635,
      1785802695,
      1785802755,
      1785802875,
      1785802935,
      1785802995,
      1785803055,
      1785803112,
      1785803175,
      1785803296,
      1785803356,
      1785803416,
      1785803476,
      1785803533,
      1785803596,
      1785803713,
      1785803776,
      1785803836,
      1785803894,
      1785803957,
      1785804017,
      1785804074,
      1785804137,
      1785804197,
      1785804254,
      1785804377,
      1785804434,
      1785804498,
      1785804558,
      1785804615,
      1785804675,
      1785804795,
      1785804915,
      1785804975,
      1785805035,
      1785805095,
      1785805155,
      1785805215,
      1785805275,
      1785805336,
      1785805396,
      1785805516,
      1785805636,
      1785805696,
      1785805756,
      1785805766,
      1785805826,
      1785805876,
      1785805886,
      1785805936,
      1785805946,
      1785805996,
      1785806057,
      1785806067,
      1785806117,
      1785806127,
      1785806177,
      1785806187,
      1785806237,
      1785806247,
      1785806297,
      1785806307,
      1785806357,
      1785806367,
      1785806417,
      1785806427,
      1785806477,
      1785806487,
      1785806537,
      1785806547,
      1785806597,
      1785806607,
      1785806657,
      1785806667,
      1785806788,
      1785806908,
      1785806968,
      1785807088,
      1785807106,
      1785807148,
      1785807178,
      1785807208,
      1785807238,
      1785807298,
      1785807328,
      1785807358,
      1785807388,
      1785807449,
      1785807478,
      1785807509,
      1785807539,
      1785807569,
      1785807629,
      1785807659,
      1785807689,
      1785807719,
      1785807749,
      1785807779,
      1785807809,
      1785807899,
      1785807929,
      1785807959,
      1785807989,
      1785808139,
      1785808170,
      1785808199,
      1785808230,
      1785808260,
      1785808290,
      1785808320,
      1785808350,
      1785808380,
      1785808410,
      1785808440,
      1785808470,
      1785808500,
      1785808560,
      1785808590,
      1785808620,
      1785808650,
      1785808680,
      1785808710,
      1785808740,
      1785808770,
      1785808830,
      1785808860,
      1785808920,
      1785808951,
      1785808981,
      1785809011,
      1785809071,
      1785809101,
      1785809131,
      1785809161,
      1785809191,
      1785809221,
      1785809281,
      1785809311,
      1785809341,
      1785809371,
      1785809401,
      1785809461,
      1785809521,
      1785809552,
      1785809581,
      1785809641,
      1785809672,
      1785809732,
      1785809762,
      1785809792,
      1785809822,
      1785809852,
      1785809882,
      1785809912,
      1785809942,
      1785809972,
      1785810002,
      1785810032,
      1785810062,
      1785810092,
      1785810122,
      1785810152,
      1785810182,
      1785810273,
      1785810302,
      1785810333,
      1785810393,
      1785810423,
      1785810453,
      1785810513,
      1785810543,
      1785810573,
      1785810603,
      1785810633,
      1785810663,
      1785810723,
      1785810783,
      1785810843,
      1785810903,
      1785810963,
      1785811023,
      1785811083,
      1785811204,
      1785811264,
      1785811324,
      1785811384,
      1785811504,
      1785811564,
      1785811624,
      1785811684,
      1785811804,
      1785811865,
      1785811985,
      1785812045,
      1785812165,
      1785812225,
      1785812285,
      1785812465,
      1785812475,
      1785812525,
      1785812586,
      1785812655,
      1785812715,
      1785812766,
      1785812776,
      1785812836,
      1785812886,
      1785812896,
      1785812946,
      1785812956,
      1785813016,
      1785813126,
      1785813136,
      1785813186,
      1785813246,
      1785813256,
      1785813307,
      1785813316,
      1785813367,
      1785813427,
      1785813436,
      1785813487,
      1785813496,
      1785813556,
      1785813616,
      1785813689,
      1785813749,
      1785813809,
      1785813929,
      1785814049,
      1785814109,
      1785814169,
      1785814229,
      1785814289,
      1785814349,
      1785814409,
      1785814469,
      1785814529,
      1785814585,
      1785814650,
      1785814710,
      1785814760,
      1785814770,
      1785814820,
      1785814830,
      1785814890,
      1785814950,
      1785815000,
      1785815060,
      1785815070,
      1785815120,
      1785815190,
      1785815250,
      1785815300,
      1785815370,
      1785815430,
      1785815480,
      1785815490,
      1785815600,
      1785815611,
      1785815671,
      1785815720,
      1785815731,
      1785815780,
      1785815851
    ],
    "wof:geomhash": "2e7a9310b7985482381478fb638604b6",
    "wof:id": 2032087817,
    "wof:repo": "sfomuseum-data-flights-2026-08"
  },
  "bbox": [
    -122.3475,
    37.44083333333333,
    -74.04388888888889,
    41.54861111111111
  ],
  "geometry": {"type":"LineString","coordinates":[[-74.11666666666666,40.766666666666666],[-74.10944444444443,40.82555555555556],[-74.04388888888889,40.88527777777778],[-74.10166666666666,40.93138888888889],[-74.19694444444445,40.92833333333333],[-74.28916666666666,40.90083333333333],[-74.40472222222223,40.90333333333333],[-74.53277777777778,40.90694444444444],[-74.66305555555556,40.91027777777778],[-74.79194444444444,40.913333333333334],[-74.92527777777778,40.91638888888889],[-75.06361111111111,40.91972222222222],[-75.19027777777778,40.91694444444444],[-75.46305555555556,40.85305555555556],[-75.61,40.81916666666667],[-75.75027777777778,40.78361111111111],[-75.9075,40.746944444444445],[-76.05361111111111,40.71194444444445],[-76.34194444444444,40.68138888888889],[-76.51777777777778,40.70777777777778],[-76.68416666666667,40.7325],[-76.83555555555554,40.755],[-76.99638888888889,40.77777777777778],[-77.16250000000001,40.80138888888889],[-77.3275,40.82472222222223],[-77.49666666666667,40.848333333333336],[-77.66583333333334,40.871944444444445],[-77.83583333333333,40.894999999999996],[-78.00833333333334,40.91833333333333],[-78.18,40.93944444444444],[-78.35527777777777,40.96083333333333],[-78.54305555555555,40.983333333333334],[-78.69777777777779,41.00194444444445],[-79.07249999999999,41.04555555555555],[-79.24805555555555,41.06583333333333],[-79.4238888888889,41.08555555555556],[-79.60055555555554,41.10527777777778],[-79.7786111111111,41.124722222222225],[-79.95083333333334,41.14333333333333],[-80.30749999999999,41.18083333333333],[-80.65777777777778,41.21666666666667],[-80.83638888888889,41.23444444444444],[-81.01472222222222,41.25194444444445],[-81.19166666666668,41.26916666666666],[-81.37027777777777,41.28611111111111],[-81.5625,41.30416666666667],[-81.74055555555556,41.32055555555556],[-81.9225,41.33694444444445],[-82.10555555555555,41.35305555555556],[-82.29333333333334,41.36638888888889],[-82.47333333333333,41.376111111111115],[-82.64583333333334,41.38583333333333],[-82.97277777777778,41.40277777777778],[-83.14916666666667,41.4125],[-83.34805555555555,41.42333333333333],[-83.5261111111111,41.43194444444444],[-83.68611111111112,41.43944444444444],[-83.86749999999999,41.44777777777777],[-84.07111111111111,41.456944444444446],[-84.22888888888889,41.46361111111111],[-84.40805555555556,41.471111111111114],[-84.59138888888889,41.47833333333333],[-84.7775,41.48527777777778],[-84.96333333333334,41.492222222222225],[-85.14861111111112,41.49861111111111],[-85.33722222222222,41.505],[-85.52638888888889,41.51083333333333],[-85.71277777777777,41.51638888888889],[-86.08,41.52638888888889],[-86.26416666666667,41.529444444444444],[-86.63111111111111,41.535],[-87.00972222222222,41.54],[-87.19444444444444,41.541666666666664],[-87.56416666666667,41.544444444444444],[-87.74777777777778,41.54527777777778],[-87.92972222222222,41.54611111111111],[-88.29027777777777,41.546388888888885],[-88.47277777777778,41.54722222222222],[-88.65583333333333,41.54805555555556],[-88.83749999999999,41.54833333333333],[-88.98472222222222,41.54861111111111],[-89.38277777777778,41.547777777777775],[-89.56194444444444,41.54722222222222],[-89.74583333333334,41.54611111111111],[-89.92305555555556,41.54472222222222],[-90.08944444444444,41.543055555555554],[-90.27916666666667,41.54138888888889],[-90.63722222222223,41.536944444444444],[-90.81194444444444,41.53444444444444],[-90.99083333333333,41.53138888888889],[-91.17222222222223,41.528055555555554],[-91.35027777777778,41.524166666666666],[-91.53,41.520833333333336],[-91.90777777777778,41.49055555555556],[-92.06555555555555,41.476111111111116],[-92.24527777777777,41.45861111111111],[-92.43722222222223,41.43944444444444],[-92.60944444444443,41.42194444444444],[-92.78138888888888,41.404444444444444],[-92.95444444444445,41.38638888888889],[-93.125,41.36833333333333],[-93.29916666666666,41.349722222222226],[-93.47222222222223,41.33361111111111],[-93.81944444444444,41.30694444444444],[-93.99416666666667,41.29222222222222],[-94.16583333333334,41.27777777777778],[-94.33777777777777,41.26305555555555],[-94.50555555555556,41.24888888888889],[-94.67555555555556,41.23361111111111],[-95.01888888888888,41.2025],[-95.36444444444444,41.17027777777778],[-95.53361111111111,41.153888888888886],[-95.71027777777778,41.13666666666666],[-95.87916666666666,41.12],[-96.05166666666666,41.1025],[-96.2225,41.08527777777778],[-96.39444444444445,41.0675],[-96.56472222222222,41.04944444444444],[-96.73333333333333,41.03138888888889],[-97.0736111111111,40.99444444444445],[-97.41166666666668,40.95638888888889],[-97.58194444444445,40.93694444444444],[-97.74944444444445,40.9175],[-97.7775,40.91444444444444],[-97.94361111111111,40.89472222222222],[-98.08527777777778,40.87777777777778],[-98.11361111111111,40.87444444444444],[-98.25361111111111,40.8575],[-98.28083333333333,40.85416666666667],[-98.42111111111112,40.83722222222222],[-98.58944444444444,40.81638888888889],[-98.61694444444444,40.81305555555555],[-98.75555555555556,40.79555555555555],[-98.78388888888888,40.79194444444444],[-98.92277777777778,40.77444444444444],[-98.95,40.770833333333336],[-99.0911111111111,40.77166666666667],[-99.11916666666666,40.77361111111111],[-99.25666666666666,40.78388888888889],[-99.28527777777778,40.78611111111111],[-99.42222222222223,40.79611111111111],[-99.45111111111112,40.79833333333333],[-99.58888888888889,40.80777777777777],[-99.61555555555555,40.809444444444445],[-99.7475,40.81805555555556],[-99.775,40.82],[-99.90666666666667,40.827222222222225],[-99.93055555555556,40.828611111111115],[-100.06416666666667,40.83722222222222],[-100.08999999999999,40.84],[-100.23361111111112,40.85472222222222],[-100.24666666666667,40.85583333333334],[-100.565,40.8875],[-100.8561111111111,40.981388888888894],[-101.03999999999999,41.02472222222222],[-101.35055555555554,41.05722222222222],[-101.37249999999999,41.053888888888885],[-101.50722222222223,41.04222222222222],[-101.56527777777778,41.03444444444444],[-101.66555555555556,41.02166666666667],[-101.72166666666666,41.011944444444445],[-101.87166666666666,40.97555555555556],[-101.9675,40.95333333333333],[-102.02194444444444,40.939722222222215],[-102.11944444444444,40.91694444444444],[-102.27055555555556,40.88027777777778],[-102.32583333333334,40.86611111111111],[-102.42222222222223,40.84305555555556],[-102.47916666666667,40.82777777777778],[-102.57555555555555,40.805277777777775],[-102.72722222222222,40.7675],[-102.78527777777778,40.751666666666665],[-102.87888888888888,40.72972222222222],[-102.93777777777778,40.71333333333334],[-103.02972222222222,40.69166666666666],[-103.08972222222222,40.67472222222222],[-103.16250000000001,40.65833333333333],[-103.39861111111112,40.59722222222222],[-103.47305555555556,40.57916666666667],[-103.55388888888889,40.55777777777777],[-103.62722222222222,40.53944444444444],[-104.01805555555555,40.43694444444444],[-104.12166666666666,40.41027777777778],[-104.17444444444445,40.394999999999996],[-104.27777777777777,40.369166666666665],[-104.32916666666667,40.35444444444445],[-104.43166666666667,40.32805555555556],[-104.48305555555555,40.31305555555555],[-104.58888888888889,40.28583333333333],[-104.64250000000001,40.27166666666667],[-104.74222222222222,40.24472222222222],[-104.79888888888888,40.228611111111114],[-104.89833333333334,40.2025],[-104.95222222222222,40.186388888888885],[-105.11222222222221,40.143055555555556],[-105.20361111111112,40.11888888888889],[-105.26555555555555,40.10027777777778],[-105.35638888888889,40.07666666666667],[-105.41972222222223,40.05888888888889],[-105.5111111111111,40.03361111111111],[-105.57249999999999,40.015],[-105.66416666666667,39.990833333333335],[-105.81361111111111,39.94888888888889],[-105.87722222222222,39.930277777777775],[-106.02638888888889,39.88722222222222],[-106.11333333333333,39.86388888888889],[-106.17527777777778,39.84527777777778],[-106.26333333333334,39.82083333333334],[-106.4113888888889,39.77833333333333],[-106.47361111111111,39.75944444444445],[-106.56333333333333,39.73416666666667],[-106.62388888888889,39.71611111111111],[-106.7225,39.68805555555555],[-106.77444444444444,39.67333333333333],[-106.92611111111111,39.62777777777778],[-107.01805555555555,39.60111111111111],[-107.07888888888888,39.581388888888895],[-107.17,39.55638888888888],[-107.23,39.5375],[-107.38083333333333,39.49277777777778],[-107.53222222222222,39.44638888888888],[-107.62638888888888,39.419444444444444],[-107.68416666666667,39.40138888888889],[-107.83472222222221,39.35527777777778],[-107.92916666666667,39.3275],[-108.08138888888888,39.280833333333334],[-108.13861111111112,39.261944444444445],[-108.23388888888888,39.23388888888889],[-108.29138888888889,39.21638888888889],[-108.38277777777778,39.187777777777775],[-108.44166666666668,39.169444444444444],[-108.5325,39.14111111111111],[-108.59277777777777,39.12222222222222],[-108.68166666666667,39.09444444444445],[-108.74111111111111,39.075833333333335],[-108.83277777777778,39.05694444444444],[-108.89722222222223,39.051944444444445],[-108.99361111111111,39.04472222222222],[-109.05833333333334,39.04],[-109.15305555555557,39.033055555555556],[-109.21833333333333,39.028055555555554],[-109.47500000000001,39.00805555555556],[-109.53999999999999,39.00277777777778],[-109.63388888888889,38.995555555555555],[-109.79194444444444,38.98277777777778],[-109.85749999999999,38.9775],[-109.95083333333334,38.969722222222224],[-110.10916666666667,38.95638888888889],[-110.17472222222223,38.950833333333335],[-110.26861111111111,38.94277777777778],[-110.33222222222221,38.9375],[-110.42777777777778,38.92916666666667],[-110.4925,38.92333333333333],[-110.65027777777779,38.90972222222222],[-110.80944444444444,38.89527777777778],[-110.97222222222223,38.88055555555555],[-111.13611111111112,38.86555555555556],[-111.29305555555555,38.850833333333334],[-111.45027777777779,38.83583333333333],[-111.60583333333332,38.82083333333334],[-111.92083333333333,38.78972222222222],[-112.07805555555555,38.77388888888889],[-112.23694444444445,38.757777777777775],[-112.39472222222223,38.74138888888889],[-112.71277777777777,38.70777777777778],[-112.87055555555555,38.69083333333333],[-113.02638888888889,38.67361111111111],[-113.18444444444445,38.656388888888884],[-113.49944444444445,38.62083333333334],[-113.6563888888889,38.60277777777778],[-113.97333333333333,38.566111111111105],[-114.13305555555554,38.54694444444444],[-114.45055555555555,38.50805555555556],[-114.60888888888888,38.48861111111111],[-114.76638888888888,38.469166666666666],[-115.23111111111112,38.41],[-115.25555555555556,38.407222222222224],[-115.37722222222222,38.39083333333333],[-115.53277777777778,38.37027777777778],[-115.71833333333333,38.346111111111114],[-115.87388888888889,38.32472222222223],[-115.99583333333334,38.30833333333333],[-116.02833333333334,38.303888888888885],[-116.18305555555555,38.2825],[-116.30583333333333,38.26555555555556],[-116.33749999999999,38.26111111111111],[-116.46083333333334,38.24388888888889],[-116.49472222222222,38.23916666666667],[-116.64972222222222,38.217222222222226],[-116.92833333333334,38.17722222222222],[-116.96138888888889,38.17222222222222],[-117.0825,38.15472222222222],[-117.2475,38.13055555555555],[-117.26916666666666,38.12722222222222],[-117.40972222222223,38.10638888888889],[-117.42500000000001,38.10416666666667],[-117.56777777777778,38.0825],[-117.72416666666666,38.05888888888889],[-117.7575,38.053888888888885],[-117.87944444444443,38.03527777777778],[-117.91194444444444,38.030277777777776],[-118.06916666666666,38.005833333333335],[-118.2238888888889,37.98166666666667],[-118.38138888888888,37.956944444444446],[-118.56583333333333,37.92777777777778],[-118.72277777777778,37.902499999999996],[-119.00527777777778,37.86833333333333],[-119.32583333333334,37.83111111111111],[-119.48111111111112,37.812777777777775],[-119.64,37.79361111111111],[-119.79388888888889,37.775],[-119.94861111111112,37.75611111111111],[-120.10583333333332,37.73694444444445],[-120.25916666666667,37.7175],[-120.41083333333334,37.69833333333333],[-120.55666666666666,37.68138888888889],[-120.71666666666667,37.666666666666664],[-120.83944444444444,37.64805555555556],[-120.96972222222223,37.632222222222225],[-121.1,37.61666666666667],[-121.09666666666666,37.615],[-121.21666666666667,37.6],[-121.22972222222222,37.596944444444446],[-121.34444444444443,37.58305555555556],[-121.44944444444445,37.57166666666667],[-121.53333333333333,37.56666666666667],[-121.61666666666666,37.56666666666667],[-121.62777777777777,37.5675],[-121.7,37.6],[-121.77305555555556,37.64111111111111],[-121.8236111111111,37.59638888888889],[-121.81666666666666,37.53333333333333],[-121.82055555555556,37.45888888888889],[-121.89833333333334,37.44083333333333],[-121.96666666666667,37.45],[-121.97972222222222,37.453611111111115],[-122.11666666666666,37.516666666666666],[-122.12694444444443,37.516666666666666],[-122.18805555555556,37.5425],[-122.23333333333333,37.56666666666667],[-122.24777777777778,37.5675],[-122.3,37.583333333333336],[-122.3475,37.60944444444445]]}
}
