{
  "id": 2032135627,
  "type": "Feature",
  "properties": {
    "geom:area": 0,
    "geom:bbox": "-122.407830,37.625530,-121.276190,37.959220",
    "geom:latitude": 37.827485363488314,
    "geom:longitude": -121.86675343807131,
    "src:alt_label": "swim-takeoff",
    "src:geom": "swim",
    "swim:elevations": [
      122,
      575,
      748,
      810,
      972,
      1302,
      2106,
      2456,
      2633,
      3087,
      3410,
      3737,
      3960,
      4247,
      4501,
      4969,
      5098,
      6235,
      6893
    ],
    "swim:geom": "takeoff",
    "swim:timestamps": [
      1786042352,
      1786042399,
      1786042415,
      1786042419,
      1786042433,
      1786042472,
      1786042551,
      1786042578,
      1786042591,
      1786042634,
      1786042676,
      1786042706,
      1786042731,
      1786042763,
      1786042783,
      1786042823,
      1786042836,
      1786042957,
      1786043027
    ],
    "wof:geomhash": "68f16e0f0aa8a6715047acc8a494c229",
    "wof:id": 2032135627,
    "wof:repo": "sfomuseum-data-flights-2026-08"
  },
  "bbox": [
    -122.40783,
    37.62553,
    -121.27619,
    37.95922
  ],
  "geometry": {"type":"LineString","coordinates":[[-122.39036,37.62553],[-122.40783,37.65864],[-122.3936,37.66774],[-122.38761,37.66917],[-122.37128,37.67056],[-122.3204,37.68198],[-122.20334,37.72328],[-122.16473,37.7433],[-122.14631,37.75295],[-122.08288,37.78591],[-122.01523,37.81927],[-121.95803,37.83443],[-121.90927,37.84337],[-121.8435,37.85587],[-121.8031,37.86361],[-121.72007,37.8794],[-121.69379,37.88411],[-121.43267,37.93093],[-121.27619,37.95922]]}
}
