{
  "id": 2032128757,
  "type": "Feature",
  "properties": {
    "geom:area": 0,
    "geom:bbox": "-122.363400,36.727580,-121.881970,37.614660",
    "geom:latitude": 37.242877904451966,
    "geom:longitude": -122.12295720788043,
    "src:alt_label": "swim-approach",
    "src:geom": "swim",
    "swim:elevations": [
      5233,
      5054,
      4873,
      4541,
      4399,
      4105,
      4051,
      4039,
      4000,
      3971,
      3933,
      3417,
      3192,
      3045,
      3048,
      3048,
      3048,
      3048,
      2918,
      2742,
      2592,
      2590,
      2577,
      2438,
      2408,
      2273,
      2128,
      2090,
      2067,
      2018,
      1933,
      1887,
      1807,
      1661,
      1219,
      1220,
      1219,
      1038,
      949,
      813,
      725,
      676,
      461,
      331,
      256,
      174,
      131,
      70,
      196
    ],
    "swim:geom": "approach",
    "swim:timestamps": [
      1786000047,
      1786000066,
      1786000084,
      1786000120,
      1786000135,
      1786000165,
      1786000171,
      1786000175,
      1786000178,
      1786000181,
      1786000184,
      1786000240,
      1786000263,
      1786000331,
      1786000371,
      1786000380,
      1786000394,
      1786000412,
      1786000449,
      1786000478,
      1786000502,
      1786000505,
      1786000508,
      1786000543,
      1786000571,
      1786000595,
      1786000622,
      1786000627,
      1786000630,
      1786000638,
      1786000655,
      1786000661,
      1786000672,
      1786000692,
      1786000798,
      1786000809,
      1786000845,
      1786000877,
      1786000897,
      1786000945,
      1786000957,
      1786000970,
      1786001012,
      1786001041,
      1786001057,
      1786001082,
      1786001093,
      1786001110,
      1786001131
    ],
    "wof:geomhash": "a1d01cba36cc2ced6ebf56d5b8bc75da",
    "wof:id": 2032128757,
    "wof:repo": "sfomuseum-data-flights-2026-08"
  },
  "bbox": [
    -122.3634,
    36.72758,
    -121.88197,
    37.61466
  ],
  "geometry": {"type":"LineString","coordinates":[[-121.88197,36.72758],[-121.89816,36.75889],[-121.90744,36.78883],[-121.92426,36.849],[-121.93103,36.87381],[-121.94473,36.92302],[-121.9475,36.9327],[-121.94936,36.93898],[-121.95078,36.94381],[-121.9522,36.94863],[-121.95397,36.95381],[-121.98742,37.04005],[-122.00027,37.07341],[-122.03713,37.16804],[-122.07193,37.20437],[-122.0828,37.20897],[-122.09963,37.21622],[-122.12227,37.22602],[-122.16903,37.2464],[-122.20833,37.25802],[-122.24083,37.26642],[-122.24492,37.26743],[-122.249,37.26847],[-122.2964,37.28072],[-122.32065,37.30551],[-122.32479,37.33383],[-122.30161,37.35769],[-122.2953,37.3597],[-122.29017,37.36078],[-122.27938,37.36244],[-122.2565,37.36559],[-122.24789,37.36674],[-122.23271,37.3688],[-122.20476,37.37237],[-122.11978,37.45385],[-122.11452,37.46371],[-122.10528,37.49579],[-122.13066,37.51561],[-122.1513,37.52474],[-122.20066,37.54547],[-122.213,37.55061],[-122.22611,37.55604],[-122.26746,37.5735],[-122.29393,37.58466],[-122.30731,37.59029],[-122.3267,37.59845],[-122.33477,37.60183],[-122.34761,37.60728],[-122.3634,37.61466]]}
}
