{
  "id": 2047901883,
  "type": "Feature",
  "properties": {
    "geom:area": 0,
    "geom:bbox": "-122.554550,37.147900,-121.256980,37.671380",
    "geom:latitude": 37.31922360867947,
    "geom:longitude": -121.97289390891598,
    "src:alt_label": "swim-takeoff",
    "src:geom": "swim",
    "swim:elevations": [
      1192,
      1504,
      1593,
      1910,
      2525,
      2806,
      3064,
      3249,
      3419,
      3815,
      4258,
      4435,
      4661,
      4849,
      5302,
      5627,
      5841,
      6006,
      6072,
      6141,
      6521,
      6677,
      6806,
      7029,
      7276,
      7559,
      7642,
      7716
    ],
    "swim:geom": "takeoff",
    "swim:timestamps": [
      1786295728,
      1786295757,
      1786295765,
      1786295792,
      1786295842,
      1786295868,
      1786295889,
      1786295921,
      1786295954,
      1786295988,
      1786296027,
      1786296047,
      1786296074,
      1786296090,
      1786296138,
      1786296171,
      1786296206,
      1786296224,
      1786296234,
      1786296243,
      1786296290,
      1786296313,
      1786296333,
      1786296364,
      1786296393,
      1786296434,
      1786296447,
      1786296457
    ],
    "wof:geomhash": "c31f271448260172d88a42c3e8b12aa9",
    "wof:id": 2047901883,
    "wof:repo": "sfomuseum-data-flights-2026-08"
  },
  "bbox": [
    -122.55455,
    37.1479,
    -121.25698,
    37.67138
  ],
  "geometry": {"type":"LineString","coordinates":[[-122.52594,37.67138],[-122.55406,37.64396],[-122.55455,37.63376],[-122.53803,37.59869],[-122.50211,37.537],[-122.48251,37.50353],[-122.45977,37.48055],[-122.41014,37.45216],[-122.35576,37.42151],[-122.29624,37.38746],[-122.22928,37.3491],[-122.1949,37.32947],[-122.14513,37.30264],[-122.1102,37.29367],[-122.00495,37.27674],[-121.93138,37.26426],[-121.85188,37.25069],[-121.81012,37.24364],[-121.78742,37.2398],[-121.76657,37.23619],[-121.65782,37.21747],[-121.60263,37.208],[-121.55655,37.20011],[-121.4798,37.18684],[-121.41065,37.17497],[-121.3124,37.15784],[-121.28132,37.15233],[-121.25698,37.1479]]}
}
