{
  "id": 2032135667,
  "type": "Feature",
  "properties": {
    "geom:area": 0,
    "geom:bbox": "-122.545760,36.718100,-121.246390,37.669060",
    "geom:latitude": 37.1980727875694,
    "geom:longitude": -121.98127131109446,
    "src:alt_label": "swim-takeoff",
    "src:geom": "swim",
    "swim:elevations": [
      152,
      821,
      1212,
      1445,
      2154,
      2831,
      3498,
      3936,
      4233,
      4502,
      4964,
      5258,
      5504,
      5963,
      6333,
      6684,
      6992,
      7094,
      7538,
      7786,
      8125,
      8369,
      8503,
      8640,
      8983,
      9480,
      9638
    ],
    "swim:geom": "takeoff",
    "swim:timestamps": [
      1786061061,
      1786061108,
      1786061156,
      1786061175,
      1786061222,
      1786061268,
      1786061329,
      1786061376,
      1786061400,
      1786061419,
      1786061453,
      1786061477,
      1786061498,
      1786061534,
      1786061571,
      1786061602,
      1786061628,
      1786061637,
      1786061680,
      1786061710,
      1786061750,
      1786061783,
      1786061810,
      1786061834,
      1786061875,
      1786061927,
      1786061953
    ],
    "wof:geomhash": "fd1c8a66c602197d3f176bbd23739524",
    "wof:id": 2032135667,
    "wof:repo": "sfomuseum-data-flights-2026-08"
  },
  "bbox": [
    -122.54576,
    36.7181,
    -121.24639,
    37.66906
  ],
  "geometry": {"type":"LineString","coordinates":[[-122.38339,37.62481],[-122.42419,37.64148],[-122.47356,37.66189],[-122.50024,37.66906],[-122.54576,37.63234],[-122.52101,37.57655],[-122.47533,37.49603],[-122.4035,37.44181],[-122.36094,37.4163],[-122.3258,37.39549],[-122.26533,37.35612],[-122.222,37.32726],[-122.18215,37.30107],[-122.11483,37.25749],[-122.04448,37.21212],[-121.98312,37.17255],[-121.93181,37.14157],[-121.91207,37.1297],[-121.82448,37.07647],[-121.76271,37.03868],[-121.68061,36.98752],[-121.61166,36.94488],[-121.55428,36.90906],[-121.50261,36.87675],[-121.41256,36.8208],[-121.30168,36.75169],[-121.24639,36.7181]]}
}
