{
  "id": 2047957943,
  "type": "Feature",
  "properties": {
    "geom:area": 0,
    "geom:bbox": "-122.550000,33.950000,-118.166667,37.667778",
    "geom:latitude": 35.80376984563522,
    "geom:longitude": -120.31414764668477,
    "src:alt_label": "swim-path",
    "src:geom": "swim",
    "swim:altitudes": [
      "007",
      "017",
      "028",
      "039",
      "058",
      "093",
      "116",
      "148",
      "177",
      "205",
      "232",
      "256",
      "275",
      "293",
      "309",
      "330",
      "345",
      "351",
      "366",
      "370C",
      "370C",
      "370C",
      "370C",
      "370C",
      "370C",
      "370C",
      "370C",
      "370C",
      "370C",
      "370C",
      "370",
      "370",
      "370",
      "365",
      "334",
      "304",
      "281",
      "260",
      "260",
      "257",
      "235",
      "213",
      "197",
      "193",
      "184",
      "174",
      "164",
      "154",
      "145",
      "135",
      "128",
      "126",
      "119",
      "111",
      "104",
      "099",
      "093",
      "086",
      "080",
      "076",
      "074",
      "068",
      "064",
      "059",
      "053",
      "043",
      "024",
      "024",
      "024",
      "024",
      "024",
      "018",
      "013",
      "009",
      "005"
    ],
    "swim:geom": "path",
    "swim:speeds": [
      167,
      171,
      237,
      239,
      262,
      274,
      321,
      344,
      368,
      387,
      402,
      417,
      432,
      446,
      454,
      454,
      455,
      457,
      457,
      456,
      449,
      443,
      441,
      438,
      436,
      435,
      434,
      433,
      433,
      434,
      435,
      435,
      435,
      433,
      438,
      443,
      430,
      417,
      412,
      410,
      396,
      382,
      368,
      370,
      359,
      356,
      346,
      346,
      336,
      336,
      321,
      300,
      289,
      291,
      285,
      282,
      280,
      278,
      278,
      269,
      249,
      250,
      238,
      236,
      228,
      222,
      216,
      215,
      216,
      224,
      221,
      209,
      187,
      157,
      153
    ],
    "swim:timestamps": [
      1786636544,
      1786636579,
      1786636617,
      1786636639,
      1786636682,
      1786636759,
      1786636819,
      1786636879,
      1786636940,
      1786637000,
      1786637060,
      1786637120,
      1786637180,
      1786637240,
      1786637300,
      1786637360,
      1786637420,
      1786637480,
      1786637540,
      1786637600,
      1786637661,
      1786637721,
      1786637781,
      1786637841,
      1786637901,
      1786637961,
      1786638021,
      1786638081,
      1786638141,
      1786638201,
      1786638261,
      1786638321,
      1786638382,
      1786638442,
      1786638502,
      1786638562,
      1786638622,
      1786638682,
      1786638742,
      1786638802,
      1786638862,
      1786638927,
      1786638964,
      1786638987,
      1786639009,
      1786639047,
      1786639067,
      1786639107,
      1786639126,
      1786639168,
      1786639186,
      1786639228,
      1786639246,
      1786639288,
      1786639309,
      1786639348,
      1786639366,
      1786639408,
      1786639429,
      1786639468,
      1786639486,
      1786639528,
      1786639548,
      1786639588,
      1786639609,
      1786639648,
      1786639708,
      1786639729,
      1786639768,
      1786639789,
      1786639829,
      1786639849,
      1786639889,
      1786639909,
      1786639949
    ],
    "wof:geomhash": "d1fd5a6cf2addc982a21423a742a32b4",
    "wof:id": 2047957943,
    "wof:repo": "sfomuseum-data-flights-2026-08"
  },
  "bbox": [
    -122.55,
    33.95,
    -118.16666666666667,
    37.66777777777777
  ],
  "geometry": {"type":"LineString","coordinates":[[-122.4,37.63333333333333],[-122.42,37.63861111111111],[-122.46666666666667,37.65],[-122.49027777777778,37.66777777777777],[-122.55,37.65],[-122.52222222222223,37.555277777777775],[-122.46305555555556,37.48861111111111],[-122.37472222222222,37.42361111111111],[-122.28222222222222,37.35527777777778],[-122.18361111111112,37.282222222222224],[-122.08222222222221,37.20666666666667],[-121.97527777777778,37.12638888888889],[-121.86666666666666,37.04472222222222],[-121.75416666666666,36.96],[-121.61583333333333,36.905833333333334],[-121.46416666666667,36.874722222222225],[-121.30833333333334,36.846944444444446],[-121.15333333333334,36.82083333333334],[-120.99138888888889,36.79472222222222],[-120.8425,36.75138888888889],[-120.71972222222223,36.67777777777778],[-120.64583333333334,36.56916666666667],[-120.57583333333334,36.46194444444445],[-120.50638888888889,36.35527777777778],[-120.43694444444445,36.24805555555556],[-120.36722222222221,36.14055555555556],[-120.29888888888888,36.034166666666664],[-120.22972222222222,35.92638888888889],[-120.17527777777778,35.841944444444444],[-120.1061111111111,35.733333333333334],[-120.03666666666666,35.62416666666667],[-119.9675,35.515],[-119.89888888888889,35.406388888888884],[-119.83055555555555,35.29944444444444],[-119.7425,35.20166666666667],[-119.64972222222222,35.10166666666667],[-119.5611111111111,35.006388888888885],[-119.47527777777778,34.913888888888884],[-119.39250000000001,34.82166666666667],[-119.31083333333333,34.72972222222222],[-119.23333333333333,34.64083333333333],[-119.15416666666667,34.549166666666665],[-119.1,34.483333333333334],[-119.08083333333333,34.46638888888889],[-119.05,34.43333333333333],[-119.01055555555556,34.38666666666666],[-118.98333333333333,34.35],[-118.94194444444445,34.308055555555555],[-118.91666666666667,34.266666666666666],[-118.87416666666665,34.23416666666667],[-118.83333333333333,34.2],[-118.80972222222222,34.16444444444444],[-118.78333333333333,34.13333333333333],[-118.74638888888889,34.10583333333334],[-118.71666666666667,34.083333333333336],[-118.6825,34.04694444444444],[-118.65,34.03333333333333],[-118.5975,34.02333333333333],[-118.55,34.016666666666666],[-118.50527777777778,34.014722222222225],[-118.46666666666667,34.016666666666666],[-118.42194444444445,34.01638888888889],[-118.38333333333334,34.016666666666666],[-118.34416666666667,34.02722222222222],[-118.3,34.03333333333333],[-118.26888888888888,34.028888888888886],[-118.19638888888889,34.027499999999996],[-118.16666666666667,34],[-118.18944444444445,33.97916666666667],[-118.21666666666667,33.96666666666667],[-118.26138888888889,33.96638888888889],[-118.3,33.96666666666667],[-118.32833333333333,33.95944444444445],[-118.35,33.95],[-118.37972222222221,33.95444444444445]]}
}
