{
  "id": 2047989531,
  "type": "Feature",
  "properties": {
    "date:cessation_lower": "2026-08-17",
    "date:cessation_upper": "2026-08-17",
    "date:inception_lower": "1970-01-01",
    "date:inception_upper": "1970-01-01",
    "edtf:cessation": "2026-08-16T18:50:06-07:00",
    "edtf:inception": "1970-01-01T00:00:00Z",
    "flysfo:actual_timestamp": -1,
    "flysfo:airline": "AA",
    "flysfo:base_airline": "",
    "flysfo:base_flight_number": "5024",
    "flysfo:date": "2026-08-16",
    "flysfo:estimated_timestamp": 1786957200,
    "flysfo:event": "A",
    "flysfo:flight_number": "AA15",
    "flysfo:gate": "B15",
    "flysfo:journey": "JFK-SFO",
    "flysfo:scheduled_timestamp": 1786937580,
    "flysfo:timestamp": 1786957200,
    "geom:area": 0,
    "geom:bbox": "-73.787845,0.000000,0.000000,40.643286",
    "geom:latitude": 20.321643,
    "geom:longitude": -36.8939225,
    "iata:airline": "AA",
    "iata:base_airline": "",
    "icao:aircraft": "A321",
    "icao:airline": "AAL",
    "icao:base_airline": "RAM",
    "lbl:latitude": 37.61799,
    "lbl:longitude": -122.370943,
    "sfomuseum:aircraft_id": 1159289411,
    "sfomuseum:airline_id": 1159283849,
    "sfomuseum:arrival_id": 102527513,
    "sfomuseum:base_flight_id": "20260816-A-RAM-5024",
    "sfomuseum:departure_id": 102534365,
    "sfomuseum:flight_id": "20260816-A-AAL-15",
    "sfomuseum:flight_number": [
      "AAL15",
      "AA15"
    ],
    "sfomuseum:placetype": "flight",
    "src:geom": "flysfo",
    "src:geom_alt": [
      "swim-approach"
    ],
    "swim:tail_number": "N104NN",
    "wof:belongsto": [
      1947304067,
      102527513,
      1947304261,
      102191575,
      85633793,
      102087579,
      85922583,
      554784711,
      85688637,
      1947304271,
      1947304259,
      102085387
    ],
    "wof:country": "US",
    "wof:created": 1786982550,
    "wof:geomhash": "fae74c47dfb31cd85ebe35e8e300055c",
    "wof:hierarchy": [
      {
        "building_id": 1947304067,
        "campus_id": 102527513,
        "concourse_id": 1947304261,
        "continent_id": 102191575,
        "country_id": 85633793,
        "county_id": 102087579,
        "custom_id": 2047989531,
        "flight_id": 2047989531,
        "locality_id": 85922583,
        "postalcode_id": 554784711,
        "region_id": 85688637,
        "venue_id": 1947304271,
        "wing_id": 1947304259
      },
      {
        "building_id": 1947304067,
        "campus_id": 102527513,
        "concourse_id": 1947304261,
        "continent_id": 102191575,
        "country_id": 85633793,
        "county_id": 102085387,
        "custom_id": 2047989531,
        "flight_id": 2047989531,
        "region_id": 85688637,
        "venue_id": 1947304271,
        "wing_id": 1947304259
      }
    ],
    "wof:id": 2047989531,
    "wof:involves": [
      1159289411,
      102527513,
      102534365,
      1159283849,
      1947304271,
      1159285081
    ],
    "wof:lastmodified": 1786984020,
    "wof:name": "AA15 (JFK-SFO)",
    "wof:parent_id": 1947304271,
    "wof:placetype": "custom",
    "wof:placetype_alt": [
      "flight"
    ],
    "wof:repo": "sfomuseum-data-flights-2026-08",
    "wof:superseded_by": [],
    "wof:supersedes": []
  },
  "bbox": [
    -73.787845,
    0,
    0,
    40.643286
  ],
  "geometry": {"type":"MultiPoint","coordinates":[[-73.787845,40.643286],[0,0]]}
}
