{
  "id": 2047941775,
  "type": "Feature",
  "properties": {
    "geom:area": 0,
    "geom:bbox": "-122.350000,35.657500,-78.824722,38.454167",
    "geom:latitude": 37.46724932634094,
    "geom:longitude": -100.61350800619022,
    "src:alt_label": "swim-path",
    "src:geom": "swim",
    "swim:altitudes": [
      "016",
      "025",
      "031",
      "044",
      "050",
      "069",
      "091",
      "109",
      "116",
      "135",
      "153",
      "169",
      "185",
      "215",
      "226",
      "239",
      "251",
      "263",
      "274",
      "283",
      "292",
      "302",
      "318",
      "331",
      "340",
      "350",
      "360C",
      "360C",
      "360C",
      "360C",
      "360C",
      "360C",
      "360C",
      "360C",
      "360C",
      "360C",
      "360C",
      "360C",
      "360C",
      "360C",
      "360C",
      "360C",
      "360C",
      "360C",
      "360C",
      "360C",
      "360C",
      "360C",
      "360C",
      "360C",
      "360C",
      "360C",
      "360C",
      "360C",
      "360C",
      "360C",
      "360C",
      "360C",
      "360C",
      "360C",
      "360C",
      "360C",
      "360C",
      "360C",
      "360C",
      "360C",
      "360C",
      "360C",
      "360C",
      "360C",
      "360C",
      "360C",
      "360C",
      "360C",
      "360C",
      "360C",
      "360C",
      "360C",
      "360C",
      "360C",
      "360C",
      "360C",
      "360C",
      "360C",
      "360C",
      "360C",
      "360C",
      "360C",
      "360C",
      "360C",
      "360C",
      "360C",
      "360C",
      "360C",
      "360C",
      "360C",
      "360C",
      "360C",
      "360C",
      "360C",
      "360C",
      "360C",
      "360C",
      "360C",
      "360C",
      "360C",
      "360C",
      "360C",
      "360C",
      "360C",
      "360C",
      "360C",
      "360C",
      "360C",
      "360C",
      "360C",
      "360C",
      "360C",
      "360C",
      "360C",
      "360C",
      "360C",
      "360C",
      "360C",
      "360C",
      "360C",
      "360C",
      "360C",
      "360C",
      "360C",
      "360C",
      "360C",
      "360C",
      "360C",
      "360C",
      "360C",
      "360C",
      "360C",
      "360C",
      "360C",
      "360C",
      "360C",
      "360C",
      "360C",
      "360C",
      "360C",
      "360C",
      "360C",
      "360C",
      "360C",
      "360C",
      "360C",
      "360C",
      "360C",
      "360C",
      "360C",
      "360C",
      "360C",
      "360C",
      "360C",
      "360C",
      "360C",
      "360C",
      "360C",
      "360C",
      "360C",
      "360C",
      "360C",
      "360C",
      "360C",
      "360C",
      "360C",
      "360C",
      "360C",
      "360C",
      "360C",
      "360C",
      "360C",
      "360C",
      "360C",
      "360C",
      "360C",
      "360C",
      "360C",
      "360C",
      "360C",
      "360C",
      "360C",
      "360C",
      "360C",
      "360C",
      "360C",
      "360C",
      "360C",
      "360C",
      "360C",
      "360C",
      "360C",
      "360C",
      "360C",
      "360C",
      "360C",
      "360C",
      "360C",
      "360C",
      "360C",
      "360C",
      "360C",
      "360C",
      "360C",
      "360C",
      "360C",
      "360C",
      "360C",
      "360C",
      "360C",
      "360C",
      "360C",
      "360C",
      "360C",
      "360C",
      "360C",
      "360C",
      "360C",
      "360C",
      "360C",
      "360C",
      "360C",
      "360C",
      "360C",
      "360C",
      "360C",
      "360C",
      "360C",
      "360C",
      "360C",
      "360C",
      "360C",
      "360C",
      "360C",
      "360C",
      "360C",
      "360C",
      "360C",
      "360C",
      "360C",
      "360C",
      "360C",
      "360C",
      "360C",
      "360C",
      "360C",
      "360C",
      "360C",
      "360C",
      "360C",
      "360C",
      "360C",
      "360C",
      "360C",
      "360C",
      "360C",
      "360C",
      "360C",
      "360C",
      "360C",
      "360C",
      "360C",
      "360C",
      "360C",
      "360C",
      "360C",
      "360C",
      "360C",
      "360C",
      "360C",
      "360C",
      "360C",
      "360C",
      "360C",
      "360C",
      "360C",
      "360C",
      "360C",
      "360C",
      "360C",
      "360C",
      "360C",
      "360C",
      "360C",
      "360C",
      "360C",
      "360C",
      "360C",
      "360C",
      "360C",
      "360C",
      "360C",
      "360C",
      "360C",
      "360C",
      "360C",
      "360C",
      "360C",
      "360C",
      "360C",
      "360C",
      "360C",
      "360C",
      "360C",
      "360C",
      "360C",
      "360C",
      "360C",
      "360C",
      "360C",
      "360C",
      "360C",
      "360C",
      "360C",
      "360C",
      "360C",
      "360C",
      "360C",
      "360C",
      "360C",
      "360C",
      "360C",
      "360C",
      "360C",
      "360C",
      "360C",
      "360C",
      "360C",
      "360C",
      "360C",
      "360C",
      "360C",
      "360C",
      "360C",
      "360C",
      "360C",
      "360C",
      "360C",
      "360C",
      "360C",
      "360C",
      "360C",
      "360C",
      "360C",
      "360C",
      "360C",
      "360C",
      "360C",
      "360C",
      "360C",
      "360C",
      "360C",
      "360C",
      "360C",
      "360C",
      "360C",
      "360C",
      "360C",
      "360C",
      "360C",
      "360C",
      "360C",
      "360C",
      "360C",
      "360C",
      "360",
      "355",
      "346",
      "336",
      "326",
      "320C",
      "320C",
      "320",
      "320",
      "320",
      "312",
      "300",
      "292",
      "272",
      "265",
      "247",
      "238",
      "228",
      "222",
      "207",
      "199",
      "187",
      "180",
      "172",
      "169",
      "157",
      "153",
      "136",
      "133",
      "124",
      "122",
      "115",
      "103",
      "101",
      "093",
      "091",
      "083",
      "082",
      "073",
      "071",
      "063",
      "062",
      "060",
      "060",
      "055",
      "052",
      "044",
      "040",
      "026",
      "022",
      "014",
      "012",
      "005",
      "003"
    ],
    "swim:geom": "path",
    "swim:speeds": [
      193,
      216,
      224,
      240,
      252,
      255,
      258,
      276,
      329,
      346,
      359,
      376,
      387,
      397,
      413,
      416,
      421,
      425,
      426,
      431,
      438,
      444,
      440,
      431,
      429,
      428,
      419,
      417,
      416,
      414,
      415,
      417,
      418,
      418,
      417,
      417,
      419,
      420,
      422,
      422,
      420,
      423,
      421,
      421,
      424,
      425,
      426,
      427,
      428,
      429,
      429,
      429,
      430,
      432,
      433,
      435,
      435,
      435,
      434,
      433,
      432,
      432,
      431,
      431,
      430,
      432,
      430,
      432,
      431,
      432,
      432,
      432,
      432,
      432,
      432,
      432,
      431,
      432,
      431,
      432,
      431,
      433,
      432,
      434,
      434,
      434,
      436,
      441,
      438,
      440,
      439,
      440,
      439,
      440,
      439,
      439,
      438,
      437,
      436,
      435,
      435,
      433,
      433,
      433,
      433,
      433,
      433,
      433,
      434,
      434,
      435,
      436,
      436,
      437,
      438,
      438,
      438,
      439,
      439,
      438,
      438,
      437,
      437,
      437,
      437,
      437,
      438,
      439,
      440,
      440,
      441,
      441,
      442,
      442,
      444,
      443,
      443,
      442,
      442,
      441,
      440,
      440,
      439,
      439,
      438,
      438,
      437,
      437,
      436,
      434,
      432,
      431,
      429,
      428,
      428,
      430,
      432,
      435,
      438,
      439,
      440,
      440,
      440,
      440,
      441,
      441,
      441,
      439,
      438,
      437,
      437,
      436,
      437,
      439,
      439,
      439,
      440,
      440,
      441,
      440,
      441,
      440,
      441,
      440,
      442,
      440,
      441,
      440,
      441,
      441,
      441,
      441,
      441,
      442,
      442,
      443,
      443,
      444,
      444,
      444,
      444,
      444,
      444,
      443,
      443,
      443,
      443,
      444,
      445,
      446,
      446,
      448,
      448,
      449,
      449,
      450,
      450,
      451,
      451,
      451,
      451,
      450,
      450,
      449,
      449,
      448,
      448,
      447,
      447,
      446,
      444,
      443,
      441,
      441,
      441,
      441,
      442,
      442,
      443,
      443,
      444,
      445,
      447,
      448,
      449,
      449,
      449,
      450,
      451,
      455,
      451,
      455,
      450,
      454,
      449,
      452,
      449,
      452,
      448,
      452,
      447,
      452,
      447,
      451,
      446,
      449,
      446,
      449,
      446,
      449,
      446,
      449,
      446,
      448,
      446,
      445,
      447,
      446,
      447,
      447,
      449,
      448,
      450,
      451,
      448,
      451,
      450,
      452,
      450,
      451,
      450,
      450,
      449,
      448,
      447,
      446,
      445,
      444,
      443,
      441,
      438,
      437,
      437,
      436,
      436,
      435,
      435,
      435,
      435,
      435,
      435,
      435,
      435,
      435,
      436,
      437,
      439,
      440,
      442,
      443,
      443,
      442,
      443,
      443,
      442,
      442,
      442,
      443,
      444,
      444,
      443,
      442,
      442,
      441,
      440,
      438,
      436,
      441,
      441,
      439,
      439,
      439,
      439,
      439,
      440,
      441,
      442,
      442,
      441,
      436,
      432,
      425,
      412,
      409,
      407,
      406,
      412,
      414,
      415,
      417,
      417,
      418,
      418,
      420,
      419,
      420,
      419,
      419,
      419,
      419,
      419,
      419,
      419,
      418,
      417,
      419,
      431,
      431,
      430,
      429,
      429,
      432,
      434,
      438,
      435,
      436,
      433,
      425,
      412,
      404,
      399,
      389,
      387,
      378,
      350,
      337,
      318,
      312,
      313,
      307,
      287,
      267,
      253,
      242,
      238,
      240,
      239,
      242,
      245,
      242,
      244,
      242,
      242,
      214,
      203,
      202,
      201,
      201,
      199,
      200,
      200,
      171,
      157,
      155,
      149
    ],
    "swim:timestamps": [
      1786531765,
      1786531814,
      1786531825,
      1786531873,
      1786531885,
      1786531934,
      1786531994,
      1786532053,
      1786532114,
      1786532173,
      1786532233,
      1786532293,
      1786532353,
      1786532474,
      1786532534,
      1786532594,
      1786532654,
      1786532714,
      1786532774,
      1786532834,
      1786532894,
      1786532955,
      1786533016,
      1786533076,
      1786533136,
      1786533196,
      1786533256,
      1786533316,
      1786533376,
      1786533436,
      1786533496,
      1786533556,
      1786533616,
      1786533677,
      1786533737,
      1786533797,
      1786533857,
      1786533917,
      1786533977,
      1786534037,
      1786534057,
      1786534093,
      1786534157,
      1786534217,
      1786534273,
      1786534333,
      1786534393,
      1786534453,
      1786534513,
      1786534573,
      1786534633,
      1786534693,
      1786534754,
      1786534814,
      1786534874,
      1786534934,
      1786534994,
      1786535054,
      1786535114,
      1786535174,
      1786535234,
      1786535294,
      1786535354,
      1786535414,
      1786535474,
      1786535489,
      1786535534,
      1786535549,
      1786535594,
      1786535610,
      1786535655,
      1786535670,
      1786535715,
      1786535730,
      1786535775,
      1786535790,
      1786535835,
      1786535850,
      1786535895,
      1786535910,
      1786535955,
      1786535970,
      1786536015,
      1786536030,
      1786536075,
      1786536090,
      1786536135,
      1786536151,
      1786536195,
      1786536211,
      1786536255,
      1786536271,
      1786536315,
      1786536331,
      1786536375,
      1786536391,
      1786536451,
      1786536496,
      1786536511,
      1786536556,
      1786536571,
      1786536616,
      1786536631,
      1786536676,
      1786536691,
      1786536736,
      1786536751,
      1786536796,
      1786536811,
      1786536856,
      1786536872,
      1786536916,
      1786536932,
      1786536976,
      1786536992,
      1786537036,
      1786537052,
      1786537096,
      1786537112,
      1786537157,
      1786537172,
      1786537217,
      1786537232,
      1786537277,
      1786537292,
      1786537337,
      1786537352,
      1786537397,
      1786537413,
      1786537457,
      1786537473,
      1786537517,
      1786537533,
      1786537577,
      1786537593,
      1786537637,
      1786537653,
      1786537697,
      1786537713,
      1786537757,
      1786537773,
      1786537817,
      1786537833,
      1786537878,
      1786537894,
      1786537954,
      1786538014,
      1786538074,
      1786538134,
      1786538194,
      1786538254,
      1786538314,
      1786538374,
      1786538434,
      1786538494,
      1786538555,
      1786538615,
      1786538675,
      1786538735,
      1786538795,
      1786538855,
      1786538915,
      1786538975,
      1786539035,
      1786539095,
      1786539155,
      1786539215,
      1786539348,
      1786539408,
      1786539468,
      1786539528,
      1786539588,
      1786539708,
      1786539768,
      1786539828,
      1786539869,
      1786539888,
      1786539929,
      1786539948,
      1786539989,
      1786540009,
      1786540049,
      1786540069,
      1786540109,
      1786540129,
      1786540169,
      1786540189,
      1786540229,
      1786540249,
      1786540289,
      1786540309,
      1786540349,
      1786540369,
      1786540409,
      1786540429,
      1786540470,
      1786540489,
      1786540530,
      1786540549,
      1786540590,
      1786540609,
      1786540650,
      1786540669,
      1786540710,
      1786540730,
      1786540770,
      1786540790,
      1786540830,
      1786540850,
      1786540890,
      1786540910,
      1786540950,
      1786540970,
      1786541010,
      1786541030,
      1786541070,
      1786541090,
      1786541130,
      1786541150,
      1786541190,
      1786541207,
      1786541251,
      1786541270,
      1786541311,
      1786541327,
      1786541371,
      1786541391,
      1786541431,
      1786541451,
      1786541491,
      1786541551,
      1786541611,
      1786541671,
      1786541731,
      1786541791,
      1786541851,
      1786541912,
      1786541972,
      1786542032,
      1786542092,
      1786542152,
      1786542212,
      1786542272,
      1786542332,
      1786542392,
      1786542452,
      1786542512,
      1786542572,
      1786542633,
      1786542640,
      1786542693,
      1786542700,
      1786542753,
      1786542760,
      1786542813,
      1786542820,
      1786542873,
      1786542881,
      1786542933,
      1786542941,
      1786542993,
      1786543001,
      1786543053,
      1786543061,
      1786543113,
      1786543121,
      1786543173,
      1786543181,
      1786543233,
      1786543241,
      1786543293,
      1786543301,
      1786543354,
      1786543361,
      1786543414,
      1786543421,
      1786543474,
      1786543481,
      1786543534,
      1786543541,
      1786543594,
      1786543602,
      1786543654,
      1786543714,
      1786543722,
      1786543774,
      1786543782,
      1786543834,
      1786543842,
      1786543894,
      1786543902,
      1786543954,
      1786543962,
      1786544014,
      1786544022,
      1786544075,
      1786544082,
      1786544135,
      1786544142,
      1786544202,
      1786544262,
      1786544315,
      1786544323,
      1786544383,
      1786544435,
      1786544443,
      1786544495,
      1786544503,
      1786544555,
      1786544563,
      1786544615,
      1786544623,
      1786544675,
      1786544743,
      1786544803,
      1786544863,
      1786544923,
      1786544983,
      1786545044,
      1786545104,
      1786545164,
      1786545224,
      1786545284,
      1786545344,
      1786545404,
      1786545464,
      1786545524,
      1786545584,
      1786545644,
      1786545704,
      1786545765,
      1786545825,
      1786545885,
      1786545945,
      1786546005,
      1786546065,
      1786546125,
      1786546185,
      1786546245,
      1786546321,
      1786546377,
      1786546437,
      1786546498,
      1786546558,
      1786546618,
      1786546678,
      1786546738,
      1786546798,
      1786546858,
      1786546918,
      1786546978,
      1786547038,
      1786547098,
      1786547158,
      1786547218,
      1786547279,
      1786547339,
      1786547399,
      1786547459,
      1786547474,
      1786547519,
      1786547534,
      1786547579,
      1786547594,
      1786547639,
      1786547654,
      1786547699,
      1786547714,
      1786547759,
      1786547774,
      1786547834,
      1786547895,
      1786547955,
      1786548015,
      1786548075,
      1786548135,
      1786548195,
      1786548255,
      1786548315,
      1786548375,
      1786548435,
      1786548495,
      1786548555,
      1786548564,
      1786548616,
      1786548625,
      1786548676,
      1786548691,
      1786548736,
      1786548745,
      1786548796,
      1786548811,
      1786548856,
      1786548865,
      1786548916,
      1786548925,
      1786548976,
      1786548985,
      1786549036,
      1786549045,
      1786549096,
      1786549111,
      1786549156,
      1786549216,
      1786549226,
      1786549276,
      1786549286,
      1786549336,
      1786549345,
      1786549397,
      1786549406,
      1786549457,
      1786549466,
      1786549517,
      1786549531,
      1786549577,
      1786549591,
      1786549637,
      1786549651,
      1786549697,
      1786549711,
      1786549757,
      1786549772,
      1786549817,
      1786549832
    ],
    "wof:geomhash": "8f711a6ba0a2120ea1b734575a170f02",
    "wof:id": 2047941775,
    "wof:repo": "sfomuseum-data-flights-2026-08"
  },
  "bbox": [
    -122.35,
    35.6575,
    -78.82472222222222,
    38.45416666666667
  ],
  "geometry": {"type":"LineString","coordinates":[[-78.82472222222222,35.85388888888889],[-78.87416666666665,35.84027777777778],[-78.89250000000001,35.83972222222222],[-78.95083333333334,35.83777777777778],[-78.97194444444445,35.83694444444445],[-79.03972222222222,35.83361111111111],[-79.12694444444443,35.83166666666667],[-79.21972222222223,35.82833333333333],[-79.32583333333334,35.82472222222223],[-79.44694444444445,35.82027777777778],[-79.56861111111111,35.81222222222222],[-79.69166666666668,35.78944444444444],[-79.82055555555556,35.768055555555556],[-80.0736111111111,35.725],[-80.21083333333334,35.70111111111111],[-80.35111111111111,35.67638888888889],[-80.49277777777777,35.6575],[-80.63833333333334,35.668055555555554],[-80.78333333333333,35.68055555555555],[-80.93055555555556,35.69305555555555],[-81.08027777777778,35.705555555555556],[-81.25472222222223,35.719722222222224],[-81.40194444444445,35.73166666666667],[-81.54472222222222,35.74333333333333],[-81.68916666666667,35.754444444444445],[-81.83416666666666,35.76555555555556],[-81.97555555555556,35.77638888888889],[-82.11638888888888,35.786944444444444],[-82.25722222222223,35.79694444444444],[-82.39472222222223,35.80694444444444],[-82.5375,35.81722222222223],[-82.68194444444445,35.827222222222225],[-82.82472222222222,35.83694444444445],[-82.96666666666667,35.84638888888889],[-83.10833333333333,35.85583333333334],[-83.2538888888889,35.86527777777778],[-83.39666666666668,35.874722222222225],[-83.54055555555556,35.88333333333333],[-83.68444444444445,35.89222222222222],[-83.82833333333333,35.90083333333333],[-83.88666666666667,35.903055555555554],[-83.97166666666666,35.89277777777778],[-84.10694444444444,35.85805555555556],[-84.24361111111111,35.816944444444445],[-84.37527777777777,35.76444444444444],[-84.51944444444445,35.75055555555556],[-84.66555555555556,35.7475],[-84.78583333333333,35.74472222222222],[-84.93555555555555,35.745],[-85.08333333333333,35.76444444444444],[-85.22722222222222,35.796388888888885],[-85.36944444444444,35.828611111111115],[-85.51055555555556,35.85944444444445],[-85.6563888888889,35.89111111111111],[-85.79888888888888,35.92166666666667],[-85.955,35.955555555555556],[-86.09833333333333,35.986111111111114],[-86.24194444444444,36.01638888888889],[-86.3863888888889,36.04694444444444],[-86.52972222222222,36.07666666666667],[-86.67472222222223,36.106944444444444],[-86.81916666666666,36.136944444444445],[-86.96583333333334,36.16694444444444],[-87.11055555555555,36.19638888888888],[-87.22611111111111,36.219722222222224],[-87.28333333333333,36.23222222222223],[-87.36999999999999,36.24888888888889],[-87.42722222222223,36.26027777777778],[-87.51527777777778,36.278055555555554],[-87.57194444444444,36.28916666666667],[-87.6588888888889,36.30638888888888],[-87.71722222222222,36.31722222222223],[-87.80444444444444,36.33527777777778],[-87.86194444444443,36.34666666666667],[-87.94972222222222,36.36361111111111],[-88.00583333333333,36.37444444444444],[-88.0936111111111,36.391666666666666],[-88.15055555555556,36.40222222222222],[-88.2375,36.41916666666666],[-88.29444444444444,36.430277777777775],[-88.38055555555555,36.446666666666665],[-88.43972222222223,36.45805555555556],[-88.5261111111111,36.474444444444444],[-88.585,36.48583333333333],[-88.6725,36.50222222222222],[-88.73083333333334,36.51305555555555],[-88.82166666666666,36.530277777777776],[-88.87972222222221,36.54111111111111],[-88.9961111111111,36.562777777777775],[-89.02833333333334,36.56861111111112],[-89.14361111111111,36.59],[-89.17305555555556,36.59527777777778],[-89.29027777777777,36.61694444444444],[-89.32055555555556,36.6225],[-89.43555555555555,36.64333333333333],[-89.47,36.64944444444444],[-89.61611111111111,36.67611111111111],[-89.7275,36.69583333333333],[-89.76305555555555,36.702222222222225],[-89.87416666666665,36.721944444444446],[-89.9038888888889,36.727222222222224],[-90.02027777777778,36.74777777777778],[-90.05083333333333,36.75333333333333],[-90.16611111111112,36.77333333333333],[-90.19527777777778,36.77861111111111],[-90.3125,36.799166666666665],[-90.3436111111111,36.80444444444444],[-90.45972222222223,36.82416666666667],[-90.49138888888889,36.82972222222222],[-90.60722222222222,36.849722222222226],[-90.63833333333334,36.855000000000004],[-90.75666666666666,36.875],[-90.7875,36.88027777777778],[-90.90666666666667,36.900277777777774],[-90.93611111111112,36.905277777777776],[-91.05611111111111,36.92527777777777],[-91.08666666666666,36.930277777777775],[-91.20916666666668,36.95055555555556],[-91.24027777777778,36.955555555555556],[-91.35749999999999,36.975],[-91.38916666666667,36.98027777777778],[-91.50583333333333,36.99916666666667],[-91.53777777777778,37.004444444444445],[-91.65472222222223,37.02333333333333],[-91.68555555555555,37.02833333333333],[-91.80583333333333,37.0475],[-91.83666666666666,37.05222222222222],[-91.92555555555556,37.06666666666667],[-91.9888888888889,37.07638888888889],[-92.07916666666667,37.090833333333336],[-92.13972222222223,37.10027777777778],[-92.23,37.114444444444445],[-92.29083333333332,37.12416666666667],[-92.38333333333334,37.13805555555555],[-92.44527777777778,37.1475],[-92.53555555555555,37.16138888888889],[-92.565,37.16583333333333],[-92.68583333333333,37.18444444444444],[-92.71666666666667,37.189166666666665],[-92.83777777777777,37.2075],[-92.86805555555554,37.21194444444445],[-92.9875,37.230000000000004],[-93.01805555555555,37.23444444444444],[-93.13861111111112,37.25222222222222],[-93.16916666666667,37.25666666666667],[-93.32027777777778,37.278888888888886],[-93.47027777777778,37.300555555555555],[-93.62027777777777,37.32222222222222],[-93.76888888888888,37.343333333333334],[-93.91777777777779,37.364444444444445],[-94.06638888888888,37.38527777777778],[-94.21388888888889,37.405833333333334],[-94.3625,37.42611111111111],[-94.52666666666667,37.448611111111106],[-94.67500000000001,37.468333333333334],[-94.82444444444444,37.48833333333334],[-94.97444444444444,37.50805555555556],[-95.12388888888889,37.527499999999996],[-95.27777777777777,37.5475],[-95.43222222222222,37.566944444444445],[-95.58277777777778,37.58583333333333],[-95.735,37.60527777777778],[-95.88805555555557,37.62416666666667],[-96.04027777777777,37.64277777777778],[-96.19305555555556,37.66111111111111],[-96.34388888888888,37.67916666666667],[-96.49861111111112,37.697222222222216],[-96.83222222222221,37.73638888888889],[-96.9825,37.75333333333333],[-97.13416666666667,37.77055555555555],[-97.28472222222221,37.78722222222222],[-97.43805555555556,37.80416666666667],[-97.72305555555556,37.835],[-97.87722222222222,37.85111111111111],[-98.02972222222222,37.867222222222225],[-98.155,37.87916666666667],[-98.18333333333334,37.88305555555556],[-98.30805555555555,37.89472222222222],[-98.33749999999999,37.89861111111111],[-98.46222222222222,37.90972222222222],[-98.49,37.91416666666667],[-98.61555555555555,37.925555555555555],[-98.64416666666668,37.92944444444444],[-98.76888888888888,37.94083333333333],[-98.79972222222221,37.94472222222222],[-98.9238888888889,37.955555555555556],[-98.9525,37.95944444444445],[-99.07722222222222,37.97],[-99.10694444444444,37.97416666666667],[-99.23055555555555,37.98555555555556],[-99.26138888888889,37.98861111111111],[-99.38388888888889,38],[-99.41444444444446,38.00277777777778],[-99.53944444444444,38.01444444444444],[-99.56861111111111,38.01694444444444],[-99.69500000000001,38.02833333333333],[-99.72444444444444,38.030833333333334],[-99.84861111111111,38.04194444444444],[-99.87944444444443,38.04472222222222],[-100.00527777777778,38.05583333333333],[-100.03361111111111,38.058055555555555],[-100.16083333333334,38.06916666666667],[-100.1888888888889,38.07138888888889],[-100.31277777777777,38.081944444444446],[-100.34166666666667,38.08416666666667],[-100.46805555555555,38.094722222222224],[-100.52666666666667,38.099722222222226],[-100.62249999999999,38.1075],[-100.68166666666667,38.11222222222222],[-100.77777777777777,38.12],[-100.83749999999999,38.124722222222225],[-100.93277777777779,38.132222222222225],[-100.99555555555555,38.13722222222222],[-101.08999999999999,38.14472222222222],[-101.15111111111112,38.14944444444444],[-101.24833333333333,38.156666666666666],[-101.30722222222222,38.16111111111111],[-101.40666666666667,38.16861111111111],[-101.46611111111112,38.17305555555555],[-101.56388888888888,38.180277777777775],[-101.62277777777777,38.18444444444444],[-101.72027777777778,38.19166666666666],[-101.77972222222222,38.19583333333333],[-101.87638888888888,38.20277777777778],[-101.93722222222223,38.206944444444446],[-102.03388888888888,38.21361111111111],[-102.09277777777777,38.217777777777776],[-102.18861111111111,38.224444444444444],[-102.24888888888889,38.228611111111114],[-102.34472222222222,38.234722222222224],[-102.50138888888888,38.24527777777778],[-102.65666666666667,38.255],[-102.81,38.265],[-102.965,38.27444444444444],[-103.12027777777777,38.28388888888889],[-103.27444444444444,38.29277777777778],[-103.43055555555556,38.301944444444445],[-103.61749999999999,38.3125],[-103.7725,38.321111111111115],[-103.92611111111111,38.32916666666667],[-104.08472222222221,38.337500000000006],[-104.22277777777778,38.34444444444445],[-104.38277777777778,38.3525],[-104.54166666666667,38.36],[-104.69861111111112,38.3675],[-104.85916666666667,38.374722222222225],[-105.01833333333333,38.38166666666667],[-105.17777777777778,38.38861111111111],[-105.33805555555556,38.39527777777778],[-105.365,38.39361111111111],[-105.46416666666667,38.400277777777774],[-105.52472222222222,38.399166666666666],[-105.6575,38.407777777777774],[-105.68194444444445,38.406388888888884],[-105.81583333333333,38.41361111111111],[-105.83999999999999,38.4125],[-105.98,38.41972222222222],[-105.99916666666667,38.4175],[-106.13805555555557,38.425],[-106.15694444444445,38.42305555555555],[-106.30166666666666,38.430277777777775],[-106.31472222222222,38.42805555555555],[-106.46027777777778,38.43583333333333],[-106.47305555555556,38.43277777777777],[-106.61972222222222,38.44027777777777],[-106.63,38.43861111111111],[-106.77888888888889,38.44499999999999],[-106.78777777777778,38.442499999999995],[-106.93666666666667,38.44944444444444],[-106.94527777777778,38.44833333333333],[-107.095,38.45305555555556],[-107.10277777777777,38.45111111111111],[-107.22694444444444,38.45277777777778],[-107.26138888888889,38.45194444444445],[-107.38583333333334,38.45333333333333],[-107.41722222222222,38.45305555555556],[-107.54416666666667,38.45388888888889],[-107.5786111111111,38.4525],[-107.7038888888889,38.45416666666667],[-107.7388888888889,38.4525],[-107.86472222222221,38.45416666666667],[-107.89694444444446,38.45277777777778],[-108.02444444444444,38.45388888888889],[-108.18472222222222,38.45333333333333],[-108.21666666666667,38.4525],[-108.3436111111111,38.45277777777778],[-108.3786111111111,38.45138888888889],[-108.5038888888889,38.45166666666667],[-108.53833333333333,38.45055555555556],[-108.66388888888889,38.45055555555556],[-108.70805555555556,38.45],[-108.82444444444444,38.44916666666666],[-108.85416666666666,38.44888888888889],[-108.98111111111112,38.4475],[-109.01277777777777,38.447222222222216],[-109.13833333333334,38.44583333333333],[-109.16944444444445,38.44555555555555],[-109.29416666666667,38.443888888888885],[-109.32638888888889,38.44333333333333],[-109.48083333333334,38.441111111111105],[-109.635,38.43888888888888],[-109.75805555555556,38.43666666666666],[-109.78694444444444,38.43611111111111],[-109.94472222222223,38.43333333333333],[-110.06555555555555,38.43111111111111],[-110.09722222222221,38.43055555555555],[-110.22111111111111,38.428888888888885],[-110.25111111111111,38.42861111111111],[-110.37444444444444,38.42722222222222],[-110.405,38.42666666666666],[-110.52972222222222,38.42472222222222],[-110.56083333333333,38.424166666666665],[-110.68222222222222,38.42194444444444],[-110.86749999999999,38.41888888888889],[-111.03388888888888,38.41583333333333],[-111.18944444444445,38.41277777777778],[-111.34472222222222,38.409444444444446],[-111.50083333333333,38.405833333333334],[-111.65583333333333,38.40222222222222],[-111.81472222222222,38.39805555555556],[-111.97027777777778,38.39388888888889],[-112.12444444444444,38.38944444444444],[-112.24833333333333,38.38583333333333],[-112.43722222222223,38.38],[-112.59166666666667,38.375],[-112.74527777777777,38.36972222222222],[-112.90305555555557,38.36416666666667],[-113.05805555555555,38.359722222222224],[-113.215,38.35861111111111],[-113.36916666666666,38.356944444444444],[-113.52416666666666,38.35527777777778],[-113.68027777777779,38.35333333333333],[-113.83611111111111,38.35111111111111],[-113.99,38.34861111111111],[-114.14500000000001,38.346111111111114],[-114.29916666666666,38.343333333333334],[-114.45277777777778,38.34027777777778],[-114.60888888888888,38.33694444444445],[-114.76277777777777,38.333333333333336],[-114.95694444444445,38.32944444444445],[-115.07194444444444,38.330000000000005],[-115.25944444444444,38.33111111111111],[-115.41972222222223,38.33222222222223],[-115.57583333333334,38.33277777777778],[-115.73222222222222,38.33305555555556],[-115.88916666666667,38.33361111111111],[-116.04416666666667,38.33361111111111],[-116.20027777777779,38.33361111111111],[-116.3561111111111,38.32694444444445],[-116.50472222222223,38.294999999999995],[-116.64972222222222,38.26083333333333],[-116.77305555555556,38.19333333333333],[-116.88944444444445,38.12555555555556],[-117.00722222222223,38.05722222222222],[-117.12333333333332,37.99],[-117.24055555555556,37.92222222222222],[-117.34888888888888,37.896388888888886],[-117.49638888888889,37.8975],[-117.64750000000001,37.897777777777776],[-117.7063888888889,37.897777777777776],[-117.79527777777777,37.89805555555556],[-117.85555555555555,37.89805555555556],[-117.94083333333333,37.89833333333333],[-118.00416666666666,37.89833333333333],[-118.09194444444444,37.89861111111111],[-118.15305555555557,37.89833333333333],[-118.2388888888889,37.897777777777776],[-118.29833333333333,37.8975],[-118.38694444444445,37.89722222222222],[-118.41805555555555,37.89722222222222],[-118.56555555555555,37.89666666666667],[-118.71277777777777,37.895833333333336],[-118.85888888888888,37.885],[-119.0025,37.868611111111115],[-119.15222222222222,37.85138888888889],[-119.29722222222222,37.83444444444444],[-119.44638888888889,37.816944444444445],[-119.59694444444445,37.79888888888889],[-119.7461111111111,37.780833333333334],[-119.89583333333334,37.7625],[-120.04555555555555,37.744166666666665],[-120.19555555555556,37.72555555555556],[-120.34583333333333,37.70666666666667],[-120.38333333333334,37.7],[-120.5,37.68805555555555],[-120.53333333333333,37.68333333333333],[-120.64944444444446,37.670833333333334],[-120.7,37.666666666666664],[-120.79527777777777,37.65333333333333],[-120.83333333333333,37.65],[-120.93388888888889,37.63638888888889],[-120.98333333333333,37.63333333333333],[-121.06611111111111,37.61944444444445],[-121.1,37.61666666666667],[-121.20527777777778,37.60027777777778],[-121.23333333333333,37.6],[-121.3175,37.586111111111116],[-121.33333333333333,37.583333333333336],[-121.42444444444445,37.57416666666667],[-121.45,37.56666666666667],[-121.525,37.5625],[-121.55,37.56666666666667],[-121.61527777777778,37.551944444444445],[-121.68277777777779,37.51583333333333],[-121.7,37.5],[-121.74194444444444,37.46944444444445],[-121.75,37.46666666666667],[-121.81583333333333,37.43722222222222],[-121.83333333333333,37.43333333333333],[-121.89666666666668,37.419444444444444],[-121.91666666666667,37.416666666666664],[-121.9713888888889,37.45027777777778],[-121.98333333333333,37.45],[-122.0425,37.48027777777778],[-122.06666666666666,37.483333333333334],[-122.10333333333332,37.50666666666667],[-122.11666666666666,37.516666666666666],[-122.16611111111112,37.533055555555556],[-122.18333333333334,37.53333333333333],[-122.22638888888889,37.558611111111105],[-122.25,37.56666666666667],[-122.28361111111111,37.5825],[-122.3,37.583333333333336],[-122.33138888888888,37.60277777777778],[-122.35,37.6]]}
}
