{
  "id": 2032133941,
  "type": "Feature",
  "properties": {
    "geom:area": 0,
    "geom:bbox": "-175.816667,37.633333,172.166667,54.966667",
    "geom:latitude": 52.82162822660469,
    "geom:longitude": -22.556199279565135,
    "src:alt_label": "swim-path",
    "src:geom": "swim",
    "swim:altitudes": [
      "006",
      "031",
      "042",
      "059",
      "081",
      "099",
      "109",
      "117",
      "130C",
      "132",
      "134",
      "147C",
      "147",
      "166",
      "182",
      "195",
      "208",
      "210",
      "227",
      "241",
      "248",
      "248",
      "262C",
      "275",
      "282",
      "288C",
      "289",
      "296C",
      "298C",
      "300",
      "300C",
      "300C",
      "300C",
      "300C",
      "300C",
      "300C",
      "300C",
      "300",
      "300C",
      "300C",
      "300C",
      "300C",
      "300C",
      "300",
      "300C",
      "300",
      "300C",
      "300C",
      "300C",
      "300C",
      "300C",
      "300C",
      "300C",
      "300C",
      "300C",
      "300C",
      "300C",
      "300C",
      "300C",
      "300C",
      "300C",
      "300C",
      "300C",
      "320",
      "320",
      "320",
      "320",
      "320",
      "320",
      "320",
      "320",
      "320",
      "320",
      "320",
      "320",
      "320",
      "320",
      "320",
      "320",
      "320",
      "320",
      "320",
      "320",
      "320",
      "320",
      "320",
      "320",
      "320",
      "320",
      "320",
      "320",
      "320",
      "320",
      "320",
      "320",
      "320",
      "320",
      "320",
      "320",
      "320",
      "320",
      "320",
      "320",
      "320",
      "320",
      "320",
      "320",
      "320",
      "320",
      "330",
      "330",
      "330",
      "330",
      "330",
      "330"
    ],
    "swim:geom": "path",
    "swim:speeds": [
      186,
      221,
      274,
      298,
      304,
      317,
      340,
      359,
      390,
      388,
      398,
      410,
      406,
      424,
      431,
      443,
      448,
      454,
      462,
      456,
      454,
      467,
      470,
      473,
      481,
      490,
      487,
      490,
      491,
      500,
      501,
      503,
      505,
      505,
      505,
      505,
      505,
      500,
      505,
      505,
      506,
      506,
      506,
      520,
      506,
      510,
      506,
      505,
      506,
      506,
      504,
      503,
      502,
      501,
      501,
      503,
      503,
      503,
      504,
      504,
      504,
      504,
      504,
      490,
      480,
      480,
      480,
      480,
      470,
      480,
      480,
      480,
      480,
      480,
      480,
      480,
      480,
      480,
      480,
      480,
      480,
      480,
      480,
      480,
      470,
      480,
      480,
      480,
      470,
      470,
      470,
      470,
      480,
      480,
      480,
      480,
      480,
      480,
      480,
      480,
      480,
      480,
      480,
      480,
      480,
      480,
      480,
      490,
      490,
      490,
      490,
      500,
      500,
      490,
      480
    ],
    "swim:timestamps": [
      1786051722,
      1786051799,
      1786051859,
      1786051919,
      1786051979,
      1786052039,
      1786052099,
      1786052151,
      1786052204,
      1786052212,
      1786052219,
      1786052264,
      1786052279,
      1786052339,
      1786052400,
      1786052460,
      1786052512,
      1786052520,
      1786052580,
      1786052640,
      1786052692,
      1786052700,
      1786052745,
      1786052820,
      1786052880,
      1786052925,
      1786052940,
      1786052985,
      1786053000,
      1786053045,
      1786053053,
      1786053060,
      1786053113,
      1786053121,
      1786053181,
      1786053233,
      1786053241,
      1786053285,
      1786053301,
      1786053361,
      1786053421,
      1786053481,
      1786053541,
      1786053586,
      1786053593,
      1786053645,
      1786053653,
      1786053661,
      1786053714,
      1786053721,
      1786053781,
      1786053842,
      1786053894,
      1786053902,
      1786053954,
      1786054022,
      1786054074,
      1786054082,
      1786054142,
      1786054262,
      1786054314,
      1786054322,
      1786054374,
      1786065149,
      1786065210,
      1786065270,
      1786065330,
      1786065391,
      1786065451,
      1786065511,
      1786065572,
      1786065633,
      1786065693,
      1786065814,
      1786065874,
      1786065936,
      1786065996,
      1786066056,
      1786066117,
      1786066178,
      1786066239,
      1786066299,
      1786066360,
      1786066421,
      1786066480,
      1786066541,
      1786066602,
      1786066663,
      1786066723,
      1786066784,
      1786066845,
      1786066905,
      1786066966,
      1786067027,
      1786067088,
      1786067148,
      1786067208,
      1786067268,
      1786067329,
      1786067390,
      1786067449,
      1786067509,
      1786067570,
      1786067630,
      1786067690,
      1786067751,
      1786067812,
      1786067872,
      1786067932,
      1786069329,
      1786069390,
      1786069450,
      1786069511,
      1786069571,
      1786072957
    ],
    "wof:geomhash": "48c97a87fcf0ed0ff55ed5b00a525a05",
    "wof:id": 2032133941,
    "wof:repo": "sfomuseum-data-flights-2026-08"
  },
  "bbox": [
    -175.81666666666666,
    37.63333333333333,
    172.16666666666666,
    54.96666666666667
  ],
  "geometry": {"type":"MultiLineString","coordinates":[[[-122.4,37.63333333333333],[-122.4713888888889,37.66083333333333],[-122.54888888888888,37.70138888888889],[-122.63277777777778,37.75083333333333],[-122.72083333333333,37.80222222222222],[-122.79444444444444,37.868611111111115],[-122.8475,37.93277777777777],[-122.91000000000001,38.00888888888889],[-122.96666666666667,38.083333333333336],[-122.9863888888889,38.10138888888889],[-122.99666666666667,38.11222222222222],[-123.05,38.18333333333333],[-123.06027777777777,38.187777777777775],[-123.16000000000001,38.30638888888888],[-123.24444444444444,38.40611111111111],[-123.33166666666666,38.51027777777778],[-123.40972222222223,38.60333333333333],[-123.42083333333333,38.61527777777778],[-123.51305555555555,38.72361111111111],[-123.61416666666666,38.82138888888889],[-123.71944444444445,38.89611111111111],[-123.73111111111112,38.90861111111111],[-123.8,38.983333333333334],[-123.94555555555556,39.12916666666667],[-124.0363888888889,39.2275],[-124.1,39.3],[-124.1388888888889,39.33638888888889],[-124.21666666666667,39.4],[-124.26222222222222,39.43527777777778],[-124.33333333333333,39.516666666666666],[-124.35805555555555,39.53472222222222],[-124.38083333333333,39.55833333333333],[-124.46805555555555,39.64861111111111],[-124.49111111111111,39.67222222222222],[-124.60083333333333,39.784166666666664],[-124.68861111111111,39.87388888888889],[-124.71138888888889,39.89722222222222],[-124.76666666666667,39.96666666666667],[-124.82277777777777,40.010555555555555],[-124.93472222222222,40.12361111111111],[-125.04555555555555,40.23527777777778],[-125.15722222222223,40.34722222222222],[-125.27055555555556,40.46055555555556],[-125.31666666666666,40.53333333333333],[-125.35944444444443,40.54861111111111],[-125.43333333333334,40.63333333333333],[-125.47222222222223,40.660555555555554],[-125.49583333333334,40.68388888888889],[-125.58694444444444,40.77361111111111],[-125.60833333333333,40.79472222222222],[-125.72305555555556,40.90694444444444],[-125.83527777777778,41.01694444444444],[-125.92416666666666,41.10305555555556],[-125.94722222222222,41.12555555555556],[-126.03916666666666,41.214444444444446],[-126.17583333333334,41.34638888888889],[-126.26722222222222,41.43388888888889],[-126.29027777777777,41.45611111111111],[-126.40583333333333,41.56666666666667],[-126.63277777777778,41.791666666666664],[-126.71944444444445,41.880833333333335],[-126.7425,41.90416666666667],[-126.83055555555555,41.99333333333333],[-159.06666666666666,53.93333333333333],[-159.3,53.95],[-159.51666666666668,53.96666666666667],[-159.75,53.983333333333334],[-159.96666666666667,54],[-160.18333333333334,54.016666666666666],[-160.41666666666666,54.05],[-160.63333333333333,54.083333333333336],[-160.85,54.11666666666667],[-161.08333333333334,54.15],[-161.51666666666668,54.2],[-161.73333333333332,54.233333333333334],[-161.96666666666667,54.266666666666666],[-162.18333333333334,54.28333333333333],[-162.41666666666666,54.31666666666667],[-162.63333333333333,54.35],[-162.86666666666667,54.36666666666667],[-163.08333333333334,54.4],[-163.31666666666666,54.416666666666664],[-163.55,54.45],[-163.76666666666668,54.46666666666667],[-163.98333333333332,54.5],[-164.21666666666667,54.516666666666666],[-164.45,54.55],[-164.66666666666666,54.56666666666667],[-164.9,54.6],[-165.11666666666667,54.61666666666667],[-165.35,54.63333333333333],[-165.56666666666666,54.65],[-165.8,54.68333333333333],[-166.03333333333333,54.7],[-166.25,54.71666666666667],[-166.48333333333332,54.733333333333334],[-166.7,54.766666666666666],[-166.93333333333334,54.78333333333333],[-167.16666666666666,54.8],[-167.4,54.81666666666667],[-167.61666666666667,54.833333333333336],[-167.85,54.85],[-168.08333333333334,54.86666666666667],[-168.3,54.88333333333333],[-168.53333333333333,54.9],[-168.76666666666668,54.916666666666664],[-169,54.93333333333333],[-169.23333333333332,54.95],[-169.46666666666667,54.96666666666667],[-174.88333333333333,54.61666666666667],[-175.1,54.583333333333336],[-175.35,54.56666666666667],[-175.58333333333334,54.53333333333333],[-175.81666666666666,54.516666666666666]],[[172.16666666666666,52.38333333333333]]]}
}
