{
  "id": 2032092421,
  "type": "Feature",
  "properties": {
    "geom:area": 0,
    "geom:bbox": "-122.408889,37.633333,-116.995556,48.219444",
    "geom:latitude": 43.05962065028838,
    "geom:longitude": -120.02446846613306,
    "src:alt_label": "swim-path",
    "src:geom": "swim",
    "swim:altitudes": [
      "005",
      "013",
      "036",
      "048",
      "073",
      "099",
      "119",
      "136",
      "152",
      "171",
      "190",
      "208",
      "223",
      "253",
      "266",
      "278",
      "289",
      "310",
      "311",
      "322",
      "330",
      "339",
      "348",
      "358C",
      "360C",
      "360C",
      "360C",
      "360C",
      "360C",
      "360C",
      "360C",
      "360C",
      "360C",
      "360C",
      "360C",
      "360C",
      "360C",
      "360C",
      "360C",
      "360C",
      "360C",
      "360C",
      "360C",
      "360C",
      "360C",
      "360C",
      "360C",
      "360C",
      "360C",
      "360C",
      "360C",
      "360C",
      "360C",
      "360C",
      "360C",
      "360C",
      "360C",
      "360C",
      "360C",
      "360C",
      "360C",
      "360C",
      "360C",
      "360C",
      "360C",
      "355",
      "350C",
      "350C",
      "350C",
      "350C",
      "350C",
      "350C",
      "350C",
      "350C",
      "350C",
      "350C",
      "350C",
      "350C"
    ],
    "swim:geom": "path",
    "swim:speeds": [
      173,
      177,
      184,
      257,
      275,
      283,
      299,
      332,
      354,
      360,
      372,
      382,
      393,
      410,
      412,
      422,
      430,
      460,
      459,
      469,
      471,
      476,
      480,
      480,
      479,
      476,
      475,
      474,
      472,
      470,
      470,
      470,
      471,
      472,
      475,
      476,
      476,
      473,
      472,
      470,
      469,
      469,
      468,
      468,
      466,
      464,
      464,
      464,
      463,
      464,
      464,
      465,
      468,
      469,
      470,
      470,
      470,
      468,
      466,
      463,
      462,
      459,
      458,
      457,
      455,
      451,
      450,
      451,
      451,
      451,
      451,
      449,
      448,
      452,
      456,
      456,
      457,
      457
    ],
    "swim:timestamps": [
      1785773271,
      1785773304,
      1785773364,
      1785773424,
      1785773484,
      1785773544,
      1785773604,
      1785773664,
      1785773724,
      1785773785,
      1785773845,
      1785773910,
      1785773965,
      1785774085,
      1785774145,
      1785774205,
      1785774265,
      1785774385,
      1785774391,
      1785774451,
      1785774505,
      1785774566,
      1785774626,
      1785774686,
      1785774746,
      1785774871,
      1785774926,
      1785774986,
      1785775051,
      1785775106,
      1785775166,
      1785775232,
      1785775347,
      1785775467,
      1785775592,
      1785775647,
      1785775712,
      1785775832,
      1785775892,
      1785775953,
      1785776013,
      1785776073,
      1785776133,
      1785776193,
      1785776253,
      1785776373,
      1785776433,
      1785776493,
      1785776553,
      1785776613,
      1785776673,
      1785776734,
      1785776854,
      1785776914,
      1785777034,
      1785777094,
      1785777154,
      1785777214,
      1785777274,
      1785777394,
      1785777454,
      1785777695,
      1785777755,
      1785777815,
      1785777875,
      1785777995,
      1785778055,
      1785778115,
      1785778175,
      1785778236,
      1785778296,
      1785778416,
      1785778476,
      1785778536,
      1785778656,
      1785778716,
      1785778776,
      1785778836
    ],
    "wof:geomhash": "3f72626d78cf16327654f9bcc13e9d93",
    "wof:id": 2032092421,
    "wof:repo": "sfomuseum-data-flights-2026-08"
  },
  "bbox": [
    -122.4088888888889,
    37.63333333333333,
    -116.99555555555555,
    48.21944444444445
  ],
  "geometry": {"type":"LineString","coordinates":[[-122.4,37.63333333333333],[-122.4088888888889,37.638888888888886],[-122.36194444444443,37.66722222222222],[-122.30472222222222,37.70583333333334],[-122.28944444444444,37.78111111111111],[-122.26388888888889,37.85722222222223],[-122.23916666666666,37.93694444444444],[-122.21138888888889,38.02638888888889],[-122.18083333333334,38.121944444444445],[-122.14972222222222,38.219166666666666],[-122.11805555555554,38.31944444444445],[-122.08444444444444,38.42916666666667],[-122.05666666666666,38.54333333333333],[-122.01361111111112,38.76722222222222],[-122.02111111111111,38.884166666666665],[-122.02805555555555,39.00222222222222],[-122.03416666666666,39.12361111111111],[-122.00694444444444,39.37083333333334],[-122.00277777777778,39.37861111111111],[-121.94527777777778,39.50083333333333],[-121.89194444444445,39.59527777777778],[-121.80666666666666,39.709722222222226],[-121.72555555555556,39.82916666666667],[-121.66861111111112,39.953611111111115],[-121.6111111111111,40.07611111111112],[-121.48416666666667,40.34805555555556],[-121.42583333333334,40.471111111111114],[-121.36694444444444,40.596111111111114],[-121.30888888888889,40.71805555555556],[-121.25,40.841944444444444],[-121.19277777777778,40.96138888888889],[-121.13388888888889,41.08444444444444],[-121.01388888888889,41.3325],[-120.89333333333335,41.57944444444445],[-120.77361111111111,41.823055555555555],[-120.71000000000001,41.95194444444445],[-120.65083333333334,42.071111111111115],[-120.52833333333334,42.31638888888889],[-120.46722222222222,42.437777777777775],[-120.40583333333333,42.559444444444445],[-120.34444444444443,42.68055555555555],[-120.28166666666667,42.803888888888885],[-120.22055555555556,42.92361111111111],[-120.1575,43.046388888888885],[-120.095,43.16722222222222],[-119.96027777777778,43.42722222222222],[-119.89694444444446,43.54888888888889],[-119.83388888888888,43.668055555555554],[-119.77083333333333,43.78805555555555],[-119.70666666666666,43.909444444444446],[-119.64250000000001,44.02972222222222],[-119.57916666666667,44.14861111111111],[-119.44916666666667,44.39055555555556],[-119.38305555555554,44.513333333333335],[-119.25111111111111,44.75472222222222],[-119.18444444444445,44.87638888888889],[-119.11861111111111,44.99611111111111],[-119.05194444444444,45.11666666666667],[-118.98583333333333,45.23527777777778],[-118.85333333333332,45.47222222222222],[-118.78611111111111,45.59166666666667],[-118.51611111111112,46.065],[-118.44805555555556,46.18333333333333],[-118.38,46.300555555555555],[-118.31194444444444,46.4175],[-118.17666666666668,46.64805555555556],[-118.10833333333333,46.76444444444444],[-118.03972222222222,46.87972222222222],[-117.97055555555556,46.99583333333334],[-117.90083333333334,47.11277777777778],[-117.83166666666666,47.22777777777778],[-117.69222222222223,47.45777777777778],[-117.61166666666666,47.58027777777778],[-117.51166666666667,47.68611111111111],[-117.30499999999999,47.90138888888889],[-117.20277777777778,48.00694444444444],[-117.09916666666666,48.11333333333334],[-116.99555555555555,48.21944444444445]]}
}
