{
  "id": 2047888801,
  "type": "Feature",
  "properties": {
    "geom:area": 0,
    "geom:bbox": "-126.873333,37.650278,-122.448056,40.223889",
    "geom:latitude": 38.94628897889172,
    "geom:longitude": -124.65513574682586,
    "src:alt_label": "swim-path",
    "src:geom": "swim",
    "swim:altitudes": [
      "024",
      "034",
      "043",
      "055",
      "075",
      "093",
      "107",
      "117",
      "130",
      "149",
      "168",
      "184",
      "204",
      "216",
      "231",
      "244",
      "255",
      "267",
      "279",
      "289",
      "297",
      "306",
      "318C",
      "320C",
      "320C",
      "320C",
      "320C",
      "320C",
      "320C",
      "320C",
      "320C",
      "320C",
      "320C",
      "320C",
      "320C",
      "320C",
      "320C"
    ],
    "swim:geom": "path",
    "swim:speeds": [
      174,
      198,
      249,
      268,
      278,
      285,
      301,
      343,
      382,
      400,
      412,
      425,
      429,
      440,
      446,
      458,
      467,
      474,
      481,
      488,
      492,
      498,
      497,
      493,
      489,
      487,
      487,
      487,
      487,
      486,
      486,
      484,
      481,
      479,
      478,
      479,
      480
    ],
    "swim:timestamps": [
      1786214194,
      1786214254,
      1786214314,
      1786214375,
      1786214435,
      1786214495,
      1786214555,
      1786214615,
      1786214675,
      1786214735,
      1786214795,
      1786214855,
      1786214915,
      1786214975,
      1786215035,
      1786215096,
      1786215156,
      1786215216,
      1786215276,
      1786215336,
      1786215396,
      1786215456,
      1786215516,
      1786215576,
      1786215636,
      1786215696,
      1786215756,
      1786215817,
      1786215877,
      1786215937,
      1786215997,
      1786216057,
      1786216117,
      1786216177,
      1786216237,
      1786216297,
      1786216357
    ],
    "wof:geomhash": "7cea5d7fe8a8e5537a72ef89a45c6a4d",
    "wof:id": 2047888801,
    "wof:repo": "sfomuseum-data-flights-2026-08"
  },
  "bbox": [
    -126.87333333333332,
    37.650277777777774,
    -122.44805555555556,
    40.223888888888894
  ],
  "geometry": {"type":"LineString","coordinates":[[-122.44805555555556,37.650277777777774],[-122.50666666666666,37.67638888888889],[-122.57249999999999,37.71555555555556],[-122.63305555555554,37.75138888888889],[-122.71305555555556,37.79833333333333],[-122.79277777777777,37.84805555555556],[-122.8761111111111,37.89861111111111],[-122.97027777777778,37.95583333333334],[-123.07388888888889,38.019444444444446],[-123.1863888888889,38.08833333333334],[-123.30138888888888,38.157777777777774],[-123.42083333333333,38.230000000000004],[-123.54194444444444,38.30277777777778],[-123.66416666666667,38.376111111111115],[-123.7911111111111,38.45194444444445],[-123.91972222222223,38.52833333333333],[-124.05111111111111,38.60611111111111],[-124.18583333333333,38.68555555555555],[-124.3386111111111,38.775555555555556],[-124.47888888888889,38.85722222222223],[-124.62083333333332,38.94],[-124.76333333333334,39.0225],[-124.90527777777778,39.10472222222222],[-125.03055555555555,39.17638888888889],[-125.16972222222223,39.25611111111111],[-125.31083333333333,39.33638888888889],[-125.47055555555556,39.42722222222222],[-125.61194444444443,39.50694444444444],[-125.7538888888889,39.586666666666666],[-125.89472222222223,39.66555555555556],[-126.03611111111111,39.744166666666665],[-126.17750000000001,39.822500000000005],[-126.31833333333333,39.9],[-126.45972222222223,39.97777777777778],[-126.59833333333333,40.058055555555555],[-126.73333333333333,40.14055555555556],[-126.87333333333332,40.223888888888894]]}
}
