{
  "id": 2032078081,
  "type": "Feature",
  "properties": {
    "geom:area": 0,
    "geom:bbox": "-127.021944,37.635000,-122.414167,37.848611",
    "geom:latitude": 37.78000613873681,
    "geom:longitude": -124.71324652693444,
    "src:alt_label": "swim-path",
    "src:geom": "swim",
    "swim:altitudes": [
      "014",
      "019",
      "029",
      "032C",
      "038",
      "051",
      "071",
      "103",
      "109",
      "123",
      "150",
      "164",
      "177",
      "192",
      "204",
      "216",
      "230",
      "240",
      "261",
      "270",
      "279C",
      "281",
      "292",
      "300C",
      "300C",
      "300C",
      "300C",
      "300C",
      "300C",
      "300C"
    ],
    "swim:geom": "path",
    "swim:speeds": [
      184,
      213,
      209,
      210,
      250,
      286,
      294,
      310,
      360,
      378,
      394,
      404,
      411,
      418,
      424,
      432,
      440,
      447,
      456,
      458,
      461,
      474,
      477,
      476,
      476,
      476,
      476,
      476,
      476,
      476
    ],
    "swim:timestamps": [
      1785707812,
      1785707834,
      1785707872,
      1785707899,
      1785707932,
      1785707992,
      1785708052,
      1785708172,
      1785708232,
      1785708292,
      1785708412,
      1785708472,
      1785708533,
      1785708593,
      1785708653,
      1785708713,
      1785708773,
      1785708833,
      1785708953,
      1785709013,
      1785709073,
      1785709133,
      1785709193,
      1785709374,
      1785709434,
      1785709494,
      1785709554,
      1785709614,
      1785709674,
      1785709734
    ],
    "wof:geomhash": "386dfdf6390468a46bfe7c669e0e9672",
    "wof:id": 2032078081,
    "wof:repo": "sfomuseum-data-flights-2026-08"
  },
  "bbox": [
    -127.02194444444444,
    37.635,
    -122.41416666666667,
    37.84861111111111
  ],
  "geometry": {"coordinates":[[-122.41416666666667,37.635],[-122.43333333333334,37.65],[-122.47722222222222,37.66305555555555],[-122.5,37.666666666666664],[-122.55805555555555,37.67805555555555],[-122.65583333333333,37.68388888888889],[-122.76027777777777,37.69027777777777],[-122.97416666666666,37.7025],[-123.09583333333333,37.71],[-123.22916666666667,37.717222222222226],[-123.47722222222222,37.73111111111111],[-123.61833333333333,37.73833333333334],[-123.76333333333334,37.74583333333334],[-123.91111111111111,37.75333333333333],[-124.06027777777777,37.760555555555555],[-124.21055555555556,37.76777777777777],[-124.39694444444446,37.77638888888889],[-124.55277777777778,37.78333333333333],[-124.87416666666665,37.79722222222222],[-125.03333333333333,37.803888888888885],[-125.19555555555556,37.81027777777778],[-125.36138888888888,37.81638888888889],[-125.53138888888888,37.82277777777778],[-126.02972222222222,37.836666666666666],[-126.19722222222222,37.83916666666667],[-126.35222222222221,37.84138888888889],[-126.52111111111111,37.843611111111116],[-126.6863888888889,37.845555555555556],[-126.85527777777777,37.84722222222222],[-127.02194444444444,37.84861111111111]],"type":"LineString"}
}
