{
  "id": 2048065221,
  "type": "Feature",
  "properties": {
    "geom:area": 0,
    "geom:bbox": "-122.540250,37.303830,-122.136780,37.616520",
    "geom:latitude": 37.44883574722407,
    "geom:longitude": -122.30277343454767,
    "src:alt_label": "swim-approach",
    "src:geom": "swim",
    "swim:elevations": [
      2438,
      2438,
      2343,
      2144,
      1979,
      1913,
      1829,
      1829,
      1829,
      1829,
      1829,
      1820,
      1674,
      1634,
      1562,
      1443,
      1340,
      1063,
      925,
      761,
      692,
      544,
      369,
      306,
      150,
      50,
      0
    ],
    "swim:geom": "approach",
    "swim:timestamps": [
      1787167921,
      1787167968,
      1787168000,
      1787168030,
      1787168056,
      1787168071,
      1787168101,
      1787168137,
      1787168183,
      1787168191,
      1787168198,
      1787168211,
      1787168235,
      1787168244,
      1787168251,
      1787168272,
      1787168289,
      1787168328,
      1787168358,
      1787168390,
      1787168406,
      1787168437,
      1787168481,
      1787168493,
      1787168534,
      1787168559,
      1787168573
    ],
    "wof:geomhash": "a09b599d6ce3692186630ddcf64eb764",
    "wof:id": 2048065221,
    "wof:repo": "sfomuseum-data-flights-2026-08"
  },
  "bbox": [
    -122.54025,
    37.30383,
    -122.13678,
    37.61652
  ],
  "geometry": {"type":"LineString","coordinates":[[-122.54025,37.30546],[-122.46858,37.30383],[-122.42901,37.32062],[-122.41999,37.35356],[-122.41467,37.38247],[-122.40085,37.39625],[-122.36053,37.40533],[-122.31051,37.41053],[-122.24654,37.41766],[-122.23506,37.41894],[-122.22522,37.42002],[-122.20735,37.42205],[-122.17864,37.43418],[-122.17066,37.44257],[-122.16537,37.44887],[-122.14897,37.46862],[-122.13678,37.48383],[-122.14691,37.52302],[-122.1792,37.5383],[-122.2124,37.5526],[-122.22784,37.55908],[-122.2561,37.57119],[-122.29319,37.58654],[-122.3027,37.5906],[-122.33514,37.60421],[-122.35328,37.61186],[-122.36425,37.61652]]}
}
