{
  "id": 2048041695,
  "type": "Feature",
  "properties": {
    "date:cessation_lower": "1970-01-01",
    "date:cessation_upper": "1970-01-01",
    "date:inception_lower": "2026-08-17",
    "date:inception_upper": "2026-08-17",
    "edtf:cessation": "1970-01-01T00:00:00Z",
    "edtf:inception": "2026-08-17T02:25:21-07:00",
    "flysfo:actual_timestamp": -1,
    "flysfo:airline": "UA",
    "flysfo:date": "2026-08-17",
    "flysfo:estimated_timestamp": 1786981560,
    "flysfo:event": "D",
    "flysfo:flight_number": "UA739",
    "flysfo:gate": "F16",
    "flysfo:journey": "SFO-OMA",
    "flysfo:scheduled_timestamp": 1786981980,
    "flysfo:timestamp": 1786981980,
    "geom:area": 0,
    "geom:bbox": "-122.370943,37.617990,-95.897601,41.301438",
    "geom:latitude": 39.459714,
    "geom:longitude": -109.134272,
    "iata:airline": "UA",
    "icao:aircraft": "B38M",
    "icao:airline": "UAL",
    "lbl:latitude": 37.620533,
    "lbl:longitude": -122.389374,
    "sfomuseum:aircraft_id": 1528104575,
    "sfomuseum:airline_id": 1159285413,
    "sfomuseum:arrival_id": 102524739,
    "sfomuseum:departure_id": 102527513,
    "sfomuseum:flight_id": "20260817-D-UAL-739",
    "sfomuseum:flight_number": [
      "UAL739",
      "UA739"
    ],
    "sfomuseum:placetype": "flight",
    "src:geom": "flysfo",
    "src:geom_alt": [
      "swim-takeoff"
    ],
    "swim:tail_number": "N37367",
    "wof:belongsto": [
      1947304067,
      102527513,
      1947304451,
      102191575,
      85633793,
      102087579,
      85922583,
      554784711,
      85688637,
      1947304457,
      1947304447,
      102085387
    ],
    "wof:country": "US",
    "wof:created": 1787069951,
    "wof:geomhash": "b2b4de685cac2a2e83e7d43e9bbb14d9",
    "wof:hierarchy": [
      {
        "building_id": 1947304067,
        "campus_id": 102527513,
        "concourse_id": 1947304451,
        "continent_id": 102191575,
        "country_id": 85633793,
        "county_id": 102087579,
        "custom_id": 2048041695,
        "flight_id": 2048041695,
        "locality_id": 85922583,
        "postalcode_id": 554784711,
        "region_id": 85688637,
        "venue_id": 1947304457,
        "wing_id": 1947304447
      },
      {
        "building_id": 1947304067,
        "campus_id": 102527513,
        "concourse_id": 1947304451,
        "continent_id": 102191575,
        "country_id": 85633793,
        "county_id": 102085387,
        "custom_id": 2048041695,
        "flight_id": 2048041695,
        "region_id": 85688637,
        "venue_id": 1947304457,
        "wing_id": 1947304447
      }
    ],
    "wof:id": 2048041695,
    "wof:involves": [
      1528104575,
      102524739,
      102527513,
      1159285413,
      1947304457
    ],
    "wof:lastmodified": 1787070100,
    "wof:name": "UA739 (SFO-OMA)",
    "wof:parent_id": 1947304457,
    "wof:placetype": "custom",
    "wof:placetype_alt": [
      "flight"
    ],
    "wof:repo": "sfomuseum-data-flights-2026-08",
    "wof:superseded_by": [],
    "wof:supersedes": []
  },
  "bbox": [
    -122.370943,
    37.61799,
    -95.897601,
    41.301438
  ],
  "geometry": {"type":"MultiPoint","coordinates":[[-122.370943,37.61799],[-95.897601,41.301438]]}
}
