{
  "id": 2032073231,
  "type": "Feature",
  "properties": {
    "geom:area": 0,
    "geom:bbox": "-122.357400,36.738950,-121.888640,37.613640",
    "geom:latitude": 37.168126259505506,
    "geom:longitude": -122.0992016892629,
    "src:alt_label": "swim-approach",
    "src:geom": "swim",
    "swim:elevations": [
      1115,
      899,
      802,
      598,
      515,
      334,
      222,
      154,
      89,
      25,
      5198,
      5147,
      4934,
      4711,
      4472,
      4286,
      3957,
      3911,
      3804,
      3675,
      3459
    ],
    "swim:geom": "approach",
    "swim:timestamps": [
      1785654022,
      1785654058,
      1785654076,
      1785654110,
      1785654134,
      1785654175,
      1785654205,
      1785654223,
      1785654242,
      1785654258,
      1785740115,
      1785740121,
      1785740144,
      1785740174,
      1785740213,
      1785740237,
      1785740274,
      1785740283,
      1785740315,
      1785740337,
      1785740374
    ],
    "wof:geomhash": "7b438bbb44874d097d3195ae0eec9272",
    "wof:id": 2032073231,
    "wof:repo": "sfomuseum-data-flights-2026-08"
  },
  "bbox": [
    -122.3574,
    36.73895,
    -121.88864,
    37.61364
  ],
  "geometry": {"coordinates":[[-122.16717,37.51882],[-122.19163,37.54335],[-122.20894,37.5511],[-122.24171,37.56478],[-122.2631,37.57404],[-122.2962,37.58787],[-122.31921,37.5976],[-122.33276,37.60327],[-122.34638,37.60902],[-122.3574,37.61364],[-121.88864,36.73895],[-121.89336,36.74852],[-121.9065,36.78743],[-121.92053,36.83617],[-121.93674,36.89327],[-121.94658,36.92877],[-121.96379,36.97954],[-121.96851,36.99166],[-121.98446,37.03258],[-121.99472,37.05879],[-122.011,37.10025]],"type":"LineString"}
}
