{
  "id": 2032086079,
  "type": "Feature",
  "properties": {
    "geom:area": 0,
    "geom:bbox": "-122.880890,37.372580,-122.110860,38.423170",
    "geom:latitude": 37.770061942758055,
    "geom:longitude": -122.47612457785586,
    "src:alt_label": "swim-approach",
    "src:geom": "swim",
    "swim:elevations": [
      7498,
      7051,
      6892,
      6470,
      6298,
      6104,
      5851,
      5659,
      5419,
      5249,
      5210,
      4958,
      4914,
      4711,
      4511,
      4136,
      3850,
      3591,
      3384,
      3353,
      3353,
      3353,
      3353,
      3353,
      3281,
      3206,
      2884,
      2471,
      2201,
      2167,
      1893,
      1730,
      1521,
      1499,
      1338,
      1219,
      1126,
      1031,
      946,
      792,
      641,
      429,
      321,
      214,
      181,
      33
    ],
    "swim:geom": "approach",
    "swim:timestamps": [
      1785761201,
      1785761241,
      1785761255,
      1785761295,
      1785761311,
      1785761329,
      1785761357,
      1785761375,
      1785761401,
      1785761418,
      1785761422,
      1785761448,
      1785761453,
      1785761474,
      1785761496,
      1785761537,
      1785761568,
      1785761602,
      1785761629,
      1785761652,
      1785761681,
      1785761722,
      1785761743,
      1785761781,
      1785761809,
      1785761820,
      1785761862,
      1785761903,
      1785761936,
      1785761940,
      1785761972,
      1785762009,
      1785762053,
      1785762067,
      1785762102,
      1785762146,
      1785762167,
      1785762190,
      1785762215,
      1785762268,
      1785762298,
      1785762352,
      1785762380,
      1785762410,
      1785762421,
      1785762468
    ],
    "wof:geomhash": "637655dbfc2c126a70e28b43f810513d",
    "wof:id": 2032086079,
    "wof:repo": "sfomuseum-data-flights-2026-08"
  },
  "bbox": [
    -122.88089,
    37.37258,
    -122.11086,
    38.42317
  ],
  "geometry": {"type":"LineString","coordinates":[[-122.88089,38.42317],[-122.83865,38.34918],[-122.82392,38.3234],[-122.78254,38.25075],[-122.76895,38.22284],[-122.75807,38.19046],[-122.74358,38.14109],[-122.73386,38.10784],[-122.72096,38.06357],[-122.71204,38.03295],[-122.71024,38.02688],[-122.69708,37.98168],[-122.69492,37.97436],[-122.6845,37.93833],[-122.67042,37.90269],[-122.61842,37.84753],[-122.57674,37.80836],[-122.53406,37.76794],[-122.50129,37.73706],[-122.47427,37.71157],[-122.43973,37.67916],[-122.39358,37.63568],[-122.37089,37.61427],[-122.34426,37.57289],[-122.32612,37.54128],[-122.31885,37.52889],[-122.29295,37.48423],[-122.30058,37.43675],[-122.31028,37.40039],[-122.31033,37.39525],[-122.28078,37.37258],[-122.23196,37.38181],[-122.17355,37.39598],[-122.15683,37.40006],[-122.12988,37.42623],[-122.11086,37.46416],[-122.11281,37.48367],[-122.1266,37.50201],[-122.14497,37.51902],[-122.19566,37.54336],[-122.22482,37.55552],[-122.27228,37.57559],[-122.29392,37.58464],[-122.3157,37.59379],[-122.324,37.59724],[-122.35669,37.61101]]}
}
