{
  "id": 2047974845,
  "type": "Feature",
  "properties": {
    "geom:area": 0,
    "geom:bbox": "-122.406840,37.637310,-121.286300,37.937080",
    "geom:latitude": 37.774690490865524,
    "geom:longitude": -121.85476115818707,
    "src:alt_label": "swim-takeoff",
    "src:geom": "swim",
    "swim:elevations": [
      505,
      755,
      1099,
      1131,
      1384,
      1579,
      2207,
      2634,
      3142,
      3263,
      3482,
      3717,
      3788,
      4156,
      4290,
      4545,
      4851,
      5109,
      5417,
      5714,
      5950,
      5968,
      6142,
      6241
    ],
    "swim:geom": "takeoff",
    "swim:timestamps": [
      1786775931,
      1786775954,
      1786775998,
      1786776012,
      1786776047,
      1786776065,
      1786776107,
      1786776138,
      1786776178,
      1786776196,
      1786776236,
      1786776268,
      1786776274,
      1786776308,
      1786776326,
      1786776357,
      1786776387,
      1786776411,
      1786776448,
      1786776478,
      1786776507,
      1786776510,
      1786776530,
      1786776540
    ],
    "wof:geomhash": "3180fc9314d336496a63d6760315bf43",
    "wof:id": 2047974845,
    "wof:repo": "sfomuseum-data-flights-2026-08"
  },
  "bbox": [
    -122.40684,
    37.63731,
    -121.2863,
    37.93708
  ],
  "geometry": {"type":"LineString","coordinates":[[-122.40684,37.63731],[-122.40537,37.65659],[-122.363,37.67988],[-122.34606,37.6805],[-122.30039,37.67304],[-122.27362,37.66815],[-122.20654,37.66265],[-122.15837,37.67587],[-122.09374,37.6948],[-122.06339,37.70385],[-121.99049,37.72598],[-121.92335,37.74645],[-121.91078,37.75028],[-121.8405,37.77159],[-121.80133,37.78343],[-121.72996,37.80483],[-121.66014,37.82585],[-121.60353,37.84281],[-121.51414,37.86949],[-121.44041,37.89141],[-121.36831,37.91278],[-121.36087,37.91505],[-121.31088,37.92982],[-121.2863,37.93708]]}
}
