{
  "id": 2047917821,
  "type": "Feature",
  "properties": {
    "geom:area": 0,
    "geom:bbox": "-122.408910,37.641740,-121.278360,38.403560",
    "geom:latitude": 38.025265762401304,
    "geom:longitude": -121.8540531393597,
    "src:alt_label": "swim-takeoff",
    "src:geom": "swim",
    "swim:elevations": [
      387,
      677,
      957,
      1169,
      1434,
      1734,
      2211,
      2948,
      3227,
      4494,
      4633,
      4693,
      4778,
      4950,
      5120,
      5344,
      5773,
      6070,
      6651,
      6739,
      6873,
      7198,
      7270,
      7416,
      7470,
      7662,
      7720,
      8076
    ],
    "swim:geom": "takeoff",
    "swim:timestamps": [
      1786370902,
      1786370934,
      1786370958,
      1786370987,
      1786371016,
      1786371040,
      1786371078,
      1786371135,
      1786371159,
      1786371262,
      1786371276,
      1786371286,
      1786371301,
      1786371326,
      1786371340,
      1786371362,
      1786371403,
      1786371427,
      1786371478,
      1786371487,
      1786371500,
      1786371536,
      1786371547,
      1786371564,
      1786371570,
      1786371594,
      1786371603,
      1786371645
    ],
    "wof:geomhash": "c45d89dac377443fb14036e7ff5b1f19",
    "wof:id": 2047917821,
    "wof:repo": "sfomuseum-data-flights-2026-08"
  },
  "bbox": [
    -122.40891,
    37.64174,
    -121.27836,
    38.40356
  ],
  "geometry": {"type":"LineString","coordinates":[[-122.40891,37.64174],[-122.39576,37.66692],[-122.36755,37.67355],[-122.33089,37.68065],[-122.29063,37.69396],[-122.25415,37.70697],[-122.19832,37.73154],[-122.1353,37.79354],[-122.11067,37.82317],[-121.9992,37.95524],[-121.98108,37.97349],[-121.96688,37.98473],[-121.94163,38.00181],[-121.89673,38.02938],[-121.87115,38.0449],[-121.83121,38.06926],[-121.75465,38.11633],[-121.70884,38.14402],[-121.61166,38.20259],[-121.59477,38.21275],[-121.5692,38.22816],[-121.49961,38.27002],[-121.47863,38.28264],[-121.44325,38.30398],[-121.43236,38.31056],[-121.38419,38.33936],[-121.36532,38.35037],[-121.27836,38.40356]]}
}
