{
  "id": 2047902351,
  "type": "Feature",
  "properties": {
    "geom:area": 0,
    "geom:bbox": "-122.542490,36.739390,-121.324860,37.669360",
    "geom:latitude": 37.21437243328188,
    "geom:longitude": -122.01627698216183,
    "src:alt_label": "swim-takeoff",
    "src:geom": "swim",
    "swim:elevations": [
      223,
      429,
      578,
      1006,
      1160,
      1410,
      1794,
      2031,
      2427,
      2670,
      2831,
      3272,
      3411,
      3536,
      4004,
      4300,
      4765,
      4930,
      5271,
      5504,
      5761,
      5859,
      6190,
      6368,
      6479,
      6795,
      6934,
      7108,
      7168,
      7301,
      7408,
      7652,
      7711
    ],
    "swim:geom": "takeoff",
    "swim:timestamps": [
      1786287232,
      1786287258,
      1786287281,
      1786287328,
      1786287350,
      1786287381,
      1786287417,
      1786287438,
      1786287474,
      1786287495,
      1786287511,
      1786287562,
      1786287587,
      1786287609,
      1786287655,
      1786287686,
      1786287739,
      1786287763,
      1786287802,
      1786287830,
      1786287859,
      1786287874,
      1786287919,
      1786287944,
      1786287963,
      1786288015,
      1786288043,
      1786288072,
      1786288084,
      1786288099,
      1786288117,
      1786288160,
      1786288172
    ],
    "wof:geomhash": "97d21ef20ed752bc3d03051e6c7a4ff4",
    "wof:id": 2047902351,
    "wof:repo": "sfomuseum-data-flights-2026-08"
  },
  "bbox": [
    -122.54249,
    36.73939,
    -121.32486,
    37.66936
  ],
  "geometry": {"type":"LineString","coordinates":[[-122.38594,37.62319],[-122.40661,37.63175],[-122.42808,37.64086],[-122.47981,37.66356],[-122.50801,37.66936],[-122.54249,37.64445],[-122.53018,37.59887],[-122.51702,37.57318],[-122.49396,37.52793],[-122.47937,37.50111],[-122.46223,37.48303],[-122.3908,37.43599],[-122.35327,37.41183],[-122.31774,37.38894],[-122.24235,37.3403],[-122.19175,37.30754],[-122.1035,37.25036],[-122.0622,37.22356],[-121.99457,37.17958],[-121.94632,37.1482],[-121.89594,37.11525],[-121.86987,37.09825],[-121.78888,37.04528],[-121.74493,37.01647],[-121.7107,36.99401],[-121.61557,36.93148],[-121.56583,36.89871],[-121.51171,36.863],[-121.48842,36.84761],[-121.46027,36.82897],[-121.42753,36.80731],[-121.34725,36.75412],[-121.32486,36.73939]]}
}
