{
  "id": 2047941449,
  "type": "Feature",
  "properties": {
    "geom:area": 0,
    "geom:bbox": "-122.345278,30.139167,-97.701389,37.606111",
    "geom:latitude": 33.03179347457069,
    "geom:longitude": -110.53115414871687,
    "src:alt_label": "swim-path",
    "src:geom": "swim",
    "swim:altitudes": [
      "028",
      "040",
      "041",
      "072",
      "098",
      "117",
      "134",
      "156",
      "174",
      "190",
      "207",
      "222",
      "237",
      "251",
      "260",
      "271",
      "290",
      "300",
      "309",
      "321",
      "329",
      "332",
      "345",
      "351",
      "356",
      "360C",
      "360C",
      "360C",
      "360C",
      "360C",
      "360C",
      "360C",
      "360C",
      "360C",
      "360C",
      "360C",
      "360C",
      "360C",
      "360C",
      "360C",
      "360C",
      "360C",
      "360C",
      "360C",
      "360C",
      "360C",
      "359C",
      "360C",
      "360C",
      "360C",
      "360C",
      "360C",
      "360C",
      "360C",
      "360C",
      "360C",
      "360C",
      "360C",
      "360C",
      "360C",
      "360C",
      "360C",
      "360C",
      "360C",
      "360C",
      "360C",
      "360C",
      "359C",
      "360C",
      "360C",
      "360C",
      "360C",
      "360C",
      "360C",
      "360C",
      "360C",
      "360C",
      "360C",
      "360C",
      "360C",
      "360C",
      "360C",
      "360C",
      "360C",
      "360C",
      "360C",
      "360C",
      "360C",
      "360C",
      "360C",
      "360C",
      "360C",
      "360C",
      "360C",
      "360C",
      "360C",
      "360C",
      "360C",
      "360C",
      "360C",
      "360C",
      "360C",
      "360C",
      "360C",
      "360C",
      "359C",
      "360C",
      "360C",
      "360C",
      "360C",
      "360C",
      "360C",
      "360C",
      "360C",
      "359C",
      "360C",
      "359C",
      "360C",
      "360C",
      "359C",
      "360C",
      "360C",
      "360C",
      "360C",
      "360C",
      "360C",
      "360C",
      "360C",
      "365",
      "368",
      "376",
      "380C",
      "380C",
      "380C",
      "380C",
      "379C",
      "380C",
      "379C",
      "380C",
      "379C",
      "379C",
      "379C",
      "380C",
      "380C",
      "380C",
      "380C",
      "380C",
      "380C",
      "380C",
      "380C",
      "380C",
      "380C",
      "380C",
      "380C",
      "380C",
      "380C",
      "380C",
      "380C",
      "380C",
      "380C",
      "380C",
      "380C",
      "380C",
      "380C",
      "380C",
      "380C",
      "380C",
      "380C",
      "380C",
      "380C",
      "380C",
      "380C",
      "380C",
      "379C",
      "380C",
      "380C",
      "380C",
      "380C",
      "380C",
      "379C",
      "380C",
      "380C",
      "380C",
      "380C",
      "380C",
      "380C",
      "379C",
      "380C",
      "379C",
      "380C",
      "379C",
      "380C",
      "380C",
      "380C",
      "380C",
      "380C",
      "380C",
      "380C",
      "380C",
      "380C",
      "380C",
      "380C",
      "380C",
      "379C",
      "380C",
      "380C",
      "380C",
      "380C",
      "380C",
      "380C",
      "380C",
      "380C",
      "380C",
      "380C",
      "380C",
      "380C",
      "380C",
      "380C",
      "380C",
      "380C",
      "380C",
      "380C",
      "380C",
      "380C",
      "380C",
      "380",
      "374",
      "359",
      "331",
      "302",
      "278",
      "249",
      "234",
      "231",
      "216",
      "213",
      "197",
      "195",
      "180",
      "176",
      "162",
      "156",
      "146",
      "139",
      "129",
      "123",
      "113",
      "107",
      "097",
      "092",
      "084",
      "081",
      "080",
      "080",
      "080",
      "080",
      "074",
      "069",
      "058",
      "052",
      "041",
      "040",
      "040",
      "040",
      "035",
      "031",
      "020",
      "018",
      "012",
      "010",
      "003"
    ],
    "swim:geom": "path",
    "swim:speeds": [
      211,
      280,
      283,
      276,
      283,
      309,
      344,
      347,
      360,
      371,
      382,
      390,
      393,
      396,
      407,
      417,
      433,
      441,
      446,
      448,
      451,
      464,
      463,
      462,
      466,
      466,
      465,
      466,
      464,
      465,
      464,
      464,
      464,
      465,
      464,
      465,
      465,
      465,
      465,
      465,
      465,
      465,
      464,
      463,
      462,
      462,
      461,
      462,
      462,
      462,
      462,
      462,
      461,
      462,
      461,
      461,
      460,
      461,
      461,
      461,
      461,
      461,
      461,
      459,
      458,
      456,
      452,
      449,
      449,
      450,
      450,
      452,
      454,
      454,
      454,
      453,
      452,
      450,
      448,
      447,
      446,
      444,
      443,
      443,
      445,
      445,
      444,
      443,
      443,
      444,
      446,
      450,
      452,
      452,
      451,
      449,
      448,
      448,
      448,
      447,
      446,
      446,
      445,
      444,
      442,
      440,
      442,
      440,
      443,
      443,
      441,
      443,
      441,
      442,
      441,
      440,
      441,
      440,
      442,
      441,
      443,
      441,
      444,
      443,
      444,
      445,
      458,
      454,
      458,
      457,
      456,
      448,
      446,
      447,
      446,
      448,
      446,
      440,
      444,
      440,
      443,
      456,
      444,
      448,
      445,
      448,
      447,
      449,
      450,
      452,
      453,
      455,
      457,
      459,
      459,
      458,
      457,
      453,
      449,
      447,
      445,
      441,
      440,
      439,
      440,
      441,
      442,
      443,
      446,
      448,
      450,
      452,
      452,
      452,
      454,
      456,
      456,
      453,
      448,
      445,
      444,
      445,
      447,
      448,
      449,
      451,
      461,
      453,
      452,
      453,
      452,
      453,
      452,
      454,
      454,
      455,
      455,
      455,
      454,
      454,
      454,
      454,
      453,
      453,
      452,
      452,
      452,
      452,
      452,
      451,
      451,
      448,
      438,
      434,
      434,
      434,
      433,
      434,
      434,
      434,
      434,
      434,
      434,
      434,
      434,
      433,
      433,
      443,
      446,
      449,
      439,
      412,
      397,
      399,
      386,
      388,
      376,
      381,
      375,
      378,
      366,
      367,
      358,
      358,
      351,
      354,
      338,
      340,
      310,
      311,
      299,
      288,
      253,
      253,
      250,
      251,
      255,
      252,
      247,
      250,
      240,
      242,
      237,
      219,
      194,
      193,
      177,
      177,
      146,
      149,
      143
    ],
    "swim:timestamps": [
      1786538053,
      1786538106,
      1786538166,
      1786538226,
      1786538286,
      1786538346,
      1786538406,
      1786538466,
      1786538527,
      1786538587,
      1786538647,
      1786538707,
      1786538767,
      1786538827,
      1786538887,
      1786538947,
      1786539067,
      1786539127,
      1786539187,
      1786539248,
      1786539308,
      1786539368,
      1786539428,
      1786539488,
      1786539548,
      1786539608,
      1786539668,
      1786539703,
      1786539728,
      1786539763,
      1786539788,
      1786539823,
      1786539848,
      1786539883,
      1786539908,
      1786539944,
      1786539969,
      1786540001,
      1786540029,
      1786540061,
      1786540089,
      1786540121,
      1786540149,
      1786540181,
      1786540209,
      1786540241,
      1786540269,
      1786540301,
      1786540329,
      1786540361,
      1786540389,
      1786540421,
      1786540449,
      1786540481,
      1786540509,
      1786540542,
      1786540569,
      1786540602,
      1786540630,
      1786540662,
      1786540722,
      1786540782,
      1786540842,
      1786540902,
      1786540962,
      1786541022,
      1786541082,
      1786541143,
      1786541203,
      1786541263,
      1786541323,
      1786541383,
      1786541443,
      1786541503,
      1786541563,
      1786541623,
      1786541683,
      1786541743,
      1786541804,
      1786541864,
      1786541924,
      1786541984,
      1786542044,
      1786542104,
      1786542164,
      1786542224,
      1786542284,
      1786542344,
      1786542404,
      1786542465,
      1786542525,
      1786542585,
      1786542645,
      1786542705,
      1786542765,
      1786542825,
      1786542885,
      1786542945,
      1786543005,
      1786543065,
      1786543126,
      1786543186,
      1786543246,
      1786543306,
      1786543366,
      1786543385,
      1786543426,
      1786543445,
      1786543486,
      1786543546,
      1786543565,
      1786543606,
      1786543625,
      1786543666,
      1786543686,
      1786543727,
      1786543746,
      1786543787,
      1786543847,
      1786543866,
      1786543907,
      1786543926,
      1786543967,
      1786543986,
      1786544027,
      1786544046,
      1786544087,
      1786544106,
      1786544147,
      1786544166,
      1786544226,
      1786544267,
      1786544286,
      1786544327,
      1786544347,
      1786544407,
      1786544448,
      1786544467,
      1786544508,
      1786544527,
      1786544568,
      1786544587,
      1786544628,
      1786544647,
      1786544688,
      1786544707,
      1786544748,
      1786544767,
      1786544808,
      1786544868,
      1786544887,
      1786544928,
      1786544947,
      1786545008,
      1786545068,
      1786545109,
      1786545128,
      1786545188,
      1786545248,
      1786545289,
      1786545308,
      1786545368,
      1786545428,
      1786545488,
      1786545548,
      1786545608,
      1786545669,
      1786545729,
      1786545789,
      1786545849,
      1786545969,
      1786546029,
      1786546089,
      1786546149,
      1786546209,
      1786546269,
      1786546330,
      1786546390,
      1786546450,
      1786546510,
      1786546570,
      1786546630,
      1786546690,
      1786546750,
      1786546810,
      1786546870,
      1786546909,
      1786546930,
      1786546969,
      1786546990,
      1786547029,
      1786547051,
      1786547090,
      1786547150,
      1786547171,
      1786547210,
      1786547231,
      1786547270,
      1786547291,
      1786547330,
      1786547351,
      1786547390,
      1786547411,
      1786547450,
      1786547471,
      1786547510,
      1786547531,
      1786547570,
      1786547591,
      1786547630,
      1786547651,
      1786547690,
      1786547712,
      1786547750,
      1786547772,
      1786547810,
      1786547832,
      1786547871,
      1786547892,
      1786547931,
      1786547952,
      1786547991,
      1786548012,
      1786548051,
      1786548072,
      1786548111,
      1786548132,
      1786548171,
      1786548231,
      1786548291,
      1786548351,
      1786548411,
      1786548450,
      1786548471,
      1786548511,
      1786548531,
      1786548571,
      1786548591,
      1786548631,
      1786548652,
      1786548691,
      1786548712,
      1786548751,
      1786548772,
      1786548811,
      1786548832,
      1786548871,
      1786548892,
      1786548931,
      1786548952,
      1786548991,
      1786549012,
      1786549051,
      1786549072,
      1786549117,
      1786549132,
      1786549171,
      1786549192,
      1786549231,
      1786549252,
      1786549298,
      1786549312,
      1786549351,
      1786549372,
      1786549412,
      1786549433,
      1786549472,
      1786549493,
      1786549537,
      1786549553,
      1786549613
    ],
    "wof:geomhash": "baa886ef3e1678b14392d94d72deed13",
    "wof:id": 2047941449,
    "wof:repo": "sfomuseum-data-flights-2026-08"
  },
  "bbox": [
    -122.34527777777777,
    30.139166666666664,
    -97.70138888888889,
    37.60611111111111
  ],
  "geometry": {"type":"LineString","coordinates":[[-97.70138888888889,30.139166666666664],[-97.7611111111111,30.150555555555552],[-97.82277777777777,30.209166666666665],[-97.90861111111111,30.230277777777776],[-97.9975,30.248333333333335],[-98.09083333333332,30.268055555555556],[-98.19666666666667,30.289444444444445],[-98.30583333333333,30.31277777777778],[-98.41722222222222,30.337777777777777],[-98.53222222222222,30.363055555555558],[-98.65111111111112,30.389444444444443],[-98.77388888888889,30.41611111111111],[-98.89777777777779,30.443055555555556],[-99.0213888888889,30.47],[-99.13388888888889,30.49416666666667],[-99.26444444444445,30.522222222222222],[-99.5325,30.579444444444444],[-99.67027777777778,30.608611111111113],[-99.80944444444444,30.637777777777778],[-99.95083333333334,30.66722222222222],[-100.11805555555554,30.702222222222222],[-100.26277777777777,30.731944444444444],[-100.4075,30.761388888888888],[-100.55222222222221,30.791111111111114],[-100.69722222222222,30.82027777777778],[-100.8436111111111,30.85],[-100.98916666666666,30.879166666666666],[-101.06333333333333,30.89388888888889],[-101.13444444444445,30.908055555555553],[-101.21166666666667,30.923333333333336],[-101.28055555555555,30.936666666666667],[-101.35916666666667,30.952222222222222],[-101.41777777777779,30.96361111111111],[-101.50611111111111,30.981111111111108],[-101.56361111111111,30.992222222222225],[-101.6525,31.009444444444444],[-101.71027777777778,31.020555555555553],[-101.79972222222221,31.03777777777778],[-101.85722222222222,31.04888888888889],[-101.94694444444445,31.066111111111113],[-102.00305555555556,31.076666666666668],[-102.085,31.092222222222222],[-102.15166666666667,31.105],[-102.23055555555555,31.12],[-102.30083333333333,31.133333333333333],[-102.37722222222222,31.1475],[-102.44972222222222,31.16111111111111],[-102.52388888888889,31.175],[-102.59777777777778,31.18888888888889],[-102.65861111111111,31.2],[-102.74583333333334,31.21611111111111],[-102.80444444444444,31.22694444444444],[-102.89250000000001,31.243055555555557],[-102.95027777777779,31.253611111111113],[-103.03777777777778,31.26972222222222],[-103.09694444444445,31.280277777777776],[-103.185,31.29638888888889],[-103.2425,31.30666666666667],[-103.33194444444445,31.322777777777777],[-103.38944444444445,31.333055555555557],[-103.5363888888889,31.359444444444446],[-103.68333333333334,31.385277777777777],[-103.83722222222222,31.412499999999998],[-103.98333333333333,31.438055555555557],[-104.1261111111111,31.462777777777777],[-104.27,31.4875],[-104.41333333333334,31.511944444444445],[-104.55444444444444,31.53611111111111],[-104.69833333333334,31.560277777777777],[-104.84027777777777,31.583888888888886],[-104.98361111111112,31.60777777777778],[-105.1286111111111,31.631666666666668],[-105.27361111111111,31.655555555555555],[-105.41722222222222,31.67888888888889],[-105.56166666666667,31.702222222222222],[-105.72611111111111,31.72861111111111],[-105.86944444444444,31.75138888888889],[-106.01472222222222,31.774444444444445],[-106.15777777777778,31.796666666666667],[-106.30222222222221,31.819166666666668],[-106.44555555555556,31.842777777777776],[-106.58694444444444,31.865833333333335],[-106.72833333333334,31.88861111111111],[-106.87166666666666,31.911666666666665],[-107.01777777777778,31.934722222222224],[-107.15944444444445,31.956944444444442],[-107.30388888888889,31.97972222222222],[-107.44611111111111,32.00194444444445],[-107.58944444444444,32.02388888888889],[-107.735,32.04611111111111],[-107.88,32.06805555555556],[-108.02527777777777,32.09],[-108.17361111111111,32.11222222222222],[-108.31805555555555,32.13361111111111],[-108.43416666666667,32.150555555555556],[-108.59666666666666,32.18722222222222],[-108.73444444444445,32.23111111111111],[-108.87305555555555,32.275277777777774],[-109.00916666666667,32.31861111111112],[-109.14888888888889,32.36277777777778],[-109.28444444444445,32.405277777777776],[-109.42305555555556,32.448611111111106],[-109.55944444444444,32.49111111111111],[-109.69777777777779,32.534166666666664],[-109.83388888888888,32.57611111111112],[-109.87055555555555,32.592222222222226],[-109.97027777777778,32.61805555555556],[-110.0075,32.63333333333333],[-110.10916666666667,32.660555555555554],[-110.24583333333334,32.702222222222225],[-110.28305555555555,32.71611111111111],[-110.38388888888889,32.744166666666665],[-110.41972222222223,32.757222222222225],[-110.51944444444445,32.785],[-110.55611111111111,32.799166666666665],[-110.65527777777778,32.82611111111112],[-110.69222222222223,32.84027777777778],[-110.79305555555555,32.867222222222225],[-110.93138888888889,32.90833333333333],[-110.9675,32.92166666666667],[-111.06972222222223,32.94944444444444],[-111.11138888888888,32.96277777777778],[-111.20722222222223,32.99],[-111.25055555555555,33.00361111111111],[-111.34722222222221,33.03111111111111],[-111.38944444444445,33.04472222222222],[-111.49055555555556,33.07333333333334],[-111.53333333333333,33.086666666666666],[-111.6325,33.114444444444445],[-111.6763888888889,33.12777777777778],[-111.81722222222221,33.16916666666666],[-111.92,33.1975],[-111.95555555555556,33.208333333333336],[-112.05916666666667,33.237500000000004],[-112.09555555555555,33.248333333333335],[-112.22916666666667,33.27333333333333],[-112.3425,33.29416666666666],[-112.37083333333332,33.299166666666665],[-112.48583333333333,33.32027777777778],[-112.51361111111112,33.32666666666667],[-112.63027777777778,33.34666666666667],[-112.66083333333334,33.35194444444445],[-112.77444444444444,33.37277777777778],[-112.80499999999999,33.378055555555555],[-112.91861111111112,33.39861111111111],[-112.94805555555556,33.403888888888886],[-113.06472222222222,33.42444444444444],[-113.09472222222222,33.42972222222222],[-113.20944444444444,33.45],[-113.35777777777777,33.476111111111116],[-113.40222222222222,33.48388888888889],[-113.50583333333333,33.50194444444445],[-113.55277777777778,33.51],[-113.7025,33.535555555555554],[-113.85194444444444,33.561388888888885],[-113.95361111111112,33.578611111111115],[-113.99944444444445,33.58638888888889],[-114.14694444444446,33.611111111111114],[-114.2925,33.635555555555555],[-114.39055555555557,33.651944444444446],[-114.43611111111112,33.659444444444446],[-114.58055555555555,33.683055555555555],[-114.72361111111111,33.70666666666667],[-114.86583333333333,33.72972222222222],[-115.01083333333334,33.753055555555555],[-115.15416666666667,33.77583333333333],[-115.30083333333333,33.799166666666665],[-115.44500000000001,33.82333333333334],[-115.58416666666666,33.86472222222223],[-115.72416666666666,33.90972222222222],[-116.00555555555556,33.99944444444444],[-116.14666666666668,34.04416666666666],[-116.2863888888889,34.08833333333334],[-116.42777777777778,34.132777777777775],[-116.57472222222222,34.17861111111111],[-116.71833333333333,34.223333333333336],[-116.86055555555555,34.26722222222222],[-117.00361111111111,34.31111111111111],[-117.14361111111111,34.35416666666667],[-117.28444444444445,34.39722222222222],[-117.42444444444445,34.44],[-117.56666666666666,34.48277777777778],[-117.70861111111111,34.525555555555556],[-117.85277777777777,34.56861111111112],[-117.9975,34.611666666666665],[-118.135,34.66555555555556],[-118.22333333333333,34.70666666666667],[-118.26888888888888,34.72888888888889],[-118.35555555555555,34.768055555555556],[-118.40083333333334,34.79138888888889],[-118.48805555555556,34.8325],[-118.53666666666666,34.85527777777778],[-118.62805555555555,34.89833333333333],[-118.76083333333334,34.96055555555556],[-118.80972222222222,34.98305555555556],[-118.89555555555556,35.02305555555555],[-118.94472222222223,35.04611111111111],[-119.02777777777777,35.08444444444444],[-119.07805555555555,35.10777777777778],[-119.16305555555556,35.14694444444444],[-119.21194444444444,35.16972222222222],[-119.2961111111111,35.208333333333336],[-119.3461111111111,35.231388888888894],[-119.42777777777778,35.26888888888889],[-119.47888888888889,35.29222222222222],[-119.56277777777777,35.33027777777778],[-119.61194444444443,35.35277777777778],[-119.69611111111111,35.39111111111111],[-119.7461111111111,35.413888888888884],[-119.82972222222222,35.45166666666667],[-119.87916666666666,35.47416666666667],[-119.96138888888889,35.51138888888889],[-120.01,35.533055555555556],[-120.08888888888889,35.56861111111112],[-120.13722222222223,35.59027777777778],[-120.21611111111112,35.62555555555556],[-120.2725,35.65083333333333],[-120.3461111111111,35.68333333333333],[-120.39444444444445,35.70194444444445],[-120.47805555555556,35.73416666666667],[-120.52722222222222,35.75277777777778],[-120.61166666666666,35.785],[-120.66083333333334,35.803888888888885],[-120.74472222222222,35.83555555555556],[-120.79333333333334,35.85416666666667],[-120.87777777777777,35.88611111111111],[-120.92611111111111,35.910555555555554],[-120.99694444444445,35.96277777777778],[-121.10833333333333,36.04805555555556],[-121.22027777777778,36.13361111111111],[-121.33027777777778,36.217222222222226],[-121.43694444444445,36.29805555555556],[-121.51666666666667,36.36666666666667],[-121.53555555555555,36.37222222222222],[-121.61666666666666,36.43333333333333],[-121.63361111111112,36.44611111111111],[-121.71666666666667,36.516666666666666],[-121.72194444444445,36.524166666666666],[-121.78333333333333,36.6],[-121.79194444444444,36.612500000000004],[-121.85,36.68333333333333],[-121.87166666666666,36.713055555555556],[-121.9,36.766666666666666],[-121.91222222222223,36.80583333333333],[-121.93333333333334,36.86666666666667],[-121.9388888888889,36.90083333333333],[-121.95,36.96666666666667],[-121.96916666666667,36.9925],[-121.98333333333333,37.05],[-122.00138888888888,37.075],[-122.01666666666667,37.13333333333333],[-122.03222222222222,37.154444444444444],[-122.05,37.2],[-122.07638888888889,37.21472222222223],[-122.11666666666666,37.25],[-122.13694444444445,37.26444444444444],[-122.15,37.3],[-122.14194444444445,37.330555555555556],[-122.13333333333334,37.38333333333333],[-122.11972222222222,37.3975],[-122.1,37.45],[-122.10694444444444,37.46361111111111],[-122.11666666666666,37.5],[-122.14166666666668,37.51861111111111],[-122.18333333333334,37.53333333333333],[-122.20083333333334,37.54555555555555],[-122.23333333333333,37.56666666666667],[-122.25583333333333,37.56861111111112],[-122.28333333333333,37.583333333333336],[-122.30138888888888,37.58777777777778],[-122.34527777777777,37.60611111111111]]}
}
