{
  "id": 2047997107,
  "type": "Feature",
  "properties": {
    "date:inception_lower": "2026-08-16",
    "date:inception_upper": "2026-08-16",
    "edtf:cessation": "",
    "edtf:inception": "2026-08-16",
    "flysfo:actual_timestamp": -1,
    "flysfo:airline": "WN",
    "flysfo:date": "2026-08-16",
    "flysfo:estimated_timestamp": 1786947240,
    "flysfo:event": "D",
    "flysfo:flight_number": "WN1683",
    "flysfo:gate": "D1",
    "flysfo:journey": "SFO-BNA",
    "flysfo:scheduled_timestamp": 1786946700,
    "flysfo:timestamp": 1786947240,
    "geom:area": 0,
    "geom:bbox": "-86.676652,0.000000,0.000000,36.126387",
    "geom:latitude": 18.0631935,
    "geom:longitude": -43.338326,
    "iata:airline": "WN",
    "icao:airline": "SWA",
    "lbl:latitude": 37.616987,
    "lbl:longitude": -122.382479,
    "sfomuseum:airline_id": 1159285591,
    "sfomuseum:arrival_id": 102525035,
    "sfomuseum:departure_id": 102527513,
    "sfomuseum:flight_id": "20260816-D-SWA-1683",
    "sfomuseum:flight_number": [
      "SWA1683",
      "WN1683"
    ],
    "sfomuseum:placetype": "flight",
    "src:geom": "flysfo",
    "wof:belongsto": [
      1947304067,
      102527513,
      1947304595,
      102191575,
      85633793,
      102087579,
      85922583,
      554784711,
      85688637,
      1947304625,
      1947304591,
      102085387
    ],
    "wof:country": "US",
    "wof:created": 1786983825,
    "wof:geomhash": "e9dbe280901f8ca30008ebedabacf09d",
    "wof:hierarchy": [
      {
        "building_id": 1947304067,
        "campus_id": 102527513,
        "concourse_id": 1947304595,
        "continent_id": 102191575,
        "country_id": 85633793,
        "county_id": 102087579,
        "custom_id": 2047997107,
        "flight_id": 2047997107,
        "locality_id": 85922583,
        "postalcode_id": 554784711,
        "region_id": 85688637,
        "venue_id": 1947304625,
        "wing_id": 1947304591
      },
      {
        "building_id": 1947304067,
        "campus_id": 102527513,
        "concourse_id": 1947304595,
        "continent_id": 102191575,
        "country_id": 85633793,
        "county_id": 102085387,
        "custom_id": 2047997107,
        "flight_id": 2047997107,
        "region_id": 85688637,
        "venue_id": 1947304625,
        "wing_id": 1947304591
      }
    ],
    "wof:id": 2047997107,
    "wof:involves": [
      102525035,
      102527513,
      1159285591,
      1947304625
    ],
    "wof:lastmodified": 1786983825,
    "wof:name": "WN1683 (SFO-BNA)",
    "wof:parent_id": 1947304625,
    "wof:placetype": "custom",
    "wof:placetype_alt": [
      "flight"
    ],
    "wof:repo": "sfomuseum-data-flights-2026-08",
    "wof:superseded_by": [],
    "wof:supersedes": []
  },
  "bbox": [
    -86.676652,
    0,
    0,
    36.126387
  ],
  "geometry": {"type":"MultiPoint","coordinates":[[0,0],[-86.676652,36.126387]]}
}
