{
  "id": 2032061491,
  "type": "Feature",
  "properties": {
    "geom:area": 0,
    "geom:bbox": "-122.385278,37.708889,-111.998333,41.032778",
    "geom:latitude": 39.91698855798165,
    "geom:longitude": -117.22023845860248,
    "src:alt_label": "swim-path",
    "src:geom": "swim",
    "swim:altitudes": [
      "039",
      "050",
      "072",
      "093",
      "110",
      "119",
      "127",
      "157",
      "170",
      "183",
      "195",
      "206",
      "220",
      "230",
      "240",
      "255",
      "260",
      "264",
      "269",
      "272",
      "283",
      "293",
      "297",
      "309",
      "318",
      "324",
      "335",
      "339",
      "346",
      "355",
      "361",
      "365",
      "370C",
      "370C",
      "370C",
      "370C",
      "370C",
      "370C",
      "370C",
      "370C",
      "370C",
      "370C",
      "370C",
      "370C",
      "370C",
      "370C",
      "370C",
      "370C",
      "370C",
      "370C",
      "370C",
      "370C",
      "370C",
      "370C",
      "370C",
      "370C",
      "370C",
      "370C",
      "370C",
      "370C",
      "370",
      "368",
      "362",
      "356",
      "350C",
      "350C",
      "351C",
      "350C",
      "350",
      "350",
      "350",
      "342",
      "330",
      "277",
      "253",
      "214",
      "195",
      "177",
      "171C",
      "163",
      "156",
      "154",
      "147",
      "146",
      "139",
      "138",
      "131",
      "129",
      "123",
      "122",
      "118",
      "105",
      "105",
      "095",
      "094",
      "086",
      "085",
      "080",
      "080",
      "080",
      "079",
      "077",
      "075",
      "068",
      "057",
      "057",
      "050",
      "048",
      "042"
    ],
    "swim:geom": "path",
    "swim:speeds": [
      201,
      260,
      273,
      287,
      308,
      354,
      395,
      418,
      424,
      432,
      440,
      453,
      461,
      472,
      479,
      487,
      494,
      498,
      502,
      501,
      512,
      511,
      512,
      512,
      509,
      510,
      498,
      498,
      493,
      491,
      489,
      489,
      488,
      487,
      494,
      489,
      487,
      487,
      485,
      485,
      484,
      485,
      484,
      484,
      484,
      484,
      485,
      485,
      487,
      487,
      488,
      488,
      488,
      488,
      489,
      489,
      489,
      490,
      491,
      492,
      492,
      485,
      476,
      475,
      480,
      479,
      479,
      478,
      477,
      480,
      481,
      480,
      482,
      460,
      449,
      413,
      400,
      386,
      348,
      341,
      331,
      334,
      328,
      331,
      323,
      326,
      318,
      322,
      311,
      312,
      273,
      255,
      258,
      233,
      236,
      221,
      224,
      204,
      208,
      203,
      203,
      190,
      189,
      183,
      171,
      177,
      161,
      163,
      152
    ],
    "swim:timestamps": [
      1785589884,
      1785589944,
      1785590005,
      1785590065,
      1785590125,
      1785590185,
      1785590245,
      1785590365,
      1785590425,
      1785590485,
      1785590545,
      1785590605,
      1785590665,
      1785590725,
      1785590785,
      1785590871,
      1785590905,
      1785590931,
      1785590965,
      1785590992,
      1785591052,
      1785591085,
      1785591112,
      1785591172,
      1785591205,
      1785591232,
      1785591265,
      1785591292,
      1785591325,
      1785591386,
      1785591412,
      1785591446,
      1785591472,
      1785591506,
      1785591532,
      1785591592,
      1785591626,
      1785591652,
      1785591686,
      1785591713,
      1785591746,
      1785591773,
      1785591806,
      1785591833,
      1785591893,
      1785591926,
      1785591953,
      1785591986,
      1785592013,
      1785592046,
      1785592106,
      1785592166,
      1785592193,
      1785592226,
      1785592286,
      1785592313,
      1785592346,
      1785592373,
      1785592406,
      1785592434,
      1785592466,
      1785592494,
      1785592554,
      1785592614,
      1785592734,
      1785592794,
      1785592854,
      1785592974,
      1785593034,
      1785593154,
      1785593215,
      1785593275,
      1785593335,
      1785593455,
      1785593515,
      1785593635,
      1785593695,
      1785593755,
      1785593815,
      1785593875,
      1785593919,
      1785593936,
      1785593979,
      1785593996,
      1785594040,
      1785594056,
      1785594094,
      1785594116,
      1785594160,
      1785594176,
      1785594214,
      1785594286,
      1785594296,
      1785594346,
      1785594356,
      1785594401,
      1785594416,
      1785594461,
      1785594476,
      1785594509,
      1785594536,
      1785594569,
      1785594596,
      1785594629,
      1785594707,
      1785594717,
      1785594755,
      1785594777,
      1785594837
    ],
    "wof:geomhash": "a0bfa19095946c39091ef99328439aac",
    "wof:id": 2032061491,
    "wof:repo": "sfomuseum-data-flights-2026-08"
  },
  "bbox": [
    -122.38527777777779,
    37.70888888888889,
    -111.99833333333333,
    41.032777777777774
  ],
  "geometry": {"coordinates":[[-122.34972222222221,37.70888888888889],[-122.35055555555554,37.77166666666667],[-122.38527777777779,37.84388888888889],[-122.38277777777778,37.922777777777775],[-122.30027777777778,37.97083333333334],[-122.19500000000001,38.016666666666666],[-122.07472222222222,38.065],[-121.815,38.16861111111111],[-121.69861111111112,38.21472222222223],[-121.5611111111111,38.26916666666666],[-121.42194444444445,38.32361111111111],[-121.29416666666667,38.395833333333336],[-121.1438888888889,38.48861111111111],[-121.01472222222222,38.56805555555556],[-120.88166666666666,38.64972222222222],[-120.68527777777778,38.76694444444444],[-120.6061111111111,38.81777777777778],[-120.54527777777777,38.85388888888889],[-120.46305555555556,38.90416666666667],[-120.40305555555557,38.93888888888888],[-120.25722222222223,39.026666666666664],[-120.17472222222223,39.07777777777778],[-120.11277777777777,39.11388888888889],[-119.96805555555555,39.19972222222222],[-119.87944444444443,39.25388888888889],[-119.8236111111111,39.285555555555554],[-119.73833333333333,39.33722222222222],[-119.68305555555555,39.368611111111115],[-119.59638888888888,39.420833333333334],[-119.4863888888889,39.48555555555556],[-119.40444444444445,39.53361111111111],[-119.34527777777777,39.56805555555556],[-119.26444444444445,39.615],[-119.20583333333333,39.649166666666666],[-119.12194444444444,39.69777777777777],[-118.97888888888889,39.78055555555555],[-118.92055555555557,39.814166666666665],[-118.83722222222222,39.86194444444445],[-118.77694444444444,39.89222222222222],[-118.68722222222223,39.92944444444444],[-118.62222222222222,39.95583333333334],[-118.53,39.99333333333333],[-118.46666666666667,40.01916666666666],[-118.37583333333333,40.05611111111111],[-118.2225,40.117777777777775],[-118.15583333333333,40.144444444444446],[-118.06722222222221,40.17972222222222],[-117.99666666666667,40.20333333333333],[-117.9,40.227222222222224],[-117.82472222222222,40.24472222222222],[-117.66111111111111,40.282777777777774],[-117.49138888888889,40.32194444444445],[-117.38972222222223,40.345555555555556],[-117.31916666666666,40.36138888888889],[-117.14805555555556,40.400277777777774],[-117.04944444444445,40.422777777777775],[-116.97500000000001,40.43944444444444],[-116.90555555555557,40.45527777777778],[-116.77944444444444,40.48305555555556],[-116.72527777777778,40.495],[-116.61888888888888,40.51861111111111],[-116.55416666666666,40.532777777777774],[-116.38555555555556,40.566944444444445],[-116.21361111111112,40.58444444444444],[-115.86583333333333,40.61694444444444],[-115.69277777777778,40.6325],[-115.52,40.64805555555556],[-115.1738888888889,40.67805555555555],[-115.00083333333333,40.69277777777778],[-114.64222222222223,40.708333333333336],[-114.46777777777778,40.71222222222222],[-114.29166666666667,40.71611111111111],[-114.11583333333333,40.719722222222224],[-113.77166666666666,40.725833333333334],[-113.60638888888889,40.72638888888889],[-113.29805555555555,40.72527777777778],[-113.15222222222222,40.724444444444444],[-113.0111111111111,40.72361111111111],[-112.87916666666666,40.72277777777778],[-112.75666666666666,40.72166666666667],[-112.65472222222223,40.72416666666667],[-112.63527777777779,40.720555555555556],[-112.53388888888888,40.72277777777778],[-112.51583333333333,40.718333333333334],[-112.41361111111112,40.71027777777778],[-112.39861111111112,40.70611111111111],[-112.31,40.69888888888889],[-112.28388888888888,40.69444444444444],[-112.18583333333333,40.69833333333333],[-112.16972222222223,40.69944444444444],[-112.10972222222222,40.739444444444445],[-112.10111111111111,40.823888888888895],[-112.10083333333333,40.825],[-112.10972222222222,40.890277777777776],[-112.10833333333333,40.89055555555556],[-112.11333333333333,40.94694444444444],[-112.11527777777778,40.95416666666667],[-112.12138888888889,41.00666666666667],[-112.12055555555555,41.01222222222222],[-112.07833333333333,41.032777777777774],[-112.05666666666666,41.02916666666667],[-112.03,40.99944444444444],[-112.02194444444444,40.984722222222224],[-112.01583333333333,40.94944444444444],[-112.00916666666667,40.885555555555555],[-112.00861111111111,40.885555555555555],[-112.005,40.848333333333336],[-112.0025,40.836111111111116],[-111.99833333333333,40.79972222222222]],"type":"LineString"}
}
