{
  "id": 2047945465,
  "type": "Feature",
  "properties": {
    "geom:area": 0,
    "geom:bbox": "-122.536850,36.809090,-121.255350,37.660380",
    "geom:latitude": 37.18469023429863,
    "geom:longitude": -122.00156896369316,
    "src:alt_label": "swim-takeoff",
    "src:geom": "swim",
    "swim:elevations": [
      122,
      460,
      576,
      1098,
      1565,
      2742,
      3009,
      3528,
      3810,
      4280,
      4587,
      4884,
      4974,
      5891,
      6123,
      6748,
      7240,
      7765,
      7998,
      8149,
      8336,
      8727,
      8936,
      9356,
      9471
    ],
    "swim:geom": "takeoff",
    "swim:timestamps": [
      1786570887,
      1786570914,
      1786570924,
      1786570965,
      1786571016,
      1786571096,
      1786571117,
      1786571154,
      1786571177,
      1786571218,
      1786571248,
      1786571273,
      1786571280,
      1786571364,
      1786571415,
      1786571482,
      1786571537,
      1786571595,
      1786571624,
      1786571647,
      1786571671,
      1786571728,
      1786571753,
      1786571787,
      1786571796
    ],
    "wof:geomhash": "f2b7e1570e20749c1820a15873b95ff1",
    "wof:id": 2047945465,
    "wof:repo": "sfomuseum-data-flights-2026-08"
  },
  "bbox": [
    -122.53685,
    36.80909,
    -121.25535,
    37.66038
  ],
  "geometry": {"type":"LineString","coordinates":[[-122.39425,37.62669],[-122.42018,37.63789],[-122.4306,37.64239],[-122.47198,37.66038],[-122.53685,37.65343],[-122.50853,37.55673],[-122.49469,37.53009],[-122.46585,37.48612],[-122.43666,37.4619],[-122.38107,37.4218],[-122.33879,37.39049],[-122.30137,37.36337],[-122.29161,37.3563],[-122.16558,37.26191],[-122.07892,37.19784],[-121.95641,37.1071],[-121.85458,37.03116],[-121.7457,36.95007],[-121.68927,36.90897],[-121.64331,36.8796],[-121.5834,36.86116],[-121.43373,36.83661],[-121.36713,36.82642],[-121.27803,36.81276],[-121.25535,36.80909]]}
}
