{
  "id": 2047880257,
  "type": "Feature",
  "properties": {
    "date:cessation_lower": "2026-08-07",
    "date:cessation_upper": "2026-08-07",
    "date:inception_lower": "2026-08-07",
    "date:inception_upper": "2026-08-07",
    "edtf:cessation": "2026-08-07T18:14:00Z",
    "edtf:inception": "2026-08-07T17:41:00Z",
    "flysfo:actual_timestamp": -1,
    "flysfo:airline": "UA",
    "flysfo:date": "2026-08-07",
    "flysfo:estimated_timestamp": 1786122840,
    "flysfo:event": "D",
    "flysfo:flight_number": "UA487",
    "flysfo:gate": "D8",
    "flysfo:journey": "SFO-SBP",
    "flysfo:scheduled_timestamp": 1786123200,
    "flysfo:timestamp": 1786123200,
    "geom:area": 0,
    "geom:bbox": "-122.370943,35.236920,-120.643230,37.617990",
    "geom:latitude": 36.427454999999995,
    "geom:longitude": -121.5070865,
    "iata:airline": "UA",
    "icao:aircraft": "A319",
    "icao:airline": "UAL",
    "lbl:latitude": 37.617421,
    "lbl:longitude": -122.380916,
    "sfomuseum:aircraft_id": 1159289407,
    "sfomuseum:airline_id": 1159285413,
    "sfomuseum:arrival_id": 102527351,
    "sfomuseum:departure_id": 102527513,
    "sfomuseum:flight_id": "20260807-D-UAL-487",
    "sfomuseum:flight_number": [
      "UAL487",
      "UA487"
    ],
    "sfomuseum:placetype": "flight",
    "src:geom": "flysfo",
    "src:geom_alt": [
      "swim-path",
      "swim-takeoff"
    ],
    "swim:tail_number": "N807UA",
    "wof:belongsto": [
      1947304067,
      102527513,
      1947304595,
      102191575,
      85633793,
      102087579,
      85922583,
      554784711,
      85688637,
      1947304617,
      1947304591,
      102085387
    ],
    "wof:concordances": {
      "swim:flight_ref": "153969213"
    },
    "wof:country": "US",
    "wof:created": 1786205839,
    "wof:geomhash": "6ee4dc6f06435306541ac2ffbe1ad823",
    "wof:hierarchy": [
      {
        "building_id": 1947304067,
        "campus_id": 102527513,
        "concourse_id": 1947304595,
        "continent_id": 102191575,
        "country_id": 85633793,
        "county_id": 102087579,
        "custom_id": 2047880257,
        "flight_id": 2047880257,
        "locality_id": 85922583,
        "postalcode_id": 554784711,
        "region_id": 85688637,
        "venue_id": 1947304617,
        "wing_id": 1947304591
      },
      {
        "building_id": 1947304067,
        "campus_id": 102527513,
        "concourse_id": 1947304595,
        "continent_id": 102191575,
        "country_id": 85633793,
        "county_id": 102085387,
        "custom_id": 2047880257,
        "flight_id": 2047880257,
        "region_id": 85688637,
        "venue_id": 1947304617,
        "wing_id": 1947304591
      }
    ],
    "wof:id": 2047880257,
    "wof:involves": [
      1159289407,
      102527351,
      102527513,
      1159285413,
      1947304617
    ],
    "wof:lastmodified": 1786206030,
    "wof:name": "UA487 (SFO-SBP)",
    "wof:parent_id": 1947304617,
    "wof:placetype": "custom",
    "wof:placetype_alt": [
      "flight"
    ],
    "wof:repo": "sfomuseum-data-flights-2026-08",
    "wof:superseded_by": [],
    "wof:supersedes": []
  },
  "bbox": [
    -122.370943,
    35.23692,
    -120.64323,
    37.61799
  ],
  "geometry": {"type":"MultiPoint","coordinates":[[-122.370943,37.61799],[-120.64323,35.23692]]}
}
