{
  "id": 2047955821,
  "type": "Feature",
  "properties": {
    "geom:area": 0,
    "geom:bbox": "-159.316667,21.966667,-153.050000,23.916667",
    "geom:latitude": 22.96232871926699,
    "geom:longitude": -156.2013328159272,
    "src:alt_label": "swim-path",
    "src:geom": "swim",
    "swim:altitudes": [
      "005C",
      "024C",
      "047C",
      "073C",
      "098C",
      "112C",
      "134C",
      "154C",
      "165C",
      "180C",
      "194C",
      "205C",
      "217C",
      "228C",
      "239C",
      "248C",
      "258C",
      "268C",
      "277C",
      "284C",
      "291C",
      "298C",
      "306C",
      "315C",
      "325C",
      "335C",
      "344C",
      "350",
      "350",
      "350",
      "350",
      "350",
      "350",
      "350",
      "350",
      "350",
      "350",
      "350",
      "350",
      "350",
      "350",
      "350",
      "350",
      "350",
      "350",
      "350",
      "350",
      "350",
      "350",
      "350",
      "350"
    ],
    "swim:geom": "path",
    "swim:speeds": [
      130,
      190,
      230,
      260,
      280,
      320,
      340,
      350,
      380,
      390,
      390,
      400,
      410,
      420,
      430,
      440,
      450,
      450,
      460,
      470,
      470,
      480,
      490,
      490,
      490,
      490,
      490,
      490,
      490,
      490,
      480,
      480,
      480,
      480,
      480,
      480,
      480,
      480,
      480,
      480,
      480,
      480,
      480,
      480,
      480,
      480,
      480,
      480,
      480,
      470,
      470
    ],
    "swim:timestamps": [
      1786658839,
      1786658899,
      1786658959,
      1786659019,
      1786659079,
      1786659139,
      1786659199,
      1786659259,
      1786659319,
      1786659380,
      1786659440,
      1786659500,
      1786659560,
      1786659620,
      1786659680,
      1786659740,
      1786659800,
      1786659861,
      1786659920,
      1786659981,
      1786660041,
      1786660101,
      1786660160,
      1786660220,
      1786660281,
      1786660341,
      1786660401,
      1786660461,
      1786660521,
      1786660581,
      1786660641,
      1786660702,
      1786660761,
      1786660821,
      1786660882,
      1786660942,
      1786661002,
      1786661062,
      1786661122,
      1786661181,
      1786661242,
      1786661362,
      1786661422,
      1786661482,
      1786661542,
      1786661602,
      1786661619,
      1786661680,
      1786661740,
      1786661801,
      1786661870
    ],
    "wof:geomhash": "8aa853b833f9ec6ab9daf3e2db2c6474",
    "wof:id": 2047955821,
    "wof:repo": "sfomuseum-data-flights-2026-08"
  },
  "bbox": [
    -159.31666666666666,
    21.966666666666665,
    -153.05,
    23.916666666666668
  ],
  "geometry": {"type":"LineString","coordinates":[[-159.31666666666666,21.983333333333334],[-159.28333333333333,21.966666666666665],[-159.21666666666667,21.966666666666665],[-159.13333333333333,21.983333333333334],[-159.05,22.016666666666666],[-158.96666666666667,22.033333333333335],[-158.86666666666667,22.05],[-158.76666666666668,22.083333333333332],[-158.66666666666666,22.1],[-158.55,22.133333333333333],[-158.43333333333334,22.15],[-158.31666666666666,22.183333333333334],[-158.2,22.216666666666665],[-158.08333333333334,22.266666666666666],[-157.98333333333332,22.333333333333332],[-157.86666666666667,22.4],[-157.76666666666668,22.483333333333334],[-157.65,22.55],[-157.53333333333333,22.633333333333333],[-157.41666666666666,22.7],[-157.28333333333333,22.733333333333334],[-157.15,22.766666666666666],[-157.01666666666668,22.816666666666666],[-156.86666666666667,22.85],[-156.73333333333332,22.883333333333333],[-156.58333333333334,22.933333333333334],[-156.45,22.966666666666665],[-156.3,23],[-156.16666666666666,23.05],[-156.03333333333333,23.083333333333332],[-155.88333333333333,23.116666666666667],[-155.75,23.15],[-155.6,23.2],[-155.46666666666667,23.233333333333334],[-155.31666666666666,23.266666666666666],[-155.18333333333334,23.3],[-155.05,23.333333333333332],[-154.9,23.383333333333333],[-154.76666666666668,23.416666666666668],[-154.63333333333333,23.45],[-154.48333333333332,23.483333333333334],[-154.21666666666667,23.55],[-154.06666666666666,23.6],[-153.93333333333334,23.633333333333333],[-153.78333333333333,23.666666666666668],[-153.65,23.7],[-153.61666666666667,23.716666666666665],[-153.46666666666667,23.75],[-153.33333333333334,23.783333333333335],[-153.2,23.833333333333332],[-153.05,23.916666666666668]]}
}
