{
  "id": 2047878793,
  "type": "Feature",
  "properties": {
    "geom:area": 0,
    "geom:bbox": "-122.541944,35.788056,-115.142500,37.663056",
    "geom:latitude": 36.9526080797532,
    "geom:longitude": -118.73571343632713,
    "src:alt_label": "swim-path",
    "src:geom": "swim",
    "swim:altitudes": [
      "014",
      "016",
      "033",
      "054",
      "084",
      "108",
      "118",
      "138",
      "163",
      "186",
      "201",
      "220",
      "219",
      "237",
      "237",
      "249",
      "262",
      "262",
      "271",
      "271",
      "284",
      "290C",
      "290C",
      "290C",
      "290C",
      "290C",
      "290C",
      "293",
      "293",
      "308",
      "307",
      "318",
      "330C",
      "329C",
      "330C",
      "330C",
      "330C",
      "330C",
      "330C",
      "330C",
      "330C",
      "330C",
      "330C",
      "330C",
      "330C",
      "330C",
      "329",
      "327",
      "318",
      "310C",
      "310C",
      "310C",
      "310C",
      "310C",
      "310C",
      "310C",
      "310",
      "304",
      "302",
      "292",
      "284",
      "282",
      "275",
      "273",
      "263",
      "252",
      "245",
      "243",
      "235",
      "229",
      "223",
      "202",
      "186",
      "181",
      "160",
      "160",
      "155",
      "145",
      "143",
      "131",
      "129",
      "122",
      "120",
      "113",
      "109",
      "097",
      "094",
      "084",
      "080",
      "079",
      "080",
      "076",
      "069",
      "068",
      "057",
      "054",
      "045",
      "042",
      "035",
      "033",
      "027",
      "024",
      "021"
    ],
    "swim:geom": "path",
    "swim:speeds": [
      155,
      158,
      235,
      253,
      264,
      281,
      361,
      383,
      395,
      401,
      423,
      433,
      423,
      446,
      434,
      448,
      464,
      454,
      476,
      466,
      478,
      481,
      482,
      482,
      483,
      482,
      482,
      483,
      484,
      481,
      483,
      485,
      485,
      485,
      483,
      483,
      483,
      483,
      483,
      482,
      482,
      482,
      482,
      482,
      482,
      482,
      483,
      483,
      481,
      482,
      483,
      483,
      483,
      483,
      483,
      480,
      476,
      475,
      474,
      474,
      473,
      472,
      471,
      471,
      467,
      457,
      449,
      448,
      448,
      441,
      413,
      374,
      377,
      375,
      325,
      306,
      307,
      303,
      304,
      305,
      280,
      266,
      255,
      253,
      251,
      247,
      247,
      247,
      243,
      249,
      251,
      228,
      220,
      221,
      221,
      214,
      204,
      185,
      168,
      153,
      156,
      149,
      153
    ],
    "swim:timestamps": [
      1786136003,
      1786136015,
      1786136075,
      1786136135,
      1786136195,
      1786136255,
      1786136316,
      1786136376,
      1786136436,
      1786136496,
      1786136556,
      1786136616,
      1786136623,
      1786136676,
      1786136683,
      1786136743,
      1786136796,
      1786136803,
      1786136856,
      1786136863,
      1786136923,
      1786136983,
      1786137037,
      1786137043,
      1786137097,
      1786137103,
      1786137164,
      1786137217,
      1786137224,
      1786137277,
      1786137284,
      1786137337,
      1786137397,
      1786137404,
      1786137457,
      1786137464,
      1786137517,
      1786137577,
      1786137584,
      1786137637,
      1786137644,
      1786137704,
      1786137758,
      1786137764,
      1786137818,
      1786137824,
      1786137878,
      1786137885,
      1786137945,
      1786137998,
      1786138005,
      1786138065,
      1786138125,
      1786138178,
      1786138185,
      1786138238,
      1786138305,
      1786138358,
      1786138365,
      1786138425,
      1786138479,
      1786138485,
      1786138539,
      1786138546,
      1786138606,
      1786138666,
      1786138719,
      1786138726,
      1786138779,
      1786138801,
      1786138846,
      1786138927,
      1786138966,
      1786138976,
      1786139036,
      1786139096,
      1786139146,
      1786139206,
      1786139216,
      1786139267,
      1786139282,
      1786139327,
      1786139342,
      1786139387,
      1786139403,
      1786139447,
      1786139463,
      1786139507,
      1786139523,
      1786139567,
      1786139583,
      1786139643,
      1786139687,
      1786139698,
      1786139747,
      1786139764,
      1786139807,
      1786139824,
      1786139867,
      1786139884,
      1786139927,
      1786139944,
      1786139988
    ],
    "wof:geomhash": "069360f011295228d15ce5412403cb2f",
    "wof:id": 2047878793,
    "wof:repo": "sfomuseum-data-flights-2026-08"
  },
  "bbox": [
    -122.54194444444444,
    35.78805555555555,
    -115.14250000000001,
    37.66305555555555
  ],
  "geometry": {"type":"LineString","coordinates":[[-122.4,37.63333333333333],[-122.41166666666668,37.63611111111111],[-122.47666666666667,37.66305555555555],[-122.54194444444444,37.638888888888886],[-122.50527777777778,37.57222222222222],[-122.46111111111111,37.50555555555555],[-122.37638888888888,37.44],[-122.27805555555555,37.368611111111115],[-122.17055555555557,37.29944444444444],[-122.03472222222221,37.27388888888889],[-121.89222222222223,37.25],[-121.75,37.22638888888889],[-121.75277777777778,37.223888888888894],[-121.59722222222221,37.200833333333335],[-121.60111111111111,37.19916666666666],[-121.44444444444444,37.17333333333333],[-121.285,37.147777777777776],[-121.28583333333333,37.146388888888886],[-121.12444444444444,37.12],[-121.12416666666665,37.11833333333333],[-120.95805555555556,37.08972222222222],[-120.79138888888889,37.06111111111111],[-120.63166666666666,37.03388888888889],[-120.62694444444443,37.03361111111111],[-120.46777777777778,37.004444444444445],[-120.46361111111112,37.00388888888889],[-120.29944444444445,36.974444444444444],[-120.12777777777777,36.94333333333333],[-120.13333333333334,36.94444444444444],[-119.96194444444444,36.926944444444445],[-119.96777777777778,36.926944444444445],[-119.79388888888889,36.93888888888888],[-119.63388888888889,36.97805555555556],[-119.6388888888889,36.97666666666667],[-119.48361111111112,37.03194444444444],[-119.48611111111111,37.03111111111111],[-119.32777777777777,37.08277777777778],[-119.16972222222223,37.13361111111111],[-119.15666666666667,37.13777777777778],[-119.01527777777778,37.183055555555555],[-119.00083333333333,37.1875],[-118.84416666666667,37.237500000000004],[-118.70111111111112,37.27388888888889],[-118.685,37.276666666666664],[-118.53305555555555,37.29111111111111],[-118.51805555555555,37.29222222222222],[-118.38277777777778,37.302499999999995],[-118.35111111111111,37.30472222222222],[-118.18388888888889,37.316944444444445],[-118.04944444444445,37.32694444444445],[-118.01666666666667,37.32944444444445],[-117.84722222222221,37.34166666666667],[-117.67972222222222,37.35333333333333],[-117.54638888888888,37.36055555555556],[-117.5125,37.36027777777778],[-117.38083333333333,37.346944444444446],[-117.19472222222223,37.296388888888885],[-117.08305555555555,37.244166666666665],[-117.05694444444444,37.22888888888889],[-116.93277777777779,37.141666666666666],[-116.84472222222222,37.06333333333333],[-116.82694444444444,37.04194444444444],[-116.75277777777778,36.95722222222223],[-116.73333333333333,36.93472222222222],[-116.64361111111111,36.830000000000005],[-116.55194444444444,36.72277777777778],[-116.47972222222222,36.643055555555556],[-116.45805555555556,36.6275],[-116.36361111111111,36.56111111111111],[-116.30305555555556,36.51833333333333],[-116.23833333333333,36.472500000000004],[-116.10472222222222,36.35111111111111],[-116.05499999999999,36.30361111111111],[-116.03777777777778,36.288333333333334],[-115.96083333333334,36.213055555555556],[-115.89194444444445,36.1475],[-115.83888888888889,36.09666666666667],[-115.77277777777778,36.03333333333333],[-115.75694444444444,36.01861111111111],[-115.70472222222223,35.9675],[-115.68444444444445,35.94833333333333],[-115.6563888888889,35.904444444444444],[-115.64750000000001,35.88305555555556],[-115.62722222222222,35.835],[-115.6125,35.82027777777778],[-115.56222222222222,35.79],[-115.54166666666667,35.78805555555555],[-115.4875,35.81194444444444],[-115.4713888888889,35.82194444444445],[-115.41722222222222,35.849444444444444],[-115.39722222222223,35.85916666666667],[-115.33472222222221,35.902499999999996],[-115.33833333333332,35.94611111111111],[-115.33527777777778,35.95583333333334],[-115.32277777777777,36.00527777777778],[-115.31944444444444,36.02333333333333],[-115.30416666666666,36.061388888888885],[-115.28805555555556,36.06722222222223],[-115.24305555555556,36.07361111111111],[-115.22916666666667,36.073055555555555],[-115.19111111111111,36.07361111111111],[-115.17666666666668,36.07333333333334],[-115.14250000000001,36.07333333333334]]}
}
