{
  "id": 2048039169,
  "type": "Feature",
  "properties": {
    "geom:area": 0,
    "geom:bbox": "-122.562840,36.726690,-122.359380,37.667220",
    "geom:latitude": 37.22821312000652,
    "geom:longitude": -122.51488757796083,
    "src:alt_label": "swim-takeoff",
    "src:geom": "swim",
    "swim:elevations": [
      315,
      513,
      656,
      857,
      1256,
      1476,
      1936,
      2283,
      2529,
      2843,
      3239,
      3523,
      3732,
      3929,
      4721,
      4820,
      5391,
      5606,
      5883,
      6554,
      6764,
      7173,
      7616,
      7854,
      8207
    ],
    "swim:geom": "takeoff",
    "swim:timestamps": [
      1786950505,
      1786950535,
      1786950560,
      1786950579,
      1786950624,
      1786950642,
      1786950679,
      1786950708,
      1786950729,
      1786950754,
      1786950792,
      1786950836,
      1786950854,
      1786950871,
      1786950928,
      1786950934,
      1786950983,
      1786951001,
      1786951020,
      1786951071,
      1786951093,
      1786951138,
      1786951168,
      1786951183,
      1786951222
    ],
    "wof:geomhash": "10e7d5e4b9aeced303e32951fe9ab76c",
    "wof:id": 2048039169,
    "wof:repo": "sfomuseum-data-flights-2026-08"
  },
  "bbox": [
    -122.56284,
    36.72669,
    -122.35938,
    37.66722
  ],
  "geometry": {"type":"LineString","coordinates":[[-122.40784,37.63284],[-122.43718,37.64553],[-122.46588,37.65787],[-122.49013,37.66722],[-122.5429,37.64292],[-122.54566,37.6213],[-122.54661,37.57653],[-122.54773,37.53852],[-122.54835,37.51244],[-122.54937,37.47858],[-122.55119,37.42785],[-122.55349,37.35898],[-122.55443,37.33021],[-122.55525,37.3029],[-122.55808,37.20847],[-122.55844,37.19726],[-122.5609,37.11475],[-122.56184,37.08361],[-122.56284,37.0494],[-122.5333,36.96493],[-122.50829,36.93071],[-122.45582,36.85922],[-122.42043,36.81101],[-122.40323,36.78681],[-122.35938,36.72669]]}
}
