{
  "id": 2032120743,
  "type": "Feature",
  "properties": {
    "geom:area": 0,
    "geom:bbox": "-122.397140,37.622250,-122.014290,38.512610",
    "geom:latitude": 38.059017330871974,
    "geom:longitude": -122.2353840861434,
    "src:alt_label": "swim-takeoff",
    "src:geom": "swim",
    "swim:elevations": [
      122,
      437,
      613,
      1068,
      1218,
      1499,
      1548,
      2541,
      2669,
      3122,
      3721,
      3769,
      4130,
      4330,
      4715,
      5072,
      5229,
      5596,
      5776,
      5803,
      6209,
      6392,
      6424,
      6482,
      6691
    ],
    "swim:geom": "takeoff",
    "swim:timestamps": [
      1785939748,
      1785939771,
      1785939800,
      1785939861,
      1785939900,
      1785939939,
      1785939942,
      1785940017,
      1785940028,
      1785940065,
      1785940113,
      1785940118,
      1785940148,
      1785940176,
      1785940220,
      1785940250,
      1785940268,
      1785940309,
      1785940328,
      1785940332,
      1785940381,
      1785940406,
      1785940410,
      1785940415,
      1785940442
    ],
    "wof:geomhash": "3a12ce898b77af1f335a7443c903a32e",
    "wof:id": 2032120743,
    "wof:repo": "sfomuseum-data-flights-2026-08"
  },
  "bbox": [
    -122.39714,
    37.62225,
    -122.01429,
    38.51261
  ],
  "geometry": {"type":"LineString","coordinates":[[-122.38356,37.62225],[-122.39714,37.6329],[-122.3856,37.65158],[-122.33169,37.67541],[-122.33467,37.71286],[-122.35084,37.76003],[-122.35218,37.7639],[-122.35857,37.86389],[-122.35016,37.87888],[-122.32344,37.92874],[-122.28956,37.99608],[-122.28584,38.00321],[-122.26458,38.04456],[-122.24393,38.08461],[-122.20867,38.15289],[-122.18422,38.19888],[-122.16936,38.22648],[-122.13419,38.29213],[-122.11753,38.32305],[-122.11405,38.32954],[-122.07099,38.40955],[-122.04789,38.45211],[-122.04446,38.45828],[-122.03957,38.46709],[-122.01429,38.51261]]}
}
