{
  "id": 2047955555,
  "type": "Feature",
  "properties": {
    "date:cessation_lower": "2026-08-14",
    "date:cessation_upper": "2026-08-14",
    "date:inception_lower": "1970-01-01",
    "date:inception_upper": "1970-01-01",
    "edtf:cessation": "2026-08-13T23:40:07-07:00",
    "edtf:inception": "1970-01-01T00:00:00Z",
    "flysfo:actual_timestamp": -1,
    "flysfo:airline": "UA",
    "flysfo:date": "2026-08-13",
    "flysfo:estimated_timestamp": -1,
    "flysfo:event": "A",
    "flysfo:flight_number": "UA1685",
    "flysfo:gate": "",
    "flysfo:journey": "LIH-SFO",
    "flysfo:scheduled_timestamp": 1786629660,
    "flysfo:timestamp": 1786629660,
    "geom:area": 0,
    "geom:bbox": "-159.347789,21.981539,-122.370943,37.617990",
    "geom:latitude": 29.799764500000002,
    "geom:longitude": -140.859366,
    "iata:airline": "UA",
    "icao:aircraft": "B38M",
    "icao:airline": "UAL",
    "lbl:latitude": 37.61799,
    "lbl:longitude": -122.370943,
    "sfomuseum:aircraft_id": 1528104575,
    "sfomuseum:airline_id": 1159285413,
    "sfomuseum:arrival_id": 102527513,
    "sfomuseum:departure_id": 102528943,
    "sfomuseum:flight_id": "20260813-A-UAL-1685",
    "sfomuseum:flight_number": [
      "UAL1685",
      "UA1685"
    ],
    "sfomuseum:placetype": "flight",
    "src:geom": "flysfo",
    "src:geom_alt": [
      "swim-approach"
    ],
    "swim:tail_number": "N27255",
    "wof:belongsto": [],
    "wof:country": "US",
    "wof:created": 1786723748,
    "wof:geomhash": "46fccc0e56242535ccfd5ecb278f9a75",
    "wof:hierarchy": [
      {
        "custom_id": 2047955555,
        "flight_id": 2047955555
      }
    ],
    "wof:id": 2047955555,
    "wof:involves": [
      1528104575,
      102527513,
      102528943,
      1159285413
    ],
    "wof:lastmodified": 1786724487,
    "wof:name": "UA1685 (LIH-SFO)",
    "wof:parent_id": -1,
    "wof:placetype": "custom",
    "wof:placetype_alt": [
      "flight"
    ],
    "wof:repo": "sfomuseum-data-flights-2026-08",
    "wof:superseded_by": [],
    "wof:supersedes": []
  },
  "bbox": [
    -159.347789,
    21.981539,
    -122.370943,
    37.61799
  ],
  "geometry": {"type":"MultiPoint","coordinates":[[-159.347789,21.981539],[-122.370943,37.61799]]}
}
