{
  "id": 2047909709,
  "type": "Feature",
  "properties": {
    "geom:area": 0,
    "geom:bbox": "-122.356111,32.766667,-97.063611,38.114722",
    "geom:latitude": 36.28666091555476,
    "geom:longitude": -109.59221808325425,
    "src:alt_label": "swim-path",
    "src:geom": "swim",
    "swim:altitudes": [
      "032",
      "037",
      "055",
      "061",
      "080",
      "104",
      "107",
      "123",
      "146",
      "184",
      "201",
      "247",
      "259",
      "272",
      "284",
      "300",
      "309",
      "317",
      "330",
      "337",
      "340C",
      "340C",
      "340C",
      "340C",
      "340C",
      "340C",
      "340C",
      "340C",
      "340C",
      "341C",
      "341C",
      "340C",
      "340C",
      "340C",
      "340C",
      "340C",
      "340C",
      "340C",
      "340C",
      "340C",
      "340C",
      "340C",
      "340C",
      "340C",
      "340C",
      "340C",
      "340C",
      "340C",
      "340C",
      "340C",
      "340C",
      "340C",
      "340C",
      "340C",
      "340C",
      "340C",
      "340C",
      "340C",
      "340C",
      "340C",
      "340C",
      "340C",
      "340C",
      "340C",
      "340C",
      "340C",
      "340C",
      "340C",
      "340C",
      "340C",
      "340C",
      "340C",
      "340C",
      "340C",
      "340C",
      "340C",
      "340C",
      "340C",
      "340C",
      "341C",
      "341C",
      "340C",
      "340C",
      "340C",
      "340C",
      "340C",
      "340C",
      "341C",
      "340C",
      "340C",
      "339C",
      "340C",
      "339C",
      "340C",
      "339C",
      "340C",
      "339C",
      "340C",
      "340C",
      "340C",
      "341C",
      "340C",
      "340C",
      "340C",
      "340C",
      "340C",
      "339C",
      "340C",
      "340C",
      "340C",
      "340C",
      "340C",
      "340C",
      "340C",
      "340C",
      "340C",
      "341C",
      "341C",
      "341C",
      "341C",
      "340C",
      "340C",
      "340C",
      "340C",
      "340C",
      "340C",
      "340C",
      "341C",
      "341C",
      "340C",
      "340C",
      "340C",
      "340C",
      "340C",
      "340C",
      "340C",
      "340C",
      "340C",
      "340C",
      "340C",
      "340C",
      "340C",
      "340C",
      "340C",
      "340C",
      "340C",
      "340C",
      "340C",
      "340C",
      "340C",
      "340C",
      "340C",
      "341C",
      "341C",
      "340C",
      "340C",
      "340C",
      "340C",
      "340C",
      "340C",
      "340C",
      "340C",
      "340C",
      "340C",
      "340C",
      "340C",
      "340C",
      "340C",
      "340C",
      "341C",
      "341C",
      "341C",
      "340C",
      "340C",
      "340C",
      "340C",
      "340C",
      "340C",
      "340C",
      "340C",
      "340C",
      "340C",
      "340C",
      "340C",
      "340C",
      "340C",
      "340C",
      "340C",
      "340C",
      "340",
      "346",
      "354",
      "360C",
      "360C",
      "360C",
      "360C",
      "360C",
      "360C",
      "360C",
      "360C",
      "360C",
      "360C",
      "360C",
      "360C",
      "360C",
      "360C",
      "360C",
      "360C",
      "360C",
      "360C",
      "360C",
      "360C",
      "360C",
      "360C",
      "360C",
      "360C",
      "360C",
      "360C",
      "360C",
      "360C",
      "360C",
      "360C",
      "360C",
      "360C",
      "360C",
      "360C",
      "360C",
      "360C",
      "360C",
      "360C",
      "360C",
      "360C",
      "360C",
      "360C",
      "360C",
      "360C",
      "360C",
      "360C",
      "360C",
      "360C",
      "360C",
      "360C",
      "360C",
      "360C",
      "360C",
      "360C",
      "360C",
      "360C",
      "360C",
      "360C",
      "360C",
      "360C",
      "360C",
      "360C",
      "360",
      "358",
      "348",
      "322",
      "294",
      "272",
      "268",
      "250",
      "230",
      "209",
      "190",
      "170",
      "153",
      "147",
      "135",
      "118",
      "113",
      "106",
      "105",
      "094",
      "090",
      "083",
      "081",
      "072",
      "068",
      "060",
      "060",
      "054",
      "050",
      "042",
      "029",
      "018",
      "009",
      "001"
    ],
    "swim:geom": "path",
    "swim:speeds": [
      223,
      240,
      256,
      267,
      280,
      297,
      309,
      334,
      345,
      366,
      378,
      408,
      420,
      426,
      432,
      450,
      458,
      462,
      463,
      463,
      462,
      460,
      459,
      458,
      461,
      462,
      463,
      463,
      463,
      464,
      464,
      464,
      464,
      463,
      463,
      462,
      461,
      460,
      459,
      458,
      457,
      455,
      455,
      454,
      453,
      453,
      453,
      453,
      453,
      453,
      454,
      454,
      455,
      455,
      455,
      455,
      454,
      454,
      454,
      453,
      454,
      454,
      454,
      454,
      454,
      454,
      454,
      455,
      455,
      455,
      456,
      455,
      455,
      455,
      455,
      455,
      455,
      455,
      455,
      455,
      454,
      453,
      451,
      449,
      448,
      448,
      449,
      449,
      449,
      449,
      448,
      448,
      447,
      446,
      444,
      446,
      445,
      446,
      450,
      447,
      451,
      448,
      449,
      447,
      446,
      444,
      443,
      441,
      440,
      440,
      439,
      439,
      439,
      440,
      441,
      441,
      443,
      443,
      444,
      444,
      444,
      444,
      444,
      443,
      443,
      444,
      444,
      445,
      445,
      446,
      444,
      447,
      442,
      442,
      441,
      442,
      440,
      442,
      439,
      442,
      438,
      437,
      438,
      438,
      436,
      438,
      436,
      437,
      437,
      437,
      439,
      438,
      441,
      440,
      444,
      441,
      443,
      441,
      442,
      439,
      435,
      434,
      430,
      429,
      427,
      425,
      425,
      424,
      425,
      425,
      427,
      427,
      428,
      428,
      428,
      428,
      428,
      429,
      430,
      431,
      432,
      433,
      434,
      434,
      433,
      434,
      435,
      435,
      436,
      435,
      437,
      437,
      434,
      428,
      427,
      426,
      426,
      426,
      428,
      434,
      429,
      434,
      431,
      434,
      432,
      434,
      433,
      434,
      433,
      434,
      434,
      434,
      434,
      434,
      433,
      432,
      432,
      432,
      432,
      431,
      431,
      431,
      430,
      430,
      430,
      431,
      431,
      431,
      433,
      433,
      435,
      435,
      437,
      437,
      439,
      440,
      428,
      418,
      414,
      414,
      413,
      413,
      412,
      412,
      412,
      412,
      422,
      435,
      436,
      436,
      437,
      438,
      439,
      440,
      440,
      440,
      439,
      444,
      452,
      441,
      434,
      430,
      415,
      398,
      381,
      367,
      359,
      351,
      347,
      338,
      332,
      314,
      300,
      289,
      285,
      275,
      262,
      257,
      252,
      255,
      255,
      254,
      250,
      229,
      227,
      199,
      159,
      152
    ],
    "swim:timestamps": [
      1786364650,
      1786364663,
      1786364710,
      1786364723,
      1786364770,
      1786364831,
      1786364843,
      1786364891,
      1786364951,
      1786365071,
      1786365131,
      1786365311,
      1786365371,
      1786365431,
      1786365491,
      1786365612,
      1786365672,
      1786365732,
      1786365792,
      1786365852,
      1786365912,
      1786365972,
      1786366032,
      1786366092,
      1786366125,
      1786366152,
      1786366186,
      1786366213,
      1786366246,
      1786366273,
      1786366306,
      1786366333,
      1786366365,
      1786366393,
      1786366424,
      1786366453,
      1786366484,
      1786366513,
      1786366544,
      1786366573,
      1786366605,
      1786366633,
      1786366665,
      1786366693,
      1786366725,
      1786366753,
      1786366785,
      1786366813,
      1786366845,
      1786366873,
      1786366905,
      1786366934,
      1786366965,
      1786366994,
      1786367025,
      1786367054,
      1786367085,
      1786367114,
      1786367145,
      1786367174,
      1786367205,
      1786367234,
      1786367266,
      1786367294,
      1786367326,
      1786367354,
      1786367386,
      1786367414,
      1786367446,
      1786367474,
      1786367506,
      1786367534,
      1786367566,
      1786367594,
      1786367626,
      1786367655,
      1786367686,
      1786367715,
      1786367746,
      1786367775,
      1786367806,
      1786367835,
      1786367866,
      1786367926,
      1786367975,
      1786367987,
      1786368035,
      1786368047,
      1786368095,
      1786368107,
      1786368155,
      1786368167,
      1786368215,
      1786368227,
      1786368275,
      1786368288,
      1786368335,
      1786368348,
      1786368395,
      1786368405,
      1786368455,
      1786368466,
      1786368515,
      1786368526,
      1786368575,
      1786368586,
      1786368635,
      1786368695,
      1786368706,
      1786368756,
      1786368766,
      1786368826,
      1786368876,
      1786368886,
      1786368936,
      1786368946,
      1786368996,
      1786369006,
      1786369056,
      1786369066,
      1786369116,
      1786369127,
      1786369187,
      1786369236,
      1786369247,
      1786369296,
      1786369307,
      1786369367,
      1786369427,
      1786369477,
      1786369547,
      1786369607,
      1786369657,
      1786369667,
      1786369717,
      1786369727,
      1786369777,
      1786369787,
      1786369837,
      1786369847,
      1786369897,
      1786369957,
      1786369967,
      1786370027,
      1786370077,
      1786370087,
      1786370137,
      1786370147,
      1786370198,
      1786370207,
      1786370258,
      1786370267,
      1786370318,
      1786370328,
      1786370388,
      1786370438,
      1786370448,
      1786370498,
      1786370508,
      1786370568,
      1786370618,
      1786370628,
      1786370678,
      1786370688,
      1786370748,
      1786370798,
      1786370808,
      1786370858,
      1786370868,
      1786370928,
      1786370979,
      1786370988,
      1786371039,
      1786371049,
      1786371109,
      1786371159,
      1786371169,
      1786371219,
      1786371229,
      1786371279,
      1786371289,
      1786371339,
      1786371409,
      1786371469,
      1786371529,
      1786371589,
      1786371649,
      1786371709,
      1786371770,
      1786371830,
      1786371890,
      1786371950,
      1786372010,
      1786372070,
      1786372130,
      1786372190,
      1786372250,
      1786372310,
      1786372370,
      1786372416,
      1786372430,
      1786372476,
      1786372491,
      1786372536,
      1786372551,
      1786372596,
      1786372611,
      1786372656,
      1786372671,
      1786372716,
      1786372731,
      1786372776,
      1786372791,
      1786372836,
      1786372851,
      1786372897,
      1786372911,
      1786372957,
      1786372971,
      1786373017,
      1786373031,
      1786373077,
      1786373091,
      1786373137,
      1786373151,
      1786373211,
      1786373257,
      1786373272,
      1786373317,
      1786373332,
      1786373377,
      1786373392,
      1786373437,
      1786373452,
      1786373497,
      1786373512,
      1786373557,
      1786373572,
      1786373617,
      1786373632,
      1786373678,
      1786373692,
      1786373738,
      1786373752,
      1786373798,
      1786373812,
      1786373858,
      1786373918,
      1786373978,
      1786374038,
      1786374098,
      1786374158,
      1786374218,
      1786374278,
      1786374338,
      1786374398,
      1786374459,
      1786374519,
      1786374579,
      1786374639,
      1786374649,
      1786374699,
      1786374759,
      1786374819,
      1786374879,
      1786374939,
      1786374999,
      1786375015,
      1786375059,
      1786375119,
      1786375129,
      1786375179,
      1786375190,
      1786375239,
      1786375250,
      1786375300,
      1786375310,
      1786375360,
      1786375369,
      1786375420,
      1786375429,
      1786375480,
      1786375490,
      1786375540,
      1786375600,
      1786375660,
      1786375720,
      1786375780
    ],
    "wof:geomhash": "c21c5c418b11a91445b6c26a41f44b71",
    "wof:id": 2047909709,
    "wof:repo": "sfomuseum-data-flights-2026-08"
  },
  "bbox": [
    -122.3561111111111,
    32.766666666666666,
    -97.06361111111111,
    38.11472222222223
  ],
  "geometry": {"type":"LineString","coordinates":[[-97.06361111111111,32.82194444444445],[-97.06666666666666,32.8],[-97.11083333333333,32.77027777777778],[-97.13333333333334,32.766666666666666],[-97.20194444444445,32.76861111111111],[-97.2975,32.785],[-97.31666666666666,32.78333333333333],[-97.4025,32.81083333333333],[-97.51277777777777,32.837500000000006],[-97.7363888888889,32.89111111111111],[-97.85416666666666,32.92972222222222],[-98.21861111111112,33.04833333333333],[-98.34805555555555,33.09055555555556],[-98.49083333333333,33.13666666666666],[-98.62527777777777,33.18],[-98.90166666666667,33.26888888888889],[-99.04583333333333,33.31472222222222],[-99.19111111111111,33.36083333333333],[-99.33361111111111,33.405833333333334],[-99.4775,33.450833333333335],[-99.62166666666666,33.4925],[-99.76638888888888,33.532777777777774],[-99.91250000000001,33.573055555555555],[-100.05055555555555,33.611111111111114],[-100.11222222222221,33.628055555555555],[-100.19666666666667,33.651666666666664],[-100.265,33.67722222222222],[-100.33527777777778,33.70805555555556],[-100.40194444444445,33.736666666666665],[-100.47277777777778,33.7675],[-100.5411111111111,33.79694444444444],[-100.61,33.82666666666667],[-100.67694444444444,33.85583333333334],[-100.74666666666667,33.88583333333333],[-100.81444444444445,33.915],[-100.88277777777778,33.94416666666666],[-100.95111111111112,33.973333333333336],[-101.01888888888888,34.0025],[-101.08583333333333,34.03111111111111],[-101.13833333333334,34.05333333333333],[-101.22166666666666,34.08888888888889],[-101.27527777777777,34.111666666666665],[-101.35777777777777,34.146388888888886],[-101.40916666666668,34.16833333333333],[-101.49277777777777,34.203611111111115],[-101.54472222222222,34.22527777777778],[-101.6275,34.26027777777778],[-101.68138888888889,34.282777777777774],[-101.76305555555555,34.316944444444445],[-101.81777777777778,34.34],[-101.90138888888889,34.374722222222225],[-101.95555555555556,34.3975],[-102.03805555555556,34.43138888888889],[-102.0911111111111,34.45333333333333],[-102.17500000000001,34.488055555555555],[-102.22916666666667,34.510555555555555],[-102.31305555555555,34.544999999999995],[-102.36555555555555,34.56666666666667],[-102.45055555555555,34.60138888888889],[-102.50444444444445,34.62361111111111],[-102.5886111111111,34.658055555555556],[-102.64166666666668,34.67944444444444],[-102.72361111111111,34.713055555555556],[-102.77833333333334,34.73527777777778],[-102.8625,34.769444444444446],[-102.91777777777779,34.791666666666664],[-103.00111111111111,34.82527777777778],[-103.05583333333333,34.847500000000004],[-103.13833333333334,34.88055555555555],[-103.19388888888889,34.90277777777778],[-103.27722222222222,34.93611111111111],[-103.33305555555555,34.958333333333336],[-103.415,34.990833333333335],[-103.47055555555556,35.01305555555555],[-103.55416666666666,35.046388888888885],[-103.60944444444443,35.06805555555556],[-103.69194444444445,35.100833333333334],[-103.75,35.12361111111111],[-103.83138888888888,35.15555555555555],[-103.88916666666667,35.17833333333333],[-103.97611111111111,35.212500000000006],[-104.0261111111111,35.23222222222223],[-104.11555555555555,35.26694444444444],[-104.24472222222222,35.31722222222223],[-104.36222222222221,35.36222222222222],[-104.36583333333333,35.36388888888889],[-104.50333333333333,35.41611111111111],[-104.50305555555556,35.41694444444444],[-104.63416666666667,35.465833333333336],[-104.64,35.46944444444445],[-104.77361111111111,35.51916666666666],[-104.77777777777777,35.52222222222222],[-104.91305555555556,35.573055555555555],[-104.91638888888889,35.575],[-105.05277777777778,35.62555555555556],[-105.08222222222221,35.63777777777778],[-105.19472222222223,35.67611111111111],[-105.22277777777778,35.68416666666666],[-105.32972222222222,35.71638888888889],[-105.36666666666666,35.727222222222224],[-105.47472222222223,35.75944444444445],[-105.50888888888889,35.76972222222222],[-105.61555555555555,35.801111111111105],[-105.6525,35.81194444444444],[-105.75972222222222,35.84388888888889],[-105.79555555555555,35.85444444444445],[-105.89861111111112,35.88472222222222],[-106.04194444444444,35.92666666666666],[-106.07305555555556,35.93583333333333],[-106.185,35.968333333333334],[-106.21666666666667,35.9775],[-106.35083333333333,36.01611111111111],[-106.46055555555556,36.047777777777775],[-106.49527777777777,36.05777777777777],[-106.60472222222222,36.08916666666667],[-106.63388888888889,36.097500000000004],[-106.74777777777778,36.12972222222222],[-106.7775,36.138333333333335],[-106.89194444444445,36.170833333333334],[-106.92,36.17861111111111],[-107.03527777777778,36.211111111111116],[-107.06527777777778,36.21944444444445],[-107.20722222222223,36.259166666666665],[-107.32222222222222,36.29138888888889],[-107.3475,36.29861111111111],[-107.46777777777778,36.331944444444446],[-107.49694444444445,36.34],[-107.6413888888889,36.37972222222222],[-107.7863888888889,36.419444444444444],[-107.90333333333334,36.45138888888889],[-108.07555555555555,36.498333333333335],[-108.22,36.53527777777778],[-108.33277777777778,36.5675],[-108.36277777777777,36.57555555555556],[-108.47722222222222,36.60611111111111],[-108.50888888888889,36.61361111111111],[-108.62055555555555,36.64416666666666],[-108.65194444444445,36.651944444444446],[-108.76222222222222,36.681666666666665],[-108.7961111111111,36.689166666666665],[-108.935,36.72694444444445],[-109.07638888888889,36.763888888888886],[-109.08027777777778,36.764722222222225],[-109.22416666666666,36.801944444444445],[-109.36055555555555,36.83777777777778],[-109.36777777777777,36.83916666666667],[-109.50583333333333,36.875],[-109.51138888888889,36.876111111111115],[-109.65055555555556,36.911944444444444],[-109.64611111111111,36.910555555555554],[-109.79555555555555,36.948611111111106],[-109.79138888888889,36.9475],[-109.94222222222223,36.98583333333333],[-109.93777777777778,36.984722222222224],[-110.11222222222221,37.03527777777778],[-110.22944444444444,37.07166666666667],[-110.25555555555556,37.07972222222222],[-110.3711111111111,37.11527777777778],[-110.39444444444445,37.1225],[-110.54083333333332,37.163888888888884],[-110.6563888888889,37.19583333333333],[-110.68194444444445,37.20277777777778],[-110.79694444444445,37.23416666666667],[-110.82305555555556,37.24138888888889],[-110.96166666666667,37.27916666666667],[-111.075,37.30972222222222],[-111.10111111111111,37.316944444444445],[-111.21527777777779,37.347500000000004],[-111.24055555555556,37.35444444444445],[-111.38166666666666,37.39194444444444],[-111.49833333333333,37.42305555555555],[-111.52333333333333,37.42972222222222],[-111.64166666666668,37.46083333333333],[-111.66527777777779,37.467222222222226],[-111.80777777777777,37.504444444444445],[-111.92500000000001,37.53527777777778],[-111.94888888888889,37.541666666666664],[-112.06888888888888,37.57277777777778],[-112.09305555555555,37.57888888888889],[-112.21222222222222,37.609722222222224],[-112.23666666666666,37.61611111111111],[-112.35722222222222,37.64722222222222],[-112.52527777777777,37.69027777777777],[-112.66805555555555,37.72638888888889],[-112.80916666666667,37.761944444444445],[-112.95305555555557,37.79805555555556],[-113.09777777777778,37.83416666666667],[-113.24277777777777,37.87027777777778],[-113.38694444444445,37.90611111111111],[-113.53111111111112,37.945277777777775],[-113.67083333333333,37.99666666666667],[-113.81027777777777,38.047777777777775],[-113.95111111111112,38.095],[-114.09944444444444,38.11472222222223],[-114.24777777777778,38.113055555555555],[-114.39666666666668,38.11055555555556],[-114.54694444444445,38.10805555555556],[-114.69611111111111,38.105000000000004],[-114.8475,38.10194444444445],[-114.97444444444444,38.09861111111111],[-115.00055555555555,38.09861111111111],[-115.1261111111111,38.096944444444446],[-115.15138888888889,38.095],[-115.27972222222222,38.0925],[-115.30333333333333,38.09138888888889],[-115.43222222222222,38.088055555555556],[-115.46138888888889,38.08722222222222],[-115.58583333333333,38.08416666666667],[-115.61305555555555,38.083333333333336],[-115.73805555555556,38.07972222222222],[-115.76833333333333,38.078611111111115],[-115.89,38.07527777777778],[-115.92,38.07416666666667],[-116.04388888888889,38.07055555555556],[-116.07138888888889,38.069722222222225],[-116.19638888888889,38.065555555555555],[-116.22305555555556,38.06444444444444],[-116.34722222222221,38.06055555555555],[-116.37694444444443,38.059444444444445],[-116.49861111111112,38.055277777777775],[-116.52888888888889,38.05416666666667],[-116.65083333333334,38.04972222222222],[-116.67888888888889,38.04861111111111],[-116.80305555555556,38.04416666666666],[-116.83083333333333,38.043055555555554],[-116.98416666666667,38.036944444444444],[-117.11027777777777,38.03194444444444],[-117.13805555555557,38.030833333333334],[-117.26833333333333,38.025555555555556],[-117.2975,38.024166666666666],[-117.42527777777778,38.01888888888889],[-117.45444444444445,38.0175],[-117.54805555555555,38.013333333333335],[-117.60972222222222,38.01083333333333],[-117.70555555555556,38.006388888888885],[-117.76416666666667,38.00361111111111],[-117.85749999999999,37.99333333333333],[-117.90972222222223,37.977222222222224],[-117.97666666666667,37.93194444444444],[-118.01527777777778,37.89972222222222],[-118.07666666666667,37.84916666666667],[-118.11555555555555,37.81722222222223],[-118.17833333333334,37.76611111111111],[-118.21611111111112,37.735],[-118.27777777777777,37.68472222222222],[-118.31777777777778,37.655833333333334],[-118.40083333333334,37.628055555555555],[-118.55611111111111,37.63055555555555],[-118.7075,37.63722222222222],[-118.88361111111112,37.64472222222222],[-119.03805555555556,37.651111111111106],[-119.19194444444445,37.6575],[-119.34527777777777,37.663333333333334],[-119.49972222222222,37.66916666666666],[-119.65472222222223,37.675],[-119.80694444444444,37.680277777777775],[-119.96166666666667,37.68555555555555],[-120.11749999999999,37.69027777777777],[-120.27833333333334,37.69555555555555],[-120.43277777777779,37.695277777777775],[-120.45,37.7],[-120.58083333333333,37.678888888888885],[-120.7275,37.66166666666666],[-120.86583333333333,37.644999999999996],[-120.99777777777778,37.62888888888889],[-121.12666666666667,37.611111111111114],[-121.24111111111111,37.59583333333334],[-121.28333333333333,37.583333333333336],[-121.36055555555555,37.58166666666667],[-121.47638888888889,37.568333333333335],[-121.5,37.56666666666667],[-121.5886111111111,37.555277777777775],[-121.61666666666666,37.55],[-121.68722222222223,37.53583333333333],[-121.71666666666667,37.53333333333333],[-121.78138888888888,37.513333333333335],[-121.8,37.516666666666666],[-121.86666666666666,37.49277777777778],[-121.88333333333334,37.5],[-121.95444444444445,37.495555555555555],[-121.96666666666667,37.5],[-122.04222222222222,37.50055555555556],[-122.06666666666666,37.5],[-122.12305555555555,37.51555555555556],[-122.19250000000001,37.54416666666666],[-122.25611111111111,37.571111111111115],[-122.31027777777777,37.593611111111116],[-122.3561111111111,37.613055555555555]]}
}
