{
  "id": 2048064967,
  "type": "Feature",
  "properties": {
    "geom:area": 0,
    "geom:bbox": "-123.019530,37.417820,-122.082070,38.415110",
    "geom:latitude": 37.81748217365325,
    "geom:longitude": -122.5079208482073,
    "src:alt_label": "swim-approach",
    "src:geom": "swim",
    "swim:elevations": [
      7620,
      7317,
      6801,
      6524,
      6411,
      6133,
      5818,
      5502,
      5361,
      5009,
      4805,
      4497,
      4183,
      3799,
      3543,
      3474,
      3353,
      3353,
      3353,
      3352,
      3178,
      3061,
      2895,
      2615,
      2595,
      2325,
      2208,
      1832,
      1649,
      1525,
      1524,
      1252,
      1211,
      1147,
      1065,
      1008,
      873,
      660,
      625,
      552,
      596,
      417,
      263,
      116,
      89
    ],
    "swim:geom": "approach",
    "swim:timestamps": [
      1787138910,
      1787138946,
      1787138996,
      1787139026,
      1787139037,
      1787139071,
      1787139107,
      1787139142,
      1787139157,
      1787139195,
      1787139210,
      1787139241,
      1787139275,
      1787139316,
      1787139344,
      1787139365,
      1787139411,
      1787139447,
      1787139453,
      1787139480,
      1787139538,
      1787139557,
      1787139578,
      1787139627,
      1787139631,
      1787139664,
      1787139693,
      1787139748,
      1787139775,
      1787139803,
      1787139812,
      1787139850,
      1787139893,
      1787139923,
      1787139953,
      1787139964,
      1787139996,
      1787140048,
      1787140058,
      1787140078,
      1787140084,
      1787140113,
      1787140159,
      1787140198,
      1787140206
    ],
    "wof:geomhash": "eec8ed9ac56be1be3f669da3f6e87426",
    "wof:id": 2048064967,
    "wof:repo": "sfomuseum-data-flights-2026-08"
  },
  "bbox": [
    -123.01953,
    37.41782,
    -122.08207,
    38.41511
  ],
  "geometry": {"type":"LineString","coordinates":[[-123.01953,38.41511],[-122.95563,38.36671],[-122.86902,38.30158],[-122.81942,38.26423],[-122.80073,38.25019],[-122.7611,38.20033],[-122.74369,38.14318],[-122.72756,38.08827],[-122.72072,38.06485],[-122.70385,38.00658],[-122.69698,37.98304],[-122.68314,37.93559],[-122.6575,37.88608],[-122.60505,37.83606],[-122.56988,37.80281],[-122.54488,37.77917],[-122.49219,37.72919],[-122.45252,37.6918],[-122.44679,37.68646],[-122.42001,37.66118],[-122.36777,37.609],[-122.35615,37.58812],[-122.34264,37.56671],[-122.31147,37.51595],[-122.30898,37.51193],[-122.28408,37.48256],[-122.24899,37.4646],[-122.18423,37.43207],[-122.15189,37.41782],[-122.1179,37.42286],[-122.10774,37.42684],[-122.08207,37.45215],[-122.10096,37.48795],[-122.12079,37.50741],[-122.14469,37.52128],[-122.15487,37.52588],[-122.18258,37.5378],[-122.22628,37.55616],[-122.23498,37.55985],[-122.25231,37.56713],[-122.25758,37.56913],[-122.27907,37.57842],[-122.31182,37.59214],[-122.33917,37.60356],[-122.3444,37.60579]]}
}
