{
  "id": 2047974563,
  "type": "Feature",
  "properties": {
    "geom:area": 0,
    "geom:bbox": "-123.470930,37.470990,-122.394920,37.716080",
    "geom:latitude": 37.61372292946878,
    "geom:longitude": -122.92997184405236,
    "src:alt_label": "swim-takeoff",
    "src:geom": "swim",
    "swim:elevations": [
      356,
      787,
      1074,
      1392,
      1832,
      2263,
      2388,
      2917,
      3219,
      3452,
      3565,
      3783,
      4173,
      4357,
      4644,
      5073,
      5134,
      5490,
      5838,
      5951,
      6163,
      6224
    ],
    "swim:geom": "takeoff",
    "swim:timestamps": [
      1786729906,
      1786729938,
      1786729974,
      1786730004,
      1786730036,
      1786730064,
      1786730075,
      1786730112,
      1786730146,
      1786730183,
      1786730199,
      1786730236,
      1786730276,
      1786730294,
      1786730319,
      1786730364,
      1786730370,
      1786730410,
      1786730456,
      1786730471,
      1786730495,
      1786730503
    ],
    "wof:geomhash": "10e26e6d882954b2c6eb45d60d7aeeb5",
    "wof:id": 2047974563,
    "wof:repo": "sfomuseum-data-flights-2026-08"
  },
  "bbox": [
    -123.47093,
    37.47099,
    -122.39492,
    37.71608
  ],
  "geometry": {"type":"LineString","coordinates":[[-122.39492,37.62692],[-122.42492,37.63983],[-122.46438,37.65769],[-122.50303,37.67443],[-122.54699,37.69316],[-122.58657,37.71031],[-122.60277,37.71608],[-122.66174,37.70938],[-122.71495,37.69477],[-122.78097,37.67554],[-122.81131,37.66651],[-122.88715,37.64391],[-122.97098,37.61967],[-123.00813,37.60874],[-123.06341,37.59235],[-123.16032,37.56368],[-123.17239,37.56014],[-123.26098,37.53383],[-123.36426,37.50298],[-123.39836,37.49277],[-123.45282,37.47644],[-123.47093,37.47099]]}
}
