{
  "id": 2032132093,
  "type": "Feature",
  "properties": {
    "geom:area": 0,
    "geom:bbox": "-122.400380,37.623890,-121.984190,37.791340",
    "geom:latitude": 37.720526641231594,
    "geom:longitude": -122.20546650791934,
    "src:alt_label": "swim-takeoff",
    "src:geom": "swim",
    "swim:elevations": [
      213,
      262,
      434,
      585,
      739,
      761,
      877,
      1223,
      1414,
      1587,
      1982,
      2282,
      2446,
      2797
    ],
    "swim:geom": "takeoff",
    "swim:timestamps": [
      1786030557,
      1786030562,
      1786030579,
      1786030610,
      1786030648,
      1786030653,
      1786030677,
      1786030713,
      1786030731,
      1786030749,
      1786030795,
      1786030828,
      1786030847,
      1786030881
    ],
    "wof:geomhash": "ef89f967b2f2cf402885dd6382adde6f",
    "wof:id": 2032132093,
    "wof:repo": "sfomuseum-data-flights-2026-08"
  },
  "bbox": [
    -122.40038,
    37.62389,
    -121.98419,
    37.79134
  ],
  "geometry": {"type":"LineString","coordinates":[[-122.38722,37.62389],[-122.39076,37.62547],[-122.40038,37.63541],[-122.38608,37.65574],[-122.34189,37.67137],[-122.3349,37.67384],[-122.30253,37.68547],[-122.25045,37.70458],[-122.22433,37.71427],[-122.19798,37.72637],[-122.12996,37.7572],[-122.07511,37.77014],[-122.0426,37.77776],[-121.98419,37.79134]]}
}
