{
  "id": 2048064717,
  "type": "Feature",
  "properties": {
    "geom:area": 0,
    "geom:bbox": "-122.359580,36.724780,-121.880010,37.612480",
    "geom:latitude": 37.21784761872057,
    "geom:longitude": -122.08864590379396,
    "src:alt_label": "swim-approach",
    "src:geom": "swim",
    "swim:elevations": [
      5499,
      5152,
      4765,
      4559,
      4289,
      4127,
      3679,
      3586,
      3417,
      3206,
      3068,
      2882,
      2664,
      2634,
      2499,
      2322,
      2013,
      1863,
      1833,
      1553,
      1449,
      1220,
      1219,
      1071,
      1059,
      887,
      815,
      535,
      516,
      459,
      367,
      258,
      144,
      0
    ],
    "swim:geom": "approach",
    "swim:timestamps": [
      1787151470,
      1787151501,
      1787151535,
      1787151556,
      1787151590,
      1787151608,
      1787151657,
      1787151669,
      1787151705,
      1787151748,
      1787151767,
      1787151794,
      1787151825,
      1787151829,
      1787151848,
      1787151874,
      1787151922,
      1787151947,
      1787151968,
      1787152010,
      1787152024,
      1787152074,
      1787152104,
      1787152139,
      1787152142,
      1787152188,
      1787152214,
      1787152253,
      1787152279,
      1787152295,
      1787152326,
      1787152352,
      1787152385,
      1787152419
    ],
    "wof:geomhash": "7ff717d91d15a7ae6784cea3faa8f80d",
    "wof:id": 2048064717,
    "wof:repo": "sfomuseum-data-flights-2026-08"
  },
  "bbox": [
    -122.35958,
    36.72478,
    -121.88001,
    37.61248
  ],
  "geometry": {"type":"LineString","coordinates":[[-121.88001,36.72478],[-121.9039,36.77671],[-121.92037,36.83416],[-121.92987,36.86911],[-121.9455,36.92396],[-121.95321,36.95117],[-121.97948,37.01955],[-121.98621,37.0366],[-122.00499,37.08452],[-122.02603,37.13594],[-122.0436,37.1532],[-122.07012,37.1754],[-122.10167,37.20119],[-122.10566,37.2045],[-122.12429,37.21976],[-122.15012,37.24006],[-122.19525,37.27948],[-122.1949,37.30591],[-122.18302,37.32716],[-122.15905,37.37051],[-122.1511,37.3845],[-122.12838,37.43436],[-122.11994,37.46423],[-122.13782,37.49369],[-122.14002,37.49622],[-122.17057,37.5301],[-122.19259,37.54202],[-122.23043,37.55792],[-122.2543,37.56802],[-122.26707,37.5734],[-122.28964,37.58298],[-122.3097,37.59122],[-122.33466,37.60172],[-122.35958,37.61248]]}
}
