{
  "id": 2048064817,
  "type": "Feature",
  "properties": {
    "geom:area": 0,
    "geom:bbox": "-123.492040,37.264550,-122.126400,37.615250",
    "geom:latitude": 37.384113076649,
    "geom:longitude": -122.70938830060653,
    "src:alt_label": "swim-approach",
    "src:geom": "swim",
    "swim:elevations": [
      5612,
      5127,
      5049,
      4475,
      4116,
      4072,
      3449,
      3230,
      3165,
      3104,
      3048,
      3048,
      3052,
      3049,
      2843,
      2736,
      2706,
      2518,
      2362,
      2130,
      2012,
      2002,
      1956,
      1889,
      1520,
      1432,
      1254,
      1218,
      1219,
      1098,
      949,
      868,
      739,
      562,
      385,
      304,
      156,
      75,
      127
    ],
    "swim:geom": "approach",
    "swim:timestamps": [
      1787131001,
      1787131045,
      1787131052,
      1787131104,
      1787131136,
      1787131140,
      1787131198,
      1787131227,
      1787131257,
      1787131279,
      1787131314,
      1787131342,
      1787131358,
      1787131391,
      1787131444,
      1787131467,
      1787131475,
      1787131510,
      1787131536,
      1787131578,
      1787131612,
      1787131620,
      1787131635,
      1787131655,
      1787131703,
      1787131718,
      1787131758,
      1787131785,
      1787131810,
      1787131845,
      1787131879,
      1787131912,
      1787131931,
      1787131970,
      1787132008,
      1787132030,
      1787132062,
      1787132082,
      1787132103
    ],
    "wof:geomhash": "47c85e6fe9432ac25ef289a82549a150",
    "wof:id": 2048064817,
    "wof:repo": "sfomuseum-data-flights-2026-08"
  },
  "bbox": [
    -123.49204,
    37.26455,
    -122.1264,
    37.61525
  ],
  "geometry": {"type":"LineString","coordinates":[[-123.49204,37.44379],[-123.38987,37.41388],[-123.37446,37.40936],[-123.25801,37.37497],[-123.18728,37.35422],[-123.178,37.35149],[-123.05586,37.31536],[-122.99613,37.2974],[-122.93756,37.27981],[-122.89725,37.26781],[-122.83473,37.26455],[-122.78735,37.27556],[-122.761,37.28154],[-122.70545,37.29445],[-122.6153,37.31545],[-122.57614,37.32459],[-122.56302,37.32763],[-122.50407,37.34129],[-122.46231,37.35087],[-122.39408,37.36658],[-122.3441,37.37811],[-122.33259,37.38074],[-122.31194,37.3855],[-122.28613,37.3914],[-122.22728,37.41333],[-122.2086,37.42074],[-122.16018,37.44043],[-122.13794,37.45939],[-122.1264,37.48027],[-122.14447,37.50758],[-122.16781,37.5319],[-122.19846,37.54687],[-122.21737,37.55477],[-122.25448,37.57031],[-122.288,37.58446],[-122.30499,37.59166],[-122.32913,37.6018],[-122.34465,37.60828],[-122.36045,37.61525]]}
}
