{
  "id": 2047927647,
  "type": "Feature",
  "properties": {
    "geom:area": 0,
    "geom:bbox": "-124.349444,37.350000,-122.116667,42.480000",
    "geom:latitude": 39.86292258061595,
    "geom:longitude": -123.19371899847552,
    "src:alt_label": "swim-path",
    "src:geom": "swim",
    "swim:altitudes": [
      "028",
      "050",
      "093",
      "115",
      "129",
      "151",
      "170",
      "187",
      "206",
      "221",
      "224",
      "237",
      "240",
      "247",
      "253",
      "258",
      "264",
      "272",
      "277",
      "290",
      "304",
      "309C",
      "310C",
      "310C",
      "310C",
      "310C",
      "310C",
      "310C",
      "310C",
      "310C",
      "310C",
      "310C",
      "310C",
      "310C",
      "310C",
      "310C",
      "310C",
      "310C",
      "310C",
      "310C",
      "310C",
      "310C",
      "310C",
      "310C",
      "310C",
      "310C",
      "310C",
      "310C",
      "310C",
      "310C",
      "310C",
      "310C",
      "310C",
      "310C",
      "310C",
      "310C",
      "306",
      "285",
      "273",
      "262",
      "252",
      "242",
      "240",
      "240",
      "240",
      "239",
      "219",
      "198",
      "182",
      "177",
      "173",
      "157",
      "154",
      "138",
      "134",
      "119",
      "114",
      "110C",
      "110",
      "110C",
      "110",
      "110",
      "104",
      "103",
      "094",
      "091",
      "083",
      "082",
      "076",
      "069",
      "063",
      "057",
      "050",
      "049",
      "040",
      "032",
      "031",
      "029",
      "028",
      "021",
      "018",
      "012",
      "010",
      "003",
      "002",
      "110"
    ],
    "swim:geom": "path",
    "swim:speeds": [
      184,
      233,
      283,
      317,
      364,
      382,
      392,
      405,
      417,
      422,
      422,
      424,
      431,
      440,
      445,
      455,
      458,
      460,
      467,
      466,
      448,
      446,
      444,
      443,
      443,
      443,
      443,
      439,
      438,
      437,
      436,
      436,
      436,
      431,
      430,
      429,
      429,
      431,
      432,
      437,
      445,
      449,
      450,
      451,
      451,
      451,
      451,
      451,
      451,
      450,
      449,
      449,
      448,
      447,
      446,
      445,
      444,
      435,
      429,
      422,
      416,
      410,
      409,
      407,
      405,
      403,
      397,
      387,
      376,
      379,
      373,
      363,
      354,
      355,
      351,
      351,
      344,
      316,
      293,
      257,
      247,
      246,
      246,
      242,
      242,
      237,
      230,
      225,
      233,
      248,
      244,
      242,
      244,
      228,
      203,
      195,
      191,
      197,
      194,
      179,
      171,
      161,
      155,
      155,
      154,
      126
    ],
    "swim:timestamps": [
      1786488494,
      1786488554,
      1786488661,
      1786488721,
      1786488781,
      1786488841,
      1786488902,
      1786488962,
      1786489022,
      1786489075,
      1786489094,
      1786489135,
      1786489154,
      1786489195,
      1786489214,
      1786489255,
      1786489274,
      1786489315,
      1786489334,
      1786489375,
      1786489435,
      1786489454,
      1786489496,
      1786489514,
      1786489556,
      1786489574,
      1786489634,
      1786489676,
      1786489695,
      1786489736,
      1786489755,
      1786489796,
      1786489815,
      1786489856,
      1786489875,
      1786489916,
      1786489935,
      1786489976,
      1786489995,
      1786490036,
      1786490055,
      1786490096,
      1786490115,
      1786490156,
      1786490175,
      1786490217,
      1786490235,
      1786490277,
      1786490295,
      1786490337,
      1786490355,
      1786490397,
      1786490415,
      1786490457,
      1786490517,
      1786490577,
      1786490661,
      1786490781,
      1786490841,
      1786490901,
      1786490962,
      1786491022,
      1786491082,
      1786491142,
      1786491202,
      1786491262,
      1786491322,
      1786491382,
      1786491425,
      1786491442,
      1786491450,
      1786491502,
      1786491510,
      1786491562,
      1786491570,
      1786491622,
      1786491630,
      1786491683,
      1786491690,
      1786491743,
      1786491750,
      1786491810,
      1786491863,
      1786491870,
      1786491923,
      1786491930,
      1786491983,
      1786491990,
      1786492050,
      1786492111,
      1786492163,
      1786492171,
      1786492223,
      1786492231,
      1786492291,
      1786492343,
      1786492351,
      1786492404,
      1786492410,
      1786492464,
      1786492471,
      1786492524,
      1786492531,
      1786492584,
      1786492591,
      1786492644
    ],
    "wof:geomhash": "0c56d3a43f8a9c9bdcdda36482a24bc4",
    "wof:id": 2047927647,
    "wof:repo": "sfomuseum-data-flights-2026-08"
  },
  "bbox": [
    -124.34944444444444,
    37.35,
    -122.11666666666666,
    42.480000000000004
  ],
  "geometry": {"type":"LineString","coordinates":[[-122.89222222222223,42.41083333333333],[-122.90027777777779,42.468611111111116],[-122.76666666666667,42.480000000000004],[-122.68777777777778,42.419444444444444],[-122.62777777777777,42.33527777777778],[-122.66833333333334,42.23166666666667],[-122.71000000000001,42.126666666666665],[-122.75361111111111,42.019444444444446],[-122.79916666666666,41.9075],[-122.83611111111111,41.81666666666667],[-122.845,41.79527777777778],[-122.88222222222221,41.70305555555556],[-122.90083333333334,41.657222222222224],[-122.92861111111111,41.587500000000006],[-122.9475,41.53972222222222],[-122.97666666666667,41.466944444444444],[-122.9961111111111,41.41833333333333],[-123.0225,41.341944444444444],[-123.0275,41.291666666666664],[-123.02805555555555,41.20027777777778],[-123.08555555555554,41.08388888888889],[-123.11777777777777,41.05777777777777],[-123.20194444444445,41.019999999999996],[-123.26194444444444,41.0075],[-123.3561111111111,40.98888888888889],[-123.42027777777778,40.97638888888889],[-123.57583333333334,40.945277777777775],[-123.67,40.92666666666666],[-123.73027777777779,40.914722222222224],[-123.82416666666666,40.895833333333336],[-123.88333333333334,40.88361111111111],[-123.97972222222222,40.86416666666667],[-124.0363888888889,40.85277777777778],[-124.12833333333333,40.82972222222222],[-124.17555555555556,40.802499999999995],[-124.26083333333334,40.73361111111111],[-124.28083333333333,40.716944444444444],[-124.3286111111111,40.62972222222222],[-124.335,40.60583333333334],[-124.34944444444444,40.51277777777778],[-124.33166666666666,40.471944444444446],[-124.28027777777778,40.40277777777778],[-124.25277777777778,40.36388888888889],[-124.20416666666667,40.294999999999995],[-124.17472222222223,40.25361111111111],[-124.1275,40.18722222222222],[-124.09638888888888,40.143055555555556],[-124.04916666666666,40.07666666666667],[-124.01833333333333,40.03388888888889],[-123.9713888888889,39.9675],[-123.94111111111111,39.92472222222222],[-123.89472222222223,39.859722222222224],[-123.86416666666666,39.81638888888889],[-123.81805555555555,39.75138888888889],[-123.74111111111111,39.64194444444444],[-123.68111111111112,39.55555555555555],[-123.57444444444444,39.403055555555554],[-123.4175,39.17805555555555],[-123.33055555555555,39.051944444444445],[-123.25972222222222,38.94916666666666],[-123.19111111111111,38.84916666666667],[-123.12222222222222,38.748333333333335],[-123.05388888888889,38.64833333333333],[-122.98666666666666,38.549166666666665],[-122.91916666666667,38.44944444444444],[-122.8536111111111,38.3525],[-122.78805555555556,38.25527777777778],[-122.74694444444445,38.15277777777778],[-122.71666666666667,38.083333333333336],[-122.71722222222222,38.05166666666666],[-122.71666666666667,38.03333333333333],[-122.68916666666667,37.95444444444445],[-122.68333333333334,37.93333333333333],[-122.64222222222223,37.870555555555555],[-122.61666666666666,37.85],[-122.56583333333333,37.797777777777775],[-122.55,37.78333333333333],[-122.49194444444444,37.72805555555556],[-122.46666666666667,37.71666666666667],[-122.42944444444444,37.669444444444444],[-122.41666666666667,37.65],[-122.36666666666666,37.6],[-122.33361111111111,37.552499999999995],[-122.33333333333333,37.53333333333333],[-122.30027777777778,37.496944444444445],[-122.28333333333333,37.483333333333334],[-122.28833333333333,37.437777777777775],[-122.3,37.416666666666664],[-122.33333333333333,37.36666666666667],[-122.26666666666667,37.35],[-122.22194444444445,37.350833333333334],[-122.18333333333334,37.36666666666667],[-122.15,37.40361111111111],[-122.15,37.416666666666664],[-122.11666666666666,37.46666666666667],[-122.12027777777777,37.50805555555556],[-122.13333333333334,37.516666666666666],[-122.17805555555556,37.536944444444444],[-122.2,37.55],[-122.23555555555555,37.559999999999995],[-122.25,37.56666666666667],[-122.28722222222223,37.58166666666667],[-122.3,37.583333333333336],[-122.34138888888889,37.60444444444445],[-122.35,37.6],[-122.37972222222221,37.620555555555555]]}
}
