{
  "id": 2032092141,
  "type": "Feature",
  "properties": {
    "geom:area": 0,
    "geom:bbox": "-122.616667,33.950000,-118.216667,37.666667",
    "geom:latitude": 35.76266678729379,
    "geom:longitude": -120.41118874286734,
    "src:alt_label": "swim-path",
    "src:geom": "swim",
    "swim:altitudes": [
      "007",
      "029",
      "042",
      "050",
      "064",
      "080",
      "093",
      "157",
      "175",
      "202",
      "242",
      "258",
      "274",
      "291",
      "320",
      "337",
      "349C",
      "350C",
      "350C",
      "350C",
      "350C",
      "350C",
      "350C",
      "350",
      "350",
      "350",
      "350",
      "343",
      "317",
      "292",
      "253",
      "231",
      "208",
      "187",
      "165",
      "141",
      "124",
      "119",
      "117",
      "115",
      "112",
      "100",
      "085",
      "078",
      "076",
      "071",
      "068",
      "062",
      "052",
      "049",
      "042",
      "039",
      "033",
      "031",
      "024",
      "008",
      "005",
      "001"
    ],
    "swim:geom": "path",
    "swim:speeds": [
      162,
      210,
      255,
      272,
      280,
      286,
      293,
      354,
      381,
      389,
      414,
      431,
      442,
      445,
      461,
      462,
      462,
      459,
      459,
      460,
      460,
      460,
      457,
      455,
      453,
      452,
      451,
      452,
      452,
      458,
      425,
      417,
      403,
      391,
      371,
      360,
      348,
      324,
      304,
      254,
      231,
      226,
      226,
      224,
      223,
      223,
      218,
      219,
      217,
      208,
      193,
      180,
      177,
      166,
      171,
      151,
      144,
      147
    ],
    "swim:timestamps": [
      1785809532,
      1785809592,
      1785809620,
      1785809652,
      1785809669,
      1785809712,
      1785809728,
      1785809892,
      1785809952,
      1785810012,
      1785810137,
      1785810193,
      1785810253,
      1785810317,
      1785810433,
      1785810497,
      1785810553,
      1785810793,
      1785810858,
      1785810913,
      1785810974,
      1785811034,
      1785811094,
      1785811154,
      1785811214,
      1785811274,
      1785811394,
      1785811454,
      1785811514,
      1785811574,
      1785811694,
      1785811754,
      1785811819,
      1785811879,
      1785811935,
      1785812007,
      1785812069,
      1785812120,
      1785812129,
      1785812180,
      1785812189,
      1785812240,
      1785812300,
      1785812360,
      1785812369,
      1785812420,
      1785812429,
      1785812480,
      1785812540,
      1785812549,
      1785812600,
      1785812609,
      1785812660,
      1785812669,
      1785812720,
      1785812841,
      1785812850,
      1785812901
    ],
    "wof:geomhash": "b7f12b7e9b006b0a864a150f68eb3f70",
    "wof:id": 2032092141,
    "wof:repo": "sfomuseum-data-flights-2026-08"
  },
  "bbox": [
    -122.61666666666666,
    33.95,
    -118.21666666666667,
    37.666666666666664
  ],
  "geometry": {"type":"LineString","coordinates":[[-122.39555555555556,37.62722222222222],[-122.45805555555556,37.653888888888886],[-122.5,37.666666666666664],[-122.54055555555556,37.65972222222222],[-122.56666666666666,37.63333333333333],[-122.59888888888888,37.59527777777778],[-122.61666666666666,37.56666666666667],[-122.49944444444445,37.38055555555555],[-122.39777777777779,37.31472222222222],[-122.29388888888889,37.246944444444445],[-122.06027777777777,37.08916666666667],[-121.955,37.02638888888889],[-121.83749999999999,36.94888888888889],[-121.70361111111112,36.85444444444445],[-121.4713888888889,36.70638888888889],[-121.33166666666666,36.60944444444445],[-121.22444444444444,36.54111111111111],[-120.745,36.21055555555556],[-120.60472222222222,36.11194444444445],[-120.50472222222223,36.04138888888889],[-120.385,35.956944444444446],[-120.26888888888888,35.870555555555555],[-120.18222222222222,35.764722222222225],[-120.09972222222221,35.655833333333334],[-120.01861111111111,35.54805555555556],[-119.93833333333333,35.44083333333333],[-119.76805555555555,35.22888888888889],[-119.67444444444445,35.12833333333333],[-119.58055555555555,35.027499999999996],[-119.4875,34.92722222222222],[-119.31388888888888,34.73305555555556],[-119.23194444444445,34.638888888888886],[-119.14861111111112,34.5425],[-119.07111111111111,34.455555555555556],[-119,34.36666666666667],[-118.9,34.266666666666666],[-118.83333333333333,34.18333333333333],[-118.78166666666667,34.138333333333335],[-118.76666666666667,34.11666666666667],[-118.71861111111112,34.07972222222222],[-118.7,34.06666666666667],[-118.66611111111112,34.03527777777778],[-118.59305555555555,34.02305555555555],[-118.51916666666666,34.01611111111111],[-118.5,34.016666666666666],[-118.44388888888889,34.01222222222222],[-118.43333333333334,34.016666666666666],[-118.37333333333332,34.02444444444444],[-118.30166666666666,34.033055555555556],[-118.28333333333333,34.03333333333333],[-118.2363888888889,34.0325],[-118.21666666666667,34.016666666666666],[-118.2175,33.989444444444445],[-118.21666666666667,33.983333333333334],[-118.26305555555555,33.96611111111111],[-118.36555555555555,33.95583333333334],[-118.38333333333334,33.95],[-118.41222222222223,33.95111111111111]]}
}
