{
  "id": 2048079193,
  "type": "Feature",
  "properties": {
    "geom:area": 0,
    "geom:bbox": "-122.349030,37.492080,-121.287790,37.607760",
    "geom:latitude": 37.54062604513485,
    "geom:longitude": -121.8247736227077,
    "src:alt_label": "swim-approach",
    "src:geom": "swim",
    "swim:elevations": [
      4601,
      4431,
      4114,
      3858,
      3741,
      3517,
      3229,
      3088,
      2859,
      2681,
      2438,
      2411,
      2130,
      2047,
      1992,
      1901,
      1850,
      1829,
      1448,
      1277,
      1040,
      997,
      898,
      674,
      641,
      443,
      363,
      265,
      138,
      66
    ],
    "swim:geom": "approach",
    "swim:timestamps": [
      1787215912,
      1787215932,
      1787215972,
      1787216003,
      1787216020,
      1787216049,
      1787216089,
      1787216109,
      1787216138,
      1787216164,
      1787216214,
      1787216226,
      1787216272,
      1787216293,
      1787216305,
      1787216327,
      1787216342,
      1787216380,
      1787216426,
      1787216457,
      1787216487,
      1787216500,
      1787216523,
      1787216576,
      1787216582,
      1787216636,
      1787216659,
      1787216688,
      1787216720,
      1787216740
    ],
    "wof:geomhash": "79122a8e97b21487098e2b281d7b1ab2",
    "wof:id": 2048079193,
    "wof:repo": "sfomuseum-data-flights-2026-08"
  },
  "bbox": [
    -122.34903,
    37.49208,
    -121.28779,
    37.60776
  ],
  "geometry": {"type":"LineString","coordinates":[[-121.28779,37.58947],[-121.32277,37.5857],[-121.39404,37.57773],[-121.44769,37.57157],[-121.47729,37.56807],[-121.52735,37.56226],[-121.59567,37.55421],[-121.62875,37.54961],[-121.67626,37.53848],[-121.71845,37.52847],[-121.79186,37.51079],[-121.80878,37.50668],[-121.87463,37.49208],[-121.90495,37.49308],[-121.92366,37.49452],[-121.95456,37.49707],[-121.9757,37.49893],[-122.02515,37.50301],[-122.07999,37.50744],[-122.11682,37.51094],[-122.14911,37.52359],[-122.16213,37.52921],[-122.18354,37.53821],[-122.22669,37.55632],[-122.23137,37.55838],[-122.27177,37.57542],[-122.28924,37.58266],[-122.31047,37.59169],[-122.33431,37.60157],[-122.34903,37.60776]]}
}
