{
  "id": 2032060361,
  "type": "Feature",
  "properties": {
    "geom:area": 0,
    "geom:bbox": "-117.543889,32.680833,-115.315833,34.045278",
    "geom:latitude": 33.368024842785516,
    "geom:longitude": -116.42681790375067,
    "src:alt_label": "swim-path",
    "src:geom": "swim",
    "swim:altitudes": [
      "370C",
      "370C",
      "370C",
      "370C",
      "370C",
      "370C",
      "370C",
      "370C",
      "370C",
      "370C",
      "370C",
      "370C",
      "370C"
    ],
    "swim:geom": "path",
    "swim:speeds": [
      462,
      461,
      460,
      457,
      457,
      458,
      462,
      463,
      464,
      465,
      465,
      464,
      462
    ],
    "swim:timestamps": [
      1785597165,
      1785597225,
      1785597285,
      1785597405,
      1785597465,
      1785597585,
      1785597766,
      1785597826,
      1785597886,
      1785597946,
      1785598006,
      1785598126,
      1785598246
    ],
    "wof:geomhash": "08797753744cb41953d155377be0de58",
    "wof:id": 2032060361,
    "wof:repo": "sfomuseum-data-flights-2026-08"
  },
  "bbox": [
    -117.54388888888889,
    32.68083333333333,
    -115.31583333333333,
    34.04527777777778
  ],
  "geometry": {"coordinates":[[-117.54388888888889,34.04527777777778],[-117.41777777777779,33.97],[-117.29388888888889,33.89611111111111],[-117.04638888888888,33.74777777777778],[-116.92277777777778,33.67333333333333],[-116.68222222222222,33.527499999999996],[-116.30805555555555,33.29888888888889],[-116.18277777777779,33.22166666666667],[-116.05638888888889,33.14361111111111],[-115.93138888888889,33.066111111111105],[-115.80694444444444,32.98861111111111],[-115.56055555555555,32.834722222222226],[-115.31583333333333,32.68083333333333]],"type":"LineString"}
}
