{
  "id": 2032077121,
  "type": "Feature",
  "properties": {
    "geom:area": 0,
    "geom:bbox": "-122.545790,37.399510,-122.381810,37.666560",
    "geom:latitude": 37.57432149017757,
    "geom:longitude": -122.48515622022259,
    "src:alt_label": "swim-takeoff",
    "src:geom": "swim",
    "swim:elevations": [
      122,
      152,
      307,
      587,
      794,
      1214,
      1569,
      1746,
      1884,
      2394,
      2576,
      3311,
      3324,
      3470,
      4102
    ],
    "swim:geom": "takeoff",
    "swim:timestamps": [
      1785685039,
      1785685042,
      1785685057,
      1785685091,
      1785685113,
      1785685147,
      1785685177,
      1785685192,
      1785685203,
      1785685249,
      1785685260,
      1785685316,
      1785685320,
      1785685334,
      1785685375
    ],
    "wof:geomhash": "86e4523f4153e218c4c0b4e0762ec832",
    "wof:id": 2032077121,
    "wof:repo": "sfomuseum-data-flights-2026-08"
  },
  "bbox": [
    -122.54579,
    37.39951,
    -122.38181,
    37.66656
  ],
  "geometry": {"coordinates":[[-122.38181,37.6215],[-122.38414,37.62256],[-122.39603,37.62771],[-122.42602,37.64046],[-122.44893,37.65052],[-122.48656,37.66656],[-122.5255,37.66317],[-122.53939,37.65211],[-122.54579,37.63996],[-122.5252,37.5851],[-122.51763,37.5705],[-122.48614,37.49402],[-122.48402,37.48802],[-122.47637,37.46609],[-122.45302,37.39951]],"type":"LineString"}
}
