{
  "id": 2047993115,
  "type": "Feature",
  "properties": {
    "geom:area": 0,
    "geom:bbox": "-122.370420,36.726870,-121.881690,37.606900",
    "geom:latitude": 37.2089185814833,
    "geom:longitude": -122.14858763083245,
    "src:alt_label": "swim-approach",
    "src:geom": "swim",
    "swim:elevations": [
      5405,
      5109,
      4890,
      4839,
      4636,
      4332,
      4071,
      3792,
      3520,
      3214,
      3110,
      3076,
      2970,
      2898,
      2773,
      2735,
      2617,
      2593,
      2537,
      2497,
      2435,
      2355,
      2250,
      2111,
      2003,
      1920,
      1836,
      1731,
      1524,
      1255,
      1185,
      1092,
      849,
      794,
      667,
      556,
      516,
      453,
      368,
      322,
      242,
      185,
      174,
      148,
      74
    ],
    "swim:geom": "approach",
    "swim:timestamps": [
      1786916204,
      1786916241,
      1786916272,
      1786916280,
      1786916303,
      1786916334,
      1786916362,
      1786916394,
      1786916419,
      1786916454,
      1786916470,
      1786916481,
      1786916514,
      1786916535,
      1786916573,
      1786916592,
      1786916631,
      1786916643,
      1786916664,
      1786916684,
      1786916711,
      1786916739,
      1786916782,
      1786916816,
      1786916847,
      1786916871,
      1786916894,
      1786916918,
      1786916957,
      1786916996,
      1786917005,
      1786917019,
      1786917053,
      1786917070,
      1786917112,
      1786917147,
      1786917155,
      1786917169,
      1786917194,
      1786917206,
      1786917224,
      1786917236,
      1786917242,
      1786917248,
      1786917271
    ],
    "wof:geomhash": "cd3aa42dee8e500c13ecdda8f3200263",
    "wof:id": 2047993115,
    "wof:repo": "sfomuseum-data-flights-2026-08"
  },
  "bbox": [
    -122.37042,
    36.72687,
    -121.88169,
    37.6069
  ],
  "geometry": {"type":"LineString","coordinates":[[-121.88169,36.72687],[-121.90639,36.78643],[-121.92042,36.83612],[-121.92385,36.84802],[-121.93408,36.88423],[-121.94725,36.93103],[-121.96076,36.97184],[-121.97871,37.01805],[-121.9923,37.05321],[-122.01156,37.10186],[-122.02024,37.12378],[-122.02599,37.13818],[-122.06191,37.16888],[-122.09424,37.17239],[-122.14938,37.17629],[-122.17662,37.17823],[-122.23187,37.18246],[-122.24917,37.18385],[-122.27867,37.18608],[-122.30733,37.18823],[-122.34447,37.19235],[-122.37042,37.21497],[-122.36781,37.26388],[-122.33119,37.29053],[-122.30486,37.31936],[-122.28717,37.34321],[-122.27036,37.36533],[-122.25243,37.38852],[-122.22434,37.42515],[-122.19614,37.4609],[-122.18912,37.46965],[-122.17937,37.48159],[-122.1664,37.51474],[-122.17688,37.52932],[-122.21551,37.55151],[-122.2482,37.5654],[-122.25598,37.56872],[-122.2671,37.57337],[-122.28739,37.58192],[-122.29665,37.5858],[-122.31066,37.59171],[-122.32009,37.59562],[-122.32488,37.5976],[-122.32961,37.59957],[-122.34693,37.6069]]}
}
