{
  "id": 2032116155,
  "type": "Feature",
  "properties": {
    "geom:area": 0,
    "geom:bbox": "-122.336389,37.492222,-87.775278,42.210278",
    "geom:latitude": 40.738246544984214,
    "geom:longitude": -105.16913906141646,
    "src:alt_label": "swim-path",
    "src:geom": "swim",
    "swim:altitudes": [
      "019",
      "031",
      "042",
      "074",
      "100",
      "126",
      "135",
      "159",
      "197",
      "218",
      "237",
      "254",
      "270",
      "286",
      "293",
      "297",
      "304",
      "309",
      "314",
      "319",
      "324",
      "329",
      "340",
      "340",
      "340",
      "347",
      "350",
      "357",
      "360C",
      "360C",
      "360C",
      "360C",
      "360C",
      "360C",
      "360C",
      "360C",
      "360C",
      "360C",
      "360C",
      "360C",
      "360C",
      "360C",
      "360C",
      "360C",
      "360C",
      "360C",
      "360C",
      "360C",
      "360C",
      "360C",
      "360C",
      "360C",
      "360C",
      "360C",
      "360C",
      "360C",
      "360C",
      "360C",
      "360C",
      "360C",
      "360C",
      "360C",
      "360C",
      "360C",
      "360C",
      "360C",
      "360C",
      "360C",
      "360C",
      "360C",
      "360C",
      "360C",
      "360C",
      "360C",
      "360C",
      "360C",
      "360C",
      "360C",
      "360C",
      "360C",
      "360C",
      "360C",
      "360C",
      "360C",
      "360C",
      "360C",
      "360C",
      "360C",
      "360C",
      "360C",
      "360C",
      "360C",
      "360C",
      "360C",
      "360C",
      "360C",
      "360C",
      "360C",
      "360C",
      "360C",
      "360C",
      "360C",
      "360C",
      "360C",
      "361",
      "368",
      "380C",
      "380C",
      "380C",
      "380C",
      "380C",
      "380C",
      "380C",
      "380C",
      "380C",
      "380C",
      "380C",
      "380C",
      "380C",
      "380C",
      "380C",
      "380C",
      "380C",
      "380C",
      "380C",
      "380C",
      "380C",
      "380C",
      "380C",
      "380C",
      "380C",
      "380C",
      "380C",
      "380C",
      "380C",
      "380C",
      "380C",
      "380C",
      "380C",
      "380C",
      "380C",
      "380C",
      "380C",
      "380C",
      "380C",
      "380C",
      "380C",
      "380C",
      "380C",
      "380C",
      "380C",
      "380C",
      "380C",
      "380C",
      "380C",
      "380C",
      "380C",
      "380C",
      "380C",
      "380C",
      "380C",
      "380C",
      "380C",
      "380C",
      "380C",
      "380C",
      "380C",
      "380C",
      "380C",
      "380C",
      "380C",
      "380C",
      "380C",
      "380C",
      "380C",
      "380C",
      "380C",
      "380C",
      "380C",
      "380C",
      "380C",
      "380C",
      "380C",
      "380C",
      "380C",
      "380C",
      "380C",
      "380C",
      "380C",
      "380C",
      "380C",
      "380C",
      "380C",
      "380C",
      "380C",
      "380C",
      "380C",
      "380C",
      "380C",
      "380C",
      "380C",
      "380C",
      "380C",
      "380C",
      "380C",
      "380C",
      "380C",
      "380C",
      "380C",
      "380C",
      "380C",
      "380C",
      "380C",
      "380C",
      "380C",
      "380C",
      "380C",
      "380C",
      "380C",
      "380C",
      "380C",
      "380C",
      "380C",
      "380C",
      "380C",
      "380C",
      "380C",
      "380C",
      "380C",
      "380C",
      "380C",
      "380C",
      "380C",
      "380C",
      "380C",
      "380C",
      "380C",
      "380C",
      "380C",
      "380C",
      "380",
      "380",
      "380",
      "373",
      "317",
      "315",
      "286",
      "275",
      "264",
      "252",
      "240",
      "231",
      "222",
      "209",
      "189",
      "176",
      "154",
      "144",
      "133",
      "115",
      "105",
      "102",
      "089",
      "083",
      "079",
      "073",
      "067",
      "063",
      "056",
      "050",
      "045C",
      "041",
      "029",
      "022",
      "018",
      "007",
      "004"
    ],
    "swim:geom": "path",
    "swim:speeds": [
      151,
      217,
      258,
      266,
      281,
      301,
      304,
      324,
      343,
      345,
      348,
      356,
      362,
      364,
      368,
      371,
      374,
      384,
      384,
      392,
      391,
      395,
      409,
      413,
      417,
      417,
      403,
      409,
      396,
      393,
      394,
      392,
      393,
      392,
      391,
      391,
      390,
      390,
      390,
      391,
      392,
      394,
      396,
      396,
      398,
      399,
      400,
      401,
      402,
      403,
      404,
      405,
      407,
      407,
      409,
      409,
      410,
      411,
      411,
      410,
      409,
      408,
      407,
      407,
      405,
      405,
      404,
      404,
      404,
      404,
      404,
      404,
      405,
      406,
      406,
      406,
      406,
      406,
      405,
      404,
      403,
      402,
      402,
      402,
      402,
      402,
      402,
      403,
      404,
      400,
      405,
      406,
      406,
      406,
      406,
      406,
      405,
      406,
      406,
      406,
      407,
      404,
      407,
      406,
      405,
      407,
      395,
      405,
      393,
      400,
      392,
      391,
      390,
      392,
      390,
      392,
      390,
      391,
      390,
      390,
      390,
      390,
      390,
      390,
      390,
      390,
      390,
      390,
      390,
      390,
      390,
      390,
      390,
      392,
      393,
      395,
      400,
      402,
      404,
      406,
      413,
      412,
      412,
      409,
      408,
      409,
      413,
      415,
      418,
      419,
      418,
      418,
      418,
      419,
      419,
      421,
      421,
      422,
      423,
      424,
      425,
      426,
      426,
      426,
      426,
      426,
      427,
      427,
      427,
      429,
      429,
      430,
      430,
      432,
      433,
      434,
      434,
      434,
      434,
      435,
      436,
      437,
      436,
      435,
      435,
      436,
      436,
      437,
      439,
      441,
      443,
      444,
      444,
      445,
      447,
      448,
      449,
      449,
      450,
      451,
      453,
      454,
      456,
      456,
      454,
      451,
      449,
      445,
      443,
      443,
      442,
      443,
      443,
      445,
      445,
      445,
      443,
      441,
      440,
      439,
      439,
      438,
      438,
      436,
      435,
      435,
      435,
      435,
      435,
      436,
      436,
      436,
      436,
      437,
      437,
      438,
      439,
      439,
      439,
      437,
      436,
      436,
      435,
      433,
      443,
      440,
      449,
      432,
      433,
      425,
      423,
      401,
      403,
      396,
      390,
      392,
      379,
      367,
      362,
      350,
      341,
      322,
      301,
      293,
      278,
      267,
      270,
      255,
      259,
      254,
      254,
      249,
      242,
      226,
      201,
      150,
      152
    ],
    "swim:timestamps": [
      1785980980,
      1785981040,
      1785981100,
      1785981160,
      1785981220,
      1785981280,
      1785981340,
      1785981400,
      1785981521,
      1785981581,
      1785981641,
      1785981701,
      1785981762,
      1785981822,
      1785981857,
      1785981882,
      1785981917,
      1785981942,
      1785981977,
      1785982002,
      1785982037,
      1785982062,
      1785982122,
      1785982182,
      1785982217,
      1785982278,
      1785982302,
      1785982338,
      1785982363,
      1785982398,
      1785982423,
      1785982458,
      1785982483,
      1785982518,
      1785982578,
      1785982603,
      1785982638,
      1785982663,
      1785982698,
      1785982758,
      1785982783,
      1785982818,
      1785982878,
      1785982903,
      1785982938,
      1785982964,
      1785982998,
      1785983024,
      1785983059,
      1785983084,
      1785983119,
      1785983144,
      1785983179,
      1785983204,
      1785983239,
      1785983264,
      1785983324,
      1785983359,
      1785983384,
      1785983444,
      1785983479,
      1785983504,
      1785983539,
      1785983565,
      1785983599,
      1785983625,
      1785983685,
      1785983719,
      1785983745,
      1785983779,
      1785983805,
      1785983839,
      1785984020,
      1785984080,
      1785984140,
      1785984200,
      1785984260,
      1785984320,
      1785984380,
      1785984440,
      1785984500,
      1785984560,
      1785984620,
      1785984681,
      1785984741,
      1785984921,
      1785984981,
      1785985041,
      1785985101,
      1785985149,
      1785985161,
      1785985281,
      1785985330,
      1785985341,
      1785985390,
      1785985401,
      1785985462,
      1785985570,
      1785985582,
      1785985642,
      1785985702,
      1785985746,
      1785985762,
      1785985822,
      1785985882,
      1785985926,
      1785986002,
      1785986047,
      1785986062,
      1785986107,
      1785986122,
      1785986167,
      1785986227,
      1785986242,
      1785986287,
      1785986303,
      1785986347,
      1785986363,
      1785986467,
      1785986527,
      1785986587,
      1785986647,
      1785986708,
      1785986768,
      1785986828,
      1785986888,
      1785987008,
      1785987068,
      1785987188,
      1785987248,
      1785987308,
      1785987368,
      1785987428,
      1785987489,
      1785987609,
      1785987669,
      1785987729,
      1785987789,
      1785987849,
      1785987909,
      1785988029,
      1785988149,
      1785988210,
      1785988270,
      1785988450,
      1785988570,
      1785988630,
      1785988690,
      1785988750,
      1785988870,
      1785988931,
      1785988991,
      1785989051,
      1785989111,
      1785989127,
      1785989187,
      1785989231,
      1785989247,
      1785989307,
      1785989351,
      1785989471,
      1785989487,
      1785989531,
      1785989547,
      1785989591,
      1785989607,
      1785989651,
      1785989667,
      1785989711,
      1785989772,
      1785989787,
      1785989832,
      1785989847,
      1785989892,
      1785989907,
      1785989952,
      1785989968,
      1785990012,
      1785990028,
      1785990072,
      1785990132,
      1785990192,
      1785990252,
      1785990432,
      1785990492,
      1785990552,
      1785990612,
      1785990733,
      1785990793,
      1785990853,
      1785990913,
      1785990973,
      1785991033,
      1785991093,
      1785991213,
      1785991273,
      1785991333,
      1785991393,
      1785991453,
      1785991513,
      1785991573,
      1785991634,
      1785991694,
      1785991754,
      1785991814,
      1785991874,
      1785991934,
      1785992114,
      1785992174,
      1785992234,
      1785992294,
      1785992354,
      1785992414,
      1785992534,
      1785992594,
      1785992600,
      1785992720,
      1785992775,
      1785992835,
      1785992900,
      1785992955,
      1785993015,
      1785993080,
      1785993135,
      1785993195,
      1785993260,
      1785993315,
      1785993344,
      1785993375,
      1785993404,
      1785993435,
      1785993464,
      1785993495,
      1785993524,
      1785993555,
      1785993584,
      1785993644,
      1785993704,
      1785993764,
      1785993885,
      1785993945,
      1785994005,
      1785994065,
      1785994185,
      1785994293,
      1785994305,
      1785994365,
      1785994389,
      1785994425,
      1785994449,
      1785994485,
      1785994509,
      1785994545,
      1785994569,
      1785994624,
      1785994665,
      1785994725,
      1785994749,
      1785994785,
      1785994845,
      1785994869,
      1785994905,
      1785994965,
      1785994990,
      1785995025,
      1785995055,
      1785995085,
      1785995115,
      1785995145,
      1785995175,
      1785995206,
      1785995230,
      1785995290,
      1785995326,
      1785995349,
      1785995421,
      1785995446
    ],
    "wof:geomhash": "b584e74faa09b8c00c568e7fa80ef4fa",
    "wof:id": 2032116155,
    "wof:repo": "sfomuseum-data-flights-2026-08"
  },
  "bbox": [
    -122.33638888888889,
    37.492222222222225,
    -87.77527777777777,
    42.21027777777778
  ],
  "geometry": {"type":"LineString","coordinates":[[-87.77527777777777,41.76916666666666],[-87.85027777777778,41.7575],[-87.93777777777778,41.75333333333333],[-88.03388888888888,41.759166666666665],[-88.13194444444444,41.78444444444444],[-88.2375,41.81111111111111],[-88.34916666666666,41.812777777777775],[-88.47027777777778,41.812777777777775],[-88.70472222222223,41.83777777777778],[-88.8325,41.85111111111111],[-88.96000000000001,41.864444444444445],[-89.0925,41.878055555555555],[-89.22500000000001,41.89138888888889],[-89.36027777777777,41.90472222222222],[-89.45,41.91166666666666],[-89.4975,41.91833333333333],[-89.59916666666666,41.927499999999995],[-89.66916666666667,41.934999999999995],[-89.74305555555556,41.940555555555555],[-89.81277777777777,41.94888888888889],[-89.88972222222223,41.955000000000005],[-89.94944444444445,41.96194444444445],[-90.09194444444444,41.987500000000004],[-90.23388888888888,42.03805555555555],[-90.31722222222221,42.06638888888889],[-90.4588888888889,42.115833333333335],[-90.51638888888888,42.12361111111111],[-90.60777777777777,42.125277777777775],[-90.66555555555556,42.12916666666667],[-90.75277777777778,42.132222222222225],[-90.8111111111111,42.134166666666665],[-90.89888888888889,42.13722222222222],[-90.9563888888889,42.13944444444444],[-91.04527777777777,42.1425],[-91.19055555555556,42.147777777777776],[-91.25,42.14972222222222],[-91.33666666666666,42.152499999999996],[-91.39444444444445,42.15416666666667],[-91.48277777777778,42.15694444444444],[-91.63166666666666,42.16138888888889],[-91.68972222222223,42.16305555555555],[-91.7786111111111,42.16555555555556],[-91.92888888888889,42.16972222222222],[-91.98861111111111,42.171388888888885],[-92.07916666666667,42.17361111111111],[-92.13833333333334,42.175],[-92.23166666666667,42.17722222222222],[-92.28916666666666,42.17861111111111],[-92.38222222222221,42.18111111111111],[-92.44250000000001,42.18222222222222],[-92.53583333333333,42.18416666666666],[-92.59444444444443,42.18555555555555],[-92.68777777777778,42.1875],[-92.74944444444445,42.18861111111111],[-92.8425,42.190555555555555],[-92.90194444444445,42.19166666666666],[-93.05833333333334,42.19444444444444],[-93.15,42.19583333333333],[-93.21055555555556,42.196666666666665],[-93.36416666666666,42.19888888888889],[-93.45666666666666,42.20027777777778],[-93.51527777777778,42.20111111111111],[-93.60749999999999,42.202222222222225],[-93.66861111111112,42.20277777777778],[-93.75722222222223,42.20388888888889],[-93.81777777777778,42.20444444444445],[-93.96833333333333,42.20583333333334],[-94.05611111111111,42.20666666666667],[-94.11916666666666,42.20722222222223],[-94.2063888888889,42.20777777777778],[-94.27,42.20805555555556],[-94.35583333333332,42.20861111111111],[-94.81055555555555,42.21027777777778],[-94.96222222222222,42.21027777777778],[-95.11555555555555,42.21027777777778],[-95.26527777777778,42.21],[-95.41833333333334,42.20944444444445],[-95.56805555555555,42.20888888888889],[-95.71916666666667,42.20805555555556],[-95.86749999999999,42.20666666666667],[-96.01888888888888,42.205555555555556],[-96.16861111111112,42.20416666666667],[-96.31638888888888,42.2025],[-96.46777777777778,42.200833333333335],[-96.61583333333333,42.198611111111106],[-97.06611111111111,42.19138888888889],[-97.2175,42.18833333333333],[-97.36749999999999,42.18527777777778],[-97.51944444444445,42.18222222222222],[-97.6575,42.17916666666667],[-97.66972222222223,42.178888888888885],[-97.9725,42.17111111111111],[-98.11416666666666,42.1675],[-98.125,42.16722222222222],[-98.26444444444445,42.163333333333334],[-98.27527777777777,42.16277777777778],[-98.42694444444444,42.15833333333333],[-98.71777777777778,42.14944444444444],[-98.72888888888889,42.149166666666666],[-98.88194444444444,42.14388888888889],[-99.03416666666666,42.138333333333335],[-99.16555555555556,42.13333333333333],[-99.18472222222222,42.13305555555556],[-99.33694444444444,42.1275],[-99.51638888888888,42.120555555555555],[-99.62527777777777,42.115833333333335],[-99.81555555555555,42.108333333333334],[-99.92111111111112,42.103611111111114],[-99.96166666666667,42.10194444444445],[-100.06611111111111,42.09722222222222],[-100.09472222222222,42.096111111111114],[-100.19305555555556,42.090833333333336],[-100.33999999999999,42.08361111111111],[-100.38583333333334,42.0825],[-100.48611111111111,42.07694444444445],[-100.53194444444445,42.075833333333335],[-100.63138888888888,42.07027777777778],[-100.67305555555556,42.06861111111112],[-100.92111111111112,42.05444444444444],[-101.06666666666666,42.04694444444444],[-101.21138888888889,42.03944444444444],[-101.3561111111111,42.03111111111111],[-101.50083333333333,42.02361111111111],[-101.64583333333334,42.014722222222225],[-101.79166666666667,42.00666666666667],[-101.93527777777778,41.99722222222222],[-102.22333333333333,41.97888888888889],[-102.36694444444444,41.97027777777778],[-102.6538888888889,41.95166666666667],[-102.79861111111111,41.94222222222222],[-102.94555555555556,41.9325],[-103.09166666666667,41.92222222222222],[-103.23833333333333,41.9125],[-103.38611111111112,41.900555555555556],[-103.67916666666667,41.865833333333335],[-103.8261111111111,41.842222222222226],[-103.97472222222223,41.82055555555556],[-104.1236111111111,41.797777777777775],[-104.27361111111111,41.775277777777774],[-104.42333333333333,41.75277777777778],[-104.72694444444444,41.70611111111111],[-105.02583333333334,41.659166666666664],[-105.1738888888889,41.63444444444444],[-105.32138888888889,41.61222222222222],[-105.7575,41.53972222222222],[-106.05388888888889,41.49],[-106.20361111111112,41.46638888888889],[-106.35222222222221,41.43333333333333],[-106.49972222222222,41.399166666666666],[-106.79444444444444,41.32805555555556],[-106.94194444444445,41.2925],[-107.08749999999999,41.257222222222225],[-107.23472222222222,41.22083333333334],[-107.38222222222221,41.18472222222222],[-107.41222222222223,41.17722222222222],[-107.58888888888889,41.13305555555556],[-107.67833333333334,41.11083333333333],[-107.73777777777778,41.09583333333334],[-107.88583333333334,41.058611111111105],[-107.97472222222223,41.03583333333333],[-108.27027777777778,40.96027777777778],[-108.33111111111111,40.94472222222222],[-108.42166666666667,40.92166666666667],[-108.48083333333334,40.90611111111111],[-108.56972222222223,40.88333333333333],[-108.62916666666666,40.867777777777775],[-108.71833333333333,40.844166666666666],[-108.77722222222222,40.828611111111115],[-108.86749999999999,40.805],[-109.01666666666667,40.76611111111111],[-109.0761111111111,40.750277777777775],[-109.16722222222222,40.725833333333334],[-109.21694444444445,40.712500000000006],[-109.33694444444444,40.680277777777775],[-109.36527777777778,40.672777777777775],[-109.48611111111111,40.640277777777776],[-109.51527777777778,40.632222222222225],[-109.63472222222222,40.6],[-109.665,40.59166666666667],[-109.78388888888888,40.55916666666666],[-109.93388888888889,40.51833333333333],[-110.0825,40.476111111111116],[-110.22944444444444,40.43083333333333],[-110.67055555555557,40.2975],[-110.81555555555555,40.25277777777778],[-110.9625,40.20722222222223],[-111.09833333333333,40.16555555555556],[-111.39194444444445,40.07361111111111],[-111.54472222222222,40.025555555555556],[-111.6888888888889,39.980000000000004],[-111.83805555555556,39.93222222222222],[-111.98805555555556,39.884166666666665],[-112.13583333333334,39.83638888888889],[-112.28444444444445,39.788333333333334],[-112.58361111111111,39.691111111111105],[-112.74083333333333,39.63916666666667],[-112.88777777777779,39.59027777777778],[-113.03666666666666,39.54083333333333],[-113.1863888888889,39.490833333333335],[-113.33388888888888,39.44138888888889],[-113.48777777777778,39.39833333333333],[-113.64250000000001,39.358333333333334],[-113.7975,39.318333333333335],[-113.95083333333334,39.27833333333333],[-114.10527777777777,39.23777777777778],[-114.25444444444445,39.19833333333333],[-114.4063888888889,39.158055555555556],[-114.85583333333332,39.0375],[-115.0038888888889,38.99722222222222],[-115.15055555555556,38.95722222222223],[-115.30111111111111,38.91583333333333],[-115.4588888888889,38.87222222222222],[-115.60694444444444,38.83111111111111],[-115.905,38.74722222222222],[-116.05472222222222,38.70472222222222],[-116.05722222222222,38.70416666666667],[-116.35305555555556,38.61972222222222],[-116.49583333333334,38.578611111111115],[-116.64250000000001,38.53777777777778],[-116.79527777777777,38.50666666666667],[-116.94250000000001,38.47638888888889],[-117.0925,38.445277777777775],[-117.24111111111111,38.413888888888884],[-117.38388888888889,38.38361111111111],[-117.53305555555555,38.35194444444445],[-117.68,38.32055555555556],[-117.82666666666667,38.28916666666667],[-117.85805555555555,38.282222222222224],[-117.97361111111111,38.257222222222225],[-118.03611111111111,38.243611111111115],[-118.12222222222222,38.224722222222226],[-118.205,38.20666666666667],[-118.2725,38.19166666666666],[-118.3536111111111,38.17388888888889],[-118.42055555555557,38.15888888888889],[-118.50416666666666,38.14055555555556],[-118.63194444444444,38.11194444444445],[-118.77916666666667,38.07888888888889],[-118.92888888888889,38.044999999999995],[-119.24805555555555,37.971944444444446],[-119.39583333333334,37.937777777777775],[-119.54333333333334,37.90361111111111],[-119.66000000000001,37.87638888888889],[-119.95277777777778,37.80722222222222],[-120.23333333333333,37.733333333333334],[-120.24583333333334,37.73722222222222],[-120.39694444444446,37.70138888888889],[-120.48333333333333,37.68333333333333],[-120.54666666666667,37.6825],[-120.61666666666666,37.666666666666664],[-120.69305555555556,37.665277777777774],[-120.78333333333333,37.65],[-120.83333333333333,37.64861111111111],[-120.91666666666667,37.63333333333333],[-121.03333333333333,37.61666666666667],[-121.10666666666665,37.61388888888889],[-121.24861111111112,37.594722222222224],[-121.3,37.583333333333336],[-121.37472222222222,37.580000000000005],[-121.49527777777777,37.566111111111105],[-121.55,37.56666666666667],[-121.60972222222222,37.552499999999995],[-121.71166666666667,37.53],[-121.76666666666667,37.516666666666666],[-121.80749999999999,37.507222222222225],[-121.86666666666666,37.5],[-121.89861111111112,37.492222222222225],[-121.95,37.5],[-121.98916666666666,37.4975],[-122.03333333333333,37.5],[-122.07666666666667,37.50222222222222],[-122.11666666666666,37.516666666666666],[-122.18333333333334,37.55],[-122.22916666666667,37.55972222222222],[-122.25,37.56666666666667],[-122.31666666666666,37.6],[-122.33638888888889,37.60472222222222]]}
}
