{
  "id": 2048053119,
  "type": "Feature",
  "properties": {
    "date:cessation_lower": "1970-01-01",
    "date:cessation_upper": "1970-01-01",
    "date:inception_lower": "2026-08-18",
    "date:inception_upper": "2026-08-18",
    "edtf:cessation": "1970-01-01T00:00:00Z",
    "edtf:inception": "2026-08-18T13:06:27-07:00",
    "flysfo:actual_timestamp": -1,
    "flysfo:airline": "AS",
    "flysfo:base_airline": "",
    "flysfo:base_flight_number": "9377",
    "flysfo:date": "2026-08-18",
    "flysfo:estimated_timestamp": 1787107860,
    "flysfo:event": "D",
    "flysfo:flight_number": "AS212",
    "flysfo:gate": "B13",
    "flysfo:journey": "SFO-ANC",
    "flysfo:scheduled_timestamp": 1787107620,
    "flysfo:timestamp": 1787107860,
    "geom:area": 0,
    "geom:bbox": "-149.968401,37.617990,-122.370943,61.173606",
    "geom:latitude": 49.395798,
    "geom:longitude": -136.169672,
    "iata:airline": "AS",
    "iata:base_airline": "",
    "icao:aircraft": "B739",
    "icao:airline": "ASA",
    "icao:base_airline": "AAL",
    "lbl:latitude": 37.61799,
    "lbl:longitude": -122.370943,
    "sfomuseum:aircraft_id": 1377564285,
    "sfomuseum:airline_id": 1159283813,
    "sfomuseum:arrival_id": 102531979,
    "sfomuseum:base_flight_id": "20260818-D-AAL-9377",
    "sfomuseum:departure_id": 102527513,
    "sfomuseum:flight_id": "20260818-D-ASA-212",
    "sfomuseum:flight_number": [
      "ASA212",
      "AS212"
    ],
    "sfomuseum:placetype": "flight",
    "src:geom": "flysfo",
    "src:geom_alt": [
      "swim-takeoff"
    ],
    "swim:tail_number": "N433AS",
    "wof:belongsto": [
      1947304067,
      102527513,
      1947304261,
      102191575,
      85633793,
      102087579,
      85922583,
      554784711,
      85688637,
      1947304267,
      1947304259,
      102085387
    ],
    "wof:country": "US",
    "wof:created": 1787155996,
    "wof:geomhash": "24c5d8bcd340273688237ae435bbe348",
    "wof:hierarchy": [
      {
        "building_id": 1947304067,
        "campus_id": 102527513,
        "concourse_id": 1947304261,
        "continent_id": 102191575,
        "country_id": 85633793,
        "county_id": 102087579,
        "custom_id": 2048053119,
        "flight_id": 2048053119,
        "locality_id": 85922583,
        "postalcode_id": 554784711,
        "region_id": 85688637,
        "venue_id": 1947304267,
        "wing_id": 1947304259
      },
      {
        "building_id": 1947304067,
        "campus_id": 102527513,
        "concourse_id": 1947304261,
        "continent_id": 102191575,
        "country_id": 85633793,
        "county_id": 102085387,
        "custom_id": 2048053119,
        "flight_id": 2048053119,
        "region_id": 85688637,
        "venue_id": 1947304267,
        "wing_id": 1947304259
      }
    ],
    "wof:id": 2048053119,
    "wof:involves": [
      102527513,
      1159283813,
      1947304267,
      1159283849,
      1377564285,
      102531979
    ],
    "wof:lastmodified": 1787156378,
    "wof:name": "AS212 (SFO-ANC)",
    "wof:parent_id": 1947304267,
    "wof:placetype": "custom",
    "wof:placetype_alt": [
      "flight"
    ],
    "wof:repo": "sfomuseum-data-flights-2026-08",
    "wof:superseded_by": [],
    "wof:supersedes": []
  },
  "bbox": [
    -149.968401,
    37.61799,
    -122.370943,
    61.173606
  ],
  "geometry": {"type":"MultiPoint","coordinates":[[-122.370943,37.61799],[-149.968401,61.173606]]}
}
