{
  "id": 2047875649,
  "type": "Feature",
  "properties": {
    "geom:area": 0,
    "geom:bbox": "-122.360940,36.728570,-121.882650,37.612970",
    "geom:latitude": 37.21608893759137,
    "geom:longitude": -122.07196741412417,
    "src:alt_label": "swim-approach",
    "src:geom": "swim",
    "swim:elevations": [
      5153,
      4698,
      4654,
      4447,
      4225,
      4057,
      3585,
      3500,
      3173,
      3117,
      3049,
      2794,
      2591,
      2507,
      2133,
      2000,
      1784,
      1676,
      1375,
      1299,
      1215,
      1069,
      1020,
      833,
      784,
      726,
      591,
      396,
      271,
      251,
      58,
      160
    ],
    "swim:geom": "approach",
    "swim:timestamps": [
      1786104008,
      1786104056,
      1786104060,
      1786104083,
      1786104107,
      1786104126,
      1786104177,
      1786104185,
      1786104226,
      1786104243,
      1786104275,
      1786104320,
      1786104350,
      1786104365,
      1786104418,
      1786104443,
      1786104467,
      1786104487,
      1786104538,
      1786104553,
      1786104571,
      1786104598,
      1786104624,
      1786104644,
      1786104656,
      1786104664,
      1786104693,
      1786104745,
      1786104771,
      1786104780,
      1786104838,
      1786104842
    ],
    "wof:geomhash": "d6d9943812629a90bcac8897997cc3dc",
    "wof:id": 2047875649,
    "wof:repo": "sfomuseum-data-flights-2026-08"
  },
  "bbox": [
    -122.36094,
    36.72857,
    -121.88265,
    37.61297
  ],
  "geometry": {"type":"LineString","coordinates":[[-121.88265,36.72857],[-121.9132,36.81114],[-121.91512,36.81796],[-121.92606,36.85677],[-121.93763,36.8969],[-121.94621,36.92742],[-121.97455,37.00755],[-121.97902,37.01914],[-122.0035,37.08157],[-122.01267,37.10504],[-122.03017,37.14896],[-122.05194,37.20534],[-122.06636,37.24228],[-122.07374,37.26069],[-122.09884,37.32427],[-122.11012,37.35291],[-122.12079,37.38054],[-122.12854,37.4037],[-122.14683,37.45618],[-122.15136,37.46996],[-122.15678,37.48607],[-122.1649,37.50969],[-122.17478,37.53132],[-122.19206,37.54176],[-122.2038,37.54667],[-122.21196,37.55014],[-122.23995,37.56188],[-122.28406,37.58039],[-122.305,37.58925],[-122.31192,37.59221],[-122.35795,37.61156],[-122.36094,37.61297]]}
}
