{
  "id": 2032091741,
  "type": "Feature",
  "properties": {
    "geom:area": 0,
    "geom:bbox": "-122.542440,37.194490,-121.269810,37.668360",
    "geom:latitude": 37.384915115007246,
    "geom:longitude": -122.01126789736149,
    "src:alt_label": "swim-takeoff",
    "src:geom": "swim",
    "swim:elevations": [
      152,
      396,
      640,
      1107,
      1394,
      1774,
      2063,
      2339,
      3082,
      3261,
      3743,
      4220,
      4784,
      5220,
      5687,
      5914,
      6089,
      6200,
      6248,
      6648,
      6798,
      7105,
      7206,
      7478,
      7721,
      7958,
      8399,
      8825,
      9094,
      9342,
      9442,
      9448
    ],
    "swim:geom": "takeoff",
    "swim:timestamps": [
      1785778190,
      1785778217,
      1785778249,
      1785778285,
      1785778308,
      1785778344,
      1785778365,
      1785778382,
      1785778432,
      1785778456,
      1785778489,
      1785778518,
      1785778554,
      1785778584,
      1785778613,
      1785778640,
      1785778668,
      1785778678,
      1785778681,
      1785778717,
      1785778730,
      1785778760,
      1785778772,
      1785778798,
      1785778821,
      1785778847,
      1785778879,
      1785778917,
      1785778938,
      1785778959,
      1785778974,
      1785778987
    ],
    "wof:geomhash": "000a3c8a9595ed8c2a0580df031dd4ed",
    "wof:id": 2032091741,
    "wof:repo": "sfomuseum-data-flights-2026-08"
  },
  "bbox": [
    -122.54244,
    37.19449,
    -121.26981,
    37.66836
  ],
  "geometry": {"type":"LineString","coordinates":[[-122.38156,37.62386],[-122.40393,37.6333],[-122.43537,37.64611],[-122.47655,37.66267],[-122.50435,37.66836],[-122.54244,37.64518],[-122.54166,37.61911],[-122.53128,37.6001],[-122.49915,37.53664],[-122.48133,37.50394],[-122.43555,37.46754],[-122.38738,37.43971],[-122.32233,37.40924],[-122.26137,37.39627],[-122.20036,37.38408],[-122.14253,37.37258],[-122.07942,37.36005],[-122.05587,37.35534],[-122.04723,37.35364],[-121.96162,37.33656],[-121.92967,37.33018],[-121.85573,37.31523],[-121.82537,37.30912],[-121.75899,37.29571],[-121.69855,37.28315],[-121.6302,37.26931],[-121.54776,37.25205],[-121.45052,37.23206],[-121.39628,37.22061],[-121.34183,37.2093],[-121.30462,37.20158],[-121.26981,37.19449]]}
}
