{
  "id": 2032121055,
  "type": "Feature",
  "properties": {
    "geom:area": 0,
    "geom:bbox": "-122.556930,36.718090,-122.274470,37.641920",
    "geom:latitude": 37.19966389819547,
    "geom:longitude": -122.47483576839625,
    "src:alt_label": "swim-takeoff",
    "src:geom": "swim",
    "swim:elevations": [
      183,
      503,
      617,
      687,
      850,
      1863,
      2344,
      2814,
      3470,
      3492,
      3583,
      4313,
      4419,
      4486,
      4846,
      4938,
      5269,
      5528,
      5801,
      5974,
      6169,
      6188,
      6450,
      6641,
      6748,
      6943,
      7010
    ],
    "swim:geom": "takeoff",
    "swim:timestamps": [
      1785967737,
      1785967761,
      1785967770,
      1785967776,
      1785967791,
      1785967912,
      1785967941,
      1785967972,
      1785968038,
      1785968041,
      1785968053,
      1785968145,
      1785968155,
      1785968172,
      1785968215,
      1785968225,
      1785968246,
      1785968274,
      1785968304,
      1785968321,
      1785968342,
      1785968345,
      1785968379,
      1785968401,
      1785968418,
      1785968449,
      1785968477
    ],
    "wof:geomhash": "2c1a67af4a0d511fe978c2f18872f077",
    "wof:id": 2032121055,
    "wof:repo": "sfomuseum-data-flights-2026-08"
  },
  "bbox": [
    -122.55693,
    36.71809,
    -122.27447,
    37.64192
  ],
  "geometry": {"type":"LineString","coordinates":[[-122.38456,37.62275],[-122.40367,37.63121],[-122.41099,37.63443],[-122.41582,37.63665],[-122.42785,37.64192],[-122.52643,37.6218],[-122.51109,37.58766],[-122.4961,37.55061],[-122.47922,37.46304],[-122.48005,37.45859],[-122.48351,37.44049],[-122.51268,37.28608],[-122.51612,37.26741],[-122.52178,37.23668],[-122.53671,37.15437],[-122.54015,37.13509],[-122.54748,37.09479],[-122.55693,37.04302],[-122.54739,36.98569],[-122.52327,36.95786],[-122.4909,36.92688],[-122.48622,36.92237],[-122.4338,36.8718],[-122.39748,36.83676],[-122.37165,36.81183],[-122.32018,36.76226],[-122.27447,36.71809]]}
}
