{
  "id": 2048035165,
  "type": "Feature",
  "properties": {
    "geom:area": 0,
    "geom:bbox": "-122.361700,36.722200,-121.878690,37.612990",
    "geom:latitude": 37.22923841195949,
    "geom:longitude": -122.0835653977305,
    "src:alt_label": "swim-approach",
    "src:geom": "swim",
    "swim:elevations": [
      5191,
      5077,
      4872,
      4604,
      4547,
      4300,
      4277,
      3899,
      3575,
      3407,
      3361,
      3270,
      3110,
      3024,
      2820,
      2744,
      2630,
      2354,
      2193,
      1936,
      1829,
      1796,
      1600,
      1487,
      1221,
      1219,
      1219,
      1219,
      1219,
      1097,
      905,
      805,
      767,
      629,
      524,
      380,
      309,
      151,
      94,
      0
    ],
    "swim:geom": "approach",
    "swim:timestamps": [
      1787005191,
      1787005203,
      1787005223,
      1787005255,
      1787005261,
      1787005288,
      1787005291,
      1787005333,
      1787005378,
      1787005405,
      1787005412,
      1787005428,
      1787005461,
      1787005485,
      1787005525,
      1787005537,
      1787005561,
      1787005604,
      1787005626,
      1787005659,
      1787005691,
      1787005711,
      1787005748,
      1787005776,
      1787005825,
      1787005850,
      1787005882,
      1787005894,
      1787005904,
      1787005934,
      1787005970,
      1787005994,
      1787006006,
      1787006036,
      1787006061,
      1787006093,
      1787006113,
      1787006155,
      1787006171,
      1787006192
    ],
    "wof:geomhash": "d0ee8496bbf991ef3e8ab28c14950699",
    "wof:id": 2048035165,
    "wof:repo": "sfomuseum-data-flights-2026-08"
  },
  "bbox": [
    -122.3617,
    36.7222,
    -121.87869,
    37.61299
  ],
  "geometry": {"type":"LineString","coordinates":[[-121.87869,36.7222],[-121.88997,36.74083],[-121.9032,36.77398],[-121.91723,36.82628],[-121.92,36.83618],[-121.9324,36.88064],[-121.93375,36.88551],[-121.95334,36.95316],[-121.98056,37.0214],[-121.99516,37.05934],[-121.9988,37.06897],[-122.00673,37.08995],[-122.02275,37.1317],[-122.03399,37.16002],[-122.06494,37.19912],[-122.07729,37.20898],[-122.1028,37.22732],[-122.15587,37.24744],[-122.17963,37.26078],[-122.18658,37.29638],[-122.16835,37.32997],[-122.15742,37.34984],[-122.13623,37.38877],[-122.12056,37.41728],[-122.0951,37.46393],[-122.08402,37.48532],[-122.10196,37.504],[-122.11365,37.50836],[-122.12262,37.51204],[-122.14938,37.52382],[-122.17991,37.5366],[-122.20017,37.54529],[-122.21059,37.54962],[-122.23664,37.56057],[-122.25776,37.56947],[-122.28388,37.58046],[-122.29955,37.58705],[-122.33182,37.60059],[-122.34401,37.60569],[-122.3617,37.61299]]}
}
