{
  "id": 2032092283,
  "type": "Feature",
  "properties": {
    "geom:area": 0,
    "geom:bbox": "-122.409860,37.632380,-122.114580,38.510470",
    "geom:latitude": 38.02234116371911,
    "geom:longitude": -122.21050616771333,
    "src:alt_label": "swim-takeoff",
    "src:geom": "swim",
    "swim:elevations": [
      307,
      562,
      902,
      1491,
      1652,
      2201,
      2703,
      2732,
      2999,
      3174,
      3589,
      3672,
      3735,
      3965,
      4417,
      4726,
      5011,
      5323,
      5385,
      5795,
      6021,
      6240,
      6712,
      6954,
      7059
    ],
    "swim:geom": "takeoff",
    "swim:timestamps": [
      1785756083,
      1785756103,
      1785756130,
      1785756202,
      1785756212,
      1785756254,
      1785756296,
      1785756308,
      1785756358,
      1785756371,
      1785756403,
      1785756409,
      1785756413,
      1785756425,
      1785756467,
      1785756494,
      1785756518,
      1785756562,
      1785756570,
      1785756612,
      1785756642,
      1785756663,
      1785756708,
      1785756733,
      1785756764
    ],
    "wof:geomhash": "a7adeaf7b4311c89e0b529ab7ea76e4c",
    "wof:id": 2032092283,
    "wof:repo": "sfomuseum-data-flights-2026-08"
  },
  "bbox": [
    -122.40986,
    37.63238,
    -122.11458,
    38.51047
  ],
  "geometry": {"type":"LineString","coordinates":[[-122.40444,37.63238],[-122.40986,37.64828],[-122.38944,37.66119],[-122.30135,37.68822],[-122.287,37.69292],[-122.22565,37.71843],[-122.21366,37.77186],[-122.21885,37.78681],[-122.24221,37.85114],[-122.24877,37.86861],[-122.25051,37.91225],[-122.24736,37.92045],[-122.24554,37.92551],[-122.24009,37.94232],[-122.22371,38.00059],[-122.21129,38.03942],[-122.19938,38.07545],[-122.17574,38.14468],[-122.1715,38.15799],[-122.14885,38.22736],[-122.13086,38.28144],[-122.11923,38.31817],[-122.11466,38.40133],[-122.11458,38.44905],[-122.11545,38.51047]]}
}
