{
  "id": 2047995457,
  "type": "Feature",
  "properties": {
    "geom:area": 0,
    "geom:bbox": "-123.371000,37.627530,-122.390920,38.486610",
    "geom:latitude": 38.01961766238582,
    "geom:longitude": -122.90952044865823,
    "src:alt_label": "swim-takeoff",
    "src:geom": "swim",
    "swim:elevations": [
      183,
      597,
      809,
      917,
      1222,
      1538,
      1641,
      1947,
      2462,
      2871,
      3178,
      3394,
      3586,
      3797,
      3955,
      4263,
      4694,
      5037,
      5058,
      5203,
      5353,
      5654,
      6039,
      6397,
      6614,
      6949,
      7102
    ],
    "swim:geom": "takeoff",
    "swim:timestamps": [
      1786910857,
      1786910907,
      1786910937,
      1786910951,
      1786910995,
      1786911026,
      1786911036,
      1786911066,
      1786911109,
      1786911147,
      1786911173,
      1786911205,
      1786911231,
      1786911261,
      1786911277,
      1786911312,
      1786911355,
      1786911388,
      1786911391,
      1786911403,
      1786911420,
      1786911450,
      1786911484,
      1786911525,
      1786911552,
      1786911593,
      1786911612
    ],
    "wof:geomhash": "75640f2de30e53db1c3ab02326023582",
    "wof:id": 2047995457,
    "wof:repo": "sfomuseum-data-flights-2026-08"
  },
  "bbox": [
    -123.371,
    37.62753,
    -122.39092,
    38.48661
  ],
  "geometry": {"type":"LineString","coordinates":[[-122.39092,37.62753],[-122.43692,37.64643],[-122.46876,37.65985],[-122.48489,37.66702],[-122.53781,37.69596],[-122.57784,37.71858],[-122.59027,37.72576],[-122.63026,37.7491],[-122.68881,37.78387],[-122.7405,37.81431],[-122.77079,37.84122],[-122.80256,37.87989],[-122.8313,37.91509],[-122.86586,37.9564],[-122.88404,37.97795],[-122.9293,38.02949],[-122.99048,38.08838],[-123.03994,38.13628],[-123.04444,38.14067],[-123.06229,38.15816],[-123.08697,38.1824],[-123.1317,38.22675],[-123.18403,38.27934],[-123.24496,38.34201],[-123.286,38.38514],[-123.34814,38.45061],[-123.371,38.48661]]}
}
