{
  "id": 2048091575,
  "type": "Feature",
  "properties": {
    "geom:area": 0,
    "geom:bbox": "-122.805220,37.434050,-122.080730,38.493250",
    "geom:latitude": 37.812969998336385,
    "geom:longitude": -122.48136190286752,
    "src:alt_label": "swim-approach",
    "src:geom": "swim",
    "swim:elevations": [
      8778,
      8310,
      7976,
      7526,
      7168,
      6820,
      6728,
      6438,
      6084,
      5764,
      5442,
      5126,
      5088,
      4463,
      4248,
      3863,
      3767,
      3482,
      3384,
      3353,
      3353,
      3353,
      3353,
      3240,
      3070,
      2791,
      2562,
      2315,
      2210,
      2006,
      1768,
      1552,
      1521,
      1524,
      1432,
      1355,
      1219,
      1219,
      1009,
      951,
      792,
      665,
      490,
      368,
      326,
      121,
      70,
      100
    ],
    "swim:geom": "approach",
    "swim:timestamps": [
      1787355915,
      1787355952,
      1787355978,
      1787356016,
      1787356044,
      1787356075,
      1787356084,
      1787356108,
      1787356138,
      1787356166,
      1787356195,
      1787356227,
      1787356231,
      1787356286,
      1787356307,
      1787356347,
      1787356356,
      1787356400,
      1787356422,
      1787356455,
      1787356494,
      1787356505,
      1787356546,
      1787356574,
      1787356594,
      1787356629,
      1787356659,
      1787356689,
      1787356703,
      1787356729,
      1787356761,
      1787356792,
      1787356801,
      1787356856,
      1787356885,
      1787356902,
      1787356947,
      1787356956,
      1787357008,
      1787357026,
      1787357060,
      1787357085,
      1787357120,
      1787357152,
      1787357164,
      1787357217,
      1787357247,
      1787357250
    ],
    "wof:geomhash": "30db6a03920da6972c76cc5ba4f1f813",
    "wof:id": 2048091575,
    "wof:repo": "sfomuseum-data-flights-2026-08"
  },
  "bbox": [
    -122.80522,
    37.43405,
    -122.08073,
    38.49325
  ],
  "geometry": {"type":"LineString","coordinates":[[-122.80522,38.49325],[-122.79587,38.42696],[-122.78922,38.38027],[-122.77984,38.31341],[-122.773,38.26459],[-122.76418,38.21394],[-122.76002,38.19922],[-122.74884,38.16031],[-122.73506,38.1126],[-122.7219,38.06759],[-122.70919,38.02373],[-122.69553,37.97654],[-122.6936,37.96976],[-122.66274,37.89116],[-122.63783,37.86596],[-122.58992,37.82059],[-122.57894,37.81025],[-122.52931,37.76401],[-122.50778,37.74355],[-122.47569,37.71288],[-122.43799,37.67749],[-122.42793,37.66813],[-122.39172,37.63401],[-122.36724,37.61039],[-122.35408,37.59159],[-122.33757,37.55698],[-122.32009,37.52869],[-122.3031,37.50078],[-122.29495,37.48766],[-122.26792,37.47083],[-122.22777,37.45986],[-122.18856,37.44868],[-122.17662,37.44509],[-122.11293,37.43405],[-122.08993,37.45619],[-122.08073,37.47198],[-122.1022,37.50582],[-122.11099,37.50993],[-122.1624,37.53146],[-122.17953,37.53881],[-122.21205,37.55247],[-122.23574,37.56255],[-122.26785,37.57598],[-122.2924,37.58621],[-122.30068,37.58971],[-122.33761,37.6054],[-122.35832,37.61387],[-122.36006,37.61522]]}
}
