{
  "id": 2047997615,
  "type": "Feature",
  "properties": {
    "geom:area": 0,
    "geom:bbox": "-122.412800,37.625890,-121.264160,38.413960",
    "geom:latitude": 38.077932555861146,
    "geom:longitude": -121.94288566483387,
    "src:alt_label": "swim-takeoff",
    "src:geom": "swim",
    "swim:elevations": [
      122,
      260,
      574,
      624,
      972,
      1269,
      1501,
      1578,
      1638,
      2145,
      2320,
      2654,
      2879,
      3200,
      3278,
      3588,
      3841,
      3959,
      4188,
      4545,
      4728,
      4986,
      5104,
      5299,
      5725,
      5959,
      6194,
      6339,
      6628,
      6660,
      6819,
      6947,
      6988,
      7097,
      7199,
      7326
    ],
    "swim:geom": "takeoff",
    "swim:timestamps": [
      1786923500,
      1786923511,
      1786923537,
      1786923543,
      1786923579,
      1786923622,
      1786923655,
      1786923664,
      1786923670,
      1786923712,
      1786923724,
      1786923748,
      1786923769,
      1786923806,
      1786923822,
      1786923862,
      1786923889,
      1786923901,
      1786923924,
      1786923957,
      1786923978,
      1786924016,
      1786924031,
      1786924055,
      1786924104,
      1786924131,
      1786924162,
      1786924183,
      1786924228,
      1786924233,
      1786924257,
      1786924272,
      1786924278,
      1786924294,
      1786924312,
      1786924334
    ],
    "wof:geomhash": "a9859da287d24265aea5d39a3299dd1d",
    "wof:id": 2047997615,
    "wof:repo": "sfomuseum-data-flights-2026-08"
  },
  "bbox": [
    -122.4128,
    37.62589,
    -121.26416,
    38.41396
  ],
  "geometry": {"type":"LineString","coordinates":[[-122.39233,37.62589],[-122.40166,37.63109],[-122.4128,37.65062],[-122.41224,37.65592],[-122.38467,37.68045],[-122.34767,37.71382],[-122.34057,37.75255],[-122.34633,37.76326],[-122.35034,37.77046],[-122.37429,37.82399],[-122.38004,37.83984],[-122.38449,37.87221],[-122.38391,37.90098],[-122.35953,37.94806],[-122.33412,37.9613],[-122.26504,37.98825],[-122.21524,38.00816],[-122.19271,38.01692],[-122.14997,38.03399],[-122.08597,38.05995],[-122.04506,38.07647],[-121.96919,38.10689],[-121.93572,38.11992],[-121.88452,38.1396],[-121.78122,38.18141],[-121.72261,38.20476],[-121.65202,38.23279],[-121.60478,38.25146],[-121.50097,38.2924],[-121.49087,38.29636],[-121.4345,38.31849],[-121.39759,38.33444],[-121.38384,38.3413],[-121.35083,38.36018],[-121.31233,38.38413],[-121.26416,38.41396]]}
}
