{
  "id": 2032116845,
  "type": "Feature",
  "properties": {
    "geom:area": 0,
    "geom:bbox": "-122.359960,37.465480,-121.257000,37.612770",
    "geom:latitude": 37.533705303261684,
    "geom:longitude": -121.81656964454423,
    "src:alt_label": "swim-approach",
    "src:geom": "swim",
    "swim:elevations": [
      4589,
      4343,
      4219,
      3869,
      3731,
      3452,
      3345,
      3169,
      3124,
      3010,
      2784,
      2439,
      2402,
      2317,
      2137,
      2105,
      2047,
      2015,
      1830,
      1662,
      1428,
      1290,
      1099,
      945,
      833,
      744,
      665,
      444,
      400,
      218,
      119,
      61,
      0,
      0
    ],
    "swim:geom": "approach",
    "swim:timestamps": [
      1785913223,
      1785913253,
      1785913267,
      1785913307,
      1785913323,
      1785913358,
      1785913373,
      1785913405,
      1785913412,
      1785913441,
      1785913474,
      1785913525,
      1785913558,
      1785913573,
      1785913605,
      1785913624,
      1785913647,
      1785913655,
      1785913706,
      1785913734,
      1785913754,
      1785913772,
      1785913804,
      1785913835,
      1785913881,
      1785913902,
      1785913921,
      1785913975,
      1785913987,
      1785914038,
      1785914068,
      1785914091,
      1785914098,
      1785914102
    ],
    "wof:geomhash": "fe3dc2c8115daa48842574292bf48d80",
    "wof:id": 2032116845,
    "wof:repo": "sfomuseum-data-flights-2026-08"
  },
  "bbox": [
    -122.35996,
    37.46548,
    -121.257,
    37.61277
  ],
  "geometry": {"type":"LineString","coordinates":[[-121.257,37.59331],[-121.31671,37.58588],[-121.34697,37.58263],[-121.42758,37.5735],[-121.45848,37.56992],[-121.5265,37.56208],[-121.55526,37.55871],[-121.61248,37.55206],[-121.62446,37.55023],[-121.66804,37.54009],[-121.71415,37.52916],[-121.77415,37.49936],[-121.80605,37.47427],[-121.82849,37.47115],[-121.87425,37.46878],[-121.90121,37.46743],[-121.931,37.46599],[-121.94117,37.46548],[-122.00608,37.46548],[-122.03663,37.47627],[-122.05999,37.48606],[-122.08019,37.49449],[-122.11605,37.5097],[-122.14911,37.52362],[-122.19246,37.54192],[-122.21134,37.54993],[-122.22836,37.55717],[-122.27267,37.57573],[-122.28126,37.57933],[-122.3174,37.59455],[-122.33817,37.60325],[-122.35304,37.60947],[-122.35778,37.61163],[-122.35996,37.61277]]}
}
