{
  "id": 2047931573,
  "type": "Feature",
  "properties": {
    "geom:area": 0,
    "geom:bbox": "-122.737222,37.635278,-87.912778,48.016944",
    "geom:latitude": 45.40745829040445,
    "geom:longitude": -108.68893978891968,
    "src:alt_label": "swim-path",
    "src:geom": "swim",
    "swim:altitudes": [
      "012",
      "038",
      "051",
      "051",
      "077",
      "102",
      "118",
      "166",
      "189",
      "203",
      "207",
      "220",
      "229",
      "241",
      "245",
      "257",
      "260",
      "271",
      "275",
      "285",
      "289",
      "305",
      "309",
      "320",
      "320",
      "320",
      "320",
      "320",
      "320",
      "320",
      "320",
      "320",
      "320",
      "320",
      "321",
      "325",
      "334",
      "341",
      "345",
      "354",
      "358C",
      "360C",
      "360C",
      "360C",
      "360C",
      "360C",
      "360C",
      "360C",
      "360C",
      "360C",
      "360C",
      "360C",
      "360C",
      "360C",
      "360C",
      "360C",
      "360C",
      "360C",
      "360C",
      "360C",
      "360C",
      "360C",
      "360C",
      "360C",
      "360C",
      "360C",
      "360C",
      "360C",
      "360C",
      "360C",
      "360C",
      "360C",
      "360C",
      "360C",
      "360C",
      "360C",
      "360C",
      "360C",
      "360C",
      "360C",
      "360C",
      "360C",
      "360C",
      "360C",
      "360C",
      "360C",
      "360C",
      "360C",
      "360C",
      "360C",
      "360C",
      "360C",
      "360C",
      "358",
      "348",
      "337",
      "314",
      "292",
      "276",
      "261",
      "244",
      "208",
      "190",
      "173",
      "156",
      "134",
      "125",
      "114",
      "110",
      "103",
      "101",
      "091",
      "083",
      "080",
      "069",
      "067",
      "061",
      "058",
      "053",
      "051",
      "041",
      "035",
      "032",
      "026",
      "023",
      "018",
      "015",
      "010",
      "008",
      "005",
      "013",
      "026",
      "050",
      "064",
      "079",
      "090",
      "112",
      "126",
      "149",
      "168",
      "185",
      "207",
      "222",
      "237",
      "249",
      "263",
      "274",
      "284",
      "294",
      "308",
      "321",
      "330C",
      "330C",
      "330C",
      "330C",
      "330C",
      "330C",
      "330C",
      "330C",
      "330C",
      "330C",
      "330C",
      "330C",
      "330C",
      "330C",
      "330C",
      "330C",
      "330C",
      "330C",
      "330C",
      "330C",
      "330C",
      "330C",
      "330C",
      "330C",
      "330C",
      "330C",
      "330C",
      "330C",
      "330C",
      "330C",
      "330C",
      "330C",
      "330C",
      "330C",
      "330C",
      "330C",
      "330C",
      "330C",
      "330C",
      "330C",
      "330C",
      "330C",
      "330C",
      "330C",
      "330C",
      "330C",
      "330C",
      "330C",
      "330C",
      "330C",
      "330C",
      "330C",
      "330C",
      "330C",
      "330C",
      "330C",
      "330C",
      "330C",
      "330C",
      "330C",
      "330C",
      "330C",
      "330C",
      "330C",
      "330C",
      "330C",
      "330C",
      "330C",
      "330C",
      "330C",
      "330C",
      "330C",
      "330C",
      "330C",
      "330C",
      "330C",
      "330C",
      "330C",
      "330C",
      "330C",
      "330C",
      "330C",
      "330C",
      "330C",
      "330C",
      "330C",
      "330C",
      "330C",
      "330C",
      "330C",
      "330C",
      "330C",
      "330C",
      "330C",
      "330C",
      "330C",
      "330C",
      "330C",
      "330C",
      "330C",
      "330",
      "335",
      "345",
      "350C",
      "350C",
      "350C",
      "350C",
      "350C",
      "350C",
      "350C",
      "350C",
      "350C",
      "350C",
      "350C",
      "350C",
      "350C",
      "350C",
      "350C",
      "350C",
      "350C",
      "350C",
      "350C",
      "350C",
      "350C",
      "350C",
      "350C",
      "350C",
      "350C",
      "350C",
      "350C",
      "350C",
      "350C",
      "350C",
      "350C",
      "350C",
      "350C",
      "350C",
      "350C",
      "350C",
      "350C",
      "350C",
      "350C",
      "350C",
      "350C",
      "350C",
      "350C",
      "350C",
      "350C",
      "350C",
      "350C",
      "350C",
      "350C",
      "350C",
      "350C",
      "350C",
      "350C",
      "350C",
      "350C",
      "350C",
      "350C",
      "350C",
      "350C",
      "350C",
      "350C",
      "350C",
      "350C",
      "350C",
      "350C",
      "350C",
      "350C",
      "350C",
      "350C",
      "350C",
      "350C",
      "350C",
      "350C",
      "350C",
      "350C",
      "350",
      "350",
      "350",
      "350",
      "350",
      "350",
      "332",
      "305",
      "289",
      "273",
      "247",
      "225",
      "203",
      "182",
      "162",
      "148",
      "143",
      "131",
      "123",
      "115",
      "112C",
      "110",
      "106",
      "100",
      "093",
      "087",
      "080",
      "073",
      "067",
      "060",
      "054",
      "052",
      "048",
      "042",
      "040",
      "040",
      "040",
      "033",
      "029",
      "023",
      "020",
      "013",
      "011",
      "006"
    ],
    "swim:geom": "path",
    "swim:speeds": [
      181,
      218,
      288,
      287,
      288,
      302,
      343,
      396,
      405,
      425,
      419,
      437,
      436,
      437,
      439,
      443,
      452,
      457,
      468,
      469,
      479,
      478,
      479,
      478,
      479,
      480,
      482,
      481,
      481,
      481,
      479,
      478,
      477,
      483,
      476,
      477,
      476,
      478,
      482,
      484,
      484,
      485,
      487,
      489,
      490,
      489,
      489,
      488,
      487,
      486,
      486,
      485,
      484,
      484,
      485,
      485,
      486,
      486,
      487,
      488,
      489,
      491,
      492,
      492,
      493,
      494,
      491,
      486,
      485,
      484,
      472,
      469,
      468,
      468,
      468,
      469,
      469,
      470,
      470,
      471,
      471,
      470,
      470,
      480,
      481,
      481,
      481,
      476,
      450,
      426,
      421,
      419,
      418,
      437,
      444,
      443,
      443,
      445,
      433,
      418,
      404,
      400,
      391,
      382,
      363,
      344,
      339,
      323,
      326,
      301,
      297,
      277,
      258,
      258,
      250,
      235,
      207,
      206,
      199,
      192,
      182,
      175,
      178,
      175,
      164,
      150,
      153,
      151,
      152,
      105,
      184,
      234,
      263,
      262,
      291,
      290,
      309,
      368,
      375,
      396,
      408,
      416,
      431,
      442,
      451,
      460,
      470,
      480,
      487,
      491,
      487,
      485,
      486,
      484,
      485,
      483,
      483,
      482,
      483,
      481,
      482,
      479,
      481,
      478,
      479,
      477,
      479,
      477,
      478,
      477,
      477,
      478,
      478,
      479,
      478,
      479,
      479,
      483,
      483,
      486,
      486,
      492,
      495,
      496,
      499,
      500,
      500,
      501,
      501,
      502,
      503,
      504,
      505,
      505,
      506,
      506,
      505,
      505,
      505,
      504,
      504,
      503,
      502,
      501,
      501,
      501,
      502,
      502,
      502,
      502,
      504,
      505,
      506,
      506,
      507,
      507,
      507,
      508,
      509,
      510,
      510,
      511,
      511,
      509,
      508,
      508,
      511,
      512,
      513,
      514,
      515,
      516,
      516,
      518,
      518,
      518,
      519,
      520,
      521,
      521,
      522,
      520,
      517,
      516,
      517,
      518,
      520,
      524,
      526,
      524,
      521,
      521,
      508,
      523,
      525,
      527,
      528,
      530,
      531,
      531,
      531,
      530,
      528,
      526,
      525,
      525,
      526,
      526,
      525,
      523,
      522,
      521,
      521,
      520,
      516,
      515,
      516,
      517,
      524,
      523,
      522,
      522,
      526,
      527,
      528,
      530,
      533,
      537,
      538,
      539,
      542,
      546,
      549,
      549,
      534,
      530,
      529,
      520,
      518,
      516,
      516,
      515,
      513,
      509,
      511,
      513,
      514,
      515,
      515,
      514,
      512,
      509,
      507,
      505,
      503,
      502,
      501,
      501,
      500,
      500,
      500,
      500,
      502,
      505,
      510,
      512,
      511,
      512,
      516,
      517,
      517,
      516,
      515,
      514,
      512,
      514,
      523,
      508,
      505,
      488,
      479,
      463,
      446,
      430,
      416,
      419,
      412,
      410,
      403,
      390,
      353,
      344,
      331,
      331,
      315,
      308,
      300,
      296,
      285,
      285,
      262,
      249,
      232,
      228,
      220,
      221,
      209,
      203,
      185,
      182,
      169,
      167,
      132
    ],
    "swim:timestamps": [
      1786484148,
      1786484208,
      1786484269,
      1786484329,
      1786484389,
      1786484449,
      1786484509,
      1786484641,
      1786484701,
      1786484744,
      1786484761,
      1786484804,
      1786484821,
      1786484864,
      1786484881,
      1786484924,
      1786484941,
      1786484984,
      1786485001,
      1786485045,
      1786485062,
      1786485105,
      1786485122,
      1786485165,
      1786485194,
      1786485225,
      1786485254,
      1786485285,
      1786485314,
      1786485345,
      1786485374,
      1786485405,
      1786485434,
      1786485465,
      1786485494,
      1786485525,
      1786485554,
      1786485585,
      1786485614,
      1786485645,
      1786485674,
      1786485705,
      1786485734,
      1786485765,
      1786485794,
      1786485826,
      1786485855,
      1786485886,
      1786485946,
      1786485975,
      1786486006,
      1786486035,
      1786486066,
      1786486095,
      1786486126,
      1786486155,
      1786486186,
      1786486215,
      1786486246,
      1786486275,
      1786486306,
      1786486335,
      1786486366,
      1786486395,
      1786486426,
      1786486455,
      1786486486,
      1786486546,
      1786486607,
      1786486667,
      1786486727,
      1786486787,
      1786486847,
      1786486907,
      1786486967,
      1786487027,
      1786487087,
      1786487147,
      1786487207,
      1786487267,
      1786487327,
      1786487388,
      1786487448,
      1786487508,
      1786487568,
      1786487628,
      1786487688,
      1786487748,
      1786487808,
      1786487868,
      1786487928,
      1786487988,
      1786488048,
      1786488109,
      1786488169,
      1786488229,
      1786488289,
      1786488349,
      1786488409,
      1786488469,
      1786488529,
      1786488649,
      1786488709,
      1786488769,
      1786488829,
      1786488904,
      1786488950,
      1786488988,
      1786489010,
      1786489048,
      1786489070,
      1786489130,
      1786489169,
      1786489190,
      1786489229,
      1786489250,
      1786489283,
      1786489310,
      1786489349,
      1786489370,
      1786489430,
      1786489470,
      1786489490,
      1786489524,
      1786489550,
      1786489585,
      1786489610,
      1786489645,
      1786489670,
      1786489731,
      1786505118,
      1786505166,
      1786505226,
      1786505251,
      1786505286,
      1786505311,
      1786505371,
      1786505431,
      1786505491,
      1786505551,
      1786505611,
      1786505671,
      1786505731,
      1786505791,
      1786505851,
      1786505912,
      1786505972,
      1786506032,
      1786506092,
      1786506152,
      1786506212,
      1786506272,
      1786506292,
      1786506332,
      1786506352,
      1786506392,
      1786506412,
      1786506452,
      1786506472,
      1786506512,
      1786506532,
      1786506572,
      1786506592,
      1786506632,
      1786506652,
      1786506692,
      1786506712,
      1786506752,
      1786506772,
      1786506812,
      1786506832,
      1786506872,
      1786506892,
      1786506933,
      1786506952,
      1786506993,
      1786507012,
      1786507053,
      1786507072,
      1786507113,
      1786507132,
      1786507173,
      1786507233,
      1786507253,
      1786507293,
      1786507313,
      1786507353,
      1786507373,
      1786507413,
      1786507433,
      1786507473,
      1786507493,
      1786507533,
      1786507553,
      1786507593,
      1786507613,
      1786507653,
      1786507673,
      1786507713,
      1786507733,
      1786507773,
      1786507793,
      1786507833,
      1786507853,
      1786507893,
      1786507913,
      1786507953,
      1786507973,
      1786508013,
      1786508033,
      1786508093,
      1786508154,
      1786508214,
      1786508274,
      1786508334,
      1786508394,
      1786508454,
      1786508514,
      1786508574,
      1786508634,
      1786508694,
      1786508754,
      1786508814,
      1786508874,
      1786508934,
      1786508994,
      1786509054,
      1786509114,
      1786509175,
      1786509235,
      1786509295,
      1786509355,
      1786509415,
      1786509475,
      1786509535,
      1786509595,
      1786509655,
      1786509715,
      1786509775,
      1786509835,
      1786509895,
      1786509955,
      1786510015,
      1786510075,
      1786510135,
      1786510195,
      1786510256,
      1786510316,
      1786510376,
      1786510436,
      1786510556,
      1786510612,
      1786510672,
      1786510732,
      1786510792,
      1786510852,
      1786510912,
      1786510972,
      1786511032,
      1786511092,
      1786511152,
      1786511212,
      1786511272,
      1786511332,
      1786511392,
      1786511452,
      1786511512,
      1786511572,
      1786511632,
      1786511692,
      1786511752,
      1786511813,
      1786511873,
      1786511933,
      1786512053,
      1786512113,
      1786512173,
      1786512233,
      1786512293,
      1786512353,
      1786512413,
      1786512473,
      1786512533,
      1786512593,
      1786512653,
      1786512713,
      1786512773,
      1786512833,
      1786512893,
      1786512953,
      1786513013,
      1786513073,
      1786513133,
      1786513193,
      1786513253,
      1786513313,
      1786513373,
      1786513433,
      1786513493,
      1786513553,
      1786513613,
      1786513673,
      1786513734,
      1786513794,
      1786513854,
      1786513914,
      1786513974,
      1786514034,
      1786514094,
      1786514154,
      1786514214,
      1786514274,
      1786514334,
      1786514394,
      1786514454,
      1786514514,
      1786514574,
      1786514634,
      1786514694,
      1786514754,
      1786514814,
      1786514874,
      1786514934,
      1786514994,
      1786515054,
      1786515114,
      1786515120,
      1786515174,
      1786515234,
      1786515297,
      1786515357,
      1786515414,
      1786515477,
      1786515534,
      1786515594,
      1786515654,
      1786515717,
      1786515774,
      1786515834,
      1786515898,
      1786515960,
      1786516020,
      1786516078,
      1786516138,
      1786516177,
      1786516198,
      1786516231,
      1786516258,
      1786516286,
      1786516318,
      1786516346,
      1786516378,
      1786516406,
      1786516440,
      1786516460,
      1786516500,
      1786516526,
      1786516560,
      1786516592,
      1786516620,
      1786516652,
      1786516680,
      1786516712,
      1786516738,
      1786516778,
      1786516798,
      1786516838,
      1786516858,
      1786516898,
      1786516918,
      1786516964,
      1786516978,
      1786517038
    ],
    "wof:geomhash": "e2997bd78577279022ff6069251abecb",
    "wof:id": 2047931573,
    "wof:repo": "sfomuseum-data-flights-2026-08"
  },
  "bbox": [
    -122.73722222222223,
    37.63527777777778,
    -87.91277777777778,
    48.01694444444444
  ],
  "geometry": {"type":"LineString","coordinates":[[-122.41000000000001,37.63527777777778],[-122.36666666666666,37.68333333333333],[-122.28333333333333,37.7],[-122.21388888888889,37.730000000000004],[-122.22361111111111,37.80777777777777],[-122.25305555555556,37.8875],[-122.28305555555555,37.976111111111116],[-122.29194444444444,38.20111111111111],[-122.18805555555556,38.27916666666667],[-122.11027777777777,38.34583333333334],[-122.11611111111111,38.374722222222225],[-122.11777777777777,38.46472222222223],[-122.12472222222222,38.5175],[-122.1275,38.586666666666666],[-122.13222222222221,38.61555555555556],[-122.13722222222223,38.711111111111116],[-122.14083333333333,38.74111111111111],[-122.1463888888889,38.84],[-122.14972222222222,38.87305555555555],[-122.155,38.971944444444446],[-122.1588888888889,39.005833333333335],[-122.16305555555556,39.10638888888889],[-122.16805555555555,39.138888888888886],[-122.17305555555556,39.23777777777778],[-122.17944444444444,39.299166666666665],[-122.18333333333334,39.37166666666667],[-122.1888888888889,39.43527777777778],[-122.1913888888889,39.505833333333335],[-122.19972222222222,39.58694444444445],[-122.20138888888889,39.63861111111111],[-122.2088888888889,39.7175],[-122.21111111111111,39.769444444444446],[-122.21833333333333,39.85055555555556],[-122.22222222222223,39.901666666666664],[-122.22777777777777,39.981388888888894],[-122.23138888888889,40.032777777777774],[-122.23111111111112,40.109722222222224],[-122.21638888888889,40.18555555555555],[-122.2038888888889,40.237500000000004],[-122.18472222222222,40.31472222222222],[-122.17166666666667,40.3675],[-122.15222222222222,40.446666666666665],[-122.13861111111112,40.50194444444445],[-122.11916666666666,40.58222222222223],[-122.10583333333332,40.63666666666666],[-122.08638888888889,40.71611111111111],[-122.07388888888889,40.76833333333333],[-122.05416666666666,40.84861111111111],[-122.02194444444444,40.97972222222222],[-122.00861111111111,41.03388888888889],[-121.98972222222223,41.11083333333333],[-121.97583333333334,41.16638888888889],[-121.95472222222223,41.25138888888889],[-121.94333333333334,41.29722222222222],[-121.92194444444445,41.3825],[-121.90833333333335,41.43722222222222],[-121.88861111111112,41.51638888888889],[-121.87527777777777,41.569722222222225],[-121.85555555555555,41.64805555555556],[-121.84194444444444,41.7025],[-121.82166666666666,41.782222222222224],[-121.80777777777777,41.837500000000006],[-121.78777777777778,41.91583333333333],[-121.77333333333333,41.972500000000004],[-121.75416666666666,42.04861111111111],[-121.74583333333334,42.080555555555556],[-121.73555555555555,42.17972222222222],[-121.76194444444444,42.31111111111111],[-121.79333333333334,42.443888888888885],[-121.8236111111111,42.575],[-121.8536111111111,42.705000000000005],[-121.88305555555554,42.83305555555556],[-121.91222222222223,42.959722222222226],[-121.94194444444445,43.087500000000006],[-121.97194444444445,43.21611111111111],[-122.00472222222223,43.355555555555554],[-122.03555555555555,43.48638888888889],[-122.06611111111111,43.61472222222223],[-122.09666666666666,43.74388888888889],[-122.12722222222222,43.871944444444445],[-122.15833333333335,44.00138888888889],[-122.18916666666667,44.12888888888889],[-122.21361111111112,44.257222222222225],[-122.14861111111112,44.38055555555555],[-122.0213888888889,44.47666666666667],[-121.89083333333333,44.57277777777778],[-121.76444444444445,44.66555555555556],[-121.67333333333333,44.779444444444444],[-121.69444444444444,44.903888888888886],[-121.81416666666667,44.986666666666665],[-121.9625,45.03333333333333],[-122.1125,45.08027777777778],[-122.25444444444445,45.13527777777778],[-122.33138888888888,45.24194444444444],[-122.38944444444445,45.3575],[-122.44833333333334,45.472500000000004],[-122.5075,45.586666666666666],[-122.56888888888888,45.70472222222222],[-122.60972222222222,45.81944444444445],[-122.63777777777779,45.93416666666666],[-122.66527777777779,46.045833333333334],[-122.7125,46.27444444444444],[-122.72416666666666,46.38111111111111],[-122.72805555555556,46.487500000000004],[-122.73166666666667,46.587500000000006],[-122.73722222222223,46.715],[-122.73166666666667,46.78055555555555],[-122.68277777777779,46.83444444444444],[-122.6575,46.8525],[-122.59722222222221,46.89694444444444],[-122.57166666666666,46.91444444444444],[-122.48194444444445,46.973055555555554],[-122.44444444444444,47.01138888888889],[-122.42916666666667,47.02833333333333],[-122.39111111111112,47.07333333333334],[-122.37472222222222,47.093333333333334],[-122.35222222222221,47.12138888888889],[-122.34055555555555,47.14555555555555],[-122.32972222222222,47.18],[-122.32166666666666,47.198055555555555],[-122.31972222222223,47.2475],[-122.32055555555556,47.28],[-122.31944444444444,47.29666666666667],[-122.31916666666666,47.32416666666667],[-122.31888888888888,47.344166666666666],[-122.32055555555556,47.36888888888889],[-122.31861111111111,47.38583333333333],[-122.3175,47.41027777777778],[-122.31833333333333,47.42777777777778],[-122.31805555555555,47.45472222222222],[-122.30944444444444,47.47277777777778],[-122.31083333333333,47.5175],[-122.30916666666667,47.586111111111116],[-122.28527777777778,47.61138888888889],[-122.22277777777778,47.6175],[-122.17777777777778,47.602222222222224],[-122.06722222222221,47.56027777777778],[-121.93972222222223,47.511944444444445],[-121.80527777777777,47.46083333333333],[-121.65361111111112,47.427499999999995],[-121.50138888888888,47.41916666666666],[-121.32194444444444,47.39472222222222],[-121.15194444444445,47.3725],[-120.97555555555556,47.348888888888894],[-120.82944444444443,47.32916666666667],[-120.63527777777779,47.30222222222222],[-120.44722222222222,47.276944444444446],[-120.25722222222223,47.24916666666667],[-120.06083333333333,47.220555555555556],[-119.86555555555555,47.19194444444444],[-119.6713888888889,47.16361111111111],[-119.48166666666667,47.13527777777778],[-119.405,47.1225],[-119.28888888888889,47.10527777777778],[-119.21361111111112,47.0925],[-119.1,47.07638888888889],[-119.02416666666666,47.06333333333333],[-118.91027777777778,47.047777777777775],[-118.83388888888888,47.03472222222222],[-118.71972222222223,47.018055555555556],[-118.64472222222223,47.005],[-118.53055555555555,46.98833333333334],[-118.45694444444445,46.975833333333334],[-118.34444444444443,46.95861111111111],[-118.26972222222223,46.94499999999999],[-118.11916666666666,46.92222222222222],[-118.08111111111111,46.914722222222224],[-117.93138888888889,46.89138888888889],[-117.89555555555556,46.88472222222222],[-117.74666666666667,46.86083333333333],[-117.70805555555556,46.85333333333333],[-117.55777777777777,46.82888888888889],[-117.5213888888889,46.82166666666667],[-117.36972222222222,46.79722222222222],[-117.3325,46.78972222222222],[-117.18444444444445,46.76555555555556],[-117.14527777777778,46.75805555555556],[-116.99166666666667,46.74888888888889],[-116.95222222222222,46.7475],[-116.7936111111111,46.748333333333335],[-116.755,46.7475],[-116.59694444444445,46.7475],[-116.39722222222223,46.74666666666667],[-116.36,46.74638888888889],[-116.19527777777778,46.745],[-116.11722222222221,46.74444444444445],[-115.99027777777778,46.74305555555556],[-115.93722222222223,46.7425],[-115.79027777777777,46.740833333333335],[-115.73388888888888,46.74027777777778],[-115.58638888888889,46.73833333333334],[-115.53138888888888,46.737500000000004],[-115.38111111111111,46.73555555555556],[-115.32722222222222,46.734722222222224],[-115.20083333333334,46.7325],[-115.1236111111111,46.731388888888894],[-114.99888888888889,46.72888888888889],[-114.91972222222223,46.7275],[-114.75555555555556,46.72416666666667],[-114.71805555555555,46.723333333333336],[-114.55305555555556,46.71944444444445],[-114.51333333333334,46.718611111111116],[-114.35194444444444,46.71472222222223],[-114.31305555555555,46.71388888888889],[-114.14888888888889,46.709722222222226],[-114.11416666666666,46.70888888888889],[-113.94777777777779,46.70388888888889],[-113.91083333333334,46.70277777777778],[-113.74555555555555,46.6975],[-113.7088888888889,46.69611111111111],[-113.50555555555556,46.689166666666665],[-113.3,46.68194444444444],[-113.07111111111111,46.67333333333333],[-112.86638888888888,46.665],[-112.66333333333334,46.656666666666666],[-112.46166666666667,46.647777777777776],[-112.25611111111111,46.63861111111111],[-112.05361111111111,46.632777777777775],[-111.8475,46.62888888888889],[-111.6413888888889,46.624722222222225],[-111.4375,46.62027777777778],[-111.23388888888888,46.615833333333335],[-111.02694444444444,46.60916666666667],[-110.82583333333334,46.60055555555556],[-110.6236111111111,46.591944444444444],[-110.40583333333333,46.58277777777778],[-110.20166666666667,46.57361111111111],[-109.99416666666667,46.56388888888888],[-109.78777777777778,46.553888888888885],[-109.58027777777778,46.543055555555554],[-109.37249999999999,46.532222222222224],[-109.16555555555556,46.520833333333336],[-108.955,46.509166666666665],[-108.75,46.496944444444445],[-108.53833333333333,46.48444444444444],[-108.33333333333333,46.471944444444446],[-108.12249999999999,46.458333333333336],[-107.91305555555556,46.44472222222222],[-107.70444444444445,46.43055555555555],[-107.4961111111111,46.42222222222222],[-107.29138888888889,46.45388888888889],[-107.08638888888889,46.49],[-106.8863888888889,46.525277777777774],[-106.68722222222223,46.55972222222222],[-106.48361111111112,46.594722222222224],[-106.2775,46.629444444444445],[-106.07444444444444,46.66361111111111],[-105.86805555555554,46.69777777777777],[-105.66000000000001,46.731944444444444],[-105.44972222222222,46.76583333333333],[-105.03916666666666,46.83111111111111],[-104.875,46.85666666666667],[-104.67222222222223,46.88916666666667],[-104.43055555555556,46.92444444444444],[-104.25972222222222,46.95],[-104.05416666666666,46.98777777777778],[-103.84694444444445,47.028888888888886],[-103.6413888888889,47.06944444444445],[-103.43138888888889,47.11055555555556],[-103.18666666666667,47.158055555555556],[-102.98,47.19833333333333],[-102.77444444444444,47.23888888888889],[-102.56555555555555,47.28055555555555],[-102.36166666666666,47.32138888888889],[-102.15611111111112,47.36416666666667],[-101.95,47.407222222222224],[-101.7475,47.44972222222222],[-101.53944444444444,47.49333333333333],[-101.335,47.53666666666666],[-101.13361111111112,47.57972222222222],[-100.92777777777778,47.625277777777775],[-100.72416666666666,47.670833333333334],[-100.5213888888889,47.7175],[-100.32194444444444,47.764722222222225],[-99.9213888888889,47.86],[-99.72111111111111,47.908055555555556],[-99.51777777777778,47.95638888888889],[-99.31722222222221,48.00472222222222],[-99.10666666666665,48.01694444444444],[-98.91027777777778,47.952222222222225],[-98.71833333333333,47.88777777777778],[-98.52333333333333,47.82333333333334],[-98.32833333333333,47.75972222222222],[-98.1325,47.69833333333333],[-97.97166666666666,47.64861111111111],[-97.76583333333333,47.5825],[-97.56555555555555,47.51222222222222],[-97.36861111111111,47.44333333333333],[-97.17472222222223,47.37222222222222],[-96.98166666666667,47.29805555555556],[-96.78611111111111,47.223055555555554],[-96.59444444444443,47.149166666666666],[-96.3963888888889,47.072500000000005],[-96.21138888888889,46.99277777777778],[-96.06,46.88333333333333],[-95.91861111111112,46.774166666666666],[-95.77833333333334,46.66555555555556],[-95.63944444444445,46.5575],[-95.50222222222222,46.45],[-95.34944444444444,46.32944444444445],[-95.21416666666667,46.22222222222222],[-95.09277777777777,46.12555555555556],[-94.9575,46.01722222222222],[-94.8275,45.91222222222222],[-94.69361111111111,45.803888888888885],[-94.56,45.69499999999999],[-94.42777777777778,45.58722222222222],[-94.29527777777777,45.47833333333333],[-94.16361111111112,45.36972222222222],[-94.03166666666667,45.25972222222222],[-93.90416666666667,45.153055555555554],[-93.77527777777777,45.04472222222222],[-93.65,44.93888888888888],[-93.52388888888889,44.831944444444446],[-93.4,44.72666666666667],[-93.28,44.62388888888889],[-93.15805555555556,44.51833333333333],[-93.01083333333334,44.39111111111111],[-92.88722222222223,44.28361111111111],[-92.76527777777778,44.176944444444445],[-92.64305555555556,44.06944444444445],[-92.52277777777778,43.963055555555556],[-92.39972222222222,43.85416666666667],[-92.28083333333333,43.748333333333335],[-92.1588888888889,43.638888888888886],[-92.03388888888888,43.526666666666664],[-92.03388888888888,43.526666666666664],[-91.91055555555556,43.415],[-91.77916666666667,43.311388888888885],[-91.59833333333333,43.25361111111111],[-91.41416666666667,43.20111111111111],[-91.22694444444444,43.14805555555556],[-91.04527777777777,43.096111111111114],[-90.86222222222221,43.043055555555554],[-90.68277777777779,42.99111111111111],[-90.50194444444445,42.93833333333333],[-90.31916666666666,42.884166666666665],[-90.17500000000001,42.84138888888889],[-89.99916666666667,42.78916666666667],[-89.78999999999999,42.726111111111116],[-89.62444444444444,42.67611111111111],[-89.46361111111112,42.62694444444445],[-89.30888888888889,42.57944444444445],[-89.15805555555556,42.533055555555556],[-89.05,42.5],[-89.01583333333333,42.48888888888889],[-88.93333333333334,42.46666666666667],[-88.87444444444444,42.44499999999999],[-88.8,42.416666666666664],[-88.73583333333333,42.40138888888889],[-88.66666666666667,42.38333333333333],[-88.61027777777777,42.3725],[-88.55,42.36666666666667],[-88.49027777777778,42.355000000000004],[-88.45,42.333333333333336],[-88.42083333333333,42.28],[-88.4,42.25],[-88.37166666666666,42.20527777777778],[-88.35,42.166666666666664],[-88.32583333333334,42.135],[-88.3,42.1],[-88.28305555555555,42.07027777777778],[-88.26666666666667,42.03333333333333],[-88.24472222222222,42.0125],[-88.2,42],[-88.1738888888889,41.98388888888889],[-88.11666666666666,41.983333333333334],[-88.09583333333333,41.98361111111111],[-88.05,41.983333333333334],[-88.02666666666667,41.98388888888889],[-87.98333333333333,41.983333333333334],[-87.96444444444445,41.98388888888889],[-87.91277777777778,41.98388888888889]]}
}
