{
  "id": 2032087823,
  "type": "Feature",
  "properties": {
    "geom:area": 0,
    "geom:bbox": "-122.356260,36.862980,-121.928180,37.610810",
    "geom:latitude": 37.29379144021005,
    "geom:longitude": -122.08229955785842,
    "src:alt_label": "swim-approach",
    "src:geom": "swim",
    "swim:elevations": [
      4668,
      4223,
      4138,
      3602,
      3379,
      3198,
      3128,
      2960,
      2765,
      2549,
      2409,
      1997,
      1894,
      1796,
      1730,
      1448,
      1169,
      1054,
      927,
      861,
      680,
      589,
      456,
      303,
      274,
      101,
      32
    ],
    "swim:geom": "approach",
    "swim:timestamps": [
      1785780575,
      1785780622,
      1785780630,
      1785780680,
      1785780711,
      1785780745,
      1785780766,
      1785780806,
      1785780833,
      1785780865,
      1785780893,
      1785780957,
      1785780985,
      1785781014,
      1785781033,
      1785781091,
      1785781134,
      1785781165,
      1785781189,
      1785781203,
      1785781250,
      1785781271,
      1785781307,
      1785781345,
      1785781355,
      1785781399,
      1785781419
    ],
    "wof:geomhash": "8f1be2fff2108a189de5e6f3d7171ae3",
    "wof:id": 2032087823,
    "wof:repo": "sfomuseum-data-flights-2026-08"
  },
  "bbox": [
    -122.35626,
    36.86298,
    -121.92818,
    37.61081
  ],
  "geometry": {"type":"LineString","coordinates":[[-121.92818,36.86298],[-121.94957,36.93946],[-121.9532,36.95172],[-121.98304,37.02878],[-122.0002,37.07296],[-122.01788,37.11848],[-122.02856,37.14557],[-122.04595,37.19018],[-122.05798,37.22053],[-122.07215,37.25628],[-122.0796,37.28715],[-122.05813,37.35683],[-122.04974,37.385],[-122.04607,37.41359],[-122.04519,37.43187],[-122.07784,37.4802],[-122.11375,37.50824],[-122.14397,37.52157],[-122.16604,37.53084],[-122.17978,37.53658],[-122.22075,37.55397],[-122.23926,37.56166],[-122.26859,37.57395],[-122.29875,37.58666],[-122.30599,37.58981],[-122.34155,37.60454],[-122.35626,37.61081]]}
}
