{
  "id": 2048036891,
  "type": "Feature",
  "properties": {
    "geom:area": 0,
    "geom:bbox": "-122.357310,37.552930,-122.167470,37.613900",
    "geom:latitude": 37.58306830394671,
    "geom:longitude": -122.26253664062666,
    "src:alt_label": "swim-approach",
    "src:geom": "swim",
    "swim:elevations": [
      914,
      803,
      548,
      465,
      336,
      252,
      193,
      59,
      0
    ],
    "swim:geom": "approach",
    "swim:timestamps": [
      1786986698,
      1786986729,
      1786986775,
      1786986798,
      1786986835,
      1786986859,
      1786986876,
      1786986921,
      1786986930
    ],
    "wof:geomhash": "33fea0b7d3271885343f2f6112e088f9",
    "wof:id": 2048036891,
    "wof:repo": "sfomuseum-data-flights-2026-08"
  },
  "bbox": [
    -122.35731,
    37.55293,
    -122.16747,
    37.6139
  ],
  "geometry": {"type":"LineString","coordinates":[[-122.16747,37.55293],[-122.19863,37.563],[-122.24601,37.57831],[-122.26644,37.58476],[-122.29463,37.59302],[-122.31131,37.59778],[-122.32346,37.6014],[-122.35193,37.61133],[-122.35731,37.6139]]}
}
