{
  "id": 2032058341,
  "type": "Feature",
  "properties": {
    "geom:area": 0,
    "geom:bbox": "-122.360820,36.737440,-121.888080,37.612940",
    "geom:latitude": 37.22069124533949,
    "geom:longitude": -122.07378566690844,
    "src:alt_label": "swim-approach",
    "src:geom": "swim",
    "swim:elevations": [
      5142,
      4636,
      4118,
      4058,
      3742,
      3537,
      3172,
      3047,
      2794,
      2719,
      2443,
      2405,
      2121,
      1977,
      1584,
      1493,
      1291,
      1194,
      1008,
      929,
      764,
      685,
      615,
      478,
      331,
      261,
      155,
      71
    ],
    "swim:geom": "approach",
    "swim:timestamps": [
      1785588969,
      1785589021,
      1785589076,
      1785589089,
      1785589130,
      1785589149,
      1785589182,
      1785589224,
      1785589256,
      1785589268,
      1785589312,
      1785589327,
      1785589364,
      1785589388,
      1785589436,
      1785589450,
      1785589491,
      1785589506,
      1785589538,
      1785589557,
      1785589584,
      1785589616,
      1785589632,
      1785589661,
      1785589699,
      1785589720,
      1785589750,
      1785589787
    ],
    "wof:geomhash": "c3daa645c0701e375c6d2dade5e62040",
    "wof:id": 2032058341,
    "wof:repo": "sfomuseum-data-flights-2026-08"
  },
  "bbox": [
    -122.36082,
    36.73744,
    -121.88808,
    37.61294
  ],
  "geometry": {"coordinates":[[-121.88808,36.73744],[-121.91813,36.8272],[-121.9442,36.91994],[-121.95031,36.9419],[-121.97428,37.00625],[-121.98536,37.03522],[-122.00435,37.08359],[-122.02696,37.14116],[-122.044,37.18423],[-122.04972,37.19879],[-122.07203,37.25626],[-122.07957,37.27547],[-122.09726,37.32053],[-122.10906,37.35063],[-122.13116,37.41051],[-122.13724,37.42889],[-122.15306,37.47508],[-122.1583,37.49014],[-122.16815,37.51892],[-122.17692,37.53322],[-122.20003,37.5452],[-122.22657,37.55626],[-122.23886,37.56147],[-122.26306,37.57167],[-122.29347,37.58438],[-122.30954,37.59119],[-122.33392,37.60154],[-122.36082,37.61294]],"type":"LineString"}
}
