{
  "id": 2047903087,
  "type": "Feature",
  "properties": {
    "geom:area": 0,
    "geom:bbox": "-156.033333,19.733333,-104.751944,39.923611",
    "geom:latitude": 32.21306047484291,
    "geom:longitude": -131.31593947910156,
    "src:alt_label": "swim-path",
    "src:geom": "swim",
    "swim:altitudes": [
      "071",
      "088",
      "099",
      "101",
      "114",
      "129",
      "136",
      "157",
      "174",
      "195",
      "209",
      "223",
      "233",
      "242",
      "251",
      "257",
      "280",
      "292",
      "303",
      "316",
      "329",
      "340C",
      "340C",
      "340C",
      "340C",
      "340C",
      "340C",
      "340C",
      "340C",
      "340C",
      "340C",
      "340C",
      "340C",
      "340C",
      "340C",
      "340C",
      "340C",
      "340C",
      "340C",
      "340C",
      "340C",
      "340C",
      "340C",
      "340C",
      "340C",
      "340C",
      "340C",
      "340C",
      "340C",
      "340C",
      "340C",
      "340C",
      "340C",
      "340C",
      "340C",
      "340C",
      "340C",
      "340C",
      "340C",
      "340C",
      "340C",
      "340C",
      "340C",
      "340C",
      "340C",
      "340C",
      "340C",
      "340C",
      "340C",
      "340C",
      "340C",
      "340C",
      "340C",
      "340C",
      "340C",
      "340C",
      "340C",
      "340",
      "340",
      "340",
      "340",
      "349",
      "359C",
      "360C",
      "360C",
      "360C",
      "360C",
      "360C",
      "360C",
      "360C",
      "360C",
      "360C",
      "360C",
      "360C",
      "360C",
      "360C",
      "360C",
      "360C",
      "360C",
      "360C",
      "360C",
      "360C",
      "360C",
      "360C",
      "360C",
      "360C",
      "360C",
      "360C",
      "360C",
      "360C",
      "360C",
      "360C",
      "360C",
      "360C",
      "360C",
      "360C",
      "360C",
      "360C",
      "360C",
      "360C",
      "360C",
      "360C",
      "360C",
      "360C",
      "360C",
      "360C",
      "360C",
      "360C",
      "360C",
      "360C",
      "360C",
      "360C",
      "360C",
      "360C",
      "360C",
      "360C",
      "360C",
      "360C",
      "360C",
      "360C",
      "360C",
      "360C",
      "360C",
      "360C",
      "360C",
      "360C",
      "360C",
      "360C",
      "360C",
      "360C",
      "360C",
      "360C",
      "360C",
      "360C",
      "360C",
      "360C",
      "360C",
      "360C",
      "360C",
      "380",
      "380",
      "380",
      "380",
      "380",
      "380",
      "380",
      "380",
      "380",
      "380",
      "380",
      "380",
      "380",
      "380",
      "380T",
      "380T",
      "380T",
      "380T",
      "380T",
      "380T",
      "380T",
      "369T",
      "356T",
      "341T",
      "314T",
      "291T",
      "268T",
      "246T",
      "224T",
      "203T",
      "181T",
      "160T",
      "140T",
      "120T",
      "104T",
      "099T",
      "081T",
      "071T",
      "055T",
      "044T",
      "035T",
      "025T",
      "016T",
      "009T",
      "002",
      "001"
    ],
    "swim:geom": "path",
    "swim:speeds": [
      255,
      270,
      298,
      299,
      329,
      340,
      338,
      345,
      353,
      358,
      377,
      397,
      408,
      411,
      416,
      423,
      424,
      431,
      436,
      438,
      442,
      441,
      438,
      433,
      435,
      432,
      434,
      432,
      432,
      433,
      433,
      434,
      435,
      435,
      435,
      435,
      436,
      436,
      436,
      436,
      437,
      437,
      437,
      437,
      437,
      437,
      437,
      437,
      437,
      437,
      437,
      437,
      437,
      437,
      437,
      436,
      435,
      434,
      434,
      433,
      432,
      432,
      432,
      432,
      432,
      431,
      432,
      432,
      432,
      432,
      432,
      432,
      432,
      433,
      432,
      433,
      433,
      433,
      433,
      434,
      435,
      434,
      432,
      432,
      431,
      431,
      430,
      429,
      429,
      430,
      430,
      431,
      431,
      431,
      432,
      433,
      434,
      435,
      435,
      436,
      437,
      438,
      438,
      440,
      442,
      443,
      442,
      442,
      441,
      440,
      440,
      440,
      441,
      441,
      443,
      444,
      445,
      447,
      448,
      450,
      451,
      451,
      452,
      452,
      452,
      452,
      452,
      453,
      451,
      448,
      447,
      446,
      446,
      446,
      446,
      446,
      446,
      447,
      448,
      448,
      449,
      449,
      449,
      450,
      451,
      451,
      452,
      453,
      454,
      454,
      455,
      456,
      457,
      458,
      459,
      460,
      461,
      462,
      469,
      450,
      450,
      450,
      450,
      450,
      450,
      450,
      450,
      450,
      450,
      450,
      450,
      450,
      450,
      450,
      450,
      450,
      450,
      450,
      450,
      450,
      450,
      460,
      460,
      460,
      460,
      450,
      440,
      430,
      420,
      420,
      400,
      390,
      370,
      360,
      310,
      290,
      270,
      250,
      240,
      200,
      190,
      180,
      140,
      130,
      10
    ],
    "swim:timestamps": [
      1786301824,
      1786301885,
      1786301929,
      1786301945,
      1786302005,
      1786302050,
      1786302065,
      1786302125,
      1786302174,
      1786302245,
      1786302305,
      1786302365,
      1786302425,
      1786302483,
      1786302543,
      1786302606,
      1786302723,
      1786302783,
      1786302846,
      1786302903,
      1786302966,
      1786303023,
      1786303083,
      1786303144,
      1786303204,
      1786303266,
      1786303276,
      1786303327,
      1786303336,
      1786303396,
      1786303456,
      1786303516,
      1786303567,
      1786303576,
      1786303627,
      1786303636,
      1786303687,
      1786303696,
      1786303747,
      1786303756,
      1786303816,
      1786303867,
      1786303877,
      1786303927,
      1786303937,
      1786303997,
      1786304047,
      1786304057,
      1786304108,
      1786304117,
      1786304168,
      1786304177,
      1786304237,
      1786304288,
      1786304297,
      1786304357,
      1786304477,
      1786304537,
      1786304598,
      1786304658,
      1786304718,
      1786304778,
      1786304850,
      1786304910,
      1786304970,
      1786305030,
      1786305090,
      1786305150,
      1786305210,
      1786305270,
      1786305330,
      1786305391,
      1786305451,
      1786305511,
      1786305571,
      1786305631,
      1786305691,
      1786305751,
      1786305811,
      1786305871,
      1786305931,
      1786305991,
      1786306051,
      1786306112,
      1786306172,
      1786306232,
      1786306292,
      1786306352,
      1786306412,
      1786306472,
      1786306532,
      1786306592,
      1786306652,
      1786306712,
      1786306777,
      1786306832,
      1786306893,
      1786306957,
      1786307013,
      1786307073,
      1786307133,
      1786307197,
      1786307253,
      1786307313,
      1786307377,
      1786307437,
      1786307498,
      1786307558,
      1786307618,
      1786307678,
      1786307738,
      1786307798,
      1786307858,
      1786307918,
      1786307978,
      1786308038,
      1786308098,
      1786308158,
      1786308219,
      1786308279,
      1786308339,
      1786308399,
      1786308459,
      1786308519,
      1786308579,
      1786308639,
      1786308699,
      1786308759,
      1786308819,
      1786308880,
      1786308940,
      1786309000,
      1786309060,
      1786309120,
      1786309180,
      1786309240,
      1786309300,
      1786309360,
      1786309420,
      1786309480,
      1786309540,
      1786309601,
      1786309661,
      1786309721,
      1786309781,
      1786309841,
      1786309901,
      1786309961,
      1786310021,
      1786310081,
      1786310141,
      1786310201,
      1786310261,
      1786310322,
      1786310382,
      1786310442,
      1786310502,
      1786310562,
      1786310622,
      1786322523,
      1786322583,
      1786322644,
      1786322704,
      1786322764,
      1786322824,
      1786322884,
      1786322944,
      1786323004,
      1786323064,
      1786323125,
      1786323185,
      1786323245,
      1786323305,
      1786323365,
      1786323425,
      1786323485,
      1786323545,
      1786323666,
      1786323726,
      1786323786,
      1786323846,
      1786323907,
      1786323967,
      1786324027,
      1786324087,
      1786324147,
      1786324207,
      1786324268,
      1786324327,
      1786324388,
      1786324448,
      1786324508,
      1786324568,
      1786324629,
      1786324688,
      1786324749,
      1786324809,
      1786324869,
      1786324929,
      1786324989,
      1786325049,
      1786325109,
      1786325170,
      1786325230,
      1786325616
    ],
    "wof:geomhash": "57a58a40f34a0b52dc08cb410fa4926a",
    "wof:id": 2047903087,
    "wof:repo": "sfomuseum-data-flights-2026-08"
  },
  "bbox": [
    -156.03333333333333,
    19.733333333333334,
    -104.75194444444445,
    39.92361111111111
  ],
  "geometry": {"type":"LineString","coordinates":[[-104.75194444444445,39.92361111111111],[-104.83,39.87972222222222],[-104.9,39.85],[-104.92333333333333,39.845],[-105.03666666666666,39.84527777777778],[-105.13333333333334,39.85],[-105.15833333333335,39.84805555555556],[-105.28333333333333,39.85111111111111],[-105.4,39.85],[-105.54833333333333,39.85638888888889],[-105.6738888888889,39.85916666666667],[-105.82027777777778,39.85055555555556],[-105.96888888888888,39.83833333333334],[-106.10749999999999,39.82527777777778],[-106.25805555555556,39.812777777777775],[-106.41972222222223,39.79888888888889],[-106.715,39.775555555555556],[-106.87055555555555,39.76555555555556],[-107.01916666666666,39.75611111111111],[-107.1875,39.74388888888889],[-107.34694444444445,39.73277777777778],[-107.50305555555556,39.72083333333334],[-107.6575,39.70944444444445],[-107.8111111111111,39.698055555555555],[-107.96722222222222,39.68666666666666],[-108.1375,39.67305555555555],[-108.12277777777777,39.674166666666665],[-108.26222222222222,39.663333333333334],[-108.3086111111111,39.65972222222222],[-108.46361111111112,39.64722222222222],[-108.61916666666666,39.63444444444444],[-108.78138888888888,39.62083333333334],[-108.91250000000001,39.609722222222224],[-108.91250000000001,39.609722222222224],[-109.06916666666666,39.596111111111114],[-109.06916666666666,39.596111111111114],[-109.22333333333333,39.58277777777778],[-109.22583333333334,39.5825],[-109.37972222222221,39.56861111111112],[-109.38,39.56861111111112],[-109.53583333333333,39.55472222222222],[-109.69055555555556,39.540277777777774],[-109.69361111111111,39.540277777777774],[-109.84861111111111,39.525555555555556],[-109.84861111111111,39.525555555555556],[-110.00305555555556,39.51111111111111],[-110.15833333333335,39.49],[-110.15833333333335,39.49],[-110.31277777777777,39.46944444444445],[-110.31277777777777,39.46944444444445],[-110.4675,39.44888888888889],[-110.4675,39.44888888888889],[-110.62166666666666,39.42805555555555],[-110.7761111111111,39.407222222222224],[-110.7761111111111,39.40694444444444],[-110.93055555555556,39.38583333333333],[-111.23583333333333,39.34305555555556],[-111.41000000000001,39.318333333333335],[-111.56416666666667,39.29611111111111],[-111.71611111111112,39.27388888888889],[-111.86805555555554,39.25194444444445],[-112.00166666666667,39.231944444444444],[-112.18416666666667,39.20472222222222],[-112.33472222222221,39.18194444444444],[-112.48722222222223,39.15888888888889],[-112.63666666666667,39.13611111111111],[-112.78888888888889,39.11277777777778],[-112.93861111111111,39.08972222222222],[-113.08972222222222,39.066111111111105],[-113.24138888888889,39.0425],[-113.3913888888889,39.01861111111111],[-113.57222222222222,38.98972222222222],[-113.7213888888889,38.96555555555556],[-113.87222222222222,38.94083333333333],[-114.02333333333333,38.91611111111111],[-114.1738888888889,38.89111111111111],[-114.32333333333332,38.86611111111111],[-114.47500000000001,38.839444444444446],[-114.61888888888888,38.79666666666667],[-114.76333333333334,38.75611111111111],[-114.91027777777778,38.71805555555556],[-115.05805555555555,38.68583333333333],[-115.20722222222223,38.66027777777778],[-115.35666666666665,38.634166666666665],[-115.50861111111111,38.60777777777778],[-115.6575,38.58111111111111],[-115.80527777777777,38.55472222222222],[-115.95416666666667,38.52833333333333],[-116.10222222222221,38.50277777777778],[-116.25083333333333,38.4775],[-116.40027777777779,38.453611111111115],[-116.5525,38.42861111111111],[-116.70138888888889,38.40472222222222],[-116.84944444444444,38.38138888888889],[-117.00027777777778,38.3575],[-117.14777777777779,38.33388888888889],[-117.29472222222222,38.30916666666666],[-117.43972222222223,38.285],[-117.59416666666667,38.25972222222222],[-117.74333333333334,38.23527777777778],[-117.89666666666668,38.21055555555556],[-118.0475,38.178888888888885],[-118.19027777777778,38.138888888888886],[-118.33944444444444,38.103611111111114],[-118.49805555555555,38.09305555555556],[-118.65472222222223,38.080000000000005],[-118.80916666666667,38.06722222222223],[-118.96388888888889,38.05416666666667],[-119.11638888888888,38.04083333333333],[-119.26583333333333,38.027499999999996],[-119.4213888888889,38.01361111111111],[-119.575,37.999722222222225],[-119.73,37.98527777777778],[-119.88416666666667,37.97083333333334],[-120.04055555555556,37.95611111111111],[-120.19666666666667,37.94083333333333],[-120.35305555555556,37.925555555555555],[-120.50972222222222,37.91],[-120.66805555555555,37.89416666666666],[-120.82527777777777,37.878055555555555],[-120.98388888888888,37.861666666666665],[-121.14250000000001,37.845],[-121.30055555555555,37.82833333333333],[-121.46000000000001,37.81111111111111],[-121.6211111111111,37.79361111111111],[-121.77916666666667,37.77611111111111],[-121.93583333333333,37.75861111111111],[-122.09222222222222,37.740833333333335],[-122.24694444444445,37.71083333333333],[-122.37916666666666,37.6425],[-122.50888888888889,37.57055555555556],[-122.63833333333334,37.49944444444444],[-122.76722222222222,37.428888888888885],[-122.89416666666668,37.35888888888889],[-123.02333333333333,37.28722222222222],[-123.15027777777779,37.21666666666667],[-123.2786111111111,37.14527777777778],[-123.40666666666667,37.07333333333334],[-123.53277777777778,37.0025],[-123.66194444444444,36.92944444444444],[-123.7875,36.858333333333334],[-123.91583333333334,36.78527777777778],[-124.04277777777777,36.71277777777778],[-124.17027777777778,36.63972222222222],[-124.29694444444445,36.566944444444445],[-124.42444444444445,36.49333333333333],[-124.55111111111111,36.419999999999995],[-124.67805555555556,36.346111111111114],[-124.80444444444444,36.27194444444444],[-124.93055555555556,36.198055555555555],[-125.05777777777777,36.123333333333335],[-125.18305555555555,36.04944444444444],[-125.31083333333333,35.97361111111111],[-125.43805555555556,35.89805555555556],[-125.56388888888888,35.82277777777778],[-125.69111111111111,35.74638888888889],[-125.8175,35.67055555555555],[-125.94694444444445,35.595],[-126.08444444444444,35.53777777777778],[-152.31666666666666,23.166666666666668],[-152.43333333333334,23.1],[-152.55,23.033333333333335],[-152.66666666666666,22.966666666666665],[-152.76666666666668,22.883333333333333],[-152.86666666666667,22.8],[-152.96666666666667,22.7],[-153.06666666666666,22.616666666666667],[-153.16666666666666,22.533333333333335],[-153.26666666666668,22.45],[-153.36666666666667,22.366666666666667],[-153.46666666666667,22.283333333333335],[-153.56666666666666,22.2],[-153.66666666666666,22.1],[-153.75,22.016666666666666],[-153.85,21.933333333333334],[-153.95,21.85],[-154.05,21.766666666666666],[-154.25,21.583333333333332],[-154.35,21.5],[-154.45,21.416666666666668],[-154.55,21.333333333333332],[-154.65,21.25],[-154.75,21.15],[-154.85,21.066666666666666],[-154.95,20.983333333333334],[-155.05,20.9],[-155.15,20.816666666666666],[-155.23333333333332,20.733333333333334],[-155.33333333333334,20.65],[-155.41666666666666,20.566666666666666],[-155.5,20.483333333333334],[-155.58333333333334,20.416666666666668],[-155.66666666666666,20.333333333333332],[-155.75,20.266666666666666],[-155.81666666666666,20.216666666666665],[-155.86666666666667,20.15],[-155.93333333333334,20.083333333333332],[-155.96666666666667,20.033333333333335],[-156.01666666666668,19.983333333333334],[-156.01666666666668,19.933333333333334],[-156.01666666666668,19.866666666666667],[-156.03333333333333,19.816666666666666],[-156.03333333333333,19.783333333333335],[-156.03333333333333,19.75],[-156.03333333333333,19.733333333333334]]}
}
