{
  "id": 2047942283,
  "type": "Feature",
  "properties": {
    "geom:area": 0,
    "geom:bbox": "-122.760420,37.568540,-122.112510,38.396080",
    "geom:latitude": 37.849057346960564,
    "geom:longitude": -122.48544256306477,
    "src:alt_label": "swim-approach",
    "src:geom": "swim",
    "swim:elevations": [
      7498,
      7104,
      7038,
      6699,
      6319,
      6055,
      5718,
      5232,
      5075,
      4665,
      4434,
      4030,
      3689,
      3427,
      3353,
      3353,
      3323,
      3152,
      3059,
      2857,
      2705,
      2300,
      2194,
      1950,
      1723,
      1489,
      1257,
      836,
      753,
      570,
      293,
      170,
      61,
      0
    ],
    "swim:geom": "approach",
    "swim:timestamps": [
      1786539649,
      1786539684,
      1786539690,
      1786539721,
      1786539756,
      1786539781,
      1786539811,
      1786539855,
      1786539870,
      1786539907,
      1786539930,
      1786539975,
      1786540008,
      1786540036,
      1786540068,
      1786540094,
      1786540117,
      1786540160,
      1786540178,
      1786540210,
      1786540233,
      1786540275,
      1786540290,
      1786540321,
      1786540351,
      1786540381,
      1786540410,
      1786540466,
      1786540478,
      1786540504,
      1786540555,
      1786540578,
      1786540612,
      1786540622
    ],
    "wof:geomhash": "37e5bb4f66c1813b1ae61dc9da7d424f",
    "wof:id": 2047942283,
    "wof:repo": "sfomuseum-data-flights-2026-08"
  },
  "bbox": [
    -122.76042,
    37.56854,
    -122.11251,
    38.39608
  ],
  "geometry": {"type":"LineString","coordinates":[[-122.71967,38.39608],[-122.73751,38.332],[-122.74028,38.32194],[-122.75596,38.26577],[-122.76042,38.20255],[-122.74872,38.16056],[-122.73337,38.10759],[-122.71218,38.03357],[-122.70508,38.00884],[-122.68733,37.94746],[-122.67576,37.91057],[-122.62205,37.85154],[-122.57927,37.81097],[-122.54251,37.77588],[-122.50375,37.73907],[-122.4711,37.71425],[-122.43523,37.70504],[-122.37269,37.69126],[-122.34711,37.68555],[-122.30191,37.67554],[-122.26962,37.66869],[-122.21178,37.65652],[-122.19115,37.6521],[-122.1504,37.64333],[-122.11779,37.62529],[-122.11251,37.59559],[-122.13417,37.57306],[-122.20774,37.56854],[-122.22324,37.57052],[-122.25332,37.58062],[-122.30576,37.59607],[-122.32532,37.60201],[-122.35215,37.61131],[-122.35963,37.61435]]}
}
