{
  "id": 2047878501,
  "type": "Feature",
  "properties": {
    "geom:area": 0,
    "geom:bbox": "-122.403480,37.622500,-121.255270,38.127140",
    "geom:latitude": 37.89004846632742,
    "geom:longitude": -121.84668127150361,
    "src:alt_label": "swim-takeoff",
    "src:geom": "swim",
    "swim:elevations": [
      122,
      496,
      983,
      1205,
      2066,
      2264,
      2308,
      2774,
      2943,
      3308,
      3417,
      3446,
      3591,
      3691,
      3808,
      3968,
      4016,
      4113,
      4242,
      4372,
      4417,
      4634,
      6448,
      6705,
      7231
    ],
    "swim:geom": "takeoff",
    "swim:timestamps": [
      1786114656,
      1786114689,
      1786114733,
      1786114759,
      1786114840,
      1786114856,
      1786114860,
      1786114894,
      1786114906,
      1786114944,
      1786114959,
      1786114963,
      1786114987,
      1786115001,
      1786115011,
      1786115022,
      1786115026,
      1786115035,
      1786115044,
      1786115055,
      1786115060,
      1786115080,
      1786115237,
      1786115261,
      1786115321
    ],
    "wof:geomhash": "2d662557048a564fcdf0b30336d19e73",
    "wof:id": 2047878501,
    "wof:repo": "sfomuseum-data-flights-2026-08"
  },
  "bbox": [
    -122.40348,
    37.6225,
    -121.25527,
    38.12714
  ],
  "geometry": {"type":"LineString","coordinates":[[-122.38422,37.6225],[-122.40348,37.64032],[-122.37132,37.66488],[-122.34233,37.67352],[-122.23099,37.71229],[-122.20848,37.72119],[-122.20284,37.72383],[-122.15333,37.74886],[-122.1357,37.75814],[-122.07873,37.78785],[-122.05379,37.80079],[-122.04698,37.80429],[-122.00416,37.82607],[-121.97869,37.83913],[-121.95813,37.84974],[-121.93768,37.86037],[-121.92995,37.86443],[-121.91214,37.87375],[-121.89415,37.88308],[-121.87428,37.89359],[-121.86292,37.89964],[-121.82222,37.91908],[-121.46213,38.05275],[-121.40309,38.07402],[-121.25527,38.12714]]}
}
