{
  "id": 2047901035,
  "type": "Feature",
  "properties": {
    "geom:area": 0,
    "geom:bbox": "-122.526630,37.629150,-122.185970,38.504870",
    "geom:latitude": 38.02333349855221,
    "geom:longitude": -122.33557800032125,
    "src:alt_label": "swim-takeoff",
    "src:geom": "swim",
    "swim:elevations": [
      250,
      496,
      761,
      870,
      1039,
      1337,
      1680,
      2013,
      2115,
      2555,
      2648,
      3034,
      3276,
      3460,
      3740,
      3975,
      4028,
      4189,
      4534,
      5050,
      5366,
      5619,
      5827,
      6042,
      6127,
      6270,
      6454,
      6666,
      6807,
      6859
    ],
    "swim:geom": "takeoff",
    "swim:timestamps": [
      1786343035,
      1786343066,
      1786343097,
      1786343109,
      1786343127,
      1786343155,
      1786343187,
      1786343218,
      1786343227,
      1786343272,
      1786343281,
      1786343321,
      1786343357,
      1786343376,
      1786343403,
      1786343426,
      1786343430,
      1786343443,
      1786343471,
      1786343518,
      1786343545,
      1786343573,
      1786343591,
      1786343611,
      1786343623,
      1786343638,
      1786343659,
      1786343680,
      1786343695,
      1786343704
    ],
    "wof:geomhash": "359aa49ccecb2dbbd9f86c6ab1b7f9cf",
    "wof:id": 2047901035,
    "wof:repo": "sfomuseum-data-flights-2026-08"
  },
  "bbox": [
    -122.52663,
    37.62915,
    -122.18597,
    38.50487
  ],
  "geometry": {"type":"LineString","coordinates":[[-122.40008,37.62915],[-122.43071,37.64237],[-122.46621,37.65777],[-122.48205,37.6646],[-122.5049,37.67532],[-122.52476,37.7051],[-122.52663,37.74565],[-122.52513,37.78601],[-122.51958,37.7974],[-122.45407,37.83271],[-122.44105,37.84052],[-122.40192,37.88976],[-122.36993,37.93868],[-122.35273,37.96535],[-122.32745,38.00458],[-122.30536,38.03902],[-122.30191,38.04444],[-122.28873,38.06496],[-122.26212,38.10581],[-122.21655,38.177],[-122.19965,38.22239],[-122.19518,38.27005],[-122.19344,38.30163],[-122.19204,38.33634],[-122.1915,38.35766],[-122.19099,38.38439],[-122.18947,38.42173],[-122.18774,38.46058],[-122.18663,38.48873],[-122.18597,38.50487]]}
}
