{
  "id": 2047959979,
  "type": "Feature",
  "properties": {
    "geom:area": 0,
    "geom:bbox": "-125.888333,35.630833,-122.400000,37.667500",
    "geom:latitude": 36.70240987422399,
    "geom:longitude": -124.18487079506573,
    "src:alt_label": "swim-path",
    "src:geom": "swim",
    "swim:altitudes": [
      "008",
      "026",
      "042",
      "070",
      "097",
      "116",
      "135",
      "158",
      "179",
      "199",
      "216",
      "236",
      "254",
      "272",
      "284",
      "300",
      "302C",
      "312",
      "326",
      "327C",
      "337",
      "340",
      "340C",
      "340",
      "340C",
      "340C",
      "340",
      "339C",
      "340",
      "340C",
      "340",
      "340C",
      "340C",
      "340",
      "340C",
      "340C",
      "340C",
      "340C",
      "340C"
    ],
    "swim:geom": "path",
    "swim:speeds": [
      194,
      194,
      248,
      267,
      281,
      311,
      351,
      364,
      377,
      392,
      410,
      422,
      433,
      441,
      452,
      465,
      460,
      474,
      481,
      480,
      485,
      490,
      486,
      490,
      486,
      486,
      490,
      485,
      480,
      484,
      480,
      483,
      484,
      480,
      484,
      484,
      485,
      486,
      489
    ],
    "swim:timestamps": [
      1786655500,
      1786655543,
      1786655603,
      1786655663,
      1786655723,
      1786655783,
      1786655843,
      1786655903,
      1786655963,
      1786656023,
      1786656084,
      1786656144,
      1786656204,
      1786656264,
      1786656324,
      1786656384,
      1786656393,
      1786656444,
      1786656504,
      1786656513,
      1786656564,
      1786656573,
      1786656624,
      1786656633,
      1786656684,
      1786656744,
      1786656753,
      1786656805,
      1786656813,
      1786656865,
      1786656873,
      1786656925,
      1786656985,
      1786656993,
      1786657045,
      1786657105,
      1786657165,
      1786657225,
      1786657285
    ],
    "wof:geomhash": "98ae2ae612522a018be0146cc93708fc",
    "wof:id": 2047959979,
    "wof:repo": "sfomuseum-data-flights-2026-08"
  },
  "bbox": [
    -125.88833333333334,
    35.630833333333335,
    -122.4,
    37.6675
  ],
  "geometry": {"type":"LineString","coordinates":[[-122.4,37.63333333333333],[-122.43555555555555,37.64527777777778],[-122.50916666666667,37.6675],[-122.58555555555554,37.62222222222222],[-122.66388888888889,37.57527777777778],[-122.75805555555556,37.53666666666666],[-122.86388888888888,37.49138888888889],[-122.97666666666667,37.44277777777778],[-123.0911111111111,37.3925],[-123.20805555555556,37.33555555555556],[-123.32,37.266666666666666],[-123.43805555555556,37.19416666666666],[-123.55611111111111,37.12138888888889],[-123.67916666666667,37.04527777777778],[-123.77833333333334,36.98388888888889],[-123.93,36.88916666666667],[-123.93333333333334,36.86666666666667],[-124.05972222222222,36.80833333333333],[-124.19166666666668,36.72555555555556],[-124.2,36.7],[-124.32472222222222,36.64138888888889],[-124.33333333333333,36.61666666666667],[-124.4575,36.55777777777777],[-124.46666666666667,36.53333333333333],[-124.58805555555556,36.474722222222226],[-124.71944444444445,36.39083333333333],[-124.73333333333333,36.36666666666667],[-124.85,36.30722222222222],[-124.85,36.266666666666666],[-124.98166666666667,36.222500000000004],[-124.98333333333333,36.18333333333333],[-125.1111111111111,36.138888888888886],[-125.24027777777778,36.055277777777775],[-125.23333333333333,36.016666666666666],[-125.36722222222221,35.97277777777778],[-125.49888888888889,35.886944444444445],[-125.62833333333333,35.80222222222222],[-125.75972222222222,35.715833333333336],[-125.88833333333334,35.630833333333335]]}
}
