{
  "id": 2047997951,
  "type": "Feature",
  "properties": {
    "geom:area": 0,
    "geom:bbox": "-122.544140,36.755910,-121.350800,37.661960",
    "geom:latitude": 37.21892922571277,
    "geom:longitude": -122.0257769834179,
    "src:alt_label": "swim-takeoff",
    "src:geom": "swim",
    "swim:elevations": [
      152,
      699,
      828,
      1035,
      1563,
      2022,
      2183,
      2711,
      3226,
      3355,
      3413,
      3778,
      3966,
      4281,
      4916,
      5222,
      5459,
      5810,
      5966,
      6234,
      6795,
      7023,
      7181,
      7570,
      7817,
      8173,
      8274,
      8753,
      8839,
      8839,
      8839,
      8839
    ],
    "swim:geom": "takeoff",
    "swim:timestamps": [
      1786903929,
      1786903977,
      1786903988,
      1786904011,
      1786904067,
      1786904094,
      1786904103,
      1786904141,
      1786904179,
      1786904198,
      1786904209,
      1786904245,
      1786904263,
      1786904288,
      1786904334,
      1786904361,
      1786904383,
      1786904416,
      1786904433,
      1786904463,
      1786904517,
      1786904539,
      1786904558,
      1786904606,
      1786904626,
      1786904663,
      1786904673,
      1786904721,
      1786904749,
      1786904776,
      1786904817,
      1786904825
    ],
    "wof:geomhash": "506f2b419acc24f3f61f1b393bad52aa",
    "wof:id": 2047997951,
    "wof:repo": "sfomuseum-data-flights-2026-08"
  },
  "bbox": [
    -122.54414,
    36.75591,
    -121.3508,
    37.66196
  ],
  "geometry": {"type":"LineString","coordinates":[[-122.39483,37.627],[-122.44012,37.64659],[-122.45104,37.65136],[-122.47553,37.66196],[-122.54414,37.64362],[-122.53895,37.61007],[-122.53366,37.59968],[-122.50904,37.55469],[-122.48452,37.50767],[-122.46572,37.48486],[-122.45081,37.47339],[-122.3944,37.4375],[-122.36528,37.41873],[-122.32519,37.39299],[-122.2491,37.34444],[-122.20425,37.31561],[-122.16642,37.29125],[-122.10939,37.2543],[-122.07976,37.23506],[-122.02654,37.20044],[-121.92784,37.13616],[-121.88825,37.11036],[-121.8534,37.08762],[-121.76081,37.02693],[-121.72314,37.00199],[-121.65284,36.95559],[-121.63446,36.94348],[-121.5443,36.88399],[-121.49241,36.84961],[-121.44114,36.81572],[-121.36372,36.76448],[-121.3508,36.75591]]}
}
