{
  "id": 2047917833,
  "type": "Feature",
  "properties": {
    "geom:area": 0,
    "geom:bbox": "-119.702500,39.358056,-81.703056,43.095556",
    "geom:latitude": 41.64051427760896,
    "geom:longitude": -100.58402004300343,
    "src:alt_label": "swim-path",
    "src:geom": "swim",
    "swim:altitudes": [
      "350C",
      "350C",
      "350C",
      "350C",
      "350C",
      "350C",
      "350C",
      "350C",
      "350C",
      "350C",
      "350C",
      "350C",
      "350C",
      "350C",
      "350C",
      "350C",
      "350C",
      "350C",
      "350C",
      "350C",
      "350C",
      "350C",
      "350C",
      "350C",
      "350C",
      "350C",
      "350C",
      "350C",
      "350C",
      "350C",
      "350C",
      "350C",
      "350C",
      "350C",
      "350C",
      "350C",
      "350C",
      "350C",
      "350C",
      "350C",
      "350C",
      "350C",
      "350C",
      "350C",
      "350C",
      "350C",
      "350C",
      "350C",
      "350C",
      "350C",
      "350C",
      "350C",
      "350C",
      "350C",
      "350C",
      "350C",
      "350C",
      "350C",
      "350C",
      "350C",
      "350C",
      "350C",
      "350C",
      "350C",
      "350C",
      "350C",
      "350C",
      "350",
      "352",
      "359",
      "360",
      "367",
      "369C",
      "370C",
      "370C",
      "370C",
      "370C",
      "370C",
      "370C",
      "370C",
      "370C",
      "370C",
      "370C",
      "370C",
      "370C",
      "370C",
      "370C",
      "370C",
      "370C",
      "370C",
      "370C",
      "370C",
      "370C",
      "370C",
      "370C",
      "370C",
      "370C",
      "370C",
      "370C",
      "370C",
      "370C",
      "370C",
      "370C",
      "370C",
      "370C",
      "370C",
      "370C",
      "370C",
      "370C",
      "370C",
      "370C",
      "370C",
      "370C",
      "370C",
      "370C",
      "370C",
      "370C",
      "370C",
      "370C",
      "370C",
      "370C",
      "370C",
      "370C",
      "370C",
      "370C",
      "370C",
      "370C",
      "370C",
      "370C",
      "370C",
      "370C",
      "370C",
      "370C",
      "370C",
      "370C",
      "370C",
      "370C",
      "370C",
      "370C",
      "370C",
      "370C",
      "370C",
      "370C",
      "370C",
      "370C",
      "370C",
      "370C",
      "370C",
      "370C",
      "370C",
      "370C",
      "370C",
      "370C",
      "370C",
      "370C",
      "370C",
      "370C",
      "370C",
      "370C",
      "370C",
      "370C",
      "370C",
      "370C",
      "370C",
      "370C",
      "370C",
      "370C",
      "370C",
      "370C",
      "370C",
      "370C",
      "370C",
      "370C",
      "370C",
      "370C",
      "370C",
      "370C",
      "370C",
      "370C",
      "370C",
      "370C",
      "370C",
      "370C",
      "370C",
      "370C",
      "370C",
      "370C",
      "370C",
      "370C",
      "370C",
      "370C",
      "370C",
      "370C",
      "370C",
      "370C",
      "370C",
      "370C",
      "370C",
      "370C",
      "370C",
      "370C",
      "370C",
      "370C",
      "370C",
      "370C",
      "370C",
      "370C",
      "370C",
      "370C",
      "370C",
      "370C",
      "370C",
      "370C",
      "370C",
      "370C",
      "370C",
      "370C",
      "370C",
      "370C",
      "370C",
      "370C",
      "370C",
      "370C",
      "370C",
      "370C",
      "370C",
      "370C",
      "370C",
      "370",
      "370",
      "370",
      "370",
      "370",
      "370",
      "370",
      "365",
      "360",
      "356",
      "350",
      "346",
      "341",
      "337",
      "330C",
      "330C",
      "330C",
      "330C",
      "330C",
      "330",
      "328",
      "323",
      "318",
      "313",
      "308",
      "302",
      "298",
      "292",
      "288",
      "282",
      "278",
      "272",
      "270",
      "268",
      "258",
      "258",
      "248",
      "233",
      "214",
      "208",
      "205",
      "191",
      "184",
      "169",
      "162",
      "148",
      "142",
      "130",
      "124",
      "113",
      "107",
      "100",
      "100",
      "094",
      "086",
      "075",
      "068",
      "060",
      "054",
      "052",
      "050",
      "045",
      "042",
      "038",
      "034",
      "027",
      "023",
      "018",
      "015",
      "011"
    ],
    "swim:geom": "path",
    "swim:speeds": [
      510,
      509,
      510,
      509,
      509,
      515,
      512,
      511,
      509,
      509,
      510,
      510,
      511,
      511,
      514,
      514,
      513,
      512,
      512,
      512,
      511,
      511,
      511,
      512,
      514,
      515,
      516,
      517,
      518,
      519,
      519,
      519,
      519,
      520,
      519,
      519,
      518,
      517,
      517,
      518,
      518,
      520,
      522,
      523,
      523,
      524,
      526,
      527,
      528,
      528,
      528,
      527,
      526,
      526,
      526,
      527,
      526,
      525,
      524,
      522,
      520,
      520,
      520,
      521,
      522,
      527,
      524,
      526,
      524,
      526,
      524,
      525,
      525,
      525,
      525,
      527,
      526,
      528,
      528,
      529,
      529,
      527,
      526,
      525,
      524,
      524,
      523,
      521,
      521,
      519,
      518,
      516,
      516,
      516,
      516,
      517,
      517,
      517,
      518,
      518,
      517,
      517,
      517,
      516,
      515,
      513,
      512,
      512,
      511,
      512,
      513,
      517,
      519,
      522,
      524,
      524,
      524,
      523,
      522,
      521,
      520,
      519,
      517,
      515,
      513,
      511,
      509,
      507,
      506,
      505,
      505,
      506,
      506,
      506,
      505,
      504,
      504,
      503,
      503,
      501,
      498,
      497,
      497,
      497,
      496,
      495,
      494,
      496,
      498,
      499,
      500,
      494,
      491,
      486,
      483,
      481,
      480,
      476,
      480,
      480,
      486,
      488,
      489,
      490,
      493,
      496,
      497,
      499,
      499,
      503,
      503,
      506,
      507,
      510,
      510,
      514,
      516,
      515,
      508,
      506,
      493,
      489,
      488,
      488,
      489,
      490,
      491,
      492,
      493,
      494,
      494,
      495,
      495,
      495,
      495,
      494,
      494,
      493,
      493,
      493,
      493,
      493,
      493,
      492,
      492,
      492,
      491,
      490,
      491,
      493,
      494,
      495,
      499,
      503,
      506,
      508,
      509,
      510,
      511,
      512,
      525,
      524,
      523,
      522,
      520,
      518,
      514,
      512,
      519,
      525,
      528,
      525,
      526,
      525,
      526,
      525,
      527,
      528,
      528,
      527,
      525,
      525,
      525,
      522,
      521,
      521,
      520,
      520,
      518,
      517,
      514,
      507,
      502,
      502,
      499,
      491,
      490,
      489,
      485,
      484,
      483,
      484,
      475,
      475,
      464,
      454,
      438,
      429,
      428,
      427,
      413,
      409,
      400,
      397,
      386,
      377,
      369,
      369,
      361,
      344,
      320,
      313,
      304,
      308,
      306,
      305,
      287,
      266,
      238,
      235,
      214,
      208,
      202,
      202,
      178,
      158,
      150,
      153
    ],
    "swim:timestamps": [
      1786431661,
      1786431713,
      1786431721,
      1786431773,
      1786431833,
      1786431893,
      1786431954,
      1786432014,
      1786432022,
      1786432082,
      1786432134,
      1786432142,
      1786432194,
      1786432202,
      1786432314,
      1786432322,
      1786432374,
      1786432382,
      1786432434,
      1786432494,
      1786432502,
      1786432554,
      1786432562,
      1786432614,
      1786432674,
      1786432682,
      1786432734,
      1786432742,
      1786432802,
      1786432854,
      1786432914,
      1786432974,
      1786433034,
      1786433094,
      1786433154,
      1786433214,
      1786433274,
      1786433334,
      1786433395,
      1786433455,
      1786433515,
      1786433575,
      1786433635,
      1786433695,
      1786433755,
      1786433815,
      1786433875,
      1786433935,
      1786433995,
      1786434055,
      1786434115,
      1786434175,
      1786434235,
      1786434295,
      1786434355,
      1786434415,
      1786434475,
      1786434535,
      1786434595,
      1786434655,
      1786434716,
      1786434776,
      1786434836,
      1786434896,
      1786434956,
      1786435007,
      1786435016,
      1786435067,
      1786435076,
      1786435127,
      1786435136,
      1786435187,
      1786435196,
      1786435247,
      1786435256,
      1786435307,
      1786435316,
      1786435367,
      1786435376,
      1786435427,
      1786435436,
      1786435496,
      1786435548,
      1786435556,
      1786435608,
      1786435616,
      1786435668,
      1786435728,
      1786435736,
      1786435788,
      1786435796,
      1786435856,
      1786435908,
      1786435916,
      1786435968,
      1786436036,
      1786436088,
      1786436096,
      1786436148,
      1786436208,
      1786436268,
      1786436328,
      1786436388,
      1786436448,
      1786436508,
      1786436568,
      1786436628,
      1786436688,
      1786436748,
      1786436808,
      1786436868,
      1786436928,
      1786436988,
      1786437048,
      1786437109,
      1786437169,
      1786437229,
      1786437289,
      1786437349,
      1786437409,
      1786437469,
      1786437529,
      1786437589,
      1786437649,
      1786437709,
      1786437769,
      1786437829,
      1786437889,
      1786437949,
      1786438009,
      1786438069,
      1786438129,
      1786438189,
      1786438248,
      1786438309,
      1786438369,
      1786438428,
      1786438489,
      1786438549,
      1786438609,
      1786438669,
      1786438729,
      1786438789,
      1786438849,
      1786438909,
      1786438969,
      1786439029,
      1786439089,
      1786439149,
      1786439209,
      1786439269,
      1786439329,
      1786439389,
      1786439449,
      1786439509,
      1786439569,
      1786439629,
      1786439671,
      1786439689,
      1786439730,
      1786439789,
      1786439809,
      1786439849,
      1786439870,
      1786439930,
      1786439969,
      1786439990,
      1786440030,
      1786440050,
      1786440090,
      1786440110,
      1786440149,
      1786440170,
      1786440210,
      1786440230,
      1786440290,
      1786440332,
      1786440350,
      1786440389,
      1786440410,
      1786440449,
      1786440470,
      1786440509,
      1786440530,
      1786440571,
      1786440590,
      1786440631,
      1786440650,
      1786440689,
      1786440710,
      1786440749,
      1786440770,
      1786440810,
      1786440830,
      1786440870,
      1786440890,
      1786440930,
      1786440950,
      1786440990,
      1786441010,
      1786441049,
      1786441070,
      1786441109,
      1786441130,
      1786441169,
      1786441190,
      1786441230,
      1786441291,
      1786441352,
      1786441409,
      1786441469,
      1786441529,
      1786441589,
      1786441650,
      1786441710,
      1786441770,
      1786441830,
      1786441890,
      1786441952,
      1786442010,
      1786442070,
      1786442130,
      1786442190,
      1786442251,
      1786442312,
      1786442372,
      1786442432,
      1786442492,
      1786442552,
      1786442612,
      1786442643,
      1786442670,
      1786442703,
      1786442730,
      1786442763,
      1786442790,
      1786442823,
      1786442851,
      1786442883,
      1786442911,
      1786442943,
      1786442971,
      1786443003,
      1786443031,
      1786443064,
      1786443091,
      1786443124,
      1786443151,
      1786443184,
      1786443211,
      1786443244,
      1786443271,
      1786443304,
      1786443332,
      1786443364,
      1786443392,
      1786443424,
      1786443452,
      1786443484,
      1786443512,
      1786443529,
      1786443544,
      1786443595,
      1786443604,
      1786443664,
      1786443724,
      1786443785,
      1786443800,
      1786443806,
      1786443845,
      1786443866,
      1786443905,
      1786443926,
      1786443965,
      1786443986,
      1786444025,
      1786444046,
      1786444085,
      1786444106,
      1786444145,
      1786444166,
      1786444205,
      1786444226,
      1786444265,
      1786444286,
      1786444325,
      1786444346,
      1786444385,
      1786444406,
      1786444446,
      1786444467,
      1786444506,
      1786444527,
      1786444566,
      1786444587,
      1786444626,
      1786444647,
      1786444686
    ],
    "wof:geomhash": "4c66de23fb2dd9020a76cae77ec5ae8c",
    "wof:id": 2047917833,
    "wof:repo": "sfomuseum-data-flights-2026-08"
  },
  "bbox": [
    -119.7025,
    39.35805555555556,
    -81.70305555555557,
    43.095555555555556
  ],
  "geometry": {"type":"LineString","coordinates":[[-119.7025,39.35805555555556],[-119.58833333333332,39.42611111111111],[-119.55638888888889,39.443888888888885],[-119.44055555555556,39.51166666666666],[-119.29527777777777,39.59805555555556],[-119.14416666666668,39.684999999999995],[-118.99916666666667,39.76888888888889],[-118.84833333333333,39.85583333333334],[-118.81805555555555,39.87277777777778],[-118.65527777777778,39.942499999999995],[-118.52694444444444,39.99472222222222],[-118.49027777777778,40.00972222222222],[-118.36138888888888,40.06166666666666],[-118.32527777777777,40.07638888888889],[-118.03333333333333,40.19333333333333],[-117.99416666666667,40.206944444444446],[-117.86138888888888,40.24666666666667],[-117.82416666666666,40.257777777777775],[-117.68972222222223,40.29805555555556],[-117.51555555555555,40.349722222222226],[-117.47972222222222,40.36027777777778],[-117.34166666666667,40.401111111111106],[-117.30583333333333,40.41166666666666],[-117.16638888888889,40.4525],[-116.98916666666666,40.50388888888889],[-116.94833333333334,40.51583333333333],[-116.80444444444444,40.55722222222222],[-116.76638888888888,40.568333333333335],[-116.62416666666665,40.60916666666667],[-116.44638888888889,40.65972222222222],[-116.26777777777778,40.71027777777778],[-116.09166666666667,40.76],[-115.91305555555556,40.80972222222222],[-115.73166666666667,40.86],[-115.55361111111111,40.909166666666664],[-115.3761111111111,40.95777777777778],[-115.19861111111112,41.005833333333335],[-115.01833333333333,41.05416666666667],[-114.8411111111111,41.10166666666667],[-114.6525,41.151944444444446],[-114.47027777777778,41.19972222222222],[-114.28722222222223,41.2475],[-114.10499999999999,41.294999999999995],[-113.92222222222223,41.341944444444444],[-113.7363888888889,41.376111111111115],[-113.54416666666667,41.401111111111106],[-113.35055555555554,41.42583333333333],[-113.15972222222223,41.44944444444444],[-112.96416666666667,41.47361111111111],[-112.77027777777778,41.49722222222222],[-112.58027777777778,41.519999999999996],[-112.38611111111112,41.54222222222222],[-112.1888888888889,41.56222222222222],[-112.03388888888888,41.57805555555556],[-111.84138888888889,41.59805555555556],[-111.64472222222223,41.617777777777775],[-111.45333333333333,41.636944444444445],[-111.25638888888889,41.655833333333334],[-111.06416666666667,41.67388888888889],[-110.85749999999999,41.68944444444444],[-110.66527777777779,41.69499999999999],[-110.47166666666666,41.70055555555556],[-110.27944444444444,41.70583333333334],[-110.08222222222221,41.71083333333333],[-109.8888888888889,41.71555555555556],[-109.73361111111112,41.71888888888889],[-109.69388888888889,41.72],[-109.53611111111111,41.723055555555554],[-109.49722222222222,41.723888888888894],[-109.3425,41.72694444444445],[-109.30111111111111,41.72777777777778],[-109.14361111111111,41.730555555555554],[-109.10249999999999,41.73111111111111],[-108.94722222222222,41.73361111111111],[-108.9038888888889,41.73416666666667],[-108.74666666666667,41.73638888888889],[-108.70722222222223,41.736666666666665],[-108.55111111111111,41.73861111111111],[-108.51,41.73916666666667],[-108.35249999999999,41.740833333333335],[-108.31222222222222,41.74111111111111],[-108.11749999999999,41.74277777777778],[-107.96138888888889,41.74388888888889],[-107.9225,41.744166666666665],[-107.77277777777778,41.745],[-107.72666666666667,41.74527777777778],[-107.5736111111111,41.745555555555555],[-107.38138888888888,41.74611111111111],[-107.34194444444444,41.74611111111111],[-107.18861111111111,41.74611111111111],[-107.15083333333334,41.74611111111111],[-106.95916666666668,41.74583333333334],[-106.80833333333334,41.74527777777778],[-106.76722222222222,41.74527777777778],[-106.61555555555555,41.74444444444445],[-106.41166666666668,41.74305555555556],[-106.21972222222223,41.74166666666667],[-106.21972222222223,41.74166666666667],[-106.02916666666667,41.73972222222222],[-105.83555555555554,41.737500000000004],[-105.64500000000001,41.73527777777778],[-105.45527777777778,41.73222222222223],[-105.26444444444445,41.72916666666667],[-105.07388888888889,41.725833333333334],[-104.88527777777779,41.721944444444446],[-104.69666666666667,41.71805555555556],[-104.50777777777778,41.71361111111111],[-104.31888888888888,41.70888888888889],[-104.13027777777778,41.70388888888889],[-103.93972222222223,41.698611111111106],[-103.75055555555555,41.69305555555555],[-103.55972222222222,41.68722222222222],[-103.36583333333333,41.68083333333333],[-103.1713888888889,41.674166666666665],[-102.97833333333334,41.66694444444444],[-102.78333333333333,41.65972222222222],[-102.5911111111111,41.651944444444446],[-102.38666666666667,41.64333333333333],[-102.19361111111111,41.63527777777778],[-102.00277777777778,41.626666666666665],[-101.80805555555555,41.617777777777775],[-101.61666666666666,41.60861111111111],[-101.42666666666668,41.598888888888894],[-101.23722222222223,41.58916666666667],[-101.0461111111111,41.578611111111115],[-100.85833333333333,41.568333333333335],[-100.67,41.558055555555555],[-100.4825,41.54722222222222],[-100.29555555555555,41.53611111111111],[-100.14611111111111,41.526666666666664],[-99.95972222222223,41.515],[-99.77194444444444,41.50277777777778],[-99.58277777777778,41.49027777777778],[-99.38444444444445,41.47694444444445],[-99.2125,41.465],[-99.02555555555556,41.45166666666667],[-98.82944444444443,41.4375],[-98.65555555555557,41.42444444444444],[-98.47277777777778,41.410555555555554],[-98.27833333333334,41.39527777777778],[-98.09583333333333,41.38111111111111],[-97.91555555555556,41.36638888888889],[-97.73138888888889,41.35111111111111],[-97.55166666666666,41.336111111111116],[-97.36861111111111,41.32027777777778],[-97.18694444444445,41.30444444444444],[-97.00833333333334,41.28861111111111],[-96.825,41.27194444444444],[-96.64305555555556,41.255],[-96.46083333333334,41.238055555555555],[-96.28833333333333,41.22166666666667],[-96.10694444444444,41.203611111111115],[-95.92833333333334,41.18611111111111],[-95.75111111111111,41.17166666666667],[-95.54472222222222,41.19361111111111],[-95.37138888888889,41.21666666666667],[-95.19777777777779,41.24],[-95.08749999999999,41.25388888888889],[-95.025,41.26277777777778],[-94.91388888888889,41.277499999999996],[-94.7363888888889,41.30027777777777],[-94.67055555555557,41.308611111111105],[-94.55694444444444,41.323055555555555],[-94.49138888888889,41.331388888888895],[-94.31083333333333,41.35416666666667],[-94.19444444444444,41.368611111111115],[-94.15805555555556,41.37305555555555],[-94.01138888888889,41.39083333333333],[-93.97500000000001,41.39527777777778],[-93.82833333333333,41.41305555555555],[-93.78888888888889,41.41777777777777],[-93.64055555555557,41.43527777777778],[-93.60222222222221,41.44],[-93.455,41.45722222222223],[-93.41388888888889,41.46194444444445],[-93.22638888888889,41.48361111111111],[-93.07444444444444,41.50083333333333],[-93.03777777777778,41.505],[-92.88722222222223,41.52194444444444],[-92.85166666666666,41.52583333333333],[-92.72638888888889,41.553888888888885],[-92.67861111111111,41.57166666666667],[-92.56444444444445,41.615],[-92.51888888888888,41.632222222222225],[-92.40333333333334,41.67583333333333],[-92.33638888888889,41.70111111111111],[-92.23944444444444,41.73722222222222],[-92.17361111111111,41.761944444444445],[-92.07472222222222,41.79861111111111],[-92.00833333333334,41.823055555555555],[-91.90944444444445,41.859722222222224],[-91.8436111111111,41.884166666666665],[-91.7461111111111,41.92027777777778],[-91.68055555555556,41.94444444444444],[-91.58194444444445,41.980555555555554],[-91.51444444444445,42.00527777777778],[-91.41805555555555,42.040277777777774],[-91.35027777777778,42.06472222222222],[-91.25222222222222,42.1],[-91.18611111111112,42.12388888888889],[-91.08916666666666,42.15888888888889],[-91.02305555555556,42.18277777777777],[-90.9225,42.218611111111116],[-90.85583333333332,42.2425],[-90.75833333333334,42.276944444444446],[-90.69111111111111,42.30083333333333],[-90.59527777777777,42.334722222222226],[-90.42777777777778,42.39361111111111],[-90.2611111111111,42.45194444444445],[-90.095,42.50944444444445],[-89.9263888888889,42.56805555555556],[-89.74472222222222,42.63027777777778],[-89.57527777777777,42.68805555555555],[-89.40166666666667,42.746944444444445],[-89.22833333333334,42.805277777777775],[-89.05111111111111,42.86472222222223],[-88.87666666666667,42.922777777777775],[-88.70111111111112,42.98083333333334],[-88.52722222222222,43.03777777777778],[-88.34972222222221,43.095555555555556],[-88.15611111111112,43.09305555555556],[-87.96361111111112,43.05916666666666],[-87.77111111111111,43.02444444444444],[-87.58166666666666,42.989444444444445],[-87.39194444444445,42.95416666666667],[-87.19277777777778,42.916666666666664],[-87.0075,42.88166666666667],[-86.81944444444444,42.85277777777778],[-86.6275,42.83305555555556],[-86.43194444444445,42.812777777777775],[-86.31388888888888,42.8],[-86.2363888888889,42.791666666666664],[-86.12083333333332,42.77916666666667],[-86.04416666666667,42.770833333333336],[-85.92944444444444,42.75805555555556],[-85.84833333333333,42.74888888888889],[-85.735,42.736111111111114],[-85.65305555555557,42.72666666666667],[-85.53805555555556,42.71388888888889],[-85.45861111111111,42.705000000000005],[-85.34444444444443,42.69194444444444],[-85.26666666666667,42.68277777777777],[-85.15138888888889,42.66416666666667],[-85.07916666666667,42.64388888888889],[-84.96861111111112,42.61055555555556],[-84.89805555555556,42.58916666666667],[-84.78916666666666,42.55611111111111],[-84.71861111111112,42.532222222222224],[-84.60666666666665,42.49027777777778],[-84.50944444444444,42.45416666666667],[-84.43611111111112,42.42666666666666],[-84.34055555555555,42.39111111111111],[-84.27,42.36416666666667],[-84.17472222222223,42.328611111111115],[-84.10277777777777,42.30138888888889],[-84.01083333333334,42.26638888888889],[-83.94,42.239444444444445],[-83.84888888888888,42.20472222222222],[-83.78138888888888,42.178888888888885],[-83.68777777777778,42.1425],[-83.6575,42.12861111111111],[-83.6261111111111,42.11888888888889],[-83.47583333333334,42.05916666666666],[-83.46638888888889,42.05777777777777],[-83.3086111111111,42.0075],[-83.11305555555555,41.99111111111111],[-82.95111111111112,41.97777777777778],[-82.91194444444444,41.97361111111111],[-82.89777777777779,41.973055555555554],[-82.7936111111111,41.96527777777778],[-82.74277777777777,41.956944444444446],[-82.64583333333334,41.93861111111111],[-82.59388888888888,41.927499999999995],[-82.50333333333333,41.90972222222222],[-82.45666666666666,41.89888888888889],[-82.36777777777777,41.88305555555556],[-82.32305555555556,41.87388888888889],[-82.23611111111111,41.856944444444444],[-82.19111111111111,41.8425],[-82.11916666666666,41.80972222222222],[-82.08472222222221,41.79361111111111],[-82.03388888888888,41.76972222222222],[-81.98722222222223,41.74805555555556],[-81.93666666666667,41.72555555555556],[-81.89,41.7025],[-81.84194444444444,41.68083333333333],[-81.7961111111111,41.65861111111111],[-81.75222222222222,41.63916666666667],[-81.72194444444445,41.617222222222225],[-81.71166666666667,41.585],[-81.7038888888889,41.55583333333333],[-81.70305555555557,41.526666666666664],[-81.72055555555556,41.50388888888889],[-81.74388888888889,41.481388888888894],[-81.77027777777778,41.465833333333336],[-81.7925,41.45111111111111],[-81.81333333333333,41.43861111111111],[-81.83416666666666,41.42472222222222]]}
}
