{
  "id": 2047945987,
  "type": "Feature",
  "properties": {
    "geom:area": 0,
    "geom:bbox": "-122.438010,37.633940,-121.248220,38.422810",
    "geom:latitude": 38.048847820036386,
    "geom:longitude": -121.8789361749739,
    "src:alt_label": "swim-takeoff",
    "src:geom": "swim",
    "swim:elevations": [
      383,
      1204,
      1244,
      1378,
      1605,
      2068,
      2596,
      2787,
      3306,
      3481,
      3939,
      4416,
      4803,
      5139,
      5389,
      6088,
      6640,
      6677,
      7010,
      7010,
      7010,
      7010,
      7284,
      7543,
      7799,
      7921,
      8199
    ],
    "swim:geom": "takeoff",
    "swim:timestamps": [
      1786526269,
      1786526337,
      1786526343,
      1786526362,
      1786526380,
      1786526411,
      1786526449,
      1786526462,
      1786526509,
      1786526529,
      1786526559,
      1786526594,
      1786526623,
      1786526648,
      1786526670,
      1786526726,
      1786526779,
      1786526782,
      1786526831,
      1786526853,
      1786526897,
      1786526933,
      1786526966,
      1786526991,
      1786527017,
      1786527030,
      1786527068
    ],
    "wof:geomhash": "7f2870884e9fe919c2091ee229d60fa6",
    "wof:id": 2047945987,
    "wof:repo": "sfomuseum-data-flights-2026-08"
  },
  "bbox": [
    -122.43801,
    37.63394,
    -121.24822,
    38.42281
  ],
  "geometry": {"type":"LineString","coordinates":[[-122.41159,37.63394],[-122.43801,37.68095],[-122.43117,37.68498],[-122.4056,37.69068],[-122.37551,37.69188],[-122.33393,37.71338],[-122.298,37.75615],[-122.28559,37.77132],[-122.23682,37.83032],[-122.21536,37.85672],[-122.1812,37.89708],[-122.12443,37.93411],[-122.0754,37.96144],[-122.03266,37.9855],[-121.99448,38.00651],[-121.89412,38.06049],[-121.79857,38.11416],[-121.79244,38.1175],[-121.70111,38.16717],[-121.65778,38.19066],[-121.57531,38.23555],[-121.50659,38.27278],[-121.4418,38.30784],[-121.3937,38.33406],[-121.34469,38.3628],[-121.31941,38.3789],[-121.24822,38.42281]]}
}
