{
  "id": 2047885365,
  "type": "Feature",
  "properties": {
    "geom:area": 0,
    "geom:bbox": "-122.401350,37.644770,-121.242740,37.965290",
    "geom:latitude": 37.8344770941177,
    "geom:longitude": -121.83138993950239,
    "src:alt_label": "swim-takeoff",
    "src:geom": "swim",
    "swim:elevations": [
      423,
      593,
      1016,
      1297,
      1745,
      2311,
      2763,
      3170,
      3298,
      3383,
      3574,
      3788,
      3953,
      4204,
      4314,
      4586,
      4960,
      5094,
      5243
    ],
    "swim:geom": "takeoff",
    "swim:timestamps": [
      1786200625,
      1786200673,
      1786200717,
      1786200745,
      1786200790,
      1786200845,
      1786200898,
      1786200949,
      1786200982,
      1786201007,
      1786201046,
      1786201075,
      1786201097,
      1786201132,
      1786201148,
      1786201182,
      1786201225,
      1786201244,
      1786201269
    ],
    "wof:geomhash": "bc4b6d00e2887342de6ce1d4f4869f57",
    "wof:id": 2047885365,
    "wof:repo": "sfomuseum-data-flights-2026-08"
  },
  "bbox": [
    -122.40135,
    37.64477,
    -121.24274,
    37.96529
  ],
  "geometry": {"type":"LineString","coordinates":[[-122.40135,37.64477],[-122.34903,37.67028],[-122.28354,37.69276],[-122.24124,37.70839],[-122.1767,37.73784],[-122.0994,37.77771],[-122.02278,37.81486],[-121.93389,37.83278],[-121.87255,37.84484],[-121.82253,37.85454],[-121.74184,37.8701],[-121.67963,37.88208],[-121.63002,37.89162],[-121.55278,37.90645],[-121.51899,37.91295],[-121.44238,37.92754],[-121.34293,37.9464],[-121.30062,37.95437],[-121.24274,37.96529]]}
}
