{
  "id": 2047913223,
  "type": "Feature",
  "properties": {
    "geom:area": 0,
    "geom:bbox": "-122.363760,36.722390,-121.878480,37.614870",
    "geom:latitude": 37.21341449332154,
    "geom:longitude": -122.07157088743793,
    "src:alt_label": "swim-approach",
    "src:geom": "swim",
    "swim:elevations": [
      5075,
      5031,
      5004,
      4883,
      4294,
      4091,
      3958,
      3644,
      3411,
      3198,
      3078,
      3046,
      2894,
      2867,
      2664,
      2405,
      2185,
      2072,
      1918,
      1708,
      1345,
      1240,
      1147,
      1014,
      819,
      610,
      549,
      427,
      366,
      291,
      154,
      41,
      51
    ],
    "swim:geom": "approach",
    "swim:timestamps": [
      1786355728,
      1786355733,
      1786355737,
      1786355750,
      1786355816,
      1786355841,
      1786355856,
      1786355891,
      1786355921,
      1786355947,
      1786355994,
      1786356007,
      1786356028,
      1786356039,
      1786356072,
      1786356116,
      1786356140,
      1786356156,
      1786356183,
      1786356216,
      1786356264,
      1786356293,
      1786356311,
      1786356336,
      1786356367,
      1786356413,
      1786356426,
      1786356454,
      1786356466,
      1786356488,
      1786356517,
      1786356551,
      1786356563
    ],
    "wof:geomhash": "4a5620028b6193721d3819874abd092d",
    "wof:id": 2047913223,
    "wof:repo": "sfomuseum-data-flights-2026-08"
  },
  "bbox": [
    -122.36376,
    36.72239,
    -121.87848,
    37.61487
  ],
  "geometry": {"type":"LineString","coordinates":[[-121.87848,36.72239],[-121.88342,36.7301],[-121.88714,36.73648],[-121.89767,36.75879],[-121.92966,36.86873],[-121.94089,36.90818],[-121.94755,36.93213],[-121.96705,36.98751],[-121.98394,37.03123],[-121.9995,37.0713],[-122.02613,37.13925],[-122.0325,37.15546],[-122.04392,37.18395],[-122.04915,37.19697],[-122.06482,37.23797],[-122.08484,37.28884],[-122.09531,37.31543],[-122.10244,37.33352],[-122.11392,37.36244],[-122.12678,37.39759],[-122.14365,37.44771],[-122.15416,37.47813],[-122.16054,37.49651],[-122.16863,37.52017],[-122.19276,37.54232],[-122.23994,37.56189],[-122.25219,37.56722],[-122.27694,37.5775],[-122.28686,37.58178],[-122.30448,37.58906],[-122.32793,37.5988],[-122.35409,37.60992],[-122.36376,37.61487]]}
}
