{
  "id": 2032058729,
  "type": "Feature",
  "properties": {
    "date:cessation_lower": "2026-08-01",
    "date:cessation_upper": "2026-08-01",
    "date:inception_lower": "2026-08-01",
    "date:inception_upper": "2026-08-01",
    "edtf:cessation": "2026-08-01T02:25:55-07:00",
    "edtf:inception": "2026-08-01T13:02:00Z",
    "flysfo:actual_timestamp": -1,
    "flysfo:airline": "UA",
    "flysfo:base_airline": "",
    "flysfo:base_flight_number": "6099",
    "flysfo:date": "2026-08-01",
    "flysfo:estimated_timestamp": 1785601920,
    "flysfo:event": "A",
    "flysfo:flight_number": "UA1768",
    "flysfo:gate": "F5",
    "flysfo:journey": "IAH-SFO",
    "flysfo:scheduled_timestamp": 1785601500,
    "flysfo:timestamp": 1785601920,
    "geom:area": 0,
    "geom:bbox": "-122.370943,29.977186,-95.338444,37.617990",
    "geom:latitude": 33.797588,
    "geom:longitude": -108.8546935,
    "iata:airline": "UA",
    "iata:base_airline": "",
    "icao:aircraft": "B739",
    "icao:airline": "UAL",
    "icao:base_airline": "UAE",
    "lbl:latitude": 37.620164,
    "lbl:longitude": -122.387194,
    "sfomuseum:aircraft_id": 1377564285,
    "sfomuseum:airline_id": 1159285413,
    "sfomuseum:arrival_id": 102527513,
    "sfomuseum:base_flight_id": "20260801-A-UAE-6099",
    "sfomuseum:departure_id": 102534097,
    "sfomuseum:flight_id": "20260801-A-UAL-1768",
    "sfomuseum:flight_number": [
      "UAL1768",
      "UA1768"
    ],
    "sfomuseum:placetype": "flight",
    "src:geom": "flysfo",
    "src:geom_alt": [
      "swim-path",
      "swim-approach"
    ],
    "swim:tail_number": "N64809",
    "wof:belongsto": [
      1914600839,
      102527513,
      1914600845,
      102191575,
      85633793,
      102087579,
      85922583,
      554784711,
      85688637,
      1930457221,
      1914600841,
      102085387
    ],
    "wof:concordances": {
      "swim:flight_ref": "153423027"
    },
    "wof:country": "US",
    "wof:created": 1785686867,
    "wof:geomhash": "25dc9d98eae1cd54f40654c6c4fb6929",
    "wof:hierarchy": [
      {
        "building_id": 1914600839,
        "campus_id": 102527513,
        "concourse_id": 1914600845,
        "continent_id": 102191575,
        "country_id": 85633793,
        "county_id": 102087579,
        "custom_id": 2032058729,
        "flight_id": 2032058729,
        "locality_id": 85922583,
        "postalcode_id": 554784711,
        "region_id": 85688637,
        "venue_id": 1930457221,
        "wing_id": 1914600841
      },
      {
        "building_id": 1914600839,
        "campus_id": 102527513,
        "concourse_id": 1914600845,
        "continent_id": 102191575,
        "country_id": 85633793,
        "county_id": 102085387,
        "custom_id": 2032058729,
        "flight_id": 2032058729,
        "region_id": 85688637,
        "venue_id": 1930457221,
        "wing_id": 1914600841
      }
    ],
    "wof:id": 2032058729,
    "wof:involves": [
      1377564285,
      102527513,
      102534097,
      1159285413,
      1930457221,
      1159284333
    ],
    "wof:lastmodified": 1785687534,
    "wof:name": "UA1768 (IAH-SFO)",
    "wof:parent_id": 1930457221,
    "wof:placetype": "custom",
    "wof:placetype_alt": [
      "flight"
    ],
    "wof:repo": "sfomuseum-data-flights-2026-08",
    "wof:superseded_by": [],
    "wof:supersedes": []
  },
  "bbox": [
    -122.370943,
    29.977186,
    -95.338444,
    37.61799
  ],
  "geometry": {"coordinates":[[-95.338444,29.977186],[-122.370943,37.61799]],"type":"MultiPoint"}
}
