{
  "id": 2048036315,
  "type": "Feature",
  "properties": {
    "geom:area": 0,
    "geom:bbox": "-122.349720,36.757850,-121.899140,37.608080",
    "geom:latitude": 37.22611703393124,
    "geom:longitude": -122.07457788568044,
    "src:alt_label": "swim-approach",
    "src:geom": "swim",
    "swim:elevations": [
      5308,
      5164,
      4765,
      4437,
      4175,
      4076,
      3891,
      3769,
      3426,
      3387,
      3112,
      3024,
      2895,
      2733,
      2389,
      2234,
      2040,
      1867,
      1707,
      1546,
      1424,
      1211,
      1029,
      836,
      730,
      536,
      480,
      330,
      144,
      60
    ],
    "swim:geom": "approach",
    "swim:timestamps": [
      1786964843,
      1786964860,
      1786964899,
      1786964923,
      1786964946,
      1786964970,
      1786964994,
      1786965010,
      1786965054,
      1786965060,
      1786965102,
      1786965123,
      1786965155,
      1786965184,
      1786965227,
      1786965253,
      1786965280,
      1786965326,
      1786965350,
      1786965375,
      1786965393,
      1786965427,
      1786965464,
      1786965502,
      1786965522,
      1786965559,
      1786965571,
      1786965609,
      1786965657,
      1786965678
    ],
    "wof:geomhash": "290ebdc64b976631860bc81f201061ed",
    "wof:id": 2048036315,
    "wof:repo": "sfomuseum-data-flights-2026-08"
  },
  "bbox": [
    -122.34972,
    36.75785,
    -121.89914,
    37.60808
  ],
  "geometry": {"type":"LineString","coordinates":[[-121.89914,36.75785],[-121.90626,36.78378],[-121.92252,36.84393],[-121.93313,36.88185],[-121.94349,36.91747],[-121.95347,36.95254],[-121.96718,36.98759],[-121.97612,37.01023],[-122.00013,37.07205],[-122.00342,37.0807],[-122.02592,37.13894],[-122.03612,37.16559],[-122.0516,37.20478],[-122.06529,37.23749],[-122.08352,37.28555],[-122.09505,37.31471],[-122.10658,37.3441],[-122.12526,37.3924],[-122.13289,37.41487],[-122.14125,37.43892],[-122.14655,37.45486],[-122.15667,37.48671],[-122.1684,37.51981],[-122.1968,37.54325],[-122.21585,37.55188],[-122.25334,37.56759],[-122.26446,37.57231],[-122.29554,37.58528],[-122.33303,37.60108],[-122.34972,37.60808]]}
}
