{
  "id": 2032130831,
  "type": "Feature",
  "properties": {
    "geom:area": 0,
    "geom:bbox": "-156.400000,20.950000,-122.116667,37.614444",
    "geom:latitude": 29.826363225184295,
    "geom:longitude": -139.50021637427753,
    "src:alt_label": "swim-path",
    "src:geom": "swim",
    "swim:altitudes": [
      "022C",
      "047C",
      "074C",
      "100C",
      "118C",
      "140C",
      "157C",
      "176C",
      "190C",
      "206C",
      "223C",
      "238C",
      "251C",
      "264C",
      "275C",
      "286C",
      "295C",
      "305C",
      "313C",
      "320C",
      "329C",
      "338C",
      "344C",
      "353C",
      "362C",
      "370",
      "370",
      "370",
      "370",
      "370",
      "370",
      "370",
      "370",
      "370",
      "370",
      "370",
      "370C",
      "370C",
      "370C",
      "370C",
      "370C",
      "370C",
      "370",
      "370C",
      "370",
      "370",
      "370",
      "370",
      "370",
      "369",
      "370",
      "370",
      "370",
      "370",
      "370",
      "370",
      "370",
      "370",
      "370",
      "370",
      "370",
      "365",
      "357C",
      "341",
      "330C",
      "313",
      "301C",
      "283",
      "273C",
      "259",
      "249C",
      "235",
      "225C",
      "210",
      "201C",
      "186",
      "164",
      "140",
      "139",
      "115",
      "100C",
      "100C",
      "100",
      "093",
      "087",
      "083",
      "071",
      "063",
      "062",
      "055",
      "054",
      "044",
      "042",
      "025",
      "017",
      "008",
      "100"
    ],
    "swim:geom": "path",
    "swim:speeds": [
      210,
      260,
      280,
      300,
      330,
      350,
      370,
      380,
      390,
      400,
      420,
      420,
      430,
      440,
      450,
      460,
      460,
      470,
      480,
      490,
      490,
      490,
      500,
      500,
      490,
      490,
      490,
      490,
      490,
      490,
      490,
      480,
      480,
      480,
      480,
      480,
      481,
      482,
      483,
      486,
      489,
      490,
      490,
      491,
      490,
      492,
      490,
      493,
      490,
      492,
      490,
      481,
      490,
      479,
      480,
      477,
      480,
      475,
      480,
      474,
      470,
      473,
      470,
      471,
      470,
      480,
      480,
      483,
      480,
      474,
      470,
      458,
      450,
      435,
      430,
      403,
      393,
      391,
      394,
      370,
      370,
      367,
      326,
      307,
      297,
      301,
      296,
      263,
      255,
      255,
      250,
      238,
      231,
      228,
      199,
      157,
      153
    ],
    "swim:timestamps": [
      1786006850,
      1786006910,
      1786006971,
      1786007031,
      1786007091,
      1786007151,
      1786007211,
      1786007272,
      1786007331,
      1786007392,
      1786007452,
      1786007512,
      1786007573,
      1786007633,
      1786007693,
      1786007753,
      1786007813,
      1786007873,
      1786007934,
      1786007994,
      1786008054,
      1786008114,
      1786008174,
      1786008234,
      1786008295,
      1786008355,
      1786008415,
      1786008475,
      1786008535,
      1786008595,
      1786008655,
      1786008716,
      1786008761,
      1786008821,
      1786008881,
      1786008941,
      1786020462,
      1786020522,
      1786020582,
      1786020642,
      1786020702,
      1786020762,
      1786020782,
      1786020822,
      1786020843,
      1786020882,
      1786020902,
      1786020942,
      1786020963,
      1786021002,
      1786021023,
      1786021062,
      1786021083,
      1786021122,
      1786021143,
      1786021182,
      1786021203,
      1786021242,
      1786021263,
      1786021302,
      1786021323,
      1786021362,
      1786021383,
      1786021422,
      1786021444,
      1786021482,
      1786021503,
      1786021542,
      1786021563,
      1786021602,
      1786021623,
      1786021662,
      1786021683,
      1786021723,
      1786021743,
      1786021783,
      1786021843,
      1786021892,
      1786021903,
      1786021958,
      1786022023,
      1786022083,
      1786022150,
      1786022203,
      1786022264,
      1786022324,
      1786022383,
      1786022443,
      1786022450,
      1786022503,
      1786022511,
      1786022563,
      1786022571,
      1786022636,
      1786022683,
      1786022743,
      1786022803
    ],
    "wof:geomhash": "8bdb73705d3fc44ff0f0c2fc1f98db64",
    "wof:id": 2032130831,
    "wof:repo": "sfomuseum-data-flights-2026-08"
  },
  "bbox": [
    -156.4,
    20.95,
    -122.11666666666666,
    37.614444444444445
  ],
  "geometry": {"type":"LineString","coordinates":[[-156.4,20.95],[-156.4,21.016666666666666],[-156.38333333333333,21.1],[-156.31666666666666,21.15],[-156.25,21.216666666666665],[-156.2,21.3],[-156.11666666666667,21.383333333333333],[-156.05,21.45],[-155.98333333333332,21.533333333333335],[-155.9,21.633333333333333],[-155.83333333333334,21.733333333333334],[-155.76666666666668,21.833333333333332],[-155.7,21.933333333333334],[-155.63333333333333,22.033333333333335],[-155.56666666666666,22.15],[-155.48333333333332,22.25],[-155.38333333333333,22.333333333333332],[-155.26666666666668,22.416666666666668],[-155.15,22.483333333333334],[-155.03333333333333,22.566666666666666],[-154.91666666666666,22.666666666666668],[-154.8,22.75],[-154.68333333333334,22.833333333333332],[-154.56666666666666,22.916666666666668],[-154.45,23],[-154.33333333333334,23.083333333333332],[-154.21666666666667,23.166666666666668],[-154.1,23.25],[-153.98333333333332,23.333333333333332],[-153.86666666666667,23.416666666666668],[-153.75,23.5],[-153.63333333333333,23.583333333333332],[-153.53333333333333,23.65],[-153.41666666666666,23.733333333333334],[-153.3,23.8],[-153.18333333333334,23.883333333333333],[-126.52583333333334,35.59],[-126.36944444444444,35.635],[-126.21444444444445,35.67944444444444],[-126.06444444444445,35.73555555555556],[-125.92055555555557,35.808611111111105],[-125.77805555555555,35.87916666666667],[-125.73333333333333,35.916666666666664],[-125.63388888888889,35.94944444444444],[-125.58333333333333,35.983333333333334],[-125.48777777777778,36.020833333333336],[-125.45,36.05],[-125.34388888888888,36.09111111111111],[-125.3,36.11666666666667],[-125.19944444444445,36.16138888888889],[-125.15,36.18333333333333],[-125.05916666666667,36.22944444444445],[-125,36.25],[-124.91805555555555,36.2975],[-124.85,36.31666666666667],[-124.77722222222222,36.36527777777778],[-124.71666666666667,36.36666666666667],[-124.63666666666667,36.43277777777777],[-124.56666666666666,36.43333333333333],[-124.49805555555555,36.49861111111111],[-124.43333333333334,36.516666666666666],[-124.35805555555555,36.56527777777777],[-124.3,36.583333333333336],[-124.2175,36.63138888888889],[-124.15,36.65],[-124.07583333333334,36.698055555555555],[-124.01666666666667,36.71666666666667],[-123.93111111111112,36.76611111111111],[-123.86666666666666,36.78333333333333],[-123.78777777777778,36.83305555555556],[-123.73333333333333,36.85],[-123.65055555555556,36.89666666666667],[-123.6,36.916666666666664],[-123.51805555555555,36.95861111111111],[-123.46666666666667,36.96666666666667],[-123.39166666666668,37.016666666666666],[-123.27805555555555,37.06861111111112],[-123.16666666666667,37.11666666666667],[-123.15805555555556,37.123333333333335],[-123.03333333333333,37.18333333333333],[-122.93388888888889,37.22555555555556],[-122.81833333333333,37.268055555555556],[-122.66666666666667,37.3],[-122.59472222222222,37.32],[-122.46666666666667,37.35],[-122.36666666666666,37.36666666666667],[-122.27555555555556,37.39388888888889],[-122.18416666666667,37.414722222222224],[-122.16666666666667,37.416666666666664],[-122.11944444444444,37.45416666666667],[-122.11666666666666,37.46666666666667],[-122.12694444444443,37.513888888888886],[-122.13333333333334,37.516666666666666],[-122.21666666666667,37.55],[-122.2625,37.57361111111111],[-122.31388888888888,37.59527777777778],[-122.35944444444443,37.614444444444445]]}
}
