{
  "id": 2048091485,
  "type": "Feature",
  "properties": {
    "geom:area": 0,
    "geom:bbox": "-122.361120,37.566160,-122.249750,37.607040",
    "geom:latitude": 37.5887641860993,
    "geom:longitude": -122.30484280916897,
    "src:alt_label": "swim-approach",
    "src:geom": "swim",
    "swim:elevations": [
      559,
      470,
      281,
      221,
      110,
      257
    ],
    "swim:geom": "approach",
    "swim:timestamps": [
      1787331472,
      1787331493,
      1787331538,
      1787331554,
      1787331588,
      1787331620
    ],
    "wof:geomhash": "3266a585326b4bf41022374a55a080fa",
    "wof:id": 2048091485,
    "wof:repo": "sfomuseum-data-flights-2026-08"
  },
  "bbox": [
    -122.36112,
    37.56616,
    -122.24975,
    37.60704
  ],
  "geometry": {"type":"LineString","coordinates":[[-122.24975,37.56616],[-122.26944,37.57443],[-122.30556,37.58957],[-122.31725,37.59452],[-122.34093,37.60432],[-122.36112,37.60704]]}
}
