{
  "id": 2032063203,
  "type": "Feature",
  "properties": {
    "geom:area": 0,
    "geom:bbox": "-122.399680,37.623110,-121.480300,38.487430",
    "geom:latitude": 38.04776797706481,
    "geom:longitude": -121.9462744519552,
    "src:alt_label": "swim-takeoff",
    "src:geom": "swim",
    "swim:elevations": [
      122,
      183,
      770,
      1043,
      1280,
      1370,
      2103,
      2390,
      2754,
      2969,
      3357,
      3457,
      3773,
      4142,
      4205,
      4724,
      4846,
      5156,
      5721,
      6203,
      6381,
      6644,
      6817,
      6944
    ],
    "swim:geom": "takeoff",
    "swim:timestamps": [
      1785574178,
      1785574182,
      1785574224,
      1785574257,
      1785574307,
      1785574326,
      1785574377,
      1785574399,
      1785574425,
      1785574446,
      1785574489,
      1785574505,
      1785574551,
      1785574587,
      1785574593,
      1785574644,
      1785574656,
      1785574693,
      1785574763,
      1785574814,
      1785574842,
      1785574876,
      1785574903,
      1785574923
    ],
    "wof:geomhash": "080c265851ffdd75b15fa1e2d765b08c",
    "wof:id": 2032063203,
    "wof:repo": "sfomuseum-data-flights-2026-08"
  },
  "bbox": [
    -122.39968,
    37.62311,
    -121.4803,
    38.48743
  ],
  "geometry": {"coordinates":[[-122.38581,37.62311],[-122.38944,37.62456],[-122.39968,37.65005],[-122.37247,37.66321],[-122.31594,37.67826],[-122.29163,37.69056],[-122.24282,37.74224],[-122.22141,37.76468],[-122.19422,37.79297],[-122.17271,37.81517],[-122.12359,37.8653],[-122.10406,37.88524],[-122.04502,37.94556],[-121.99605,37.99552],[-121.98716,38.00451],[-121.91689,38.07597],[-121.90003,38.09314],[-121.84654,38.14727],[-121.74285,38.25209],[-121.66627,38.32914],[-121.62257,38.37298],[-121.57029,38.42531],[-121.51928,38.4637],[-121.4803,38.48743]],"type":"LineString"}
}
