{
  "id": 2032075999,
  "type": "Feature",
  "properties": {
    "geom:area": 0,
    "geom:bbox": "-122.404444,37.636111,-70.050000,44.017500",
    "geom:latitude": 42.76240420532769,
    "geom:longitude": -96.0510603484716,
    "src:alt_label": "swim-path",
    "src:geom": "swim",
    "swim:altitudes": [
      "013",
      "024",
      "032",
      "040",
      "043",
      "054",
      "075",
      "093",
      "106",
      "114",
      "123",
      "130",
      "144",
      "156",
      "170",
      "193",
      "202",
      "226",
      "232",
      "237",
      "243",
      "246",
      "248",
      "262",
      "268",
      "272",
      "281",
      "283",
      "286",
      "289",
      "292",
      "295",
      "302",
      "306",
      "314",
      "317",
      "320",
      "324",
      "330C",
      "330C",
      "330C",
      "330C",
      "330C",
      "330C",
      "330C",
      "330C",
      "330C",
      "330C",
      "330C",
      "330C",
      "330C",
      "330C",
      "329C",
      "330C",
      "330C",
      "330C",
      "330C",
      "331C",
      "330C",
      "330C",
      "330C",
      "330C",
      "330C",
      "331C",
      "331C",
      "330C",
      "330C",
      "330C",
      "330C",
      "330C",
      "330C",
      "330C",
      "330C",
      "330C",
      "330C",
      "330C",
      "330C",
      "330C",
      "330C",
      "330C",
      "330C",
      "330C",
      "330C",
      "330C",
      "330C",
      "330C",
      "330C",
      "330C",
      "330C",
      "330C",
      "330C",
      "330C",
      "330C",
      "330C",
      "330C",
      "330C",
      "330C",
      "330C",
      "330C",
      "330C",
      "330C",
      "331C",
      "330C",
      "330C",
      "330C",
      "330C",
      "330C",
      "330C",
      "331C",
      "330C",
      "330C",
      "330C",
      "330C",
      "330C",
      "330C",
      "330C",
      "330C",
      "330C",
      "330C",
      "330C",
      "330C",
      "330C",
      "330C",
      "330C",
      "330C",
      "331",
      "339",
      "350C",
      "350C",
      "350C",
      "350C",
      "350C",
      "350C",
      "350C",
      "350C",
      "350C",
      "350C",
      "350C",
      "350C",
      "350C",
      "350C",
      "350C",
      "350C",
      "350C",
      "350C",
      "350C",
      "350C",
      "350C",
      "350C",
      "350C",
      "350C",
      "350C",
      "350C",
      "350C",
      "350C",
      "350C",
      "350C",
      "350C",
      "350C",
      "350C",
      "350C",
      "350C",
      "350C",
      "350C",
      "350C",
      "350C",
      "350C",
      "350C",
      "350C",
      "350C",
      "350C",
      "350C",
      "350C",
      "350C",
      "350C",
      "350C",
      "350C",
      "350C",
      "350C",
      "350C",
      "350C",
      "350C",
      "350C",
      "350C",
      "350C",
      "350C",
      "350C",
      "350C",
      "350C",
      "350C",
      "350C",
      "350C",
      "350C",
      "350C",
      "350C",
      "350C",
      "350C",
      "350C",
      "350C",
      "350C",
      "350C",
      "350C",
      "350C",
      "350C",
      "350C",
      "350C",
      "350C",
      "350C",
      "350C",
      "350C",
      "350C",
      "350C",
      "350C",
      "350C",
      "350C",
      "350C",
      "350C",
      "350C",
      "350C",
      "350C",
      "350C",
      "350C",
      "350C",
      "350C",
      "350C",
      "350C",
      "350C",
      "350C",
      "350C",
      "350C",
      "350C",
      "350C",
      "350C",
      "350C",
      "350C",
      "350C",
      "350C",
      "350C",
      "350C",
      "350C",
      "350C",
      "350C",
      "350C",
      "350C",
      "350C",
      "351C",
      "350C",
      "350C",
      "350C",
      "350C",
      "350C",
      "350C",
      "350C",
      "350C",
      "350C",
      "350C",
      "351C",
      "350C",
      "350C",
      "350C",
      "350C",
      "350C",
      "350C",
      "350C",
      "350C",
      "350C",
      "350C",
      "350C",
      "351C",
      "350C",
      "350C",
      "344",
      "335",
      "326",
      "310C",
      "310C",
      "310C",
      "310C",
      "310C",
      "310C",
      "310C",
      "310C",
      "310C",
      "310C",
      "310",
      "302",
      "293",
      "290C",
      "290C",
      "290C",
      "290C",
      "290C",
      "288",
      "278",
      "268",
      "248",
      "206",
      "180",
      "154",
      "144",
      "137",
      "121",
      "105",
      "084",
      "080",
      "061",
      "054",
      "040",
      "040",
      "040",
      "032",
      "030",
      "030",
      "025",
      "017",
      "011",
      "005",
      "001"
    ],
    "swim:geom": "path",
    "swim:speeds": [
      174,
      184,
      183,
      232,
      269,
      276,
      277,
      291,
      316,
      356,
      389,
      418,
      427,
      441,
      445,
      459,
      463,
      484,
      492,
      498,
      503,
      503,
      509,
      509,
      508,
      508,
      506,
      502,
      499,
      503,
      503,
      506,
      510,
      513,
      513,
      512,
      513,
      513,
      514,
      514,
      514,
      515,
      516,
      517,
      518,
      522,
      523,
      523,
      523,
      523,
      522,
      522,
      521,
      522,
      522,
      522,
      522,
      523,
      520,
      520,
      519,
      518,
      520,
      522,
      526,
      527,
      527,
      528,
      529,
      529,
      529,
      529,
      528,
      529,
      530,
      530,
      529,
      528,
      528,
      529,
      530,
      531,
      530,
      529,
      528,
      526,
      524,
      524,
      526,
      527,
      528,
      528,
      528,
      527,
      527,
      527,
      526,
      518,
      518,
      526,
      528,
      530,
      530,
      528,
      527,
      527,
      528,
      528,
      528,
      525,
      526,
      523,
      521,
      520,
      518,
      518,
      517,
      516,
      516,
      517,
      517,
      516,
      516,
      515,
      512,
      510,
      509,
      511,
      513,
      516,
      517,
      516,
      515,
      515,
      515,
      515,
      515,
      515,
      514,
      513,
      512,
      512,
      511,
      509,
      509,
      508,
      508,
      508,
      508,
      508,
      508,
      508,
      508,
      507,
      506,
      505,
      505,
      503,
      501,
      499,
      497,
      494,
      492,
      490,
      488,
      485,
      483,
      483,
      482,
      482,
      481,
      482,
      481,
      481,
      481,
      480,
      480,
      480,
      479,
      478,
      478,
      478,
      478,
      477,
      477,
      477,
      478,
      478,
      479,
      479,
      480,
      481,
      482,
      482,
      482,
      482,
      482,
      482,
      482,
      482,
      481,
      481,
      481,
      481,
      480,
      480,
      480,
      479,
      479,
      479,
      480,
      480,
      481,
      481,
      482,
      483,
      484,
      484,
      484,
      484,
      485,
      485,
      484,
      484,
      483,
      483,
      483,
      482,
      482,
      482,
      482,
      483,
      483,
      483,
      482,
      479,
      471,
      465,
      460,
      454,
      452,
      452,
      453,
      455,
      460,
      466,
      488,
      488,
      488,
      489,
      489,
      489,
      489,
      488,
      489,
      492,
      494,
      496,
      496,
      501,
      500,
      495,
      492,
      492,
      496,
      496,
      495,
      498,
      497,
      496,
      494,
      490,
      489,
      506,
      506,
      513,
      516,
      516,
      514,
      512,
      510,
      509,
      503,
      503,
      508,
      503,
      500,
      499,
      498,
      493,
      491,
      493,
      500,
      498,
      475,
      463,
      454,
      430,
      372,
      318,
      299,
      286,
      283,
      266,
      259,
      253,
      244,
      242,
      244,
      234,
      203,
      174,
      155,
      155,
      155,
      121,
      121,
      121
    ],
    "swim:timestamps": [
      1785735937,
      1785735956,
      1785735997,
      1785736057,
      1785736076,
      1785736117,
      1785736177,
      1785736237,
      1785736297,
      1785736357,
      1785736417,
      1785736477,
      1785736537,
      1785736597,
      1785736657,
      1785736777,
      1785736837,
      1785737017,
      1785737077,
      1785737138,
      1785737198,
      1785737226,
      1785737258,
      1785737346,
      1785737378,
      1785737407,
      1785737467,
      1785737498,
      1785737527,
      1785737558,
      1785737587,
      1785737618,
      1785737678,
      1785737707,
      1785737767,
      1785737798,
      1785737827,
      1785737858,
      1785737918,
      1785737947,
      1785737978,
      1785738007,
      1785738038,
      1785738067,
      1785738098,
      1785738158,
      1785738218,
      1785738247,
      1785738279,
      1785738307,
      1785738339,
      1785738367,
      1785738399,
      1785738427,
      1785738459,
      1785738488,
      1785738519,
      1785738548,
      1785738668,
      1785738728,
      1785738788,
      1785738848,
      1785738908,
      1785738968,
      1785739088,
      1785739148,
      1785739208,
      1785739268,
      1785739328,
      1785739388,
      1785739448,
      1785739508,
      1785739568,
      1785739628,
      1785739689,
      1785739749,
      1785739809,
      1785739869,
      1785739929,
      1785739989,
      1785740049,
      1785740109,
      1785740169,
      1785740229,
      1785740289,
      1785740349,
      1785740469,
      1785740529,
      1785740589,
      1785740709,
      1785740769,
      1785740829,
      1785740890,
      1785740950,
      1785741010,
      1785741070,
      1785741130,
      1785741190,
      1785741250,
      1785741370,
      1785741430,
      1785741490,
      1785741550,
      1785741670,
      1785741730,
      1785741790,
      1785741796,
      1785741856,
      1785741910,
      1785741970,
      1785741976,
      1785742036,
      1785742096,
      1785742156,
      1785742216,
      1785742276,
      1785742336,
      1785742396,
      1785742516,
      1785742576,
      1785742636,
      1785742696,
      1785742756,
      1785742816,
      1785742936,
      1785742994,
      1785743054,
      1785743174,
      1785743294,
      1785743414,
      1785743474,
      1785743534,
      1785743594,
      1785743654,
      1785743714,
      1785743774,
      1785743834,
      1785743894,
      1785743954,
      1785744014,
      1785744074,
      1785744134,
      1785744194,
      1785744314,
      1785744374,
      1785744434,
      1785744494,
      1785744554,
      1785744615,
      1785744735,
      1785744795,
      1785744855,
      1785744915,
      1785744975,
      1785745035,
      1785745095,
      1785745215,
      1785745335,
      1785745395,
      1785745455,
      1785745515,
      1785745635,
      1785745695,
      1785745755,
      1785745815,
      1785745875,
      1785745935,
      1785745995,
      1785746115,
      1785746175,
      1785746235,
      1785746246,
      1785746296,
      1785746309,
      1785746356,
      1785746416,
      1785746536,
      1785746549,
      1785746572,
      1785746632,
      1785746666,
      1785746692,
      1785746726,
      1785746752,
      1785746786,
      1785746812,
      1785746847,
      1785746872,
      1785746906,
      1785746932,
      1785746969,
      1785747026,
      1785747052,
      1785747086,
      1785747112,
      1785747148,
      1785747172,
      1785747206,
      1785747232,
      1785747267,
      1785747292,
      1785747327,
      1785747352,
      1785747389,
      1785747448,
      1785747472,
      1785747508,
      1785747532,
      1785747568,
      1785747592,
      1785747629,
      1785747652,
      1785747689,
      1785747712,
      1785747749,
      1785747809,
      1785747869,
      1785747892,
      1785747930,
      1785747953,
      1785748013,
      1785748047,
      1785748073,
      1785748110,
      1785748133,
      1785748170,
      1785748193,
      1785748227,
      1785748253,
      1785748290,
      1785748313,
      1785748373,
      1785748407,
      1785748468,
      1785748553,
      1785748613,
      1785748673,
      1785748733,
      1785748793,
      1785748913,
      1785748973,
      1785749033,
      1785749093,
      1785749152,
      1785749213,
      1785749332,
      1785749873,
      1785749933,
      1785749994,
      1785750054,
      1785750173,
      1785750234,
      1785750353,
      1785750413,
      1785750473,
      1785750533,
      1785750594,
      1785750654,
      1785750715,
      1785750837,
      1785750897,
      1785750957,
      1785751017,
      1785751077,
      1785751137,
      1785751197,
      1785751257,
      1785751437,
      1785751494,
      1785751557,
      1785751617,
      1785751735,
      1785751797,
      1785751855,
      1785751978,
      1785752098,
      1785752158,
      1785752218,
      1785752278,
      1785752338,
      1785752398,
      1785752458,
      1785752518,
      1785752578,
      1785752698,
      1785752758,
      1785752818,
      1785752878,
      1785752938,
      1785752998,
      1785753058,
      1785753118,
      1785753179,
      1785753239,
      1785753299,
      1785753419,
      1785753539,
      1785753599,
      1785753657,
      1785753717,
      1785753779,
      1785753839,
      1785753899,
      1785753959,
      1785753969,
      1785754019,
      1785754035,
      1785754101,
      1785754139,
      1785754161,
      1785754215,
      1785754260,
      1785754269,
      1785754320,
      1785754380,
      1785754440,
      1785754500,
      1785754560
    ],
    "wof:geomhash": "e6d69f463621e7e6d06af352717c6e22",
    "wof:id": 2032075999,
    "wof:repo": "sfomuseum-data-flights-2026-08"
  },
  "bbox": [
    -122.40444444444445,
    37.63611111111111,
    -70.05,
    44.0175
  ],
  "geometry": {"coordinates":[[-122.40444444444445,37.63611111111111],[-122.4,37.666666666666664],[-122.37527777777777,37.68055555555555],[-122.33527777777778,37.730555555555554],[-122.35,37.766666666666666],[-122.36444444444444,37.80083333333333],[-122.38472222222222,37.875],[-122.36527777777778,37.95138888888889],[-122.27944444444444,38.00416666666667],[-122.18305555555555,38.062777777777775],[-122.07722222222222,38.1275],[-121.96138888888889,38.19777777777777],[-121.84194444444444,38.26972222222222],[-121.70111111111112,38.35444444444445],[-121.57388888888889,38.43],[-121.31388888888888,38.58888888888889],[-121.2025,38.656666666666666],[-120.79472222222222,38.90222222222222],[-120.65527777777778,38.98527777777778],[-120.51305555555555,39.07],[-120.37027777777777,39.155],[-120.29277777777777,39.198055555555555],[-120.22361111111111,39.240833333333335],[-120.00194444444445,39.37],[-119.91166666666668,39.42388888888889],[-119.85583333333332,39.455000000000005],[-119.71138888888889,39.53916666666667],[-119.62222222222222,39.59166666666667],[-119.56722222222221,39.62277777777778],[-119.47694444444444,39.67527777777777],[-119.41972222222223,39.70861111111111],[-119.32944444444443,39.76],[-119.17944444444444,39.845555555555556],[-119.11999999999999,39.87916666666667],[-118.96472222222222,39.95888888888889],[-118.90027777777779,39.99027777777778],[-118.80555555555556,40.03055555555555],[-118.73777777777778,40.05972222222222],[-118.57249999999999,40.13],[-118.47833333333334,40.16972222222222],[-118.41000000000001,40.198611111111106],[-118.31583333333333,40.23833333333334],[-118.24444444444444,40.26833333333333],[-118.14861111111112,40.30833333333333],[-118.07416666666666,40.33527777777778],[-117.90111111111112,40.391666666666666],[-117.72666666666667,40.448055555555555],[-117.6236111111111,40.481388888888894],[-117.55083333333333,40.50472222222222],[-117.44694444444445,40.53777777777778],[-117.37388888888889,40.56111111111111],[-117.2713888888889,40.59388888888889],[-117.19833333333334,40.61694444444444],[-117.09305555555555,40.650555555555556],[-117.01666666666667,40.67444444444444],[-116.91416666666667,40.70638888888889],[-116.83722222222222,40.730555555555554],[-116.73444444444445,40.7625],[-116.38,40.87222222222222],[-116.20416666666667,40.92638888888889],[-116.02722222222222,40.980000000000004],[-115.84888888888888,41.03361111111111],[-115.67027777777778,41.087500000000006],[-115.49222222222222,41.14055555555556],[-115.12833333333333,41.24777777777778],[-114.94916666666667,41.3],[-114.80444444444444,41.342222222222226],[-114.61027777777777,41.39805555555556],[-114.42805555555556,41.45],[-114.24583333333334,41.501666666666665],[-114.05972222222222,41.55444444444444],[-113.87666666666667,41.605555555555554],[-113.69305555555556,41.656666666666666],[-113.50916666666667,41.70583333333334],[-113.31777777777778,41.74527777777778],[-113.1261111111111,41.785],[-112.93694444444445,41.82361111111111],[-112.74916666666667,41.861111111111114],[-112.55805555555555,41.89944444444444],[-112.36555555555555,41.9375],[-112.17361111111111,41.975],[-111.98,42.0125],[-111.78722222222223,42.04972222222222],[-111.595,42.086111111111116],[-111.40444444444445,42.121944444444445],[-111.215,42.157222222222224],[-110.81722222222221,42.23027777777778],[-110.62333333333332,42.265277777777776],[-110.43166666666667,42.29972222222222],[-110.04666666666667,42.3675],[-109.85194444444444,42.40138888888889],[-109.69638888888889,42.42777777777778],[-109.50138888888888,42.46083333333333],[-109.30833333333334,42.49333333333333],[-109.11666666666666,42.525277777777774],[-108.92194444444445,42.55722222222222],[-108.72805555555556,42.58888888888889],[-108.5375,42.61944444444445],[-108.3475,42.64944444444444],[-107.9563888888889,42.71055555555556],[-107.7611111111111,42.74027777777778],[-107.56472222222222,42.769999999999996],[-107.36944444444444,42.79944444444444],[-106.97694444444444,42.856944444444444],[-106.7611111111111,42.88805555555555],[-106.56611111111111,42.91583333333333],[-106.56611111111111,42.91583333333333],[-106.36944444444444,42.94333333333333],[-106.17527777777778,42.97027777777778],[-105.97944444444444,42.996944444444445],[-105.97944444444444,42.996944444444445],[-105.78694444444444,43.022777777777776],[-105.59333333333333,43.04861111111111],[-105.39805555555556,43.074444444444445],[-105.2038888888889,43.099444444444444],[-105.00916666666667,43.12416666666667],[-104.81583333333333,43.14861111111111],[-104.62027777777777,43.172777777777775],[-104.23083333333334,43.22],[-104.0375,43.24277777777778],[-103.84333333333333,43.26555555555556],[-103.64694444444446,43.288333333333334],[-103.4525,43.31027777777778],[-103.26055555555556,43.33166666666667],[-102.87277777777777,43.37388888888889],[-102.69555555555556,43.39277777777778],[-102.49833333333333,43.413333333333334],[-102.11166666666666,43.45277777777778],[-101.7238888888889,43.490833333333335],[-101.3325,43.52777777777778],[-101.13694444444445,43.545833333333334],[-100.94222222222223,43.56361111111111],[-100.74666666666667,43.58083333333334],[-100.55416666666666,43.59777777777778],[-100.36,43.61416666666667],[-100.16305555555556,43.63055555555555],[-99.96861111111112,43.64666666666667],[-99.77277777777778,43.66222222222222],[-99.57916666666667,43.677499999999995],[-99.38361111111112,43.692499999999995],[-99.19027777777778,43.706944444444446],[-98.9975,43.72083333333334],[-98.80138888888888,43.735],[-98.38777777777779,43.763333333333335],[-98.19361111111111,43.77611111111111],[-98,43.78861111111111],[-97.80611111111111,43.80083333333333],[-97.61194444444443,43.8125],[-97.41833333333334,43.823888888888895],[-97.03,43.84583333333334],[-96.83694444444444,43.85638888888889],[-96.64416666666668,43.86638888888889],[-96.44972222222222,43.87638888888889],[-96.25694444444444,43.885555555555555],[-96.06583333333333,43.89472222222222],[-95.87416666666665,43.90361111111111],[-95.48694444444445,43.919999999999995],[-95.10138888888888,43.93527777777778],[-94.90972222222223,43.942499999999995],[-94.72,43.94916666666666],[-94.53027777777778,43.955555555555556],[-94.13944444444445,43.967777777777776],[-93.95055555555555,43.973055555555554],[-93.76444444444445,43.97805555555556],[-93.58,43.98277777777778],[-93.39305555555556,43.98722222222222],[-93.21055555555556,43.99138888888889],[-93.02666666666667,43.995],[-92.65666666666667,44.00194444444445],[-92.47333333333333,44.00472222222222],[-92.28666666666666,44.007222222222225],[-92.25944444444444,44.007777777777775],[-92.10472222222222,44.00944444444445],[-92.07305555555556,44.01],[-91.92,44.01166666666666],[-91.73555555555555,44.013333333333335],[-91.36722222222221,44.01583333333333],[-91.3325,44.01611111111111],[-91.25611111111111,44.01638888888889],[-91.07388888888889,44.01694444444444],[-90.96305555555556,44.01722222222222],[-90.8888888888889,44.01722222222222],[-90.77944444444444,44.0175],[-90.70333333333333,44.01722222222222],[-90.5961111111111,44.01722222222222],[-90.52472222222222,44.01722222222222],[-90.41111111111111,44.01694444444444],[-90.33833333333332,44.01638888888889],[-90.23361111111112,44.01611111111111],[-90.15305555555557,44.01555555555556],[-90.04777777777778,44.015],[-89.86,44.013888888888886],[-89.7825,44.013333333333335],[-89.67666666666668,44.01222222222222],[-89.59666666666666,44.01166666666666],[-89.4888888888889,44.01027777777778],[-89.41111111111111,44.00944444444445],[-89.33944444444444,44.00861111111111],[-89.22222222222223,44.00694444444444],[-89.11611111111111,44.00555555555555],[-89.03861111111111,44.004444444444445],[-88.92972222222222,44.00277777777778],[-88.85222222222221,44.00138888888889],[-88.74305555555556,43.99944444444444],[-88.55833333333334,43.99611111111111],[-88.47888888888889,43.99444444444445],[-88.37472222222222,43.992222222222225],[-88.29555555555555,43.990833333333335],[-88.18722222222223,43.98833333333334],[-88.10722222222222,43.98638888888889],[-88.00305555555556,43.98388888888889],[-87.9238888888889,43.98222222222223],[-87.81555555555555,43.97944444444445],[-87.73722222222223,43.9775],[-87.62944444444443,43.974444444444444],[-87.44388888888889,43.969166666666666],[-87.27472222222222,43.96416666666667],[-87.19861111111112,43.96194444444445],[-87.08666666666666,43.958333333333336],[-87.0125,43.95611111111111],[-86.82638888888889,43.94972222222222],[-86.71527777777779,43.94583333333333],[-86.63777777777779,43.94305555555555],[-86.52916666666667,43.93888888888888],[-86.45222222222222,43.93611111111111],[-86.3425,43.93194444444444],[-86.26833333333333,43.92916666666667],[-86.15694444444445,43.92472222222222],[-86.08222222222221,43.92166666666667],[-85.97305555555556,43.91722222222222],[-85.89527777777778,43.913888888888884],[-85.71000000000001,43.905833333333334],[-85.63972222222223,43.90277777777778],[-85.41694444444445,43.8925],[-85.15055555555556,43.87972222222222],[-84.96694444444445,43.87027777777778],[-84.78861111111111,43.86138888888889],[-84.615,43.852222222222224],[-84.43861111111111,43.8425],[-84.08833333333332,43.822500000000005],[-83.91638888888889,43.81222222222222],[-83.74416666666667,43.801944444444445],[-83.58666666666666,43.79222222222222],[-83.41388888888889,43.780833333333334],[-83.23527777777778,43.769444444444446],[-82.8761111111111,43.74527777777778],[-81.22944444444444,43.619166666666665],[-81.04138888888889,43.60305555555556],[-80.85638888888889,43.58722222222222],[-80.66972222222223,43.57083333333334],[-80.26611111111112,43.53388888888889],[-80.11777777777777,43.52027777777778],[-79.71222222222222,43.481388888888894],[-79.52638888888889,43.463055555555556],[-79.34194444444444,43.44472222222222],[-79.155,43.425555555555555],[-78.96888888888888,43.406388888888884],[-78.78027777777778,43.38638888888889],[-78.59166666666667,43.36638888888889],[-78.21861111111112,43.325],[-78.03138888888888,43.30472222222222],[-77.84638888888888,43.28361111111111],[-77.65916666666668,43.261944444444445],[-77.47500000000001,43.24027777777778],[-77.28527777777778,43.217777777777776],[-77.09916666666666,43.19555555555555],[-76.91111111111111,43.1725],[-76.36833333333333,43.10444444444445],[-76.18222222222222,43.080555555555556],[-75.99861111111112,43.05638888888888],[-75.81722222222221,43.032222222222224],[-75.45444444444445,42.98361111111111],[-75.27833333333334,42.95944444444445],[-75.08972222222222,42.959722222222226],[-74.71722222222222,43.005],[-74.335,43.05083333333333],[-74.1036111111111,43.07777777777778],[-73.91055555555556,43.1],[-73.71916666666667,43.12138888888889],[-73.53,43.1425],[-73.34055555555555,43.163333333333334],[-73.18222222222222,43.180277777777775],[-72.9925,43.20055555555556],[-72.80694444444444,43.23583333333333],[-72.43944444444445,43.33305555555556],[-72.25611111111111,43.38027777777778],[-72.07388888888889,43.418055555555554],[-71.89222222222223,43.45055555555556],[-71.70333333333333,43.475],[-71.51638888888888,43.467777777777776],[-71.33,43.459722222222226],[-71.14083333333333,43.45111111111111],[-70.95111111111112,43.44222222222222],[-70.75027777777778,43.427499999999995],[-70.59888888888888,43.34583333333334],[-70.39333333333335,43.13527777777778],[-70.18666666666667,42.92055555555555],[-70.09833333333333,42.82805555555556],[-70.05,42.71666666666667],[-70.11666666666666,42.65],[-70.21777777777778,42.623333333333335],[-70.32555555555555,42.62583333333333],[-70.43,42.62833333333333],[-70.5375,42.632222222222225],[-70.55,42.63333333333333],[-70.63138888888888,42.62416666666667],[-70.65,42.61666666666667],[-70.75,42.61666666666667],[-70.81416666666667,42.6075],[-70.85,42.6],[-70.9,42.56666666666667],[-70.9225,42.535],[-70.93333333333334,42.53333333333333],[-70.94166666666668,42.49527777777778],[-70.96166666666667,42.45472222222222],[-70.97694444444444,42.42305555555555],[-70.99222222222222,42.39111111111111],[-71.00472222222223,42.36555555555556]],"type":"LineString"}
}
