{
  "id": 2032057253,
  "type": "Feature",
  "properties": {
    "geom:area": 0,
    "geom:bbox": "-122.358910,36.718890,-121.876130,37.612180",
    "geom:latitude": 37.214875608108485,
    "geom:longitude": -122.0667009592581,
    "src:alt_label": "swim-approach",
    "src:geom": "swim",
    "swim:elevations": [
      5298,
      5175,
      4929,
      4865,
      4631,
      4462,
      4203,
      3908,
      3688,
      3488,
      3198,
      3042,
      3002,
      2643,
      2592,
      2335,
      2229,
      2182,
      1909,
      1801,
      1589,
      1424,
      1043,
      912,
      882,
      829,
      728,
      669,
      593,
      372,
      257,
      150,
      55,
      19
    ],
    "swim:geom": "approach",
    "swim:timestamps": [
      1785622095,
      1785622113,
      1785622144,
      1785622153,
      1785622183,
      1785622205,
      1785622238,
      1785622278,
      1785622309,
      1785622335,
      1785622372,
      1785622406,
      1785622412,
      1785622466,
      1785622478,
      1785622519,
      1785622532,
      1785622544,
      1785622586,
      1785622598,
      1785622628,
      1785622651,
      1785622703,
      1785622724,
      1785622736,
      1785622751,
      1785622786,
      1785622811,
      1785622834,
      1785622884,
      1785622917,
      1785622947,
      1785622971,
      1785622982
    ],
    "wof:geomhash": "84b6a9f2361de950bb2f783b1ec5880d",
    "wof:id": 2032057253,
    "wof:repo": "sfomuseum-data-flights-2026-08"
  },
  "bbox": [
    -122.35891,
    36.71889,
    -121.87613,
    37.61218
  ],
  "geometry": {"coordinates":[[-121.87613,36.71889],[-121.89266,36.7441],[-121.90814,36.79153],[-121.91203,36.80517],[-121.92477,36.85028],[-121.93389,36.88283],[-121.94711,36.93161],[-121.9673,36.98885],[-121.98421,37.03223],[-121.99776,37.06697],[-122.01778,37.1182],[-122.03582,37.16369],[-122.0388,37.17141],[-122.06583,37.24013],[-122.07162,37.25483],[-122.09028,37.30195],[-122.09618,37.31704],[-122.10117,37.32996],[-122.1104,37.37438],[-122.10886,37.387],[-122.10536,37.41878],[-122.10217,37.44293],[-122.12844,37.4895],[-122.14373,37.5068],[-122.15234,37.51647],[-122.16336,37.52749],[-122.1973,37.544],[-122.22072,37.55381],[-122.2409,37.56241],[-122.28438,37.58065],[-122.30973,37.5913],[-122.33334,37.60123],[-122.35074,37.60848],[-122.35891,37.61218]],"type":"LineString"}
}
