{
  "id": 2047925549,
  "type": "Feature",
  "properties": {
    "geom:area": 0,
    "geom:bbox": "-122.333333,33.918889,-118.450000,37.600000",
    "geom:latitude": 35.495375979772035,
    "geom:longitude": -120.60913840770654,
    "src:alt_label": "swim-path",
    "src:geom": "swim",
    "swim:altitudes": [
      "010",
      "013",
      "017",
      "024",
      "046",
      "072",
      "096",
      "113",
      "142",
      "171",
      "195",
      "221",
      "239",
      "256",
      "259",
      "277",
      "292",
      "307",
      "326",
      "349",
      "363",
      "370",
      "372",
      "377",
      "380C",
      "380C",
      "380C",
      "380C",
      "380C",
      "380C",
      "380C",
      "380C",
      "380",
      "380",
      "380",
      "372",
      "373",
      "351",
      "324",
      "303",
      "283",
      "261",
      "240",
      "219",
      "199",
      "180",
      "162",
      "158",
      "143",
      "125",
      "107",
      "100",
      "088",
      "075",
      "071",
      "059",
      "046",
      "034",
      "032",
      "023",
      "014",
      "005"
    ],
    "swim:geom": "path",
    "swim:speeds": [
      168,
      165,
      196,
      236,
      267,
      274,
      290,
      337,
      350,
      366,
      386,
      394,
      409,
      416,
      426,
      437,
      439,
      454,
      458,
      444,
      442,
      442,
      443,
      453,
      468,
      470,
      470,
      469,
      468,
      468,
      468,
      468,
      469,
      469,
      469,
      466,
      467,
      453,
      450,
      439,
      422,
      418,
      417,
      404,
      388,
      376,
      363,
      357,
      352,
      341,
      338,
      305,
      291,
      290,
      290,
      288,
      259,
      232,
      219,
      209,
      186,
      151
    ],
    "swim:timestamps": [
      1786494696,
      1786494704,
      1786494726,
      1786494764,
      1786494824,
      1786494884,
      1786494944,
      1786495005,
      1786495065,
      1786495125,
      1786495185,
      1786495245,
      1786495299,
      1786495359,
      1786495365,
      1786495425,
      1786495480,
      1786495540,
      1786495600,
      1786495666,
      1786495726,
      1786495780,
      1786495786,
      1786495840,
      1786495906,
      1786495960,
      1786495966,
      1786496020,
      1786496080,
      1786496086,
      1786496140,
      1786496146,
      1786496206,
      1786496260,
      1786496266,
      1786496321,
      1786496327,
      1786496381,
      1786496441,
      1786496501,
      1786496559,
      1786496621,
      1786496681,
      1786496741,
      1786496801,
      1786496861,
      1786496921,
      1786496931,
      1786496981,
      1786497041,
      1786497101,
      1786497161,
      1786497222,
      1786497282,
      1786497292,
      1786497342,
      1786497402,
      1786497462,
      1786497472,
      1786497522,
      1786497582,
      1786497646
    ],
    "wof:geomhash": "68d7f61c06d49eab5ddbdcd6b7b83056",
    "wof:id": 2047925549,
    "wof:repo": "sfomuseum-data-flights-2026-08"
  },
  "bbox": [
    -122.33333333333333,
    33.91888888888889,
    -118.45,
    37.6
  ],
  "geometry": {"type":"LineString","coordinates":[[-118.45,33.95],[-118.45055555555555,33.94555555555555],[-118.46666666666667,33.95],[-118.51972222222223,33.94166666666666],[-118.60694444444444,33.93416666666666],[-118.69916666666667,33.926944444444445],[-118.79444444444444,33.919999999999995],[-118.90027777777779,33.91888888888889],[-119.01694444444445,33.926944444444445],[-119.11027777777777,33.990833333333335],[-119.19722222222222,34.06888888888889],[-119.28833333333333,34.150277777777774],[-119.36722222222221,34.22],[-119.46333333333334,34.30694444444444],[-119.47805555555556,34.31916666666667],[-119.58,34.409166666666664],[-119.66777777777779,34.486666666666665],[-119.7761111111111,34.581944444444446],[-119.88166666666666,34.67444444444444],[-120.00305555555556,34.78055555555555],[-120.10555555555555,34.87027777777778],[-120.18972222222223,34.94333333333333],[-120.20805555555556,34.95916666666667],[-120.2975,35.03666666666666],[-120.42166666666667,35.14388888888889],[-120.51861111111111,35.22777777777778],[-120.53027777777778,35.237500000000004],[-120.62944444444443,35.322500000000005],[-120.73527777777778,35.42361111111111],[-120.74138888888889,35.43083333333333],[-120.82805555555555,35.52861111111111],[-120.83444444444444,35.535555555555554],[-120.92833333333334,35.64111111111111],[-121.01861111111111,35.7425],[-121.01555555555555,35.73916666666667],[-121.11138888888888,35.847500000000004],[-121.10833333333333,35.844166666666666],[-121.20166666666667,35.94777777777777],[-121.29444444444444,36.049166666666665],[-121.38277777777778,36.14722222222222],[-121.46666666666667,36.233333333333334],[-121.55277777777778,36.335],[-121.63861111111112,36.42916666666667],[-121.71861111111112,36.52027777777778],[-121.7911111111111,36.61138888888889],[-121.85972222222222,36.698055555555555],[-121.9075,36.78972222222222],[-121.91666666666667,36.81666666666667],[-121.93472222222222,36.88611111111111],[-121.96305555555556,36.977222222222224],[-121.99777777777778,37.06638888888889],[-122.03111111111112,37.151666666666664],[-122.0611111111111,37.22777777777778],[-122.09083333333332,37.30416666666667],[-122.1,37.31666666666667],[-122.12083333333332,37.38],[-122.14527777777778,37.4525],[-122.16694444444445,37.51555555555556],[-122.16666666666667,37.53333333333333],[-122.21805555555555,37.55277777777778],[-122.2775,37.57777777777778],[-122.33333333333333,37.6]]}
}
