{
  "id": 2047974473,
  "type": "Feature",
  "properties": {
    "geom:area": 0,
    "geom:bbox": "-123.434530,37.435160,-122.393580,37.672190",
    "geom:latitude": 37.56528214490514,
    "geom:longitude": -122.91189987108959,
    "src:alt_label": "swim-takeoff",
    "src:geom": "swim",
    "swim:elevations": [
      183,
      289,
      531,
      955,
      1425,
      2743,
      3130,
      3257,
      3587,
      3779,
      4361,
      4673,
      4923,
      5512,
      5791,
      6066,
      6431,
      6763,
      7080
    ],
    "swim:geom": "takeoff",
    "swim:timestamps": [
      1786710609,
      1786710618,
      1786710638,
      1786710663,
      1786710717,
      1786710806,
      1786710832,
      1786710844,
      1786710892,
      1786710917,
      1786710957,
      1786710981,
      1786710998,
      1786711047,
      1786711068,
      1786711090,
      1786711120,
      1786711151,
      1786711179
    ],
    "wof:geomhash": "76e5a107ea7bf2a7c44a94c376464413",
    "wof:id": 2047974473,
    "wof:repo": "sfomuseum-data-flights-2026-08"
  },
  "bbox": [
    -123.43453,
    37.43516,
    -122.39358,
    37.67219
  ],
  "geometry": {"type":"LineString","coordinates":[[-122.39358,37.62669],[-122.40191,37.63036],[-122.42065,37.6386],[-122.44468,37.6492],[-122.50453,37.67219],[-122.63856,37.63986],[-122.67868,37.62945],[-122.69973,37.62385],[-122.78694,37.60133],[-122.83795,37.58838],[-122.92396,37.56671],[-122.97606,37.55342],[-123.01241,37.54416],[-123.12405,37.51554],[-123.17108,37.50344],[-123.22172,37.49036],[-123.29275,37.47197],[-123.36636,37.45289],[-123.43453,37.43516]]}
}
