{
  "id": 2032120901,
  "type": "Feature",
  "properties": {
    "geom:area": 0,
    "geom:bbox": "-122.407800,37.626190,-121.243330,38.426690",
    "geom:latitude": 38.01621277418299,
    "geom:longitude": -121.83426783845529,
    "src:alt_label": "swim-takeoff",
    "src:geom": "swim",
    "swim:elevations": [
      152,
      244,
      282,
      325,
      600,
      1068,
      1455,
      2201,
      2601,
      2900,
      3040,
      3083,
      3511,
      3822,
      4747,
      4840,
      5581,
      5639,
      5673,
      6096,
      6609,
      7112,
      7271,
      7629,
      7848,
      8004,
      8233
    ],
    "swim:geom": "takeoff",
    "swim:timestamps": [
      1785939926,
      1785939936,
      1785939939,
      1785939942,
      1785939970,
      1785940005,
      1785940056,
      1785940105,
      1785940138,
      1785940162,
      1785940172,
      1785940176,
      1785940209,
      1785940254,
      1785940328,
      1785940337,
      1785940402,
      1785940406,
      1785940410,
      1785940449,
      1785940503,
      1785940557,
      1785940574,
      1785940612,
      1785940637,
      1785940657,
      1785940688
    ],
    "wof:geomhash": "9178ff1f2748d18015cf95a1a90c596d",
    "wof:id": 2032120901,
    "wof:repo": "sfomuseum-data-flights-2026-08"
  },
  "bbox": [
    -122.4078,
    37.62619,
    -121.24333,
    38.42669
  ],
  "geometry": {"type":"LineString","coordinates":[[-122.39275,37.62619],[-122.40156,37.63008],[-122.4039,37.63168],[-122.40612,37.63358],[-122.4078,37.65681],[-122.37047,37.67068],[-122.30024,37.68899],[-122.23086,37.72226],[-122.18882,37.75246],[-122.15637,37.77612],[-122.14269,37.78612],[-122.13785,37.78966],[-122.09264,37.82278],[-122.02344,37.87418],[-121.9043,37.96113],[-121.89035,37.97155],[-121.77992,38.05304],[-121.7729,38.05817],[-121.76658,38.0628],[-121.69929,38.11221],[-121.60235,38.18251],[-121.503,38.2544],[-121.47063,38.27781],[-121.39857,38.32982],[-121.3502,38.36143],[-121.30721,38.38716],[-121.24333,38.42669]]}
}
