{
  "id": 2047941375,
  "type": "Feature",
  "properties": {
    "geom:area": 0,
    "geom:bbox": "-122.416667,32.739722,-117.214444,37.616667",
    "geom:latitude": 35.07907477360845,
    "geom:longitude": -120.13215243170939,
    "src:alt_label": "swim-path",
    "src:geom": "swim",
    "swim:altitudes": [
      "010",
      "036",
      "051",
      "065",
      "097",
      "118",
      "140",
      "158",
      "179",
      "199C",
      "200C",
      "200C",
      "200C",
      "200C",
      "200C",
      "200C",
      "200C",
      "209",
      "222",
      "231",
      "248",
      "260C",
      "260C",
      "260C",
      "260C",
      "260C",
      "262",
      "276",
      "280C",
      "280C",
      "280C",
      "280C",
      "280C",
      "280C",
      "280C",
      "280C",
      "277",
      "267",
      "255",
      "240",
      "225",
      "209",
      "200",
      "200",
      "200",
      "200",
      "200",
      "200",
      "200",
      "200",
      "200",
      "194",
      "187",
      "165",
      "159",
      "140",
      "140",
      "139",
      "138",
      "131",
      "127",
      "114",
      "113",
      "101",
      "100",
      "097",
      "092",
      "090",
      "088",
      "086",
      "079",
      "076",
      "069",
      "065",
      "060",
      "055",
      "047",
      "041",
      "037",
      "033",
      "028",
      "023",
      "018",
      "013",
      "008",
      "006",
      "001"
    ],
    "swim:geom": "path",
    "swim:speeds": [
      172,
      232,
      272,
      275,
      292,
      338,
      368,
      401,
      418,
      420,
      422,
      424,
      424,
      426,
      430,
      431,
      432,
      434,
      448,
      456,
      464,
      477,
      480,
      482,
      482,
      483,
      484,
      494,
      496,
      439,
      435,
      434,
      448,
      445,
      441,
      439,
      437,
      438,
      435,
      429,
      415,
      403,
      390,
      388,
      387,
      387,
      429,
      435,
      432,
      435,
      433,
      435,
      434,
      420,
      420,
      388,
      382,
      315,
      315,
      276,
      273,
      257,
      259,
      251,
      250,
      250,
      256,
      252,
      255,
      254,
      251,
      253,
      240,
      243,
      239,
      242,
      248,
      244,
      225,
      226,
      218,
      217,
      184,
      172,
      146,
      149,
      148
    ],
    "swim:timestamps": [
      1786565114,
      1786565174,
      1786565205,
      1786565234,
      1786565294,
      1786565354,
      1786565414,
      1786565474,
      1786565534,
      1786565594,
      1786565654,
      1786565715,
      1786565775,
      1786565835,
      1786565895,
      1786565955,
      1786566015,
      1786566075,
      1786566135,
      1786566195,
      1786566255,
      1786566315,
      1786566376,
      1786566436,
      1786566496,
      1786566556,
      1786566616,
      1786566676,
      1786566736,
      1786566796,
      1786566856,
      1786566916,
      1786566976,
      1786567037,
      1786567097,
      1786567157,
      1786567217,
      1786567277,
      1786567337,
      1786567397,
      1786567457,
      1786567519,
      1786567579,
      1786567639,
      1786567699,
      1786567759,
      1786567819,
      1786567864,
      1786567879,
      1786567924,
      1786567939,
      1786567984,
      1786567999,
      1786568044,
      1786568059,
      1786568104,
      1786568119,
      1786568164,
      1786568179,
      1786568219,
      1786568240,
      1786568284,
      1786568300,
      1786568360,
      1786568405,
      1786568480,
      1786568525,
      1786568540,
      1786568585,
      1786568600,
      1786568650,
      1786568672,
      1786568710,
      1786568732,
      1786568765,
      1786568792,
      1786568826,
      1786568852,
      1786568885,
      1786568913,
      1786568945,
      1786568973,
      1786569005,
      1786569033,
      1786569066,
      1786569093,
      1786569125
    ],
    "wof:geomhash": "6cb63f60e16ab156275edf50904c7e8c",
    "wof:id": 2047941375,
    "wof:repo": "sfomuseum-data-flights-2026-08"
  },
  "bbox": [
    -122.41666666666667,
    32.73972222222222,
    -117.21444444444445,
    37.61666666666667
  ],
  "geometry": {"type":"LineString","coordinates":[[-117.21444444444445,32.73972222222222],[-117.27583333333334,32.775],[-117.31666666666666,32.8],[-117.34888888888888,32.818333333333335],[-117.42444444444445,32.867777777777775],[-117.51083333333334,32.92333333333333],[-117.60749999999999,32.985],[-117.71222222222222,33.051944444444445],[-117.80499999999999,33.13722222222222],[-117.915,33.21055555555556],[-118.04555555555555,33.25361111111111],[-118.17750000000001,33.29666666666667],[-118.31138888888889,33.34],[-118.43972222222223,33.390277777777776],[-118.55111111111111,33.466944444444444],[-118.66222222222223,33.54472222222222],[-118.77444444444444,33.62444444444444],[-118.8875,33.70277777777778],[-118.97972222222222,33.76611111111111],[-119.08472222222221,33.8575],[-119.18694444444445,33.955555555555556],[-119.2925,34.05638888888888],[-119.39972222222222,34.15833333333333],[-119.50638888888889,34.25972222222222],[-119.6125,34.36027777777778],[-119.72055555555556,34.46222222222222],[-119.82805555555555,34.56388888888888],[-119.9475,34.68],[-120.05638888888889,34.785],[-120.17083333333333,34.86694444444444],[-120.30499999999999,34.91111111111111],[-120.43444444444445,34.96416666666667],[-120.45666666666666,35.07916666666667],[-120.4588888888889,35.198055555555555],[-120.55361111111111,35.291666666666664],[-120.64833333333334,35.38361111111111],[-120.74305555555556,35.475833333333334],[-120.80527777777777,35.584722222222226],[-120.88083333333333,35.70722222222223],[-120.9475,35.81333333333333],[-121.01166666666667,35.91638888888889],[-121.07444444444444,36.018055555555556],[-121.13527777777779,36.115],[-121.19638888888889,36.21083333333333],[-121.26027777777777,36.30361111111111],[-121.33611111111111,36.39277777777778],[-121.42666666666668,36.48111111111111],[-121.5,36.55],[-121.51833333333333,36.578611111111115],[-121.6,36.65],[-121.62055555555555,36.66611111111111],[-121.7,36.733333333333334],[-121.72361111111111,36.754444444444445],[-121.8,36.81666666666667],[-121.82,36.837500000000006],[-121.9,36.9],[-121.91250000000001,36.916666666666664],[-121.96666666666667,36.983333333333334],[-121.96972222222223,36.995],[-122,37.05],[-122.01583333333333,37.06166666666666],[-122.08333333333333,37.06666666666667],[-122.1061111111111,37.07166666666667],[-122.19166666666668,37.08027777777778],[-122.25,37.1],[-122.3275,37.15611111111111],[-122.36666666666666,37.2],[-122.36999999999999,37.214444444444446],[-122.38333333333334,37.266666666666666],[-122.39194444444445,37.282777777777774],[-122.41666666666667,37.35],[-122.41055555555556,37.36527777777778],[-122.36666666666666,37.38333333333333],[-122.33138888888888,37.38027777777778],[-122.28333333333333,37.36666666666667],[-122.25888888888889,37.38638888888889],[-122.23333333333333,37.416666666666664],[-122.21166666666667,37.443888888888885],[-122.18333333333334,37.483333333333334],[-122.18472222222222,37.50222222222222],[-122.2,37.53333333333333],[-122.22222222222223,37.55277777777778],[-122.26666666666667,37.56666666666667],[-122.28111111111112,37.57888888888889],[-122.3,37.583333333333336],[-122.32472222222222,37.597500000000004],[-122.35,37.61666666666667]]}
}
