{
  "id": 2032131527,
  "type": "Feature",
  "properties": {
    "geom:area": 0,
    "geom:bbox": "-123.491250,37.262070,-122.133660,37.612560",
    "geom:latitude": 37.35836888236838,
    "geom:longitude": -122.70167471350004,
    "src:alt_label": "swim-approach",
    "src:geom": "swim",
    "swim:elevations": [
      5395,
      5164,
      5009,
      4972,
      4906,
      4568,
      4223,
      3989,
      3668,
      3332,
      3194,
      3052,
      3048,
      3048,
      3048,
      2928,
      2749,
      2609,
      2516,
      2436,
      2459,
      2439,
      2133,
      2134,
      2134,
      2134,
      2033,
      1883,
      1646,
      1347,
      1207,
      1134,
      912,
      915,
      853,
      755,
      645,
      501,
      364,
      190,
      116,
      60,
      21
    ],
    "swim:geom": "approach",
    "swim:timestamps": [
      1786007303,
      1786007326,
      1786007341,
      1786007345,
      1786007351,
      1786007390,
      1786007431,
      1786007457,
      1786007497,
      1786007537,
      1786007563,
      1786007589,
      1786007627,
      1786007666,
      1786007671,
      1786007697,
      1786007723,
      1786007746,
      1786007761,
      1786007779,
      1786007832,
      1786007851,
      1786007932,
      1786007952,
      1786007980,
      1786007994,
      1786008027,
      1786008052,
      1786008086,
      1786008114,
      1786008127,
      1786008133,
      1786008157,
      1786008164,
      1786008183,
      1786008203,
      1786008221,
      1786008249,
      1786008283,
      1786008324,
      1786008342,
      1786008351,
      1786008360
    ],
    "wof:geomhash": "e456eb9285641706f5fd54c29d332487",
    "wof:id": 2032131527,
    "wof:repo": "sfomuseum-data-flights-2026-08"
  },
  "bbox": [
    -123.49125,
    37.26207,
    -122.13366,
    37.61256
  ],
  "geometry": {"type":"LineString","coordinates":[[-123.49125,37.30969],[-123.44371,37.30602],[-123.41065,37.30346],[-123.40423,37.30292],[-123.39146,37.30187],[-123.31039,37.2951],[-123.22653,37.28813],[-123.17388,37.28384],[-123.0937,37.27711],[-123.01469,37.27046],[-122.96511,37.26635],[-122.91474,37.26207],[-122.84183,37.26299],[-122.76788,37.27987],[-122.75919,37.2819],[-122.71419,37.29253],[-122.66963,37.30301],[-122.63123,37.31184],[-122.60501,37.31792],[-122.57546,37.32482],[-122.48628,37.34538],[-122.45429,37.35278],[-122.32142,37.38321],[-122.29131,37.39019],[-122.25154,37.3993],[-122.23158,37.40386],[-122.18586,37.41434],[-122.15704,37.4301],[-122.14199,37.46749],[-122.13366,37.49868],[-122.13746,37.51198],[-122.14151,37.51767],[-122.16502,37.53658],[-122.17413,37.539],[-122.19686,37.54617],[-122.21927,37.55551],[-122.23892,37.56384],[-122.26704,37.57564],[-122.2962,37.58792],[-122.32785,37.60112],[-122.34162,37.60694],[-122.34831,37.60976],[-122.35478,37.61256]]}
}
