{
  "id": 2047902967,
  "type": "Feature",
  "properties": {
    "geom:area": 0,
    "geom:bbox": "-122.562700,36.723440,-122.355190,37.665430",
    "geom:latitude": 37.23421621676512,
    "geom:longitude": -122.51555744461714,
    "src:alt_label": "swim-takeoff",
    "src:geom": "swim",
    "swim:elevations": [
      183,
      213,
      360,
      724,
      1163,
      1191,
      1370,
      1642,
      1943,
      2454,
      3144,
      3353,
      3570,
      3737,
      4767,
      5473,
      5595,
      5751,
      6103,
      6266,
      6581,
      6850,
      6973,
      7172,
      7446,
      7682,
      7882
    ],
    "swim:geom": "takeoff",
    "swim:timestamps": [
      1786267288,
      1786267292,
      1786267305,
      1786267333,
      1786267375,
      1786267381,
      1786267405,
      1786267428,
      1786267446,
      1786267480,
      1786267525,
      1786267546,
      1786267578,
      1786267590,
      1786267666,
      1786267735,
      1786267745,
      1786267762,
      1786267794,
      1786267809,
      1786267839,
      1786267863,
      1786267876,
      1786267895,
      1786267925,
      1786267951,
      1786267976
    ],
    "wof:geomhash": "dcb70d350bcee6fae8735721df078234",
    "wof:id": 2047902967,
    "wof:repo": "sfomuseum-data-flights-2026-08"
  },
  "bbox": [
    -122.5627,
    36.72344,
    -122.35519,
    37.66543
  ],
  "geometry": {"type":"LineString","coordinates":[[-122.39425,37.62675],[-122.39775,37.62825],[-122.40891,37.63313],[-122.43555,37.64471],[-122.47666,37.6626],[-122.48356,37.66504],[-122.51626,37.66543],[-122.54513,37.64843],[-122.55443,37.62593],[-122.55541,37.58054],[-122.556,37.51898],[-122.55644,37.48846],[-122.55713,37.43774],[-122.55728,37.41793],[-122.55922,37.28931],[-122.56054,37.16389],[-122.5607,37.14523],[-122.56107,37.11333],[-122.5627,37.05014],[-122.56003,37.02117],[-122.53374,36.96599],[-122.50365,36.92495],[-122.48678,36.90172],[-122.46185,36.86747],[-122.42386,36.81548],[-122.38972,36.76878],[-122.35519,36.72344]]}
}
