{
  "id": 2047895081,
  "type": "Feature",
  "properties": {
    "geom:area": 0,
    "geom:bbox": "-122.359630,37.454920,-121.249790,37.614400",
    "geom:latitude": 37.533257773507806,
    "geom:longitude": -121.81288150231421,
    "src:alt_label": "swim-approach",
    "src:geom": "swim",
    "swim:elevations": [
      4746,
      4599,
      4502,
      4452,
      4104,
      3909,
      3688,
      3591,
      3591,
      3437,
      3255,
      3022,
      2864,
      2660,
      2554,
      2319,
      2195,
      2140,
      1963,
      1913,
      1781,
      1586,
      1430,
      1266,
      1095,
      917,
      830,
      736,
      518,
      426,
      382,
      338,
      173,
      114,
      0
    ],
    "swim:geom": "approach",
    "swim:timestamps": [
      1786320146,
      1786320165,
      1786320178,
      1786320184,
      1786320233,
      1786320258,
      1786320292,
      1786320323,
      1786320330,
      1786320360,
      1786320384,
      1786320410,
      1786320426,
      1786320466,
      1786320485,
      1786320538,
      1786320565,
      1786320574,
      1786320621,
      1786320634,
      1786320688,
      1786320715,
      1786320742,
      1786320770,
      1786320804,
      1786320837,
      1786320858,
      1786320877,
      1786320926,
      1786320949,
      1786320956,
      1786320968,
      1786321015,
      1786321030,
      1786321056
    ],
    "wof:geomhash": "cb50e6ba37a3d9cc96c17e66d3ee98c0",
    "wof:id": 2047895081,
    "wof:repo": "sfomuseum-data-flights-2026-08"
  },
  "bbox": [
    -122.35963,
    37.45492,
    -121.24979,
    37.6144
  ],
  "geometry": {"type":"LineString","coordinates":[[-121.24979,37.59443],[-121.28412,37.58986],[-121.30776,37.58709],[-121.31917,37.58585],[-121.40712,37.57613],[-121.45142,37.57098],[-121.51229,37.56391],[-121.56172,37.55813],[-121.57303,37.55687],[-121.61656,37.55172],[-121.64919,37.54497],[-121.68274,37.53686],[-121.7049,37.53159],[-121.7487,37.5086],[-121.76627,37.4935],[-121.82605,37.46584],[-121.86134,37.46297],[-121.87342,37.46189],[-121.9354,37.45644],[-121.95233,37.45492],[-122.01814,37.47047],[-122.04796,37.48313],[-122.07777,37.49583],[-122.10882,37.50887],[-122.14498,37.5242],[-122.17898,37.53858],[-122.20162,37.54809],[-122.22028,37.55599],[-122.26514,37.57491],[-122.28306,37.5825],[-122.28833,37.5847],[-122.29685,37.58814],[-122.33052,37.60237],[-122.34105,37.6068],[-122.35963,37.6144]]}
}
