{
  "id": 2047968597,
  "type": "Feature",
  "properties": {
    "geom:area": 0,
    "geom:bbox": "-123.176530,37.358140,-122.118190,38.377750",
    "geom:latitude": 37.81996634497911,
    "geom:longitude": -122.54272053328746,
    "src:alt_label": "swim-approach",
    "src:geom": "swim",
    "swim:elevations": [
      7620,
      7425,
      7061,
      6844,
      6635,
      6328,
      6104,
      5784,
      5469,
      5271,
      5010,
      4721,
      4576,
      4351,
      3900,
      3627,
      3443,
      3412,
      3381,
      3353,
      3353,
      3353,
      3353,
      3353,
      3117,
      3050,
      2930,
      2592,
      2486,
      2269,
      2133,
      2083,
      2059,
      2038,
      1945,
      1812,
      1707,
      1585,
      1282,
      1240,
      1103,
      1008,
      978,
      827,
      614,
      423,
      333,
      236,
      138,
      62,
      214
    ],
    "swim:geom": "approach",
    "swim:timestamps": [
      1786747526,
      1786747547,
      1786747588,
      1786747613,
      1786747638,
      1786747673,
      1786747698,
      1786747734,
      1786747768,
      1786747790,
      1786747820,
      1786747853,
      1786747871,
      1786747895,
      1786747946,
      1786747973,
      1786748007,
      1786748019,
      1786748031,
      1786748060,
      1786748070,
      1786748112,
      1786748141,
      1786748174,
      1786748216,
      1786748229,
      1786748250,
      1786748304,
      1786748320,
      1786748360,
      1786748381,
      1786748398,
      1786748401,
      1786748404,
      1786748428,
      1786748455,
      1786748470,
      1786748494,
      1786748548,
      1786748568,
      1786748590,
      1786748608,
      1786748617,
      1786748643,
      1786748681,
      1786748721,
      1786748745,
      1786748769,
      1786748791,
      1786748807,
      1786748825
    ],
    "wof:geomhash": "63c5575398489b26f24d6cef35c2913e",
    "wof:id": 2047968597,
    "wof:repo": "sfomuseum-data-flights-2026-08"
  },
  "bbox": [
    -123.17653,
    37.35814,
    -122.11819,
    38.37775
  ],
  "geometry": {"type":"LineString","coordinates":[[-123.17653,38.37775],[-123.12833,38.35958],[-123.03629,38.32551],[-122.98065,38.30459],[-122.92695,38.28435],[-122.8509,38.25599],[-122.80176,38.23475],[-122.75586,38.18209],[-122.73805,38.12526],[-122.72783,38.08951],[-122.71373,38.03933],[-122.69809,37.98435],[-122.68963,37.95543],[-122.67782,37.91756],[-122.62035,37.84927],[-122.58456,37.81565],[-122.54051,37.77427],[-122.5255,37.76021],[-122.51091,37.74637],[-122.47698,37.71425],[-122.46541,37.70348],[-122.41876,37.65954],[-122.38722,37.62985],[-122.35442,37.59377],[-122.32954,37.54251],[-122.32044,37.52665],[-122.30573,37.50233],[-122.28006,37.43954],[-122.28615,37.41897],[-122.28192,37.37253],[-122.25505,37.35814],[-122.22735,37.35882],[-122.22301,37.36014],[-122.21886,37.3618],[-122.18993,37.37826],[-122.15804,37.39799],[-122.1399,37.40973],[-122.12229,37.43366],[-122.11819,37.49298],[-122.13256,37.51042],[-122.15135,37.52644],[-122.16865,37.53399],[-122.17782,37.53776],[-122.20462,37.54932],[-122.24291,37.5655],[-122.27954,37.58088],[-122.29805,37.5887],[-122.31778,37.597],[-122.33487,37.60418],[-122.34799,37.60975],[-122.36292,37.61635]]}
}
