{
  "id": 2047941533,
  "type": "Feature",
  "properties": {
    "geom:area": 0,
    "geom:bbox": "-122.357700,36.728430,-121.882860,37.611490",
    "geom:latitude": 37.21572314932989,
    "geom:longitude": -122.07125987809418,
    "src:alt_label": "swim-approach",
    "src:geom": "swim",
    "swim:elevations": [
      5272,
      5104,
      4721,
      4449,
      4279,
      3978,
      3691,
      3452,
      3293,
      3138,
      3072,
      2985,
      2866,
      2660,
      2573,
      2182,
      2127,
      1908,
      1686,
      1626,
      1559,
      1444,
      1284,
      1095,
      1005,
      913,
      769,
      632,
      288,
      153,
      90,
      42,
      16
    ],
    "swim:geom": "approach",
    "swim:timestamps": [
      1786566896,
      1786566914,
      1786566954,
      1786566984,
      1786567001,
      1786567031,
      1786567060,
      1786567083,
      1786567101,
      1786567129,
      1786567158,
      1786567179,
      1786567196,
      1786567226,
      1786567234,
      1786567282,
      1786567290,
      1786567317,
      1786567343,
      1786567352,
      1786567367,
      1786567388,
      1786567418,
      1786567459,
      1786567484,
      1786567502,
      1786567548,
      1786567567,
      1786567608,
      1786567638,
      1786567660,
      1786567676,
      1786567682
    ],
    "wof:geomhash": "b14bfcf26815e028b6ed1b312245ad52",
    "wof:id": 2047941533,
    "wof:repo": "sfomuseum-data-flights-2026-08"
  },
  "bbox": [
    -122.3577,
    36.72843,
    -121.88286,
    37.61149
  ],
  "geometry": {"type":"LineString","coordinates":[[-121.88286,36.72843],[-121.89733,36.75618],[-121.91687,36.82365],[-121.93095,36.87373],[-121.93872,36.90125],[-121.95273,36.95045],[-121.9703,36.9959],[-121.98421,37.03168],[-121.99485,37.05909],[-122.01177,37.10262],[-122.02794,37.1435],[-122.03919,37.17229],[-122.04781,37.19459],[-122.06241,37.23256],[-122.06638,37.24264],[-122.09014,37.30239],[-122.09389,37.31222],[-122.10711,37.34539],[-122.11993,37.37808],[-122.12371,37.38853],[-122.13012,37.40693],[-122.13856,37.43237],[-122.15091,37.46886],[-122.16743,37.5166],[-122.18041,37.54257],[-122.19966,37.55105],[-122.24595,37.56446],[-122.26354,37.57221],[-122.30049,37.58724],[-122.32425,37.59736],[-122.34097,37.60447],[-122.353,37.60945],[-122.3577,37.61149]]}
}
