{
  "id": 2047983333,
  "type": "Feature",
  "properties": {
    "geom:area": 0,
    "geom:bbox": "-123.314830,37.627810,-122.397060,38.487890",
    "geom:latitude": 38.01717357640811,
    "geom:longitude": -122.88863006072422,
    "src:alt_label": "swim-takeoff",
    "src:geom": "swim",
    "swim:elevations": [
      183,
      520,
      798,
      1000,
      1245,
      1537,
      1595,
      2230,
      2576,
      2876,
      3211,
      3424,
      3508,
      3723,
      3969,
      4247,
      4591,
      4962,
      5117,
      5486,
      5803,
      5975,
      6314,
      6523,
      6675
    ],
    "swim:geom": "takeoff",
    "swim:timestamps": [
      1786839085,
      1786839108,
      1786839138,
      1786839156,
      1786839195,
      1786839234,
      1786839240,
      1786839290,
      1786839323,
      1786839350,
      1786839384,
      1786839417,
      1786839438,
      1786839469,
      1786839499,
      1786839526,
      1786839558,
      1786839594,
      1786839609,
      1786839654,
      1786839688,
      1786839705,
      1786839744,
      1786839770,
      1786839794
    ],
    "wof:geomhash": "d56f91491effa2777164e00012400353",
    "wof:id": 2047983333,
    "wof:repo": "sfomuseum-data-flights-2026-08"
  },
  "bbox": [
    -123.31483,
    37.62781,
    -122.39706,
    38.48789
  ],
  "geometry": {"type":"LineString","coordinates":[[-122.39706,37.62781],[-122.41939,37.63742],[-122.4496,37.65066],[-122.46815,37.65913],[-122.51355,37.68115],[-122.56276,37.70981],[-122.57084,37.71441],[-122.63818,37.7535],[-122.68359,37.78131],[-122.72176,37.80424],[-122.76745,37.83732],[-122.80321,37.87932],[-122.82721,37.90851],[-122.86476,37.95406],[-122.90328,37.99979],[-122.93869,38.04144],[-122.98077,38.09161],[-123.02867,38.14986],[-123.04893,38.17432],[-123.11296,38.25014],[-123.15943,38.30581],[-123.18384,38.33491],[-123.24111,38.40223],[-123.27892,38.44603],[-123.31483,38.48789]]}
}
