{
  "id": 2047960119,
  "type": "Feature",
  "properties": {
    "date:cessation_lower": "2026-08-13",
    "date:cessation_upper": "2026-08-13",
    "date:inception_lower": "2026-08-13",
    "date:inception_upper": "2026-08-13",
    "edtf:cessation": "2026-08-13T04:59:01Z",
    "edtf:inception": "2026-08-13T02:45:00Z",
    "flysfo:actual_timestamp": -1,
    "flysfo:airline": "UA",
    "flysfo:base_airline": "",
    "flysfo:base_flight_number": "4065",
    "flysfo:date": "2026-08-13",
    "flysfo:estimated_timestamp": 1786641840,
    "flysfo:event": "D",
    "flysfo:flight_number": "UA1921",
    "flysfo:gate": "F22",
    "flysfo:journey": "SFO-ORD",
    "flysfo:scheduled_timestamp": 1786640700,
    "flysfo:timestamp": 1786641840,
    "geom:area": 0,
    "geom:bbox": "-122.370943,37.617990,-87.894364,41.983038",
    "geom:latitude": 39.800514,
    "geom:longitude": -105.1326535,
    "iata:airline": "UA",
    "iata:base_airline": "",
    "icao:aircraft": "B753",
    "icao:airline": "UAL",
    "icao:base_airline": "ACA",
    "lbl:latitude": 37.621107,
    "lbl:longitude": -122.389874,
    "sfomuseum:aircraft_id": 1159289945,
    "sfomuseum:airline_id": 1159285413,
    "sfomuseum:arrival_id": 102533631,
    "sfomuseum:base_flight_id": "20260813-D-ACA-4065",
    "sfomuseum:departure_id": 102527513,
    "sfomuseum:flight_id": "20260813-D-UAL-1921",
    "sfomuseum:flight_number": [
      "UAL1921",
      "UA1921"
    ],
    "sfomuseum:placetype": "flight",
    "src:geom": "flysfo",
    "src:geom_alt": [
      "swim-path",
      "swim-takeoff"
    ],
    "swim:tail_number": "N75851",
    "wof:belongsto": [
      1947304067,
      102527513,
      1947304451,
      102191575,
      85633793,
      102087579,
      85922583,
      554784711,
      85688637,
      1947304475,
      1947304447,
      102085387
    ],
    "wof:concordances": {
      "swim:flight_ref": "154426362"
    },
    "wof:country": "US",
    "wof:created": 1786724302,
    "wof:geomhash": "7a75cc81bf790964b92a4927d3978f50",
    "wof:hierarchy": [
      {
        "building_id": 1947304067,
        "campus_id": 102527513,
        "concourse_id": 1947304451,
        "continent_id": 102191575,
        "country_id": 85633793,
        "county_id": 102087579,
        "custom_id": 2047960119,
        "flight_id": 2047960119,
        "locality_id": 85922583,
        "postalcode_id": 554784711,
        "region_id": 85688637,
        "venue_id": 1947304475,
        "wing_id": 1947304447
      },
      {
        "building_id": 1947304067,
        "campus_id": 102527513,
        "concourse_id": 1947304451,
        "continent_id": 102191575,
        "country_id": 85633793,
        "county_id": 102085387,
        "custom_id": 2047960119,
        "flight_id": 2047960119,
        "region_id": 85688637,
        "venue_id": 1947304475,
        "wing_id": 1947304447
      }
    ],
    "wof:id": 2047960119,
    "wof:involves": [
      102533631,
      102527513,
      1159285413,
      1947304475,
      1159283597,
      1159289945
    ],
    "wof:lastmodified": 1786724512,
    "wof:name": "UA1921 (SFO-ORD)",
    "wof:parent_id": 1947304475,
    "wof:placetype": "custom",
    "wof:placetype_alt": [
      "flight"
    ],
    "wof:repo": "sfomuseum-data-flights-2026-08",
    "wof:superseded_by": [],
    "wof:supersedes": []
  },
  "bbox": [
    -122.370943,
    37.61799,
    -87.894364,
    41.983038
  ],
  "geometry": {"type":"MultiPoint","coordinates":[[-122.370943,37.61799],[-87.894364,41.983038]]}
}
