{
  "id": 2047969931,
  "type": "Feature",
  "properties": {
    "geom:area": 0,
    "geom:bbox": "-123.486920,37.199290,-122.146370,37.612260",
    "geom:latitude": 37.33599161162246,
    "geom:longitude": -122.6693264487472,
    "src:alt_label": "swim-approach",
    "src:geom": "swim",
    "swim:elevations": [
      5243,
      4765,
      4418,
      4319,
      4021,
      3901,
      3720,
      3429,
      3398,
      3176,
      3049,
      3048,
      2970,
      2708,
      2619,
      2454,
      2438,
      2438,
      2438,
      2388,
      2294,
      2106,
      1989,
      1830,
      1829,
      1829,
      1829,
      1829,
      1829,
      1829,
      1766,
      1644,
      1562,
      1496,
      1347,
      1188,
      974,
      945,
      954,
      745,
      699,
      538,
      305,
      270,
      88,
      31
    ],
    "swim:geom": "approach",
    "swim:timestamps": [
      1786702283,
      1786702336,
      1786702378,
      1786702390,
      1786702431,
      1786702465,
      1786702489,
      1786702528,
      1786702532,
      1786702561,
      1786702614,
      1786702643,
      1786702670,
      1786702729,
      1786702744,
      1786702770,
      1786702819,
      1786702858,
      1786702888,
      1786702916,
      1786702935,
      1786702971,
      1786702990,
      1786703030,
      1786703042,
      1786703070,
      1786703119,
      1786703151,
      1786703185,
      1786703194,
      1786703237,
      1786703261,
      1786703294,
      1786703312,
      1786703342,
      1786703374,
      1786703416,
      1786703437,
      1786703468,
      1786703512,
      1786703523,
      1786703550,
      1786703608,
      1786703615,
      1786703659,
      1786703673
    ],
    "wof:geomhash": "b56d3751589e6c5f2c91e7162581a0b7",
    "wof:id": 2047969931,
    "wof:repo": "sfomuseum-data-flights-2026-08"
  },
  "bbox": [
    -123.48692,
    37.19929,
    -122.14637,
    37.61226
  ],
  "geometry": {"type":"LineString","coordinates":[[-123.48692,37.25103],[-123.37301,37.23274],[-123.28683,37.2188],[-123.26224,37.21481],[-123.1804,37.20155],[-123.11483,37.19929],[-123.07009,37.20902],[-122.99891,37.22573],[-122.99174,37.22745],[-122.93982,37.23965],[-122.85023,37.26069],[-122.80724,37.27077],[-122.76989,37.27949],[-122.68723,37.29872],[-122.66648,37.30359],[-122.63053,37.3118],[-122.56377,37.31132],[-122.51248,37.29618],[-122.47367,37.28458],[-122.4367,37.27354],[-122.41291,37.26735],[-122.36996,37.28469],[-122.3666,37.30524],[-122.38074,37.34839],[-122.38543,37.36129],[-122.39617,37.39056],[-122.40416,37.44332],[-122.36898,37.46035],[-122.32467,37.44991],[-122.31325,37.44647],[-122.25984,37.43047],[-122.2289,37.42101],[-122.1898,37.40927],[-122.16859,37.40915],[-122.14892,37.43059],[-122.14637,37.46032],[-122.1481,37.49821],[-122.16047,37.51377],[-122.18147,37.53686],[-122.2212,37.55642],[-122.23232,37.561],[-122.2578,37.57176],[-122.30442,37.59139],[-122.30939,37.59346],[-122.34281,37.60756],[-122.35413,37.61226]]}
}
