{
  "id": 2047881061,
  "type": "Feature",
  "properties": {
    "geom:area": 0,
    "geom:bbox": "-122.351111,33.395000,-112.077778,37.608611",
    "geom:latitude": 34.85110944206,
    "geom:longitude": -117.68640464881483,
    "src:alt_label": "swim-path",
    "src:geom": "swim",
    "swim:altitudes": [
      "030",
      "034",
      "036",
      "051",
      "067",
      "072",
      "088",
      "091",
      "105",
      "107",
      "112",
      "114",
      "129",
      "144",
      "146",
      "157",
      "160",
      "173",
      "177",
      "190",
      "193",
      "205",
      "208",
      "216",
      "218",
      "226",
      "230",
      "238",
      "241",
      "248",
      "250",
      "257",
      "258",
      "265",
      "266",
      "271",
      "284",
      "295",
      "303",
      "315",
      "320C",
      "320C",
      "320C",
      "320C",
      "320C",
      "320C",
      "320C",
      "320C",
      "320C",
      "320C",
      "320C",
      "320C",
      "320C",
      "320C",
      "320C",
      "320C",
      "320C",
      "320C",
      "320C",
      "320C",
      "320C",
      "320C",
      "320C",
      "319C",
      "320C",
      "320C",
      "320C",
      "320C",
      "320C",
      "320C",
      "320C",
      "320C",
      "320C",
      "320C",
      "320C",
      "320C",
      "320C",
      "320C",
      "320C",
      "320C",
      "320C",
      "320C",
      "320C",
      "320C",
      "320C",
      "320C",
      "320C",
      "320C",
      "320C",
      "320C",
      "320C",
      "320C",
      "320",
      "320",
      "319",
      "317",
      "302",
      "301",
      "296",
      "293",
      "275",
      "259",
      "256",
      "242",
      "241",
      "240",
      "240",
      "240",
      "240",
      "240",
      "236",
      "214",
      "196",
      "178",
      "162",
      "141",
      "124",
      "116",
      "103",
      "089",
      "081",
      "078",
      "069",
      "057",
      "043",
      "038",
      "030",
      "026",
      "016",
      "009",
      "002"
    ],
    "swim:geom": "path",
    "swim:speeds": [
      182,
      214,
      233,
      283,
      283,
      283,
      301,
      298,
      319,
      323,
      322,
      372,
      394,
      398,
      401,
      415,
      418,
      425,
      425,
      429,
      430,
      434,
      434,
      443,
      446,
      450,
      455,
      461,
      461,
      465,
      466,
      470,
      470,
      475,
      474,
      483,
      484,
      478,
      477,
      474,
      470,
      469,
      467,
      466,
      464,
      463,
      463,
      463,
      461,
      460,
      460,
      460,
      460,
      460,
      460,
      461,
      462,
      463,
      464,
      465,
      465,
      466,
      465,
      466,
      464,
      465,
      464,
      464,
      463,
      463,
      462,
      462,
      461,
      460,
      460,
      459,
      458,
      458,
      458,
      458,
      459,
      459,
      459,
      460,
      460,
      460,
      460,
      460,
      459,
      459,
      458,
      458,
      457,
      457,
      456,
      454,
      444,
      441,
      439,
      436,
      423,
      417,
      417,
      410,
      409,
      407,
      405,
      405,
      403,
      405,
      406,
      410,
      398,
      387,
      372,
      367,
      353,
      315,
      288,
      284,
      251,
      235,
      214,
      203,
      200,
      189,
      166,
      164,
      163,
      151,
      131
    ],
    "swim:timestamps": [
      1786224200,
      1786224235,
      1786224260,
      1786224320,
      1786224361,
      1786224380,
      1786224426,
      1786224440,
      1786224486,
      1786224501,
      1786224551,
      1786224561,
      1786224621,
      1786224671,
      1786224681,
      1786224732,
      1786224741,
      1786224792,
      1786224801,
      1786224852,
      1786224861,
      1786224912,
      1786224921,
      1786224972,
      1786224981,
      1786225032,
      1786225041,
      1786225092,
      1786225101,
      1786225152,
      1786225162,
      1786225212,
      1786225222,
      1786225272,
      1786225282,
      1786225344,
      1786225405,
      1786225465,
      1786225525,
      1786225585,
      1786225645,
      1786225705,
      1786225765,
      1786225825,
      1786225885,
      1786225945,
      1786226005,
      1786226065,
      1786226126,
      1786226186,
      1786226246,
      1786226306,
      1786226366,
      1786226426,
      1786226486,
      1786226546,
      1786226606,
      1786226666,
      1786226726,
      1786226787,
      1786226847,
      1786226895,
      1786226907,
      1786226955,
      1786226967,
      1786227015,
      1786227027,
      1786227075,
      1786227087,
      1786227135,
      1786227147,
      1786227195,
      1786227207,
      1786227255,
      1786227267,
      1786227327,
      1786227375,
      1786227387,
      1786227436,
      1786227448,
      1786227496,
      1786227508,
      1786227556,
      1786227568,
      1786227616,
      1786227628,
      1786227676,
      1786227688,
      1786227736,
      1786227748,
      1786227796,
      1786227808,
      1786227856,
      1786227868,
      1786227916,
      1786227928,
      1786227976,
      1786227988,
      1786228036,
      1786228048,
      1786228109,
      1786228157,
      1786228169,
      1786228217,
      1786228229,
      1786228277,
      1786228337,
      1786228397,
      1786228444,
      1786228457,
      1786228516,
      1786228577,
      1786228637,
      1786228697,
      1786228757,
      1786228817,
      1786228877,
      1786228938,
      1786228998,
      1786229058,
      1786229117,
      1786229183,
      1786229237,
      1786229298,
      1786229358,
      1786229418,
      1786229478,
      1786229538,
      1786229598,
      1786229659,
      1786229719
    ],
    "wof:geomhash": "ae041bedafb009968ce167c0c9594ea4",
    "wof:id": 2047881061,
    "wof:repo": "sfomuseum-data-flights-2026-08"
  },
  "bbox": [
    -122.35111111111111,
    33.394999999999996,
    -112.07777777777777,
    37.60861111111111
  ],
  "geometry": {"type":"LineString","coordinates":[[-112.07777777777777,33.42388888888889],[-112.11666666666666,33.416666666666664],[-112.14527777777778,33.40416666666667],[-112.23583333333333,33.394999999999996],[-112.3,33.4],[-112.32777777777777,33.41],[-112.4,33.416666666666664],[-112.42694444444444,33.42472222222222],[-112.5,33.43333333333333],[-112.52916666666667,33.439722222222215],[-112.60833333333333,33.45055555555556],[-112.63777777777779,33.450833333333335],[-112.76888888888888,33.4525],[-112.87472222222222,33.467222222222226],[-112.89888888888889,33.47166666666667],[-113.00694444444444,33.49166666666667],[-113.03333333333333,33.49666666666667],[-113.14500000000001,33.51722222222222],[-113.1713888888889,33.52222222222222],[-113.28444444444445,33.543055555555554],[-113.31083333333333,33.547777777777775],[-113.42527777777778,33.56888888888889],[-113.45222222222222,33.573888888888895],[-113.56972222222223,33.59527777777778],[-113.59638888888888,33.60027777777778],[-113.71555555555555,33.6225],[-113.76027777777777,33.630833333333335],[-113.88138888888888,33.653055555555554],[-113.91305555555556,33.659166666666664],[-114.03361111111111,33.68111111111111],[-114.06416666666667,33.68666666666666],[-114.18444444444445,33.70861111111111],[-114.2175,33.71472222222223],[-114.34277777777777,33.73722222222222],[-114.35499999999999,33.739444444444445],[-114.49944444444445,33.765277777777776],[-114.69222222222223,33.781666666666666],[-114.84916666666666,33.79083333333333],[-115.00888888888889,33.79972222222222],[-115.16555555555556,33.80833333333333],[-115.32027777777778,33.81666666666667],[-115.47527777777778,33.835],[-115.62138888888889,33.87722222222222],[-115.76472222222222,33.92305555555555],[-115.9088888888889,33.96888888888889],[-116.0525,34.014722222222225],[-116.19611111111111,34.06027777777778],[-116.33972222222222,34.10527777777778],[-116.48111111111112,34.14944444444444],[-116.62638888888888,34.19499999999999],[-116.77027777777778,34.23972222222222],[-116.91472222222222,34.284166666666664],[-117.06055555555555,34.32916666666667],[-117.22166666666666,34.37833333333333],[-117.35222222222221,34.418055555555554],[-117.49722222222222,34.46194444444445],[-117.64444444444445,34.506388888888885],[-117.7936111111111,34.551111111111105],[-117.94222222222223,34.595555555555556],[-118.08277777777778,34.65083333333333],[-118.21027777777778,34.72916666666667],[-118.29694444444445,34.786944444444444],[-118.33194444444445,34.809444444444445],[-118.44305555555556,34.88333333333333],[-118.45527777777778,34.89083333333333],[-118.54888888888888,34.94083333333333],[-118.60444444444444,34.964444444444446],[-118.69055555555556,35.00111111111111],[-118.74472222222222,35.02388888888889],[-118.83055555555555,35.06027777777778],[-118.88277777777778,35.08222222222223],[-118.96805555555555,35.11805555555556],[-119.02111111111111,35.14],[-119.10583333333332,35.175555555555555],[-119.15944444444445,35.198055555555555],[-119.29555555555555,35.25472222222222],[-119.41194444444444,35.30277777777778],[-119.435,35.3125],[-119.55,35.359722222222224],[-119.5736111111111,35.36944444444445],[-119.68833333333333,35.416666666666664],[-119.71444444444445,35.427499999999995],[-119.82805555555555,35.473888888888894],[-119.8536111111111,35.48416666666667],[-119.96694444444445,35.53055555555555],[-119.99277777777777,35.54111111111111],[-120.10694444444444,35.58722222222222],[-120.13083333333333,35.596944444444446],[-120.24388888888889,35.64277777777778],[-120.27416666666666,35.65472222222222],[-120.38333333333334,35.69833333333333],[-120.4063888888889,35.70722222222223],[-120.52805555555555,35.73388888888889],[-120.55583333333333,35.73277777777778],[-120.68194444444445,35.723333333333336],[-120.7063888888889,35.72166666666667],[-120.83055555555555,35.71277777777778],[-120.85805555555555,35.71083333333333],[-120.97888888888889,35.70277777777778],[-121.00555555555556,35.700833333333335],[-121.14805555555556,35.69444444444444],[-121.24888888888889,35.73694444444445],[-121.26527777777778,35.75333333333333],[-121.3025,35.84138888888889],[-121.30749999999999,35.86027777777778],[-121.33222222222221,35.950833333333335],[-121.36472222222221,36.06111111111111],[-121.43416666666667,36.1575],[-121.5,36.25],[-121.50916666666667,36.25361111111111],[-121.58333333333333,36.35],[-121.66666666666667,36.45],[-121.73333333333333,36.538888888888884],[-121.80444444444444,36.62861111111111],[-121.87305555555555,36.71527777777778],[-121.91277777777778,36.81027777777778],[-121.94,36.906388888888884],[-121.96972222222223,36.99444444444445],[-121.99944444444445,37.071111111111115],[-122.02833333333334,37.144999999999996],[-122.06666666666666,37.233333333333334],[-122.08333333333333,37.3],[-122.1,37.35],[-122.11611111111111,37.396388888888886],[-122.09666666666666,37.448611111111106],[-122.11888888888888,37.49583333333334],[-122.15944444444445,37.52777777777778],[-122.19944444444445,37.54472222222222],[-122.25916666666667,37.57],[-122.30527777777777,37.589444444444446],[-122.35111111111111,37.60861111111111]]}
}
