{
  "id": 2048037071,
  "type": "Feature",
  "properties": {
    "geom:area": 0,
    "geom:bbox": "-122.655570,37.432490,-122.146360,37.883320",
    "geom:latitude": 37.61164216831675,
    "geom:longitude": -122.35841297397728,
    "src:alt_label": "swim-approach",
    "src:geom": "swim",
    "swim:elevations": [
      4178,
      3850,
      3615,
      3462,
      3383,
      3353,
      3353,
      3353,
      3350,
      3143,
      3019,
      2487,
      2247,
      2070,
      1798,
      1647,
      1522,
      1524,
      1404,
      1139,
      1085,
      882,
      839,
      779,
      537,
      401,
      326,
      243,
      199,
      60,
      0
    ],
    "swim:geom": "approach",
    "swim:timestamps": [
      1786992944,
      1786992983,
      1786993008,
      1786993035,
      1786993056,
      1786993106,
      1786993129,
      1786993157,
      1786993179,
      1786993200,
      1786993215,
      1786993269,
      1786993296,
      1786993316,
      1786993346,
      1786993368,
      1786993402,
      1786993423,
      1786993448,
      1786993493,
      1786993501,
      1786993556,
      1786993578,
      1786993595,
      1786993639,
      1786993671,
      1786993693,
      1786993716,
      1786993728,
      1786993766,
      1786993777
    ],
    "wof:geomhash": "4044453db2b9120648dca496493f9137",
    "wof:id": 2048037071,
    "wof:repo": "sfomuseum-data-flights-2026-08"
  },
  "bbox": [
    -122.65557,
    37.43249,
    -122.14636,
    37.88332
  ],
  "geometry": {"type":"LineString","coordinates":[[-122.65557,37.88332],[-122.60568,37.8357],[-122.57417,37.80617],[-122.53978,37.77376],[-122.51415,37.7496],[-122.45755,37.69599],[-122.43129,37.67127],[-122.40019,37.6421],[-122.37745,37.62067],[-122.36036,37.60215],[-122.35282,37.58606],[-122.32241,37.53025],[-122.30598,37.50399],[-122.29397,37.48505],[-122.27595,37.45699],[-122.25652,37.44187],[-122.21232,37.43249],[-122.18893,37.44],[-122.1635,37.4518],[-122.14636,37.48715],[-122.14842,37.4943],[-122.17526,37.53615],[-122.19672,37.54363],[-122.21275,37.55031],[-122.2553,37.56851],[-122.28196,37.57973],[-122.2988,37.58684],[-122.31604,37.59407],[-122.32489,37.59772],[-122.35127,37.60876],[-122.35902,37.61203]]}
}
