{
  "id": 2047972543,
  "type": "Feature",
  "properties": {
    "geom:area": 0,
    "geom:bbox": "-122.543520,36.729340,-121.451070,37.667430",
    "geom:latitude": 37.21509164921638,
    "geom:longitude": -122.072245229811,
    "src:alt_label": "swim-takeoff",
    "src:geom": "swim",
    "swim:elevations": [
      152,
      358,
      525,
      980,
      1257,
      1811,
      2236,
      2282,
      2438,
      3034,
      3393,
      3622,
      4096,
      4276,
      4804,
      5136,
      5452,
      5604,
      6128,
      6507,
      6577,
      6788,
      6922,
      7287,
      7588,
      7990,
      8057,
      8390,
      8730,
      8831,
      9083,
      9171,
      9444
    ],
    "swim:geom": "takeoff",
    "swim:timestamps": [
      1786697904,
      1786697922,
      1786697943,
      1786697986,
      1786698005,
      1786698053,
      1786698085,
      1786698088,
      1786698098,
      1786698138,
      1786698168,
      1786698203,
      1786698239,
      1786698254,
      1786698297,
      1786698323,
      1786698354,
      1786698367,
      1786698415,
      1786698447,
      1786698453,
      1786698471,
      1786698483,
      1786698517,
      1786698548,
      1786698596,
      1786698605,
      1786698643,
      1786698688,
      1786698699,
      1786698739,
      1786698750,
      1786698793
    ],
    "wof:geomhash": "48f129c236ab28d792f061bb43fcedca",
    "wof:id": 2047972543,
    "wof:repo": "sfomuseum-data-flights-2026-08"
  },
  "bbox": [
    -122.54352,
    36.72934,
    -121.45107,
    37.66743
  ],
  "geometry": {"type":"LineString","coordinates":[[-122.38572,37.62325],[-122.40112,37.62996],[-122.41936,37.63802],[-122.46682,37.65831],[-122.4902,37.66743],[-122.54352,37.64117],[-122.53362,37.60233],[-122.53163,37.5988],[-122.52457,37.58689],[-122.49874,37.53954],[-122.4798,37.5027],[-122.43989,37.4645],[-122.39008,37.42781],[-122.36772,37.41129],[-122.30343,37.36397],[-122.26449,37.33525],[-122.21752,37.30063],[-122.19655,37.28504],[-122.12032,37.22867],[-122.06675,37.18894],[-122.05751,37.18206],[-122.02779,37.16004],[-122.00731,37.14481],[-121.95044,37.10253],[-121.89679,37.06253],[-121.81478,37.00117],[-121.79859,36.98913],[-121.72773,36.93832],[-121.64626,36.87702],[-121.62732,36.86289],[-121.55292,36.8065],[-121.53218,36.79127],[-121.45107,36.72934]]}
}
