{
  "id": 2047960673,
  "type": "Feature",
  "properties": {
    "geom:area": 0,
    "geom:bbox": "-169.050000,54.266667,-155.700000,56.850000",
    "geom:latitude": 55.554043666049346,
    "geom:longitude": -162.37521241178393,
    "src:alt_label": "swim-path",
    "src:geom": "swim",
    "swim:altitudes": [
      "370",
      "370",
      "370",
      "370",
      "370",
      "370",
      "370",
      "370",
      "370",
      "370",
      "370",
      "370",
      "370",
      "370",
      "370",
      "370",
      "370",
      "370",
      "370",
      "370",
      "370",
      "370",
      "370",
      "370",
      "370",
      "370",
      "370",
      "370",
      "370",
      "370",
      "370",
      "370",
      "370",
      "370",
      "370",
      "370",
      "370",
      "370",
      "370",
      "370",
      "370",
      "370",
      "370",
      "370",
      "370",
      "370",
      "370",
      "370",
      "370",
      "370",
      "370",
      "370",
      "370",
      "370"
    ],
    "swim:geom": "path",
    "swim:speeds": [
      520,
      520,
      520,
      520,
      520,
      520,
      520,
      520,
      520,
      520,
      520,
      520,
      520,
      520,
      520,
      530,
      530,
      530,
      530,
      530,
      530,
      530,
      530,
      530,
      530,
      530,
      520,
      520,
      530,
      520,
      520,
      520,
      520,
      520,
      520,
      520,
      520,
      520,
      530,
      530,
      520,
      520,
      510,
      510,
      510,
      510,
      520,
      520,
      520,
      520,
      520,
      520,
      520,
      530
    ],
    "swim:timestamps": [
      1786659995,
      1786660055,
      1786660116,
      1786660177,
      1786660238,
      1786660298,
      1786660359,
      1786660419,
      1786660480,
      1786660541,
      1786660600,
      1786660662,
      1786660722,
      1786660782,
      1786660843,
      1786660904,
      1786660965,
      1786661025,
      1786661085,
      1786661145,
      1786661205,
      1786661265,
      1786661326,
      1786661385,
      1786661445,
      1786661505,
      1786661565,
      1786661626,
      1786661686,
      1786661746,
      1786661806,
      1786661867,
      1786661927,
      1786661987,
      1786662047,
      1786662107,
      1786662167,
      1786662288,
      1786662348,
      1786662408,
      1786662468,
      1786662528,
      1786662588,
      1786662649,
      1786662709,
      1786662769,
      1786662829,
      1786662950,
      1786663009,
      1786663070,
      1786663130,
      1786663190,
      1786663250,
      1786663310
    ],
    "wof:geomhash": "bb619df087e784daee85b48ecc3f9f05",
    "wof:id": 2047960673,
    "wof:repo": "sfomuseum-data-flights-2026-08"
  },
  "bbox": [
    -169.05,
    54.266666666666666,
    -155.7,
    56.85
  ],
  "geometry": {"type":"LineString","coordinates":[[-155.7,54.266666666666666],[-155.93333333333334,54.3],[-156.18333333333334,54.35],[-156.41666666666666,54.4],[-156.66666666666666,54.43333333333333],[-156.9,54.483333333333334],[-157.13333333333333,54.516666666666666],[-157.38333333333333,54.56666666666667],[-157.61666666666667,54.61666666666667],[-157.86666666666667,54.65],[-158.1,54.68333333333333],[-158.35,54.733333333333334],[-158.58333333333334,54.766666666666666],[-158.83333333333334,54.81666666666667],[-159.08333333333334,54.85],[-159.33333333333334,54.88333333333333],[-159.58333333333334,54.93333333333333],[-159.81666666666666,54.96666666666667],[-160.06666666666666,55.016666666666666],[-160.3,55.06666666666667],[-160.53333333333333,55.13333333333333],[-160.76666666666668,55.18333333333333],[-161.01666666666668,55.25],[-161.25,55.3],[-161.48333333333332,55.35],[-161.73333333333332,55.416666666666664],[-161.96666666666667,55.46666666666667],[-162.2,55.516666666666666],[-162.45,55.583333333333336],[-162.68333333333334,55.63333333333333],[-162.91666666666666,55.68333333333333],[-163.16666666666666,55.733333333333334],[-163.4,55.78333333333333],[-163.63333333333333,55.833333333333336],[-163.88333333333333,55.88333333333333],[-164.11666666666667,55.93333333333333],[-164.36666666666667,55.983333333333334],[-164.85,56.083333333333336],[-165.1,56.13333333333333],[-165.35,56.18333333333333],[-165.58333333333334,56.233333333333334],[-165.83333333333334,56.28333333333333],[-166.08333333333334,56.333333333333336],[-166.31666666666666,56.36666666666667],[-166.56666666666666,56.416666666666664],[-166.81666666666666,56.46666666666667],[-167.05,56.516666666666666],[-167.55,56.6],[-167.8,56.63333333333333],[-168.05,56.68333333333333],[-168.3,56.71666666666667],[-168.55,56.766666666666666],[-168.8,56.8],[-169.05,56.85]]}
}
