{
  "id": 2047911619,
  "type": "Feature",
  "properties": {
    "geom:area": 0,
    "geom:bbox": "-177.133333,52.350000,-168.266667,53.016667",
    "geom:latitude": 52.775245779693016,
    "geom:longitude": -172.69397774275203,
    "src:alt_label": "swim-path",
    "src:geom": "swim",
    "swim:altitudes": [
      "350",
      "350",
      "350",
      "350",
      "350",
      "350",
      "350",
      "350",
      "350",
      "350",
      "350",
      "350",
      "350",
      "350",
      "350",
      "350",
      "350",
      "350",
      "350",
      "350",
      "350",
      "350",
      "350",
      "350",
      "350",
      "350",
      "350",
      "350"
    ],
    "swim:geom": "path",
    "swim:speeds": [
      520,
      520,
      520,
      520,
      520,
      520,
      520,
      520,
      520,
      520,
      530,
      530,
      520,
      520,
      520,
      520,
      520,
      520,
      520,
      520,
      520,
      510,
      510,
      510,
      500,
      500,
      500,
      490
    ],
    "swim:timestamps": [
      1786454186,
      1786454246,
      1786454307,
      1786454368,
      1786454428,
      1786454489,
      1786454550,
      1786454610,
      1786454671,
      1786454731,
      1786454792,
      1786454852,
      1786455013,
      1786455074,
      1786455134,
      1786455195,
      1786455256,
      1786455318,
      1786455391,
      1786455463,
      1786455528,
      1786455591,
      1786455643,
      1786455704,
      1786456286,
      1786456347,
      1786456407,
      1786456469
    ],
    "wof:geomhash": "b0d20b15c446ece1ff183fbeb8d5866b",
    "wof:id": 2047911619,
    "wof:repo": "sfomuseum-data-flights-2026-08"
  },
  "bbox": [
    -177.13333333333333,
    52.35,
    -168.26666666666668,
    53.016666666666666
  ],
  "geometry": {"type":"LineString","coordinates":[[-177.13333333333333,53.016666666666666],[-176.88333333333333,53.016666666666666],[-176.65,53.016666666666666],[-176.4,53.016666666666666],[-176.16666666666666,53.016666666666666],[-175.91666666666666,53],[-175.68333333333334,53],[-175.43333333333334,53],[-175.2,53],[-174.95,52.983333333333334],[-174.71666666666667,52.96666666666667],[-174.46666666666667,52.95],[-173.83333333333334,52.916666666666664],[-173.58333333333334,52.88333333333333],[-173.35,52.86666666666667],[-173.11666666666667,52.85],[-172.86666666666667,52.833333333333336],[-172.63333333333333,52.81666666666667],[-172.33333333333334,52.78333333333333],[-172.05,52.766666666666666],[-171.81666666666666,52.733333333333334],[-171.56666666666666,52.71666666666667],[-171.36666666666667,52.7],[-171.13333333333333,52.666666666666664],[-168.93333333333334,52.43333333333333],[-168.71666666666667,52.4],[-168.48333333333332,52.38333333333333],[-168.26666666666668,52.35]]}
}
