{
  "id": 2032073587,
  "type": "Feature",
  "properties": {
    "geom:area": 0,
    "geom:bbox": "-123.506540,36.903610,-122.102340,37.614590",
    "geom:latitude": 37.298084023878985,
    "geom:longitude": -122.70541300073612,
    "src:alt_label": "swim-approach",
    "src:geom": "swim",
    "swim:elevations": [
      2438,
      2438,
      2438,
      2308,
      2137,
      2136,
      1942,
      1892,
      1731,
      1633,
      1614,
      1445,
      1253,
      1234,
      1041,
      881,
      728,
      652,
      475,
      452,
      307,
      214,
      44,
      273,
      5902,
      5623,
      5243,
      4966,
      4763,
      4318,
      4108,
      3948,
      3789,
      3539,
      3499,
      3083,
      3047,
      3048,
      3048,
      3048,
      3048,
      3048,
      2934,
      2743,
      2611,
      2497,
      2492,
      2438,
      2438,
      2438,
      2261,
      2227,
      1702,
      1527,
      1375,
      1255,
      1218,
      1191,
      1126,
      1062,
      958,
      881,
      703,
      565,
      427,
      278,
      128,
      60
    ],
    "swim:geom": "approach",
    "swim:timestamps": [
      1785654015,
      1785654055,
      1785654080,
      1785654110,
      1785654148,
      1785654157,
      1785654208,
      1785654220,
      1785654246,
      1785654264,
      1785654270,
      1785654326,
      1785654357,
      1785654365,
      1785654416,
      1785654445,
      1785654476,
      1785654489,
      1785654524,
      1785654532,
      1785654567,
      1785654586,
      1785654627,
      1785654639,
      1785738178,
      1785738203,
      1785738237,
      1785738259,
      1785738277,
      1785738314,
      1785738339,
      1785738361,
      1785738380,
      1785738415,
      1785738421,
      1785738476,
      1785738488,
      1785738512,
      1785738524,
      1785738567,
      1785738573,
      1785738614,
      1785738648,
      1785738685,
      1785738709,
      1785738748,
      1785738751,
      1785738805,
      1785738813,
      1785738846,
      1785738897,
      1785738901,
      1785738958,
      1785738985,
      1785739013,
      1785739034,
      1785739046,
      1785739071,
      1785739100,
      1785739116,
      1785739141,
      1785739157,
      1785739192,
      1785739219,
      1785739245,
      1785739279,
      1785739315,
      1785739333
    ],
    "wof:geomhash": "1519a2179ed512bd846ed075a0963283",
    "wof:id": 2032073587,
    "wof:repo": "sfomuseum-data-flights-2026-08"
  },
  "bbox": [
    -123.50654,
    36.90361,
    -122.10234,
    37.61459
  ],
  "geometry": {"coordinates":[[-122.44908,37.29231],[-122.40355,37.32177],[-122.36919,37.33109],[-122.32494,37.33763],[-122.27158,37.34895],[-122.25921,37.35196],[-122.19002,37.3691],[-122.17423,37.37385],[-122.1516,37.39602],[-122.14225,37.41315],[-122.13903,37.41912],[-122.11249,37.46889],[-122.11387,37.49667],[-122.11842,37.50262],[-122.1615,37.53124],[-122.19038,37.5433],[-122.21992,37.5558],[-122.233,37.56129],[-122.26681,37.57549],[-122.27381,37.57845],[-122.3032,37.59085],[-122.3186,37.59734],[-122.35124,37.61106],[-122.3608,37.61459],[-123.50654,36.90361],[-123.45141,36.9347],[-123.37872,36.97494],[-123.33435,36.99976],[-123.29792,37.01964],[-123.22262,37.06098],[-123.17181,37.08892],[-123.12768,37.11336],[-123.09207,37.13295],[-123.02668,37.16888],[-123.01544,37.17517],[-122.91242,37.23099],[-122.88993,37.24316],[-122.84267,37.26242],[-122.818,37.26815],[-122.73071,37.28859],[-122.71913,37.29131],[-122.64696,37.30808],[-122.59389,37.32048],[-122.53608,37.33395],[-122.49939,37.34238],[-122.44152,37.35564],[-122.43725,37.35648],[-122.35946,37.35604],[-122.34736,37.35541],[-122.29931,37.3529],[-122.23086,37.36338],[-122.22611,37.36597],[-122.16105,37.4047],[-122.13435,37.4243],[-122.11488,37.44668],[-122.10308,37.46335],[-122.10234,37.47402],[-122.11719,37.4932],[-122.13822,37.5137],[-122.14972,37.5244],[-122.17389,37.53658],[-122.19049,37.54347],[-122.22596,37.55838],[-122.25288,37.56971],[-122.2769,37.57982],[-122.30675,37.59239],[-122.33507,37.60423],[-122.34906,37.61016]],"type":"LineString"}
}
