{
  "id": 2047931797,
  "type": "Feature",
  "properties": {
    "geom:area": 0,
    "geom:bbox": "-122.542960,36.727890,-121.680250,37.668130",
    "geom:latitude": 37.23639949461407,
    "geom:longitude": -122.16889415537585,
    "src:alt_label": "swim-takeoff",
    "src:geom": "swim",
    "swim:elevations": [
      152,
      322,
      558,
      844,
      970,
      1168,
      1291,
      1324,
      1610,
      1755,
      1885,
      2043,
      2229,
      2404,
      3625,
      4616,
      5216,
      5453,
      5942,
      6284,
      7256,
      7588,
      8228,
      8230,
      8230,
      8230,
      8230,
      8230,
      8230,
      8230,
      8230,
      8230
    ],
    "swim:geom": "takeoff",
    "swim:timestamps": [
      1786445696,
      1786445710,
      1786445727,
      1786445755,
      1786445769,
      1786445790,
      1786445799,
      1786445802,
      1786445828,
      1786445840,
      1786445848,
      1786445856,
      1786445865,
      1786445875,
      1786445965,
      1786446029,
      1786446069,
      1786446090,
      1786446127,
      1786446150,
      1786446206,
      1786446236,
      1786446310,
      1786446327,
      1786446346,
      1786446386,
      1786446390,
      1786446446,
      1786446450,
      1786446475,
      1786446495,
      1786446537
    ],
    "wof:geomhash": "16fd667de7a54ecffbc279fa2f3099ea",
    "wof:id": 2047931797,
    "wof:repo": "sfomuseum-data-flights-2026-08"
  },
  "bbox": [
    -122.54296,
    36.72789,
    -121.68025,
    37.66813
  ],
  "geometry": {"type":"LineString","coordinates":[[-122.38058,37.621],[-122.39093,37.62528],[-122.4027,37.63081],[-122.42426,37.64054],[-122.43659,37.6459],[-122.45808,37.65537],[-122.46801,37.65955],[-122.47179,37.66117],[-122.50624,37.66813],[-122.5222,37.66355],[-122.53174,37.65724],[-122.53935,37.64781],[-122.54296,37.63695],[-122.54161,37.62424],[-122.48381,37.50836],[-122.39927,37.42762],[-122.33865,37.37718],[-122.30568,37.34983],[-122.24776,37.30166],[-122.21089,37.27043],[-122.13379,37.19287],[-122.09257,37.15094],[-121.99185,37.04732],[-121.96782,37.0232],[-121.94111,36.99586],[-121.88576,36.93983],[-121.88015,36.93426],[-121.8036,36.85609],[-121.79826,36.85039],[-121.76372,36.81497],[-121.73683,36.78715],[-121.68025,36.72789]]}
}
