{
  "id": 2047931677,
  "type": "Feature",
  "properties": {
    "geom:area": 0,
    "geom:bbox": "-122.405000,37.616667,-87.933889,42.572778",
    "geom:latitude": 41.282213784885656,
    "geom:longitude": -105.35028307158845,
    "src:alt_label": "swim-path",
    "src:geom": "swim",
    "swim:altitudes": [
      "004",
      "019",
      "036",
      "038",
      "048",
      "052",
      "073",
      "097",
      "115",
      "147",
      "208",
      "255",
      "268",
      "280",
      "309",
      "330",
      "330",
      "330",
      "330",
      "330",
      "339",
      "350C",
      "350C",
      "350C",
      "350C",
      "350C",
      "350C",
      "350C",
      "350",
      "358",
      "364",
      "370C",
      "370C",
      "370C",
      "370C",
      "370C",
      "370C",
      "370C",
      "370C",
      "370C",
      "370C",
      "370C",
      "370C",
      "370C",
      "370C",
      "370C",
      "370C",
      "370C",
      "370C",
      "370C",
      "370C",
      "370C",
      "370C",
      "370C",
      "370C",
      "370C",
      "370C",
      "370C",
      "370C",
      "370C",
      "370C",
      "370C",
      "370C",
      "370C",
      "370C",
      "370C",
      "370C",
      "370C",
      "370C",
      "370C",
      "370C",
      "370C",
      "370C",
      "370C",
      "370C",
      "370C",
      "370C",
      "370C",
      "370C",
      "370C",
      "370C",
      "370C",
      "370C",
      "370C",
      "370C",
      "370C",
      "370C",
      "370C",
      "370C",
      "370C",
      "370C",
      "370C",
      "370C",
      "370C",
      "370C",
      "370C",
      "370C",
      "370C",
      "370C",
      "370C",
      "370C",
      "370C",
      "370C",
      "370C",
      "370C",
      "370C",
      "370C",
      "370C",
      "370C",
      "370C",
      "370C",
      "370C",
      "370C",
      "370C",
      "370C",
      "370C",
      "370C",
      "370C",
      "370C",
      "370C",
      "370C",
      "370C",
      "370C",
      "370C",
      "370C",
      "370C",
      "370C",
      "370C",
      "370C",
      "370C",
      "370C",
      "370C",
      "370C",
      "370C",
      "370C",
      "370C",
      "370C",
      "370C",
      "370C",
      "370C",
      "370C",
      "370C",
      "370C",
      "370C",
      "370C",
      "370C",
      "370C",
      "370C",
      "370C",
      "370C",
      "370C",
      "370C",
      "370C",
      "370C",
      "370C",
      "370C",
      "370C",
      "370C",
      "370C",
      "370C",
      "370C",
      "370C",
      "370C",
      "370C",
      "370C",
      "370C",
      "370C",
      "370C",
      "370C",
      "370C",
      "370C",
      "370C",
      "370C",
      "370C",
      "370C",
      "370C",
      "370C",
      "370C",
      "370C",
      "370C",
      "370C",
      "370C",
      "370C",
      "370C",
      "370C",
      "370C",
      "370C",
      "370C",
      "370C",
      "370C",
      "370C",
      "370C",
      "370C",
      "370C",
      "370C",
      "370C",
      "370C",
      "370C",
      "370C",
      "370C",
      "370C",
      "370C",
      "370C",
      "370C",
      "370C",
      "370C",
      "370C",
      "370C",
      "370C",
      "370C",
      "370C",
      "370C",
      "370C",
      "370C",
      "370C",
      "370C",
      "370C",
      "370C",
      "370C",
      "370C",
      "370C",
      "370",
      "369",
      "362",
      "356",
      "351",
      "342",
      "339",
      "333",
      "329",
      "322",
      "314",
      "305",
      "299",
      "290",
      "272",
      "256",
      "238",
      "224",
      "210",
      "193",
      "179",
      "165",
      "152",
      "139",
      "125",
      "111C",
      "098",
      "085",
      "073",
      "070",
      "067",
      "064",
      "056",
      "053",
      "051",
      "050",
      "042",
      "040",
      "033",
      "031",
      "024",
      "022",
      "015",
      "013",
      "008"
    ],
    "swim:geom": "path",
    "swim:speeds": [
      166,
      185,
      198,
      203,
      278,
      273,
      286,
      307,
      328,
      401,
      435,
      469,
      478,
      488,
      493,
      489,
      488,
      486,
      485,
      484,
      480,
      477,
      479,
      480,
      480,
      485,
      481,
      481,
      480,
      476,
      478,
      481,
      486,
      492,
      494,
      497,
      498,
      498,
      497,
      496,
      495,
      495,
      493,
      492,
      491,
      490,
      490,
      490,
      491,
      492,
      494,
      496,
      498,
      499,
      502,
      504,
      505,
      506,
      506,
      505,
      504,
      505,
      504,
      502,
      500,
      499,
      498,
      498,
      497,
      497,
      496,
      495,
      498,
      495,
      497,
      496,
      497,
      496,
      497,
      497,
      497,
      497,
      498,
      498,
      498,
      498,
      499,
      499,
      500,
      500,
      501,
      501,
      502,
      502,
      502,
      502,
      503,
      503,
      503,
      503,
      503,
      503,
      504,
      504,
      504,
      504,
      505,
      505,
      505,
      505,
      504,
      504,
      504,
      504,
      504,
      504,
      504,
      504,
      504,
      502,
      502,
      501,
      501,
      501,
      500,
      499,
      500,
      500,
      500,
      501,
      502,
      502,
      502,
      503,
      504,
      504,
      504,
      505,
      506,
      507,
      510,
      508,
      509,
      509,
      509,
      510,
      512,
      515,
      513,
      515,
      513,
      514,
      515,
      514,
      515,
      515,
      515,
      512,
      511,
      511,
      513,
      514,
      517,
      517,
      518,
      518,
      518,
      518,
      519,
      520,
      521,
      522,
      522,
      522,
      522,
      521,
      521,
      522,
      523,
      522,
      521,
      520,
      519,
      519,
      519,
      520,
      519,
      518,
      513,
      516,
      513,
      515,
      513,
      513,
      512,
      512,
      511,
      510,
      510,
      510,
      509,
      509,
      509,
      508,
      508,
      507,
      507,
      507,
      507,
      507,
      507,
      507,
      507,
      508,
      508,
      508,
      509,
      510,
      510,
      510,
      509,
      509,
      508,
      508,
      508,
      508,
      509,
      509,
      509,
      508,
      503,
      493,
      471,
      464,
      453,
      451,
      448,
      432,
      416,
      391,
      378,
      369,
      359,
      349,
      341,
      347,
      350,
      325,
      311,
      295,
      290,
      294,
      293,
      283,
      275,
      258,
      241,
      230,
      230,
      231,
      228,
      213,
      198,
      164,
      154,
      155
    ],
    "swim:timestamps": [
      1786499543,
      1786499588,
      1786499633,
      1786499648,
      1786499693,
      1786499708,
      1786499769,
      1786499829,
      1786499889,
      1786500009,
      1786500189,
      1786500369,
      1786500429,
      1786500489,
      1786500609,
      1786500730,
      1786500788,
      1786500849,
      1786500910,
      1786500969,
      1786501029,
      1786501090,
      1786501149,
      1786501209,
      1786501269,
      1786501329,
      1786501389,
      1786501449,
      1786501509,
      1786501570,
      1786501630,
      1786501690,
      1786501750,
      1786501810,
      1786501870,
      1786501930,
      1786501990,
      1786502050,
      1786502110,
      1786502170,
      1786502230,
      1786502291,
      1786502351,
      1786502411,
      1786502471,
      1786502531,
      1786502591,
      1786502651,
      1786502711,
      1786502771,
      1786502831,
      1786502891,
      1786502951,
      1786503011,
      1786503072,
      1786503132,
      1786503192,
      1786503252,
      1786503312,
      1786503372,
      1786503432,
      1786503492,
      1786503552,
      1786503672,
      1786503732,
      1786503792,
      1786503853,
      1786503913,
      1786503973,
      1786504033,
      1786504093,
      1786504153,
      1786504195,
      1786504213,
      1786504255,
      1786504273,
      1786504315,
      1786504333,
      1786504375,
      1786504393,
      1786504435,
      1786504453,
      1786504495,
      1786504513,
      1786504555,
      1786504573,
      1786504615,
      1786504634,
      1786504675,
      1786504694,
      1786504735,
      1786504754,
      1786504814,
      1786504855,
      1786504874,
      1786504915,
      1786504934,
      1786504994,
      1786505036,
      1786505054,
      1786505096,
      1786505114,
      1786505156,
      1786505174,
      1786505216,
      1786505234,
      1786505276,
      1786505294,
      1786505336,
      1786505354,
      1786505396,
      1786505414,
      1786505456,
      1786505475,
      1786505516,
      1786505535,
      1786505576,
      1786505595,
      1786505636,
      1786505757,
      1786505817,
      1786505877,
      1786505937,
      1786505997,
      1786506117,
      1786506177,
      1786506237,
      1786506297,
      1786506357,
      1786506417,
      1786506477,
      1786506537,
      1786506598,
      1786506658,
      1786506718,
      1786506778,
      1786506838,
      1786506898,
      1786506958,
      1786507018,
      1786507057,
      1786507078,
      1786507117,
      1786507138,
      1786507177,
      1786507237,
      1786507297,
      1786507318,
      1786507357,
      1786507378,
      1786507417,
      1786507477,
      1786507499,
      1786507537,
      1786507559,
      1786507597,
      1786507619,
      1786507657,
      1786507717,
      1786507739,
      1786507777,
      1786507799,
      1786507837,
      1786507859,
      1786507897,
      1786507919,
      1786507958,
      1786507979,
      1786508018,
      1786508078,
      1786508138,
      1786508198,
      1786508258,
      1786508318,
      1786508378,
      1786508438,
      1786508498,
      1786508558,
      1786508618,
      1786508678,
      1786508738,
      1786508798,
      1786508858,
      1786508918,
      1786508978,
      1786509038,
      1786509099,
      1786509159,
      1786509186,
      1786509219,
      1786509248,
      1786509279,
      1786509308,
      1786509339,
      1786509368,
      1786509399,
      1786509428,
      1786509459,
      1786509486,
      1786509519,
      1786509546,
      1786509579,
      1786509609,
      1786509639,
      1786509669,
      1786509699,
      1786509729,
      1786509759,
      1786509798,
      1786509819,
      1786509858,
      1786509879,
      1786509919,
      1786509939,
      1786509979,
      1786509999,
      1786510039,
      1786510059,
      1786510100,
      1786510119,
      1786510160,
      1786510179,
      1786510220,
      1786510239,
      1786510280,
      1786510300,
      1786510340,
      1786510360,
      1786510401,
      1786510420,
      1786510461,
      1786510480,
      1786510521,
      1786510540,
      1786510581,
      1786510641,
      1786510701,
      1786510761,
      1786510821,
      1786510882,
      1786510942,
      1786511002,
      1786511062,
      1786511122,
      1786511182,
      1786511242,
      1786511302,
      1786511363,
      1786511423,
      1786511480,
      1786511489,
      1786511540,
      1786511549,
      1786511600,
      1786511609,
      1786511660,
      1786511669,
      1786511723,
      1786511729,
      1786511780,
      1786511790,
      1786511841,
      1786511850,
      1786511901,
      1786511910,
      1786511961
    ],
    "wof:geomhash": "5e54545ab60787cab36cd968d152f8b2",
    "wof:id": 2047931677,
    "wof:repo": "sfomuseum-data-flights-2026-08"
  },
  "bbox": [
    -122.405,
    37.61666666666667,
    -87.93388888888889,
    42.57277777777778
  ],
  "geometry": {"type":"LineString","coordinates":[[-122.38333333333334,37.61666666666667],[-122.405,37.651666666666664],[-122.35,37.666666666666664],[-122.345,37.67666666666666],[-122.28333333333333,37.7],[-122.26777777777778,37.71],[-122.2625,37.78611111111111],[-122.25472222222223,37.868611111111115],[-122.16638888888889,37.922777777777775],[-121.93833333333333,38.04527777777778],[-121.55638888888889,38.24805555555556],[-121.16972222222223,38.47222222222222],[-121.04138888888889,38.55138888888889],[-120.90555555555557,38.63472222222222],[-120.59666666666666,38.75888888888889],[-120.26666666666667,38.849722222222226],[-120.10138888888888,38.89333333333333],[-119.93833333333333,38.93694444444444],[-119.77388888888889,38.98277777777778],[-119.61388888888888,39.024166666666666],[-119.45361111111112,39.066944444444445],[-119.29027777777777,39.11083333333333],[-119.12972222222221,39.151111111111106],[-118.96777777777778,39.19305555555555],[-118.80666666666666,39.23444444444444],[-118.63111111111111,39.28138888888889],[-118.48805555555556,39.31777777777778],[-118.3261111111111,39.35916666666667],[-118.16305555555556,39.400555555555556],[-118.00222222222222,39.441111111111105],[-117.83916666666666,39.481944444444444],[-117.67277777777778,39.52333333333333],[-117.50694444444444,39.564166666666665],[-117.3175,39.61055555555556],[-117.14555555555556,39.652499999999996],[-116.97666666666667,39.69333333333333],[-116.80638888888889,39.73388888888889],[-116.63722222222223,39.774166666666666],[-116.46555555555555,39.81472222222222],[-116.2975,39.85416666666667],[-116.12666666666667,39.89388888888889],[-115.95583333333333,39.933611111111105],[-115.78805555555556,39.971944444444446],[-115.61722222222221,40.01083333333333],[-115.44861111111112,40.04888888888889],[-115.27777777777777,40.08722222222222],[-115.11,40.12444444444444],[-114.93805555555556,40.16222222222222],[-114.76638888888888,40.2],[-114.5911111111111,40.238055555555555],[-114.41805555555555,40.275277777777774],[-114.24472222222222,40.31222222222222],[-114.06777777777778,40.349722222222226],[-113.8938888888889,40.38638888888889],[-113.71611111111112,40.42333333333333],[-113.53916666666666,40.46],[-113.36,40.49666666666667],[-113.18361111111112,40.5325],[-113.00472222222223,40.56861111111112],[-112.82722222222222,40.60388888888889],[-112.64861111111112,40.63916666666667],[-112.47027777777778,40.674166666666665],[-112.29166666666667,40.70888888888889],[-111.93861111111111,40.776666666666664],[-111.76833333333333,40.80888888888889],[-111.55777777777777,40.848333333333336],[-111.38388888888889,40.88055555555555],[-111.20583333333333,40.913333333333334],[-111.03027777777778,40.945277777777775],[-110.85305555555556,40.977222222222224],[-110.67555555555556,41.00888888888889],[-110.4925,41.04138888888889],[-110.39722222222223,41.058055555555555],[-110.31583333333333,41.07222222222222],[-110.21055555555556,41.09055555555556],[-110.13916666666667,41.10305555555556],[-110.03444444444445,41.12111111111111],[-109.96222222222222,41.13333333333333],[-109.85555555555555,41.151666666666664],[-109.78138888888888,41.16416666666667],[-109.67777777777778,41.181666666666665],[-109.60666666666665,41.19361111111111],[-109.49638888888889,41.21194444444445],[-109.42750000000001,41.223333333333336],[-109.32166666666666,41.240833333333335],[-109.24944444444445,41.25277777777778],[-109.14222222222223,41.27027777777778],[-109.07138888888889,41.28194444444444],[-108.96722222222222,41.29888888888889],[-108.89583333333334,41.31027777777778],[-108.78972222222222,41.327222222222225],[-108.71638888888889,41.33888888888889],[-108.53527777777778,41.3675],[-108.39305555555556,41.39],[-108.35444444444444,41.39611111111111],[-108.20916666666668,41.41833333333333],[-108.17277777777778,41.424166666666665],[-107.99166666666667,41.45194444444445],[-107.84472222222222,41.47416666666667],[-107.80833333333334,41.47972222222222],[-107.66361111111112,41.50111111111111],[-107.62666666666667,41.50666666666667],[-107.48111111111112,41.52833333333333],[-107.44388888888889,41.53388888888889],[-107.29777777777778,41.555277777777775],[-107.2611111111111,41.56055555555555],[-107.11277777777777,41.581944444444446],[-107.07694444444444,41.58722222222222],[-106.93138888888889,41.60805555555556],[-106.8913888888889,41.61361111111111],[-106.74694444444445,41.634166666666665],[-106.70972222222223,41.63916666666667],[-106.56388888888888,41.65972222222222],[-106.51527777777778,41.66638888888889],[-106.4038888888889,41.681666666666665],[-106.33222222222221,41.69166666666666],[-106.22361111111111,41.70638888888889],[-106.14888888888889,41.71638888888889],[-106.0375,41.731388888888894],[-105.67333333333333,41.77972222222222],[-105.49055555555556,41.80333333333333],[-105.30666666666666,41.82694444444445],[-105.1236111111111,41.85],[-104.94027777777778,41.87305555555555],[-104.53999999999999,41.92166666666667],[-104.35916666666667,41.94333333333333],[-104.17555555555556,41.965],[-103.9925,41.98638888888889],[-103.80666666666666,42.0075],[-103.62472222222222,42.028055555555554],[-103.43916666666667,42.04861111111111],[-103.25444444444445,42.06888888888889],[-103.07,42.08861111111111],[-102.88416666666667,42.108333333333334],[-102.69722222222222,42.12777777777778],[-102.51138888888889,42.14694444444444],[-102.32472222222222,42.16583333333333],[-102.16027777777778,42.18222222222222],[-101.96972222222223,42.200833333333335],[-101.78166666666667,42.21888888888889],[-101.66555555555556,42.22944444444445],[-101.59194444444444,42.236666666666665],[-101.47416666666666,42.24666666666667],[-101.40055555555556,42.254444444444445],[-101.28388888888888,42.263888888888886],[-101.09277777777777,42.280833333333334],[-100.86694444444444,42.30222222222222],[-100.82444444444444,42.30583333333333],[-100.66916666666667,42.31916666666667],[-100.6325,42.32222222222222],[-100.47916666666667,42.33527777777778],[-100.285,42.35111111111111],[-100.24972222222222,42.35416666666667],[-100.09555555555555,42.36666666666667],[-100.05833333333334,42.36944444444445],[-99.90277777777779,42.38194444444444],[-99.86666666666666,42.38666666666666],[-99.71916666666667,42.41444444444444],[-99.55222222222221,42.4475],[-99.4925,42.45583333333334],[-99.36,42.47416666666667],[-99.30111111111111,42.47805555555556],[-99.16805555555555,42.48444444444444],[-99.10583333333332,42.48777777777778],[-98.97166666666666,42.49527777777778],[-98.91277777777778,42.498333333333335],[-98.7786111111111,42.505833333333335],[-98.72111111111111,42.509166666666665],[-98.58333333333333,42.5175],[-98.3875,42.52638888888889],[-98.19277777777778,42.534166666666664],[-97.99416666666667,42.53777777777778],[-97.79638888888888,42.541666666666664],[-97.60138888888888,42.545833333333334],[-97.40611111111112,42.54972222222222],[-97.21055555555556,42.55305555555555],[-97.0125,42.55638888888888],[-96.815,42.55916666666666],[-96.61805555555554,42.561388888888885],[-96.42111111111112,42.56361111111111],[-96.22611111111111,42.56527777777777],[-96.03166666666667,42.566944444444445],[-95.83361111111111,42.56805555555556],[-95.63861111111112,42.56861111111112],[-95.44111111111111,42.56916666666667],[-95.24583333333334,42.56916666666667],[-95.05166666666666,42.56916666666667],[-94.85666666666665,42.568333333333335],[-94.76694444444445,42.56777777777778],[-94.66083333333334,42.5675],[-94.57416666666666,42.56583333333333],[-94.45833333333334,42.56638888888889],[-94.38305555555554,42.565555555555555],[-94.26611111111112,42.56472222222222],[-94.19027777777778,42.564166666666665],[-94.07694444444444,42.562777777777775],[-93.99944444444445,42.56194444444444],[-93.88583333333334,42.56083333333333],[-93.80805555555555,42.55972222222222],[-93.69416666666667,42.55833333333333],[-93.61805555555554,42.55722222222222],[-93.50305555555556,42.555277777777775],[-93.42777777777778,42.55416666666667],[-93.31277777777777,42.55222222222222],[-93.23805555555556,42.551111111111105],[-93.12249999999999,42.54888888888889],[-93.0475,42.5475],[-92.93083333333334,42.54527777777778],[-92.8561111111111,42.54388888888889],[-92.7425,42.54138888888889],[-92.62777777777777,42.538888888888884],[-92.55111111111111,42.536944444444444],[-92.43777777777778,42.53444444444444],[-92.3611111111111,42.5325],[-92.24694444444445,42.529444444444444],[-92.17027777777778,42.527499999999996],[-92.05805555555555,42.52444444444444],[-91.98194444444445,42.52222222222222],[-91.86833333333333,42.51888888888889],[-91.79194444444444,42.516666666666666],[-91.67833333333334,42.513333333333335],[-91.60527777777777,42.51083333333333],[-91.49361111111111,42.507222222222225],[-91.41694444444445,42.50472222222222],[-91.30305555555556,42.50111111111111],[-91.22833333333334,42.498333333333335],[-91.11305555555555,42.494166666666665],[-91.03583333333333,42.49138888888889],[-90.9225,42.48722222222222],[-90.8461111111111,42.48444444444444],[-90.735,42.480000000000004],[-90.66111111111111,42.480555555555554],[-90.5611111111111,42.50222222222222],[-90.49583333333334,42.52055555555555],[-90.40277777777779,42.54694444444444],[-90.23777777777778,42.57277777777778],[-90.07222222222222,42.55555555555555],[-89.88027777777778,42.5325],[-89.72500000000001,42.51361111111111],[-89.57916666666667,42.49583333333334],[-89.4413888888889,42.47888888888889],[-89.30499999999999,42.461666666666666],[-89.1713888888889,42.44499999999999],[-89.04333333333334,42.42861111111111],[-88.91805555555555,42.41277777777778],[-88.79277777777777,42.396388888888886],[-88.66444444444446,42.37972222222222],[-88.53333333333333,42.36666666666667],[-88.41666666666667,42.333333333333336],[-88.39,42.26611111111111],[-88.38333333333334,42.25],[-88.36,42.18888888888888],[-88.35,42.166666666666664],[-88.31277777777777,42.118611111111115],[-88.3,42.1],[-88.26166666666667,42.05638888888888],[-88.25,42.05],[-88.19805555555556,42.0125],[-88.18333333333334,42],[-88.12888888888888,41.97361111111111],[-88.11666666666666,41.96666666666667],[-88.05055555555555,41.96527777777778],[-88.03333333333333,41.96666666666667],[-87.98388888888888,41.96555555555556],[-87.96666666666667,41.96666666666667],[-87.93388888888889,41.965833333333336]]}
}
