{
  "id": 2047914391,
  "type": "Feature",
  "properties": {
    "geom:area": 0,
    "geom:bbox": "-122.388340,37.623940,-121.247350,37.971020",
    "geom:latitude": 37.84550143979548,
    "geom:longitude": -121.84522098041072,
    "src:alt_label": "swim-takeoff",
    "src:geom": "swim",
    "swim:elevations": [
      122,
      568,
      606,
      970,
      1096,
      1437,
      1826,
      1905,
      2097,
      2415,
      2692,
      3092,
      3194,
      3456,
      3708,
      4378,
      4535,
      4640,
      4949,
      5164,
      5254,
      5677,
      5867
    ],
    "swim:geom": "takeoff",
    "swim:timestamps": [
      1786345827,
      1786345885,
      1786345892,
      1786345945,
      1786345954,
      1786345982,
      1786346019,
      1786346027,
      1786346046,
      1786346078,
      1786346105,
      1786346145,
      1786346155,
      1786346179,
      1786346206,
      1786346270,
      1786346301,
      1786346328,
      1786346398,
      1786346427,
      1786346436,
      1786346483,
      1786346511
    ],
    "wof:geomhash": "25344fe57f82e336359f6935790a886e",
    "wof:id": 2047914391,
    "wof:repo": "sfomuseum-data-flights-2026-08"
  },
  "bbox": [
    -122.38834,
    37.62394,
    -121.24735,
    37.97102
  ],
  "geometry": {"type":"LineString","coordinates":[[-122.38744,37.62394],[-122.38834,37.66156],[-122.37875,37.66473],[-122.30468,37.6869],[-122.29085,37.69169],[-122.24894,37.70595],[-122.19314,37.72873],[-122.1821,37.73461],[-122.15498,37.7489],[-122.10804,37.77344],[-122.067,37.79538],[-122.00734,37.82802],[-121.99253,37.83604],[-121.95525,37.85654],[-121.91068,37.87598],[-121.79327,37.89323],[-121.73352,37.90175],[-121.67769,37.90982],[-121.51827,37.93261],[-121.44914,37.94254],[-121.42763,37.94559],[-121.31464,37.96165],[-121.24735,37.97102]]}
}
