{
  "id": 2047944147,
  "type": "Feature",
  "properties": {
    "geom:area": 0,
    "geom:bbox": "-119.928333,33.649444,-84.182500,38.250000",
    "geom:latitude": 36.774770209576715,
    "geom:longitude": -101.77253348020471,
    "src:alt_label": "swim-path",
    "src:geom": "swim",
    "swim:altitudes": [
      "334",
      "337",
      "342",
      "345",
      "350",
      "351",
      "353",
      "356",
      "360",
      "369C",
      "370C",
      "370C",
      "370C",
      "370C",
      "370C",
      "370C",
      "370C",
      "370C",
      "370C",
      "370C",
      "370C",
      "370C",
      "370C",
      "370C",
      "370C",
      "370C",
      "370C",
      "370C",
      "370C",
      "370C",
      "370C",
      "370C",
      "370C",
      "370C",
      "370C",
      "370C",
      "370C",
      "370C",
      "370C",
      "370C",
      "370C",
      "370C",
      "370C",
      "370C",
      "370C",
      "370C",
      "370C",
      "370C",
      "370C",
      "370C",
      "370C",
      "370C",
      "370C",
      "370C",
      "370C",
      "370C",
      "370C",
      "370C",
      "370C",
      "370C",
      "370C",
      "370C",
      "370C",
      "370C",
      "370C",
      "370C",
      "370C",
      "370C",
      "370C",
      "370C",
      "370C",
      "370C",
      "370C",
      "370C",
      "370C",
      "370C",
      "370C",
      "370C",
      "370C",
      "370C",
      "370C",
      "370C",
      "370C",
      "370C",
      "370C",
      "370C",
      "370C",
      "370C",
      "370C",
      "370C",
      "370C",
      "370C",
      "370C",
      "370C",
      "370C",
      "370C",
      "370C",
      "370C",
      "370C",
      "370C",
      "370C",
      "370C",
      "370C",
      "370C",
      "370C",
      "370C",
      "370C",
      "370C",
      "370C",
      "370C",
      "370C",
      "370C",
      "370C",
      "370C",
      "370C",
      "370C",
      "370C",
      "370C",
      "370C",
      "370C",
      "370C",
      "370C",
      "370C",
      "370C",
      "370C",
      "370C",
      "370C",
      "370C",
      "370C",
      "370C",
      "370C",
      "370C",
      "370C",
      "370C",
      "370C",
      "370C",
      "370C",
      "370C",
      "370C",
      "370C",
      "370C",
      "370C",
      "370C",
      "370C",
      "370C",
      "370C",
      "370C",
      "370C",
      "370C",
      "370C",
      "370C",
      "370C",
      "370C",
      "370C",
      "370C",
      "370C",
      "370C",
      "370C",
      "370C",
      "370C",
      "370C",
      "370C",
      "370C",
      "370C",
      "370C",
      "370C",
      "370C",
      "370C",
      "370C",
      "370C",
      "370C",
      "370C",
      "370C",
      "370C",
      "370C",
      "370C",
      "370C",
      "370C",
      "370C",
      "370C",
      "370C",
      "370C",
      "370C",
      "370C",
      "370C",
      "370C",
      "370C",
      "370C",
      "370C",
      "370C",
      "370C",
      "370C",
      "370C",
      "370C",
      "370C",
      "370C",
      "370C",
      "370C",
      "370C",
      "370C",
      "370C",
      "370C",
      "370C",
      "370C",
      "370C",
      "370C",
      "370C",
      "370C",
      "370C",
      "370C",
      "370C",
      "370C",
      "370C",
      "370C",
      "370C",
      "370C",
      "370C",
      "370C",
      "370C",
      "370C",
      "370C",
      "370C",
      "370C",
      "370C",
      "370C",
      "370C",
      "370C",
      "370C",
      "370C",
      "370C",
      "370C",
      "370C",
      "370C",
      "370C",
      "370C",
      "370C",
      "370C",
      "370C",
      "370C",
      "370C",
      "370C",
      "370C",
      "370C",
      "370C",
      "370C",
      "370C",
      "370C",
      "370C",
      "370C",
      "370C",
      "370C",
      "370",
      "367",
      "361",
      "350",
      "339",
      "327",
      "314",
      "310C",
      "310C",
      "310C",
      "310C",
      "310C",
      "310C",
      "310C",
      "310C",
      "310C",
      "310C",
      "310C",
      "310C",
      "310C",
      "310C",
      "310C",
      "310C",
      "310C",
      "310C",
      "310C",
      "310C",
      "310C",
      "310C",
      "310C",
      "310C",
      "310C",
      "310C",
      "310C",
      "310C",
      "310C",
      "310C",
      "310C",
      "310C",
      "310C",
      "310C",
      "310C",
      "310C",
      "310C",
      "310C",
      "310C",
      "310C",
      "310C",
      "310C",
      "310C",
      "310C",
      "310C",
      "310C",
      "310C",
      "310C",
      "310C",
      "310C",
      "310C",
      "310C",
      "310C",
      "310C",
      "310C",
      "310C",
      "310C",
      "310C",
      "310C",
      "310C",
      "310C",
      "310C",
      "310C",
      "310",
      "310",
      "310",
      "310",
      "310",
      "310",
      "310",
      "310",
      "310",
      "310",
      "310",
      "310",
      "310",
      "307",
      "291",
      "273",
      "258",
      "244",
      "226",
      "216",
      "195",
      "186",
      "169",
      "161",
      "142",
      "141",
      "140",
      "140",
      "140",
      "140",
      "137",
      "132",
      "125",
      "121",
      "120",
      "120",
      "117",
      "106",
      "095",
      "087",
      "078",
      "069",
      "060",
      "051",
      "045",
      "040",
      "040",
      "040",
      "040",
      "038",
      "034",
      "029",
      "025",
      "020",
      "018",
      "014",
      "012",
      "010"
    ],
    "swim:geom": "path",
    "swim:speeds": [
      467,
      466,
      466,
      465,
      464,
      464,
      465,
      472,
      471,
      473,
      473,
      473,
      473,
      472,
      472,
      472,
      472,
      472,
      472,
      473,
      473,
      474,
      474,
      476,
      476,
      477,
      477,
      477,
      477,
      476,
      475,
      475,
      475,
      475,
      474,
      474,
      474,
      474,
      474,
      474,
      474,
      474,
      476,
      480,
      481,
      482,
      477,
      471,
      471,
      473,
      476,
      479,
      482,
      482,
      482,
      481,
      483,
      484,
      483,
      482,
      482,
      481,
      481,
      481,
      481,
      483,
      490,
      484,
      489,
      486,
      488,
      486,
      487,
      485,
      486,
      486,
      487,
      488,
      488,
      487,
      487,
      486,
      486,
      486,
      486,
      484,
      483,
      483,
      482,
      482,
      482,
      482,
      481,
      480,
      480,
      480,
      480,
      481,
      481,
      481,
      481,
      482,
      482,
      483,
      484,
      485,
      485,
      485,
      485,
      484,
      484,
      484,
      484,
      486,
      487,
      487,
      487,
      488,
      488,
      485,
      484,
      484,
      485,
      484,
      484,
      487,
      488,
      483,
      479,
      481,
      480,
      479,
      477,
      476,
      474,
      475,
      475,
      476,
      477,
      478,
      478,
      478,
      477,
      475,
      474,
      473,
      474,
      474,
      474,
      474,
      474,
      474,
      474,
      473,
      472,
      472,
      473,
      473,
      473,
      472,
      471,
      469,
      470,
      470,
      470,
      470,
      470,
      470,
      470,
      470,
      470,
      469,
      470,
      470,
      473,
      474,
      474,
      475,
      475,
      475,
      474,
      473,
      472,
      471,
      471,
      471,
      472,
      473,
      475,
      476,
      477,
      476,
      462,
      460,
      459,
      459,
      459,
      460,
      460,
      460,
      462,
      463,
      463,
      463,
      464,
      464,
      466,
      466,
      467,
      467,
      467,
      467,
      467,
      467,
      467,
      467,
      467,
      467,
      467,
      466,
      465,
      466,
      465,
      466,
      465,
      465,
      465,
      466,
      466,
      466,
      466,
      465,
      465,
      465,
      465,
      465,
      465,
      465,
      465,
      466,
      466,
      467,
      468,
      468,
      469,
      469,
      469,
      468,
      468,
      467,
      466,
      466,
      465,
      465,
      464,
      465,
      466,
      470,
      471,
      473,
      474,
      474,
      475,
      476,
      476,
      475,
      479,
      482,
      485,
      487,
      488,
      488,
      489,
      489,
      493,
      489,
      492,
      488,
      487,
      488,
      487,
      485,
      486,
      483,
      485,
      484,
      485,
      486,
      486,
      487,
      488,
      487,
      488,
      489,
      490,
      493,
      492,
      495,
      496,
      496,
      500,
      496,
      499,
      496,
      497,
      495,
      495,
      495,
      495,
      494,
      494,
      493,
      492,
      492,
      493,
      493,
      494,
      489,
      469,
      459,
      456,
      456,
      455,
      455,
      455,
      456,
      457,
      456,
      456,
      456,
      466,
      478,
      479,
      480,
      481,
      482,
      484,
      486,
      482,
      472,
      469,
      458,
      461,
      446,
      445,
      399,
      384,
      359,
      360,
      359,
      359,
      357,
      358,
      346,
      337,
      308,
      284,
      261,
      262,
      260,
      261,
      255,
      258,
      252,
      254,
      245,
      243,
      206,
      203,
      184,
      187,
      180,
      181,
      176,
      143,
      125,
      125,
      131,
      130
    ],
    "swim:timestamps": [
      1786599318,
      1786599345,
      1786599378,
      1786599405,
      1786599438,
      1786599465,
      1786599498,
      1786599525,
      1786599558,
      1786599645,
      1786599678,
      1786599705,
      1786599738,
      1786599765,
      1786599798,
      1786599858,
      1786599885,
      1786599918,
      1786599945,
      1786599978,
      1786600005,
      1786600038,
      1786600065,
      1786600098,
      1786600125,
      1786600158,
      1786600185,
      1786600218,
      1786600245,
      1786600278,
      1786600305,
      1786600338,
      1786600365,
      1786600398,
      1786600425,
      1786600458,
      1786600486,
      1786600519,
      1786600546,
      1786600579,
      1786600606,
      1786600639,
      1786600666,
      1786600699,
      1786600726,
      1786600759,
      1786600819,
      1786600879,
      1786600939,
      1786600999,
      1786601059,
      1786601119,
      1786601179,
      1786601239,
      1786601299,
      1786601359,
      1786601419,
      1786601479,
      1786601539,
      1786601599,
      1786601659,
      1786601719,
      1786601779,
      1786601840,
      1786601900,
      1786601960,
      1786601978,
      1786602020,
      1786602038,
      1786602080,
      1786602098,
      1786602140,
      1786602158,
      1786602200,
      1786602218,
      1786602260,
      1786602278,
      1786602320,
      1786602338,
      1786602380,
      1786602398,
      1786602440,
      1786602458,
      1786602500,
      1786602518,
      1786602560,
      1786602578,
      1786602620,
      1786602638,
      1786602680,
      1786602698,
      1786602740,
      1786602758,
      1786602800,
      1786602818,
      1786602860,
      1786602878,
      1786602920,
      1786602938,
      1786602980,
      1786602998,
      1786603040,
      1786603058,
      1786603100,
      1786603118,
      1786603160,
      1786603178,
      1786603220,
      1786603238,
      1786603281,
      1786603298,
      1786603359,
      1786603419,
      1786603479,
      1786603539,
      1786603599,
      1786603659,
      1786603719,
      1786603779,
      1786603839,
      1786603899,
      1786603959,
      1786604019,
      1786604079,
      1786604139,
      1786604199,
      1786604259,
      1786604319,
      1786604355,
      1786604379,
      1786604415,
      1786604439,
      1786604472,
      1786604499,
      1786604532,
      1786604559,
      1786604592,
      1786604619,
      1786604655,
      1786604679,
      1786604715,
      1786604739,
      1786604772,
      1786604799,
      1786604833,
      1786604859,
      1786604892,
      1786604919,
      1786604953,
      1786604980,
      1786605014,
      1786605040,
      1786605074,
      1786605100,
      1786605134,
      1786605160,
      1786605193,
      1786605220,
      1786605257,
      1786605280,
      1786605317,
      1786605377,
      1786605412,
      1786605424,
      1786605435,
      1786605469,
      1786605484,
      1786605495,
      1786605529,
      1786605544,
      1786605556,
      1786605589,
      1786605604,
      1786605618,
      1786605652,
      1786605664,
      1786605676,
      1786605709,
      1786605724,
      1786605738,
      1786605769,
      1786605795,
      1786605832,
      1786605858,
      1786605889,
      1786605917,
      1786605952,
      1786605977,
      1786606010,
      1786606038,
      1786606070,
      1786606098,
      1786606155,
      1786606218,
      1786606275,
      1786606338,
      1786606396,
      1786606458,
      1786606516,
      1786606577,
      1786606637,
      1786606696,
      1786606759,
      1786606816,
      1786606876,
      1786606936,
      1786606998,
      1786607056,
      1786607116,
      1786607176,
      1786607237,
      1786607299,
      1786607358,
      1786607419,
      1786607476,
      1786607536,
      1786607599,
      1786607657,
      1786607718,
      1786607778,
      1786607838,
      1786607881,
      1786607898,
      1786607941,
      1786607959,
      1786608001,
      1786608019,
      1786608061,
      1786608079,
      1786608121,
      1786608139,
      1786608181,
      1786608199,
      1786608241,
      1786608259,
      1786608301,
      1786608319,
      1786608361,
      1786608380,
      1786608421,
      1786608437,
      1786608481,
      1786608497,
      1786608541,
      1786608557,
      1786608601,
      1786608619,
      1786608661,
      1786608677,
      1786608721,
      1786608738,
      1786608781,
      1786608798,
      1786608841,
      1786608901,
      1786608961,
      1786609021,
      1786609081,
      1786609141,
      1786609201,
      1786609261,
      1786609321,
      1786609381,
      1786609441,
      1786609501,
      1786609561,
      1786609622,
      1786609682,
      1786609742,
      1786609802,
      1786609862,
      1786609922,
      1786609982,
      1786610042,
      1786610072,
      1786610102,
      1786610132,
      1786610162,
      1786610192,
      1786610222,
      1786610252,
      1786610282,
      1786610312,
      1786610342,
      1786610372,
      1786610402,
      1786610432,
      1786610462,
      1786610492,
      1786610522,
      1786610552,
      1786610582,
      1786610612,
      1786610642,
      1786610672,
      1786610702,
      1786610732,
      1786610762,
      1786610792,
      1786610822,
      1786610852,
      1786610882,
      1786610912,
      1786610942,
      1786610972,
      1786611002,
      1786611032,
      1786611062,
      1786611092,
      1786611122,
      1786611152,
      1786611182,
      1786611212,
      1786611242,
      1786611272,
      1786611302,
      1786611332,
      1786611363,
      1786611392,
      1786611423,
      1786611453,
      1786611483,
      1786611513,
      1786611543,
      1786611573,
      1786611603,
      1786611633,
      1786611663,
      1786611693,
      1786611723,
      1786611753,
      1786611783,
      1786611813,
      1786611843,
      1786611873,
      1786611903,
      1786611933,
      1786611963,
      1786611993,
      1786612032,
      1786612053,
      1786612092,
      1786612113,
      1786612152,
      1786612173,
      1786612212,
      1786612233,
      1786612260,
      1786612293,
      1786612320,
      1786612353,
      1786612380,
      1786612413,
      1786612440,
      1786612473,
      1786612494,
      1786612533,
      1786612554,
      1786612593,
      1786612620,
      1786612653,
      1786612674,
      1786612713,
      1786612734,
      1786612773,
      1786612788,
      1786612833,
      1786612854,
      1786612893,
      1786612914,
      1786612953,
      1786612968,
      1786613013,
      1786613028,
      1786613073,
      1786613082,
      1786613133,
      1786613142,
      1786613193
    ],
    "wof:geomhash": "18260ab3c443a3cbeef5cc41055196cc",
    "wof:id": 2047944147,
    "wof:repo": "sfomuseum-data-flights-2026-08"
  },
  "bbox": [
    -119.92833333333334,
    33.64944444444444,
    -84.1825,
    38.25
  ],
  "geometry": {"type":"LineString","coordinates":[[-119.92833333333334,38.086666666666666],[-119.86416666666666,38.09111111111111],[-119.76555555555555,38.09444444444445],[-119.70194444444445,38.099444444444444],[-119.6036111111111,38.10333333333333],[-119.54027777777777,38.1075],[-119.43944444444445,38.111111111111114],[-119.37166666666666,38.115833333333335],[-119.27222222222223,38.11944444444445],[-119.0461111111111,38.13111111111111],[-118.94416666666667,38.135],[-118.87444444444444,38.138888888888886],[-118.77777777777777,38.14194444444444],[-118.70944444444444,38.14611111111111],[-118.61333333333333,38.14888888888889],[-118.44777777777779,38.15694444444444],[-118.37972222222221,38.15972222222222],[-118.28222222222222,38.16361111111111],[-118.21305555555556,38.16638888888889],[-118.11388888888888,38.169999999999995],[-118.045,38.172777777777775],[-117.94694444444445,38.17611111111111],[-117.8786111111111,38.17861111111111],[-117.77694444444444,38.18222222222222],[-117.70805555555556,38.18472222222222],[-117.60916666666667,38.18805555555555],[-117.54083333333332,38.19027777777777],[-117.43944444444445,38.19361111111111],[-117.37694444444443,38.19555555555555],[-117.26861111111111,38.19888888888889],[-117.20833333333334,38.20055555555556],[-117.12777777777777,38.20305555555556],[-117.02222222222223,38.20611111111111],[-116.95666666666666,38.20777777777778],[-116.85388888888889,38.21055555555556],[-116.79055555555556,38.21222222222222],[-116.6875,38.21472222222223],[-116.62222222222222,38.21638888888889],[-116.51888888888888,38.21888888888889],[-116.4563888888889,38.220555555555556],[-116.35305555555556,38.22277777777778],[-116.2875,38.22416666666667],[-116.18222222222222,38.22638888888889],[-116.11555555555555,38.22777777777778],[-116.01166666666667,38.230000000000004],[-115.94611111111111,38.23111111111111],[-115.77666666666667,38.23444444444444],[-115.61222222222221,38.23694444444445],[-115.44722222222222,38.239444444444445],[-115.26388888888889,38.24194444444444],[-115.09305555555555,38.244166666666665],[-114.92416666666666,38.24611111111111],[-114.75166666666667,38.2475],[-114.58166666666666,38.24916666666667],[-114.41250000000001,38.25],[-114.2425,38.24666666666667],[-114.07111111111111,38.24111111111111],[-113.90027777777779,38.23638888888889],[-113.72944444444444,38.231388888888894],[-113.56138888888889,38.226111111111116],[-113.38972222222223,38.220555555555556],[-113.2213888888889,38.214444444444446],[-113.05,38.208333333333336],[-112.8786111111111,38.20194444444445],[-112.7075,38.195277777777775],[-112.53722222222223,38.18833333333333],[-112.4975,38.18666666666666],[-112.36444444444444,38.18111111111111],[-112.32722222222222,38.17944444444444],[-112.19388888888889,38.17361111111111],[-112.15694444444445,38.17222222222222],[-112.02055555555556,38.16611111111111],[-111.98416666666667,38.16444444444444],[-111.84833333333333,38.158055555555556],[-111.81444444444445,38.156388888888884],[-111.67805555555556,38.14972222222222],[-111.64416666666668,38.14805555555556],[-111.50638888888889,38.14138888888889],[-111.47027777777778,38.13944444444444],[-111.33583333333333,38.132777777777775],[-111.30027777777778,38.130833333333335],[-111.16361111111112,38.12361111111111],[-111.13,38.121944444444445],[-110.99472222222222,38.11472222222223],[-110.96194444444444,38.11277777777778],[-110.83833333333332,38.10611111111111],[-110.77305555555556,38.102222222222224],[-110.67,38.09638888888889],[-110.60388888888889,38.09277777777778],[-110.50166666666667,38.086666666666666],[-110.43388888888889,38.08277777777778],[-110.33416666666666,38.07666666666667],[-110.26638888888888,38.07277777777778],[-110.16416666666667,38.06638888888889],[-110.09944444444444,38.0625],[-109.99638888888889,38.05611111111111],[-109.92916666666667,38.05166666666666],[-109.82888888888888,38.04527777777778],[-109.76166666666667,38.04083333333333],[-109.66055555555556,38.03444444444444],[-109.60166666666666,38.030277777777776],[-109.49222222222222,38.02305555555555],[-109.43111111111112,38.01888888888889],[-109.32249999999999,38.01166666666666],[-109.26138888888889,38.007222222222225],[-109.15111111111112,37.999722222222225],[-109.08805555555556,37.99527777777778],[-108.98111111111112,37.987500000000004],[-108.91777777777779,37.98305555555556],[-108.81361111111111,37.97555555555556],[-108.75027777777778,37.97083333333334],[-108.57972222222222,37.95805555555556],[-108.41027777777778,37.94499999999999],[-108.24027777777778,37.93194444444444],[-108.06916666666666,37.91833333333333],[-107.89833333333334,37.90472222222222],[-107.7286111111111,37.89083333333333],[-107.55611111111111,37.87638888888889],[-107.38472222222222,37.86194444444445],[-107.21805555555555,37.847500000000004],[-107.05222222222221,37.83277777777778],[-106.88527777777779,37.81805555555556],[-106.71083333333334,37.80222222222222],[-106.54083333333332,37.78638888888889],[-106.37277777777777,37.770833333333336],[-106.20361111111112,37.75472222222222],[-106.0586111111111,37.74055555555556],[-105.89083333333333,37.72416666666667],[-105.80083333333333,37.71527777777778],[-105.72472222222223,37.7075],[-105.62472222222222,37.6975],[-105.55916666666667,37.69083333333333],[-105.46111111111111,37.68083333333333],[-105.39666666666668,37.67444444444444],[-105.29777777777778,37.66416666666667],[-105.23083333333334,37.657222222222224],[-105.13138888888888,37.64666666666667],[-105.06638888888888,37.63972222222222],[-104.96555555555555,37.62916666666667],[-104.90027777777779,37.62222222222222],[-104.79916666666666,37.61138888888889],[-104.73527777777778,37.60416666666667],[-104.635,37.593333333333334],[-104.53722222222223,37.5825],[-104.47111111111111,37.57527777777778],[-104.37472222222222,37.56444444444444],[-104.30777777777777,37.55694444444444],[-104.21111111111111,37.54611111111111],[-104.12888888888888,37.53666666666666],[-104.06972222222223,37.53],[-103.96472222222222,37.51777777777777],[-103.89833333333334,37.51],[-103.80166666666666,37.49888888888889],[-103.73416666666667,37.490833333333335],[-103.63777777777779,37.47944444444445],[-103.57277777777777,37.471944444444446],[-103.4725,37.459722222222226],[-103.4088888888889,37.452222222222225],[-103.32138888888889,37.44166666666666],[-103.24694444444445,37.4325],[-103.16055555555556,37.42194444444444],[-102.99861111111112,37.401944444444446],[-102.8913888888889,37.38861111111111],[-102.85833333333333,37.38444444444444],[-102.83583333333333,37.38166666666667],[-102.72916666666667,37.36833333333333],[-102.69583333333334,37.36388888888889],[-102.67527777777778,37.36138888888889],[-102.56777777777778,37.347500000000004],[-102.535,37.343333333333334],[-102.51444444444445,37.340833333333336],[-102.4063888888889,37.32694444444445],[-102.38194444444444,37.32361111111111],[-102.3536111111111,37.32],[-102.24138888888889,37.30555555555555],[-102.21861111111112,37.302499999999995],[-102.18777777777778,37.29833333333333],[-102.08972222222222,37.285555555555554],[-102.05499999999999,37.280833333333334],[-102.025,37.276944444444446],[-101.92611111111111,37.26361111111111],[-101.86388888888888,37.25527777777778],[-101.76555555555555,37.242222222222225],[-101.70277777777778,37.23361111111111],[-101.60555555555555,37.220555555555556],[-101.54277777777777,37.211666666666666],[-101.44388888888889,37.19833333333333],[-101.38111111111111,37.18944444444444],[-101.28083333333333,37.175555555555555],[-101.21777777777778,37.166666666666664],[-101.11749999999999,37.15277777777778],[-101.05555555555556,37.14388888888889],[-100.86722222222221,37.117222222222225],[-100.71166666666667,37.094722222222224],[-100.55611111111111,37.07222222222222],[-100.40222222222222,37.04972222222222],[-100.24416666666667,37.02611111111111],[-100.08777777777777,37.00277777777778],[-99.95027777777779,36.98222222222223],[-99.79138888888889,36.95777777777778],[-99.63083333333333,36.93333333333333],[-99.47305555555556,36.90888888888889],[-99.315,36.884166666666665],[-99.155,36.85888888888889],[-98.9975,36.83361111111111],[-98.83805555555556,36.808055555555555],[-98.67861111111111,36.782222222222224],[-98.51833333333333,36.755833333333335],[-98.35777777777777,36.72944444444445],[-98.19833333333334,36.70305555555556],[-98.04055555555556,36.67638888888889],[-97.88138888888888,36.64944444444444],[-97.72444444444444,36.62277777777778],[-97.57888888888888,36.597500000000004],[-97.40333333333334,36.566944444444445],[-97.24444444444444,36.53916666666667],[-97.08805555555556,36.51166666666666],[-96.93111111111112,36.48361111111111],[-96.77111111111111,36.455000000000005],[-96.61444444444444,36.42666666666666],[-96.4588888888889,36.39833333333333],[-96.36777777777777,36.38138888888889],[-96.30333333333333,36.36972222222222],[-96.21083333333334,36.3525],[-96.14611111111111,36.34055555555556],[-96.05527777777777,36.32361111111111],[-96.02,36.316944444444445],[-95.8963888888889,36.29361111111111],[-95.86416666666666,36.28777777777778],[-95.74111111111111,36.26444444444444],[-95.70694444444445,36.257777777777775],[-95.58722222222222,36.235],[-95.5525,36.22833333333333],[-95.43027777777779,36.205000000000005],[-95.39805555555556,36.198611111111106],[-95.27583333333334,36.175],[-95.24138888888889,36.16833333333333],[-95.12138888888889,36.144999999999996],[-95.06083333333333,36.12638888888889],[-94.97638888888889,36.08972222222222],[-94.92027777777778,36.06527777777777],[-94.83555555555554,36.02861111111111],[-94.77888888888889,36.00388888888889],[-94.69277777777778,35.96638888888889],[-94.63555555555556,35.941111111111105],[-94.55277777777778,35.90472222222222],[-94.495,35.87972222222222],[-94.41166666666668,35.84388888888889],[-94.35277777777777,35.818333333333335],[-94.27083333333333,35.782777777777774],[-94.21277777777777,35.75805555555556],[-94.12472222222222,35.73416666666667],[-94.06277777777777,35.72555555555556],[-93.97027777777778,35.71277777777778],[-93.81194444444444,35.69083333333333],[-93.6563888888889,35.669444444444444],[-93.49694444444445,35.64722222222222],[-93.33944444444444,35.625],[-93.17972222222222,35.602222222222224],[-93.01722222222222,35.57888888888889],[-92.85222222222221,35.555],[-92.69333333333334,35.531666666666666],[-92.53111111111112,35.5075],[-92.37138888888889,35.48388888888889],[-92.21388888888889,35.46],[-92.05361111111111,35.43583333333333],[-91.89333333333335,35.41111111111111],[-91.72972222222222,35.385555555555555],[-91.56805555555555,35.36027777777778],[-91.40277777777779,35.33416666666667],[-91.24138888888889,35.30833333333333],[-91.07888888888888,35.282222222222224],[-90.91666666666667,35.25611111111111],[-90.75138888888888,35.22888888888889],[-90.66305555555556,35.215833333333336],[-90.58972222222222,35.202222222222225],[-90.50138888888888,35.18722222222222],[-90.42861111111111,35.17527777777777],[-90.34055555555555,35.161944444444444],[-90.265,35.147777777777776],[-90.17777777777778,35.13527777777778],[-90.10499999999999,35.12083333333334],[-90.01833333333333,35.10666666666667],[-89.94222222222223,35.09277777777778],[-89.85805555555555,35.080555555555556],[-89.78055555555555,35.065],[-89.6975,35.05166666666666],[-89.61388888888888,35.03583333333333],[-89.53527777777778,35.02361111111111],[-89.45111111111112,35.007222222222225],[-89.3736111111111,34.99472222222222],[-89.28805555555556,34.97833333333333],[-89.2125,34.96527777777778],[-89.12722222222222,34.94972222222222],[-89.04888888888888,34.93611111111111],[-88.96111111111111,34.91972222222222],[-88.88527777777779,34.906388888888884],[-88.79833333333333,34.890277777777776],[-88.72055555555556,34.87638888888889],[-88.6325,34.859722222222224],[-88.55499999999999,34.845555555555556],[-88.5025,34.83583333333333],[-88.39277777777778,34.815555555555555],[-88.32638888888889,34.80333333333333],[-88.22888888888889,34.785],[-88.16416666666667,34.772777777777776],[-88.06638888888888,34.754444444444445],[-88.00166666666667,34.74194444444444],[-87.90444444444445,34.72361111111111],[-87.83777777777777,34.71083333333333],[-87.74166666666667,34.692499999999995],[-87.67416666666666,34.67972222222222],[-87.57833333333333,34.66111111111111],[-87.5125,34.64833333333333],[-87.44666666666667,34.635555555555555],[-87.34666666666666,34.61666666666667],[-87.27972222222222,34.60472222222222],[-87.18305555555555,34.58694444444445],[-87.12305555555555,34.575833333333335],[-87.03083333333333,34.559444444444445],[-86.97222222222223,34.54944444444444],[-86.88111111111111,34.529444444444444],[-86.82555555555555,34.515],[-86.7363888888889,34.49194444444444],[-86.67722222222223,34.476111111111116],[-86.58777777777777,34.45277777777778],[-86.53027777777778,34.4375],[-86.44222222222223,34.41416666666667],[-86.38416666666667,34.39888888888889],[-86.2975,34.376111111111115],[-86.23694444444445,34.36],[-86.1438888888889,34.33527777777778],[-86.08444444444444,34.319722222222225],[-85.98944444444444,34.29527777777778],[-85.92750000000001,34.27916666666667],[-85.83361111111111,34.25472222222222],[-85.75472222222223,34.23416666666667],[-85.67777777777778,34.21388888888889],[-85.60111111111111,34.193888888888885],[-85.5,34.166666666666664],[-85.45305555555557,34.15472222222222],[-85.35,34.13333333333333],[-85.30444444444444,34.115833333333335],[-85.2,34.083333333333336],[-85.16277777777778,34.07916666666667],[-85.06666666666666,34.05],[-85.03888888888889,34.034166666666664],[-85,34],[-84.95805555555556,33.96083333333333],[-84.91666666666667,33.916666666666664],[-84.88027777777778,33.88527777777778],[-84.83333333333333,33.85],[-84.80333333333333,33.81083333333333],[-84.76666666666667,33.766666666666666],[-84.71916666666667,33.748333333333335],[-84.68333333333334,33.733333333333334],[-84.62277777777777,33.73583333333333],[-84.58333333333333,33.733333333333334],[-84.53611111111111,33.73305555555556],[-84.48333333333333,33.733333333333334],[-84.45138888888889,33.73305555555556],[-84.41666666666667,33.733333333333334],[-84.36694444444444,33.73305555555556],[-84.33333333333333,33.733333333333334],[-84.28388888888888,33.73277777777778],[-84.25,33.733333333333334],[-84.20333333333333,33.730000000000004],[-84.18333333333334,33.7],[-84.1825,33.678888888888885],[-84.2,33.666666666666664],[-84.23416666666667,33.651111111111106],[-84.25,33.65],[-84.29333333333334,33.64944444444444],[-84.31666666666666,33.65],[-84.34722222222221,33.64944444444444],[-84.36666666666666,33.65],[-84.38861111111112,33.64944444444444],[-84.4,33.65],[-84.43472222222222,33.64944444444444]]}
}
