{
  "id": 2032087321,
  "type": "Feature",
  "properties": {
    "geom:area": 0,
    "geom:bbox": "-122.349870,36.766830,-121.900560,37.610440",
    "geom:latitude": 37.25220733495507,
    "geom:longitude": -122.09529465273036,
    "src:alt_label": "swim-approach",
    "src:geom": "swim",
    "swim:elevations": [
      5785,
      5314,
      5220,
      4812,
      4552,
      4130,
      3977,
      3664,
      3370,
      3048,
      3048,
      2988,
      2923,
      2743,
      2735,
      2622,
      2559,
      2350,
      2101,
      2154,
      1902,
      1615,
      1526,
      1524,
      1524,
      1506,
      1233,
      1107,
      931,
      704,
      692,
      615,
      464,
      338,
      208,
      145,
      51
    ],
    "swim:geom": "approach",
    "swim:timestamps": [
      1785755028,
      1785755064,
      1785755074,
      1785755105,
      1785755124,
      1785755160,
      1785755173,
      1785755203,
      1785755230,
      1785755277,
      1785755294,
      1785755337,
      1785755349,
      1785755396,
      1785755408,
      1785755424,
      1785755436,
      1785755471,
      1785755517,
      1785755522,
      1785755552,
      1785755606,
      1785755630,
      1785755645,
      1785755695,
      1785755707,
      1785755757,
      1785755775,
      1785755798,
      1785755837,
      1785755843,
      1785755853,
      1785755885,
      1785755913,
      1785755950,
      1785755966,
      1785755989
    ],
    "wof:geomhash": "84afdf8d174e6e40064d91684c40186d",
    "wof:id": 2032087321,
    "wof:repo": "sfomuseum-data-flights-2026-08"
  },
  "bbox": [
    -122.34987,
    36.76683,
    -121.90056,
    37.61044
  ],
  "geometry": {"type":"LineString","coordinates":[[-121.90056,36.76683],[-121.91827,36.82806],[-121.92261,36.84338],[-121.93677,36.89508],[-121.94493,36.92413],[-121.96409,36.98043],[-121.97155,36.9993],[-121.98871,37.04339],[-122.00422,37.08315],[-122.04635,37.14182],[-122.06549,37.15712],[-122.11154,37.1941],[-122.12387,37.20397],[-122.17034,37.24084],[-122.18225,37.2504],[-122.19851,37.26331],[-122.21063,37.27296],[-122.22241,37.30767],[-122.17149,37.3398],[-122.16598,37.34283],[-122.13134,37.3623],[-122.08617,37.40708],[-122.0785,37.43169],[-122.07318,37.44863],[-122.06948,37.49819],[-122.08194,37.50397],[-122.13628,37.52062],[-122.15505,37.52846],[-122.17949,37.5388],[-122.22051,37.55616],[-122.22671,37.55874],[-122.23735,37.56321],[-122.26989,37.57691],[-122.2963,37.58788],[-122.32327,37.59946],[-122.33466,37.60417],[-122.34987,37.61044]]}
}
