{
  "id": 2047932051,
  "type": "Feature",
  "properties": {
    "geom:area": 0,
    "geom:bbox": "-122.501830,37.622940,-122.192580,38.498410",
    "geom:latitude": 38.03411386155775,
    "geom:longitude": -122.30413680852368,
    "src:alt_label": "swim-takeoff",
    "src:geom": "swim",
    "swim:elevations": [
      213,
      530,
      883,
      1070,
      1191,
      1608,
      2507,
      2891,
      3434,
      3855,
      4373,
      4885,
      5023,
      5336,
      5453,
      5808,
      5847,
      6444,
      7008,
      7010
    ],
    "swim:geom": "takeoff",
    "swim:timestamps": [
      1786470322,
      1786470351,
      1786470387,
      1786470413,
      1786470435,
      1786470483,
      1786470548,
      1786470576,
      1786470612,
      1786470646,
      1786470678,
      1786470719,
      1786470730,
      1786470757,
      1786470766,
      1786470816,
      1786470836,
      1786470893,
      1786470954,
      1786471018
    ],
    "wof:geomhash": "5dad208e0e0aaa78d98301da9f293928",
    "wof:id": 2047932051,
    "wof:repo": "sfomuseum-data-flights-2026-08"
  },
  "bbox": [
    -122.50183,
    37.62294,
    -122.19258,
    38.49841
  ],
  "geometry": {"type":"LineString","coordinates":[[-122.38539,37.62294],[-122.39529,37.63952],[-122.36798,37.65579],[-122.34345,37.66478],[-122.32069,37.67378],[-122.26084,37.69877],[-122.19258,37.76246],[-122.19527,37.80196],[-122.19925,37.85435],[-122.20277,37.90412],[-122.2059,37.95279],[-122.20984,38.01387],[-122.21519,38.03094],[-122.23692,38.06808],[-122.24464,38.08072],[-122.28991,38.15504],[-122.30919,38.18635],[-122.36903,38.28356],[-122.43288,38.38722],[-122.50183,38.49841]]}
}
