{
  "id": 2047968631,
  "type": "Feature",
  "properties": {
    "geom:area": 0,
    "geom:bbox": "-122.355600,36.719280,-121.876210,37.610590",
    "geom:latitude": 37.23714182580193,
    "geom:longitude": -122.10354468046467,
    "src:alt_label": "swim-approach",
    "src:geom": "swim",
    "swim:elevations": [
      5299,
      4744,
      4544,
      4232,
      3965,
      3817,
      3615,
      3503,
      3346,
      3137,
      3004,
      2727,
      2616,
      2334,
      2162,
      1934,
      1831,
      1829,
      1829,
      1829,
      1829,
      1749,
      1555,
      1524,
      1461,
      1284,
      1214,
      913,
      876,
      722,
      550,
      427,
      366,
      156,
      88,
      32
    ],
    "swim:geom": "approach",
    "swim:timestamps": [
      1786714187,
      1786714247,
      1786714271,
      1786714312,
      1786714348,
      1786714371,
      1786714403,
      1786714424,
      1786714451,
      1786714487,
      1786714506,
      1786714548,
      1786714564,
      1786714607,
      1786714632,
      1786714669,
      1786714702,
      1786714731,
      1786714759,
      1786714787,
      1786714802,
      1786714851,
      1786714887,
      1786714909,
      1786714939,
      1786714969,
      1786714984,
      1786715037,
      1786715046,
      1786715079,
      1786715115,
      1786715152,
      1786715166,
      1786715217,
      1786715235,
      1786715252
    ],
    "wof:geomhash": "6bcb1d59e4cc3981cb79e0b73ce0d01a",
    "wof:id": 2047968631,
    "wof:repo": "sfomuseum-data-flights-2026-08"
  },
  "bbox": [
    -122.3556,
    36.71928,
    -121.87621,
    37.61059
  ],
  "geometry": {"type":"LineString","coordinates":[[-121.87621,36.71928],[-121.91543,36.81674],[-121.92655,36.8559],[-121.94349,36.9181],[-121.96002,36.97049],[-121.97259,37.00266],[-121.98905,37.0451],[-121.99953,37.07167],[-122.01301,37.1056],[-122.02934,37.14822],[-122.04711,37.16613],[-122.0907,37.20107],[-122.10727,37.21464],[-122.15045,37.24995],[-122.17562,37.27066],[-122.21166,37.29946],[-122.24405,37.32547],[-122.27208,37.34947],[-122.27087,37.37853],[-122.23706,37.39419],[-122.21814,37.39954],[-122.16018,37.41611],[-122.12266,37.42973],[-122.11159,37.4491],[-122.09894,37.47592],[-122.11301,37.5009],[-122.12442,37.51127],[-122.17912,37.53642],[-122.18755,37.53993],[-122.21834,37.55281],[-122.24908,37.56579],[-122.27833,37.57811],[-122.28853,37.58247],[-122.32989,37.59983],[-122.3428,37.60524],[-122.3556,37.61059]]}
}
