{
  "id": 2048083553,
  "type": "Feature",
  "properties": {
    "geom:area": 0,
    "geom:bbox": "-122.532000,37.627440,-121.432190,38.516840",
    "geom:latitude": 38.10440828856598,
    "geom:longitude": -122.08609947667902,
    "src:alt_label": "swim-takeoff",
    "src:geom": "swim",
    "swim:elevations": [
      152,
      593,
      976,
      1099,
      1299,
      1694,
      1948,
      2063,
      2289,
      2461,
      2725,
      3079,
      3175,
      3528,
      3764,
      3845,
      4014,
      4357,
      4584,
      4818,
      5097,
      5241,
      5482,
      5704,
      5785,
      6182,
      6280,
      6513,
      6840,
      6859,
      6896,
      7120,
      7225
    ],
    "swim:geom": "takeoff",
    "swim:timestamps": [
      1787269149,
      1787269182,
      1787269223,
      1787269252,
      1787269281,
      1787269317,
      1787269343,
      1787269352,
      1787269373,
      1787269391,
      1787269415,
      1787269457,
      1787269478,
      1787269523,
      1787269543,
      1787269558,
      1787269579,
      1787269609,
      1787269639,
      1787269672,
      1787269707,
      1787269723,
      1787269756,
      1787269788,
      1787269803,
      1787269851,
      1787269863,
      1787269894,
      1787269944,
      1787269950,
      1787269956,
      1787269996,
      1787270011
    ],
    "wof:geomhash": "a602bb42c3e8bcd5c7d0b792a0f99282",
    "wof:id": 2048083553,
    "wof:repo": "sfomuseum-data-flights-2026-08"
  },
  "bbox": [
    -122.532,
    37.62744,
    -121.43219,
    38.51684
  ],
  "geometry": {"type":"LineString","coordinates":[[-122.39575,37.62744],[-122.4266,37.6404],[-122.46598,37.65732],[-122.49792,37.67128],[-122.5241,37.69772],[-122.52664,37.74229],[-122.52878,37.77774],[-122.52968,37.78993],[-122.532,37.81854],[-122.5288,37.84359],[-122.5133,37.87526],[-122.4698,37.92368],[-122.43701,37.94229],[-122.3624,37.98474],[-122.32757,38.00448],[-122.30267,38.01861],[-122.26457,38.0403],[-122.21156,38.07094],[-122.15967,38.10067],[-122.09918,38.13502],[-122.03298,38.17264],[-122.00357,38.18935],[-121.94008,38.2253],[-121.87868,38.25994],[-121.84996,38.27608],[-121.75436,38.33012],[-121.73051,38.34351],[-121.66868,38.37816],[-121.56703,38.4351],[-121.55475,38.44193],[-121.54259,38.44907],[-121.46289,38.49804],[-121.43219,38.51684]]}
}
