{
  "id": 2032116483,
  "type": "Feature",
  "properties": {
    "geom:area": 0,
    "geom:bbox": "-156.133333,19.700000,-122.066667,37.609167",
    "geom:latitude": 29.59580333041202,
    "geom:longitude": -139.74926894021544,
    "src:alt_label": "swim-path",
    "src:geom": "swim",
    "swim:altitudes": [
      "007C",
      "022C",
      "065C",
      "087C",
      "110C",
      "123C",
      "136C",
      "151C",
      "159C",
      "172C",
      "181C",
      "191C",
      "201C",
      "210C",
      "228C",
      "235C",
      "242C",
      "265C",
      "271C",
      "277C",
      "283C",
      "291C",
      "300C",
      "311C",
      "320C",
      "330",
      "330",
      "330",
      "330",
      "330",
      "330",
      "330",
      "330",
      "330",
      "330",
      "330",
      "330",
      "330",
      "330C",
      "330C",
      "330C",
      "330C",
      "330C",
      "330",
      "330C",
      "330",
      "330",
      "330",
      "330",
      "330",
      "330",
      "330",
      "330",
      "330",
      "330",
      "330",
      "330",
      "330",
      "330",
      "330",
      "330",
      "318",
      "302C",
      "293",
      "280C",
      "259C",
      "252",
      "239C",
      "212C",
      "200",
      "142",
      "125",
      "121",
      "105",
      "100",
      "100C",
      "100",
      "100",
      "091",
      "085",
      "081",
      "080",
      "080",
      "080",
      "080",
      "075",
      "062",
      "058",
      "042",
      "040",
      "020",
      "017",
      "011",
      "009",
      "003"
    ],
    "swim:geom": "path",
    "swim:speeds": [
      170,
      220,
      280,
      290,
      300,
      320,
      360,
      370,
      400,
      410,
      430,
      440,
      450,
      460,
      470,
      480,
      490,
      500,
      510,
      510,
      520,
      520,
      520,
      510,
      500,
      500,
      500,
      500,
      500,
      500,
      500,
      500,
      500,
      510,
      500,
      500,
      510,
      510,
      484,
      484,
      485,
      485,
      485,
      490,
      483,
      480,
      482,
      480,
      471,
      470,
      470,
      469,
      468,
      470,
      470,
      469,
      470,
      470,
      470,
      472,
      470,
      473,
      470,
      475,
      470,
      460,
      446,
      440,
      420,
      411,
      371,
      363,
      357,
      358,
      350,
      333,
      330,
      331,
      318,
      290,
      280,
      275,
      261,
      262,
      258,
      260,
      253,
      248,
      250,
      240,
      199,
      179,
      164,
      156,
      155
    ],
    "swim:timestamps": [
      1785920736,
      1785920796,
      1785920917,
      1785920977,
      1785921037,
      1785921097,
      1785921157,
      1785921217,
      1785921277,
      1785921337,
      1785921397,
      1785921457,
      1785921517,
      1785921577,
      1785921697,
      1785921757,
      1785921817,
      1785921997,
      1785922057,
      1785922117,
      1785922178,
      1785922238,
      1785922298,
      1785922358,
      1785922418,
      1785922478,
      1785922538,
      1785922598,
      1785922658,
      1785922778,
      1785922838,
      1785922898,
      1785922958,
      1785923025,
      1785923078,
      1785923108,
      1785923168,
      1785923243,
      1785934329,
      1785934389,
      1785934449,
      1785934569,
      1785934629,
      1785934667,
      1785934689,
      1785934727,
      1785934749,
      1785934787,
      1785934869,
      1785934929,
      1785934967,
      1785934989,
      1785935049,
      1785935087,
      1785935147,
      1785935169,
      1785935207,
      1785935229,
      1785935268,
      1785935289,
      1785935327,
      1785935349,
      1785935388,
      1785935409,
      1785935448,
      1785935508,
      1785935529,
      1785935568,
      1785935628,
      1785935649,
      1785935829,
      1785935889,
      1785935897,
      1785935949,
      1785935963,
      1785936009,
      1785936023,
      1785936083,
      1785936137,
      1785936190,
      1785936203,
      1785936250,
      1785936263,
      1785936310,
      1785936318,
      1785936370,
      1785936430,
      1785936444,
      1785936510,
      1785936550,
      1785936670,
      1785936684,
      1785936730,
      1785936738,
      1785936790
    ],
    "wof:geomhash": "844d0281282725e41790c2596ca36fe0",
    "wof:id": 2032116483,
    "wof:repo": "sfomuseum-data-flights-2026-08"
  },
  "bbox": [
    -156.13333333333333,
    19.7,
    -122.06666666666666,
    37.60916666666667
  ],
  "geometry": {"type":"LineString","coordinates":[[-156.03333333333333,19.716666666666665],[-156.08333333333334,19.7],[-156.13333333333333,19.816666666666666],[-156.1,19.9],[-156.05,19.966666666666665],[-156,20.05],[-155.95,20.116666666666667],[-155.88333333333333,20.216666666666665],[-155.81666666666666,20.3],[-155.75,20.4],[-155.68333333333334,20.5],[-155.61666666666667,20.6],[-155.55,20.7],[-155.46666666666667,20.816666666666666],[-155.31666666666666,21.033333333333335],[-155.25,21.133333333333333],[-155.16666666666666,21.25],[-154.91666666666666,21.6],[-154.83333333333334,21.716666666666665],[-154.75,21.833333333333332],[-154.66666666666666,21.966666666666665],[-154.58333333333334,22.083333333333332],[-154.5,22.2],[-154.41666666666666,22.316666666666666],[-154.33333333333334,22.433333333333334],[-154.25,22.55],[-154.16666666666666,22.666666666666668],[-154.08333333333334,22.783333333333335],[-154,22.9],[-153.83333333333334,23.133333333333333],[-153.75,23.25],[-153.65,23.366666666666667],[-153.56666666666666,23.483333333333334],[-153.48333333333332,23.583333333333332],[-153.4,23.7],[-153.36666666666667,23.766666666666666],[-153.25,23.85],[-153.06666666666666,23.916666666666668],[-126.54305555555555,35.585],[-126.38777777777779,35.62972222222222],[-126.23222222222222,35.67472222222222],[-125.9388888888889,35.79861111111111],[-125.79972222222221,35.86805555555556],[-125.73333333333333,35.916666666666664],[-125.6563888888889,35.93805555555555],[-125.58333333333333,35.983333333333334],[-125.51527777777778,36.00694444444444],[-125.45,36.05],[-125.2388888888889,36.14194444444444],[-125.10305555555556,36.20805555555556],[-125.01666666666667,36.233333333333334],[-124.96388888888889,36.275277777777774],[-124.82694444444444,36.34111111111111],[-124.73333333333333,36.36666666666667],[-124.6,36.43333333333333],[-124.54833333333333,36.474444444444444],[-124.45,36.5],[-124.40972222222223,36.540277777777774],[-124.31666666666666,36.56666666666667],[-124.26916666666666,36.60722222222223],[-124.18333333333334,36.63333333333333],[-124.1261111111111,36.67444444444444],[-124.03333333333333,36.7],[-123.98555555555555,36.740833333333335],[-123.9,36.766666666666666],[-123.76666666666667,36.833333333333336],[-123.71055555555556,36.86888888888889],[-123.63333333333334,36.9],[-123.5,36.95],[-123.45722222222223,36.986111111111114],[-123.11527777777778,37.143055555555556],[-123.00777777777778,37.19222222222222],[-122.98333333333333,37.2],[-122.89972222222222,37.240833333333335],[-122.86666666666666,37.25],[-122.79027777777777,37.27444444444444],[-122.76666666666667,37.28333333333333],[-122.65,37.3],[-122.55,37.333333333333336],[-122.4725,37.34861111111111],[-122.45,37.35],[-122.38,37.37],[-122.35,37.38333333333333],[-122.29388888888889,37.38972222222222],[-122.28333333333333,37.4],[-122.2063888888889,37.40972222222222],[-122.12249999999999,37.42833333333333],[-122.1,37.43333333333333],[-122.06666666666666,37.5],[-122.11333333333333,37.51027777777778],[-122.24583333333334,37.56666666666667],[-122.26666666666667,37.56666666666667],[-122.29916666666666,37.58916666666667],[-122.31666666666666,37.6],[-122.34694444444445,37.60916666666667]]}
}
