{
  "id": 2048081749,
  "type": "Feature",
  "properties": {
    "geom:area": 0,
    "geom:bbox": "-123.491610,37.625580,-122.391190,38.265940",
    "geom:latitude": 37.93507166218819,
    "geom:longitude": -122.9465467740412,
    "src:alt_label": "swim-takeoff",
    "src:geom": "swim",
    "swim:elevations": [
      122,
      152,
      539,
      1025,
      1051,
      1168,
      1219,
      1237,
      1296,
      1627,
      2084,
      2163,
      2481,
      2888,
      3042,
      3139,
      3337,
      3443,
      3778,
      3889,
      4201,
      4405,
      4750,
      4942,
      5273,
      5517
    ],
    "swim:geom": "takeoff",
    "swim:timestamps": [
      1787232327,
      1787232330,
      1787232363,
      1787232418,
      1787232427,
      1787232457,
      1787232481,
      1787232534,
      1787232548,
      1787232579,
      1787232622,
      1787232630,
      1787232672,
      1787232716,
      1787232743,
      1787232762,
      1787232805,
      1787232829,
      1787232864,
      1787232875,
      1787232912,
      1787232936,
      1787232974,
      1787232996,
      1787233035,
      1787233072
    ],
    "wof:geomhash": "d10306b909a662395d7d48c51cb163a4",
    "wof:id": 2048081749,
    "wof:repo": "sfomuseum-data-flights-2026-08"
  },
  "bbox": [
    -123.49161,
    37.62558,
    -122.39119,
    38.26594
  ],
  "geometry": {"type":"LineString","coordinates":[[-122.39119,37.62558],[-122.39383,37.62678],[-122.42672,37.64083],[-122.484,37.6661],[-122.49414,37.67019],[-122.53015,37.68499],[-122.56218,37.69864],[-122.63388,37.73018],[-122.65092,37.74049],[-122.68611,37.76794],[-122.73556,37.80431],[-122.74594,37.81107],[-122.7993,37.84401],[-122.85886,37.88038],[-122.89648,37.90333],[-122.92439,37.92056],[-122.99303,37.96245],[-123.03535,37.98845],[-123.09636,38.02593],[-123.11695,38.03855],[-123.18462,38.07969],[-123.22981,38.10713],[-123.30182,38.15104],[-123.34347,38.17639],[-123.42019,38.22272],[-123.49161,38.26594]]}
}
