{
  "id": 2047954067,
  "type": "Feature",
  "properties": {
    "geom:area": 0,
    "geom:bbox": "-122.346960,36.733220,-121.885910,37.606910",
    "geom:latitude": 37.211951639830126,
    "geom:longitude": -122.10098165216746,
    "src:alt_label": "swim-approach",
    "src:geom": "swim",
    "swim:elevations": [
      5590,
      5330,
      5070,
      4656,
      4386,
      4244,
      3808,
      3694,
      3504,
      3475,
      3446,
      3407,
      3115,
      2986,
      2864,
      2614,
      2290,
      2162,
      1970,
      1820,
      1498,
      1418,
      1183,
      1066,
      979,
      912,
      759,
      659,
      489,
      333,
      283,
      157,
      92
    ],
    "swim:geom": "approach",
    "swim:timestamps": [
      1786655320,
      1786655351,
      1786655380,
      1786655420,
      1786655447,
      1786655463,
      1786655511,
      1786655527,
      1786655578,
      1786655592,
      1786655607,
      1786655616,
      1786655660,
      1786655694,
      1786655709,
      1786655744,
      1786655786,
      1786655809,
      1786655836,
      1786655854,
      1786655902,
      1786655913,
      1786655947,
      1786655976,
      1786655995,
      1786656017,
      1786656044,
      1786656069,
      1786656111,
      1786656148,
      1786656162,
      1786656194,
      1786656220
    ],
    "wof:geomhash": "b12e293aef0cd08e2f0b4127e0e44762",
    "wof:id": 2047954067,
    "wof:repo": "sfomuseum-data-flights-2026-08"
  },
  "bbox": [
    -122.34696,
    36.73322,
    -121.88591,
    37.60691
  ],
  "geometry": {"type":"LineString","coordinates":[[-121.88591,36.73322],[-121.90538,36.78218],[-121.91836,36.82814],[-121.9362,36.89269],[-121.94824,36.93551],[-121.9563,36.96039],[-121.98516,37.03414],[-121.99431,37.05829],[-122.02259,37.12908],[-122.03018,37.14682],[-122.04708,37.1617],[-122.05794,37.16846],[-122.1099,37.20009],[-122.14814,37.22271],[-122.16642,37.23341],[-122.20676,37.25689],[-122.24607,37.29032],[-122.23818,37.31511],[-122.22162,37.34269],[-122.21046,37.36112],[-122.18334,37.41072],[-122.17966,37.42184],[-122.16779,37.45718],[-122.15944,37.48694],[-122.16749,37.5047],[-122.18255,37.52211],[-122.2008,37.54271],[-122.22479,37.55568],[-122.26456,37.57254],[-122.29493,37.58505],[-122.30529,37.58941],[-122.32866,37.59933],[-122.34696,37.60691]]}
}
