{
  "id": 2048098195,
  "type": "Feature",
  "properties": {
    "geom:area": 0,
    "geom:bbox": "-123.469510,37.629500,-122.400070,37.772830",
    "geom:latitude": 37.71389643507617,
    "geom:longitude": -122.92664027178394,
    "src:alt_label": "swim-takeoff",
    "src:geom": "swim",
    "swim:elevations": [
      263,
      513,
      1108,
      1177,
      1320,
      1861,
      2009,
      2987,
      3291,
      3459,
      3550,
      3658,
      3910,
      4065,
      4449,
      4664,
      4802,
      4992,
      5253
    ],
    "swim:geom": "takeoff",
    "swim:timestamps": [
      1787312417,
      1787312436,
      1787312517,
      1787312525,
      1787312553,
      1787312595,
      1787312614,
      1787312706,
      1787312755,
      1787312788,
      1787312810,
      1787312832,
      1787312871,
      1787312889,
      1787312933,
      1787312967,
      1787312984,
      1787313009,
      1787313040
    ],
    "wof:geomhash": "d8d6d9d4691d6f11693be2f0d83247ca",
    "wof:id": 2048098195,
    "wof:repo": "sfomuseum-data-flights-2026-08"
  },
  "bbox": [
    -123.46951,
    37.6295,
    -122.40007,
    37.77283
  ],
  "geometry": {"type":"LineString","coordinates":[[-122.40007,37.6295],[-122.41695,37.63692],[-122.498,37.6728],[-122.50862,37.67737],[-122.54366,37.69266],[-122.60176,37.71926],[-122.62902,37.73248],[-122.76883,37.77283],[-122.85268,37.76041],[-122.91481,37.75041],[-122.95877,37.74314],[-123.00405,37.73598],[-123.08791,37.72238],[-123.12765,37.71591],[-123.22549,37.70074],[-123.30085,37.68909],[-123.34059,37.68292],[-123.39862,37.67396],[-123.46951,37.66313]]}
}
