{
  "id": 2032071563,
  "type": "Feature",
  "properties": {
    "geom:area": 0,
    "geom:bbox": "-122.364150,37.492780,-121.246350,37.616590",
    "geom:latitude": 37.54362115903296,
    "geom:longitude": -121.81238640929831,
    "src:alt_label": "swim-approach",
    "src:geom": "swim",
    "swim:elevations": [
      4712,
      4531,
      4159,
      3827,
      3476,
      3206,
      3113,
      3041,
      2945,
      2680,
      2576,
      2492,
      2385,
      2207,
      2010,
      1814,
      1631,
      1455,
      1355,
      1163,
      1006,
      828,
      803,
      550,
      537,
      416,
      365,
      267,
      182,
      142,
      0
    ],
    "swim:geom": "approach",
    "swim:timestamps": [
      1785693085,
      1785693103,
      1785693138,
      1785693171,
      1785693205,
      1785693236,
      1785693266,
      1785693287,
      1785693307,
      1785693358,
      1785693376,
      1785693388,
      1785693403,
      1785693429,
      1785693469,
      1785693502,
      1785693531,
      1785693556,
      1785693573,
      1785693603,
      1785693651,
      1785693687,
      1785693693,
      1785693738,
      1785693741,
      1785693775,
      1785693786,
      1785693811,
      1785693831,
      1785693845,
      1785693886
    ],
    "wof:geomhash": "22277be547fd66acf82f70da191f853a",
    "wof:id": 2032071563,
    "wof:repo": "sfomuseum-data-flights-2026-08"
  },
  "bbox": [
    -122.36415,
    37.49278,
    -121.24635,
    37.61659
  ],
  "geometry": {"coordinates":[[-121.24635,37.59496],[-121.28249,37.59013],[-121.35584,37.58191],[-121.42157,37.5746],[-121.49025,37.56666],[-121.54979,37.5597],[-121.60755,37.55271],[-121.64354,37.54609],[-121.67709,37.53809],[-121.75304,37.52009],[-121.77922,37.51389],[-121.7958,37.50988],[-121.81668,37.50487],[-121.85416,37.49589],[-121.91283,37.49278],[-121.9608,37.49554],[-122.00474,37.49828],[-122.04176,37.50051],[-122.06745,37.50196],[-122.10814,37.50889],[-122.1629,37.53274],[-122.20321,37.54888],[-122.20972,37.55161],[-122.25212,37.56941],[-122.25471,37.5705],[-122.28135,37.58172],[-122.29026,37.58544],[-122.30898,37.59332],[-122.32371,37.59951],[-122.33412,37.60387],[-122.36415,37.61659]],"type":"LineString"}
}
