{
  "id": 2047927723,
  "type": "Feature",
  "properties": {
    "geom:area": 0,
    "geom:bbox": "-122.356530,37.492880,-121.264480,37.613330",
    "geom:latitude": 37.54237685763178,
    "geom:longitude": -121.81731721464311,
    "src:alt_label": "swim-approach",
    "src:geom": "swim",
    "swim:elevations": [
      4627,
      4526,
      4496,
      4448,
      4408,
      4306,
      4196,
      3933,
      3813,
      3332,
      3053,
      2772,
      2558,
      2494,
      2326,
      2218,
      1968,
      1951,
      1640,
      1516,
      1369,
      1219,
      1089,
      914,
      692,
      595,
      362,
      292,
      138,
      18
    ],
    "swim:geom": "approach",
    "swim:timestamps": [
      1786436334,
      1786436343,
      1786436347,
      1786436352,
      1786436356,
      1786436366,
      1786436376,
      1786436403,
      1786436416,
      1786436466,
      1786436533,
      1786436578,
      1786436607,
      1786436618,
      1786436650,
      1786436665,
      1786436713,
      1786436746,
      1786436788,
      1786436804,
      1786436822,
      1786436871,
      1786436895,
      1786436921,
      1786436959,
      1786436978,
      1786437022,
      1786437040,
      1786437078,
      1786437105
    ],
    "wof:geomhash": "2e8fd93e37a02f4c58230c4c4c1abe71",
    "wof:id": 2047927723,
    "wof:repo": "sfomuseum-data-flights-2026-08"
  },
  "bbox": [
    -122.35653,
    37.49288,
    -121.26448,
    37.61333
  ],
  "geometry": {"type":"LineString","coordinates":[[-121.26448,37.59253],[-121.28353,37.58997],[-121.29144,37.589],[-121.30153,37.58781],[-121.309,37.58697],[-121.32931,37.58479],[-121.34952,37.58267],[-121.40296,37.57681],[-121.42842,37.57397],[-121.52299,37.56276],[-121.64097,37.54686],[-121.71125,37.53012],[-121.75554,37.51959],[-121.77314,37.51535],[-121.82009,37.50411],[-121.84208,37.49881],[-121.91131,37.49288],[-121.95675,37.49561],[-122.01325,37.49899],[-122.03606,37.50016],[-122.06088,37.50147],[-122.12474,37.51554],[-122.15291,37.52772],[-122.18355,37.54054],[-122.22658,37.55869],[-122.24882,37.56792],[-122.29213,37.58625],[-122.30667,37.59221],[-122.33572,37.60464],[-122.35653,37.61333]]}
}
