{
  "id": 2047917293,
  "type": "Feature",
  "properties": {
    "geom:area": 0,
    "geom:bbox": "-122.561944,32.690833,-116.956389,37.664722",
    "geom:latitude": 34.9554152140134,
    "geom:longitude": -119.94813877725504,
    "src:alt_label": "swim-path",
    "src:geom": "swim",
    "swim:altitudes": [
      "030",
      "046",
      "064",
      "085",
      "105",
      "114",
      "132",
      "153",
      "172",
      "189",
      "207",
      "224",
      "223",
      "240",
      "254",
      "270",
      "284",
      "295",
      "306",
      "321",
      "336",
      "351",
      "363",
      "370C",
      "370C",
      "370C",
      "370C",
      "370C",
      "370C",
      "370C",
      "370C",
      "370C",
      "370C",
      "370C",
      "370C",
      "370C",
      "370C",
      "370C",
      "370C",
      "370C",
      "370C",
      "370C",
      "369",
      "359",
      "350",
      "329",
      "311",
      "290",
      "269",
      "248",
      "228",
      "212",
      "208",
      "197",
      "187",
      "177",
      "168",
      "158",
      "149",
      "140",
      "130",
      "120",
      "108",
      "103",
      "098",
      "096",
      "091",
      "088",
      "082",
      "077",
      "071",
      "067",
      "065",
      "065",
      "061",
      "055",
      "047",
      "041",
      "033",
      "028",
      "021",
      "017",
      "012",
      "007",
      "002"
    ],
    "swim:geom": "path",
    "swim:speeds": [
      219,
      260,
      278,
      281,
      286,
      336,
      356,
      364,
      379,
      394,
      402,
      416,
      416,
      425,
      434,
      441,
      445,
      450,
      459,
      460,
      453,
      442,
      438,
      435,
      435,
      436,
      439,
      440,
      439,
      437,
      435,
      433,
      433,
      434,
      435,
      436,
      437,
      437,
      436,
      433,
      432,
      432,
      431,
      432,
      434,
      436,
      434,
      421,
      409,
      399,
      390,
      380,
      384,
      376,
      376,
      365,
      363,
      352,
      350,
      339,
      340,
      331,
      331,
      308,
      285,
      256,
      253,
      249,
      249,
      239,
      241,
      233,
      236,
      234,
      235,
      230,
      232,
      222,
      213,
      198,
      183,
      163,
      159,
      155,
      157
    ],
    "swim:timestamps": [
      1786370410,
      1786370470,
      1786370530,
      1786370590,
      1786370650,
      1786370705,
      1786370765,
      1786370825,
      1786370885,
      1786370945,
      1786371010,
      1786371065,
      1786371071,
      1786371126,
      1786371191,
      1786371246,
      1786371306,
      1786371371,
      1786371426,
      1786371486,
      1786371546,
      1786371606,
      1786371666,
      1786371726,
      1786371787,
      1786371847,
      1786371907,
      1786371967,
      1786372027,
      1786372087,
      1786372147,
      1786372267,
      1786372327,
      1786372387,
      1786372448,
      1786372508,
      1786372568,
      1786372628,
      1786372748,
      1786372868,
      1786372928,
      1786372988,
      1786373048,
      1786373109,
      1786373169,
      1786373229,
      1786373289,
      1786373349,
      1786373409,
      1786373469,
      1786373529,
      1786373568,
      1786373589,
      1786373613,
      1786373649,
      1786373670,
      1786373709,
      1786373733,
      1786373769,
      1786373790,
      1786373830,
      1786373850,
      1786373890,
      1786373910,
      1786373950,
      1786373970,
      1786374010,
      1786374030,
      1786374070,
      1786374090,
      1786374130,
      1786374150,
      1786374190,
      1786374211,
      1786374250,
      1786374271,
      1786374310,
      1786374331,
      1786374370,
      1786374391,
      1786374430,
      1786374451,
      1786374491,
      1786374511,
      1786374551
    ],
    "wof:geomhash": "32405022973fafbebee62cd83cbbf2da",
    "wof:id": 2047917293,
    "wof:repo": "sfomuseum-data-flights-2026-08"
  },
  "bbox": [
    -122.56194444444444,
    32.69083333333333,
    -116.9563888888889,
    37.664722222222224
  ],
  "geometry": {"type":"LineString","coordinates":[[-122.48194444444445,37.664722222222224],[-122.54972222222221,37.63583333333333],[-122.55166666666666,37.5575],[-122.55361111111111,37.47916666666667],[-122.55583333333333,37.4],[-122.55749999999999,37.31083333333333],[-122.55972222222222,37.211111111111116],[-122.56194444444444,37.10888888888889],[-122.53999999999999,37.00888888888889],[-122.45444444444445,36.92388888888889],[-122.36555555555555,36.83555555555556],[-122.27666666666667,36.74722222222222],[-122.27527777777777,36.745555555555555],[-122.18361111111112,36.65416666666667],[-122.08833333333332,36.558611111111105],[-121.99444444444444,36.46416666666667],[-121.89805555555556,36.36666666666667],[-121.79888888888888,36.26611111111111],[-121.70277777777778,36.16833333333333],[-121.60416666666666,36.06805555555556],[-121.5075,35.96944444444445],[-121.41333333333334,35.8725],[-121.32166666666666,35.778055555555554],[-121.23083333333334,35.68416666666666],[-121.13277777777778,35.58222222222223],[-121.03138888888888,35.49444444444445],[-120.90694444444445,35.42222222222222],[-120.78444444444445,35.350833333333334],[-120.66361111111112,35.280277777777776],[-120.5436111111111,35.21027777777778],[-120.42305555555556,35.13916666666667],[-120.18416666666667,34.99805555555556],[-120.06472222222222,34.92722222222222],[-119.94611111111111,34.85638888888889],[-119.8261111111111,34.78472222222222],[-119.70805555555556,34.71388888888889],[-119.58833333333332,34.641666666666666],[-119.46944444444445,34.57],[-119.23361111111112,34.42666666666666],[-118.99944444444445,34.28361111111111],[-118.88361111111112,34.212500000000006],[-118.76694444444445,34.14083333333333],[-118.6525,34.07],[-118.53611111111111,33.99777777777778],[-118.41972222222223,33.92361111111111],[-118.31,33.83888888888889],[-118.22194444444445,33.770833333333336],[-118.11666666666666,33.690555555555555],[-118.01555555555555,33.61333333333334],[-117.91805555555555,33.5375],[-117.82694444444444,33.45888888888889],[-117.76666666666667,33.4],[-117.74305555555556,33.38166666666667],[-117.7,33.35],[-117.66000000000001,33.30416666666667],[-117.61666666666666,33.266666666666666],[-117.57888888888888,33.22777777777778],[-117.53333333333333,33.18333333333333],[-117.5025,33.155277777777776],[-117.46666666666667,33.11666666666667],[-117.4363888888889,33.08027777777778],[-117.4,33.03333333333333],[-117.36777777777777,32.998333333333335],[-117.35,32.96666666666667],[-117.31055555555555,32.930277777777775],[-117.28333333333333,32.9],[-117.26277777777777,32.87277777777778],[-117.25,32.85],[-117.21472222222222,32.81666666666667],[-117.18333333333334,32.8],[-117.14083333333333,32.795833333333334],[-117.1,32.78333333333333],[-117.06666666666666,32.77916666666667],[-117.03333333333333,32.766666666666666],[-116.99361111111111,32.76166666666666],[-116.96666666666667,32.75],[-116.9563888888889,32.71416666666667],[-116.98333333333333,32.7],[-117.01416666666667,32.69083333333333],[-117.05,32.7],[-117.075,32.705555555555556],[-117.1,32.71666666666667],[-117.12583333333333,32.71805555555556],[-117.15,32.71666666666667],[-117.17500000000001,32.730000000000004]]}
}
