{
  "id": 2047875459,
  "type": "Feature",
  "properties": {
    "geom:area": 0,
    "geom:bbox": "-122.333333,37.493611,-77.510556,38.979722",
    "geom:latitude": 38.36131182183575,
    "geom:longitude": -99.98846398490585,
    "src:alt_label": "swim-path",
    "src:geom": "swim",
    "swim:altitudes": [
      "013",
      "025",
      "047",
      "072",
      "094",
      "115",
      "130",
      "141",
      "158",
      "173",
      "184",
      "197",
      "209",
      "220",
      "232",
      "242",
      "251",
      "261",
      "269",
      "276",
      "284",
      "291",
      "298",
      "304",
      "310",
      "318C",
      "320C",
      "320C",
      "320C",
      "320C",
      "320C",
      "320C",
      "320C",
      "320C",
      "320C",
      "320C",
      "320C",
      "320C",
      "320C",
      "320C",
      "320C",
      "320C",
      "320C",
      "320C",
      "320C",
      "320C",
      "320C",
      "320C",
      "320",
      "320",
      "321",
      "330",
      "336",
      "340C",
      "340C",
      "340C",
      "340C",
      "340C",
      "340C",
      "340C",
      "340C",
      "340C",
      "340C",
      "340C",
      "340C",
      "340C",
      "340C",
      "340C",
      "340C",
      "340C",
      "340C",
      "340C",
      "340C",
      "340C",
      "340C",
      "340C",
      "340C",
      "340C",
      "340C",
      "340C",
      "340C",
      "340C",
      "340C",
      "340C",
      "340C",
      "340C",
      "340C",
      "340C",
      "340C",
      "340C",
      "340C",
      "340C",
      "340C",
      "340C",
      "340C",
      "340C",
      "340C",
      "340C",
      "340C",
      "340C",
      "340C",
      "340C",
      "340C",
      "340C",
      "340C",
      "340C",
      "340C",
      "340C",
      "340C",
      "340C",
      "340C",
      "340C",
      "340C",
      "340C",
      "340C",
      "340C",
      "340C",
      "340C",
      "340C",
      "340C",
      "340C",
      "340C",
      "340C",
      "340C",
      "340C",
      "340C",
      "340C",
      "340C",
      "340C",
      "340C",
      "340C",
      "340C",
      "340C",
      "340C",
      "340C",
      "340C",
      "340C",
      "340C",
      "340C",
      "340C",
      "340C",
      "340C",
      "340C",
      "340C",
      "340C",
      "340C",
      "340C",
      "340C",
      "340C",
      "340C",
      "340C",
      "340C",
      "340C",
      "340C",
      "340C",
      "340C",
      "340C",
      "340C",
      "340C",
      "340C",
      "340C",
      "340C",
      "340C",
      "340C",
      "340C",
      "340C",
      "340C",
      "340C",
      "340C",
      "340C",
      "340C",
      "340C",
      "340C",
      "340C",
      "340C",
      "340C",
      "340C",
      "340C",
      "340C",
      "340C",
      "340C",
      "340C",
      "340C",
      "340C",
      "340C",
      "340C",
      "340C",
      "340C",
      "340C",
      "340C",
      "340C",
      "340C",
      "340C",
      "340C",
      "340C",
      "340C",
      "340C",
      "340C",
      "340C",
      "340C",
      "340C",
      "340C",
      "340C",
      "340C",
      "340C",
      "340C",
      "340C",
      "340C",
      "340C",
      "340C",
      "340C",
      "340C",
      "340C",
      "340C",
      "340C",
      "340C",
      "340C",
      "340C",
      "340",
      "350",
      "358C",
      "360C",
      "360C",
      "360C",
      "360C",
      "360C",
      "360C",
      "360C",
      "360C",
      "360C",
      "360C",
      "360C",
      "360C",
      "360C",
      "360C",
      "360C",
      "360C",
      "360C",
      "360C",
      "360C",
      "360C",
      "360C",
      "360C",
      "360C",
      "360C",
      "360C",
      "360C",
      "360C",
      "360C",
      "360C",
      "360C",
      "360C",
      "360C",
      "360C",
      "360C",
      "360C",
      "360C",
      "360C",
      "360C",
      "360C",
      "360C",
      "360C",
      "360C",
      "360C",
      "360C",
      "360C",
      "360C",
      "360C",
      "360C",
      "360C",
      "360C",
      "360C",
      "360C",
      "360C",
      "360C",
      "360C",
      "360C",
      "360C",
      "360C",
      "360C",
      "360C",
      "360C",
      "360C",
      "360C",
      "360C",
      "360C",
      "360C",
      "360C",
      "360C",
      "360C",
      "360",
      "355",
      "353",
      "346",
      "344",
      "340C",
      "340C",
      "340C",
      "340C",
      "340C",
      "340C",
      "340C",
      "340C",
      "340C",
      "340C",
      "340C",
      "340C",
      "340C",
      "340C",
      "340C",
      "340C",
      "340C",
      "340",
      "340",
      "328",
      "301",
      "298",
      "275",
      "251",
      "229",
      "212",
      "212",
      "193",
      "193",
      "180",
      "180",
      "161",
      "162",
      "142",
      "143",
      "122",
      "124",
      "107",
      "098",
      "089",
      "079",
      "065",
      "059",
      "044",
      "034",
      "035",
      "024",
      "024",
      "014",
      "015",
      "005",
      "006"
    ],
    "swim:geom": "path",
    "swim:speeds": [
      188,
      234,
      258,
      262,
      274,
      290,
      311,
      337,
      348,
      356,
      367,
      375,
      384,
      391,
      396,
      402,
      410,
      418,
      419,
      424,
      429,
      434,
      438,
      442,
      448,
      451,
      452,
      452,
      451,
      451,
      450,
      449,
      447,
      446,
      446,
      446,
      445,
      445,
      445,
      445,
      445,
      444,
      443,
      442,
      445,
      446,
      446,
      445,
      444,
      445,
      444,
      441,
      439,
      441,
      441,
      442,
      442,
      442,
      442,
      441,
      442,
      440,
      441,
      443,
      444,
      445,
      447,
      448,
      447,
      448,
      449,
      450,
      446,
      442,
      440,
      439,
      438,
      436,
      436,
      435,
      435,
      434,
      433,
      432,
      430,
      429,
      428,
      427,
      426,
      426,
      426,
      426,
      425,
      425,
      426,
      422,
      416,
      413,
      419,
      424,
      426,
      428,
      429,
      429,
      429,
      428,
      428,
      428,
      428,
      428,
      429,
      429,
      430,
      432,
      433,
      434,
      433,
      432,
      432,
      431,
      431,
      432,
      433,
      436,
      441,
      444,
      446,
      447,
      448,
      449,
      448,
      448,
      449,
      449,
      450,
      450,
      449,
      448,
      447,
      447,
      449,
      447,
      449,
      448,
      449,
      448,
      449,
      449,
      449,
      450,
      449,
      451,
      452,
      454,
      454,
      455,
      455,
      455,
      455,
      453,
      452,
      452,
      453,
      453,
      452,
      452,
      451,
      451,
      451,
      450,
      450,
      450,
      450,
      450,
      450,
      450,
      450,
      450,
      450,
      451,
      451,
      452,
      451,
      452,
      453,
      455,
      457,
      459,
      461,
      462,
      462,
      461,
      461,
      460,
      458,
      457,
      456,
      456,
      457,
      460,
      460,
      460,
      460,
      460,
      460,
      460,
      460,
      460,
      460,
      460,
      460,
      460,
      460,
      460,
      460,
      460,
      460,
      460,
      458,
      457,
      451,
      449,
      448,
      448,
      447,
      446,
      446,
      447,
      448,
      449,
      449,
      449,
      448,
      446,
      445,
      443,
      442,
      442,
      444,
      445,
      446,
      447,
      446,
      446,
      445,
      445,
      453,
      455,
      456,
      457,
      457,
      457,
      457,
      454,
      453,
      453,
      451,
      451,
      450,
      448,
      447,
      446,
      445,
      444,
      444,
      444,
      444,
      444,
      444,
      446,
      444,
      445,
      444,
      444,
      444,
      446,
      444,
      446,
      446,
      446,
      446,
      446,
      445,
      444,
      445,
      444,
      445,
      445,
      445,
      445,
      445,
      445,
      445,
      446,
      447,
      449,
      450,
      450,
      451,
      451,
      452,
      452,
      452,
      453,
      453,
      453,
      454,
      453,
      453,
      452,
      451,
      451,
      450,
      451,
      451,
      458,
      459,
      448,
      440,
      431,
      403,
      407,
      379,
      383,
      339,
      343,
      327,
      332,
      319,
      325,
      314,
      317,
      311,
      303,
      280,
      250,
      238,
      234,
      228,
      217,
      221,
      193,
      198,
      173,
      178,
      159,
      164
    ],
    "swim:timestamps": [
      1786123730,
      1786123790,
      1786123850,
      1786123910,
      1786123970,
      1786124025,
      1786124090,
      1786124150,
      1786124210,
      1786124270,
      1786124331,
      1786124391,
      1786124451,
      1786124511,
      1786124571,
      1786124631,
      1786124691,
      1786124751,
      1786124811,
      1786124871,
      1786124932,
      1786124992,
      1786125052,
      1786125112,
      1786125172,
      1786125232,
      1786125292,
      1786125352,
      1786125412,
      1786125473,
      1786125533,
      1786125593,
      1786125651,
      1786125711,
      1786125771,
      1786125831,
      1786125891,
      1786125951,
      1786126011,
      1786126071,
      1786126132,
      1786126192,
      1786126252,
      1786126312,
      1786126372,
      1786126432,
      1786126492,
      1786126552,
      1786126612,
      1786126675,
      1786126735,
      1786126793,
      1786126853,
      1786126916,
      1786126973,
      1786127033,
      1786127096,
      1786127153,
      1786127216,
      1786127273,
      1786127336,
      1786127394,
      1786127454,
      1786127514,
      1786127577,
      1786127634,
      1786127694,
      1786127751,
      1786127757,
      1786127817,
      1786127877,
      1786127931,
      1786127997,
      1786128052,
      1786128112,
      1786128172,
      1786128238,
      1786128298,
      1786128352,
      1786128358,
      1786128412,
      1786128418,
      1786128472,
      1786128532,
      1786128598,
      1786128658,
      1786128718,
      1786128778,
      1786128838,
      1786128898,
      1786128959,
      1786129019,
      1786129079,
      1786129139,
      1786129199,
      1786129259,
      1786129319,
      1786129439,
      1786129499,
      1786129559,
      1786129620,
      1786129680,
      1786129740,
      1786129800,
      1786129860,
      1786129920,
      1786129980,
      1786130040,
      1786130160,
      1786130220,
      1786130280,
      1786130341,
      1786130401,
      1786130461,
      1786130521,
      1786130581,
      1786130641,
      1786130701,
      1786130761,
      1786130821,
      1786130881,
      1786130941,
      1786131001,
      1786131062,
      1786131122,
      1786131182,
      1786131242,
      1786131302,
      1786131362,
      1786131422,
      1786131482,
      1786131542,
      1786131602,
      1786131662,
      1786131723,
      1786131783,
      1786131843,
      1786131903,
      1786131963,
      1786132023,
      1786132073,
      1786132083,
      1786132133,
      1786132143,
      1786132193,
      1786132203,
      1786132253,
      1786132263,
      1786132313,
      1786132323,
      1786132373,
      1786132383,
      1786132444,
      1786132504,
      1786132564,
      1786132613,
      1786132624,
      1786132674,
      1786132684,
      1786132744,
      1786132804,
      1786132864,
      1786132914,
      1786132924,
      1786133034,
      1786133044,
      1786133105,
      1786133165,
      1786133214,
      1786133225,
      1786133274,
      1786133285,
      1786133334,
      1786133345,
      1786133395,
      1786133405,
      1786133455,
      1786133515,
      1786133525,
      1786133575,
      1786133585,
      1786133635,
      1786133645,
      1786133695,
      1786133755,
      1786133815,
      1786133875,
      1786133935,
      1786133995,
      1786134055,
      1786134115,
      1786134176,
      1786134236,
      1786134296,
      1786134356,
      1786134416,
      1786134476,
      1786134596,
      1786134716,
      1786134775,
      1786134835,
      1786134896,
      1786134956,
      1786135016,
      1786135076,
      1786135136,
      1786135196,
      1786135256,
      1786135316,
      1786135376,
      1786135436,
      1786135496,
      1786135556,
      1786135616,
      1786135677,
      1786135737,
      1786135797,
      1786135857,
      1786135918,
      1786135977,
      1786136037,
      1786136097,
      1786136157,
      1786136218,
      1786136277,
      1786136337,
      1786136399,
      1786136459,
      1786136518,
      1786136579,
      1786136639,
      1786136699,
      1786136758,
      1786136818,
      1786136878,
      1786136938,
      1786136998,
      1786137058,
      1786137130,
      1786137191,
      1786137251,
      1786137323,
      1786137383,
      1786137443,
      1786137503,
      1786137563,
      1786137623,
      1786137683,
      1786137743,
      1786137776,
      1786137803,
      1786137836,
      1786137863,
      1786137897,
      1786137924,
      1786137957,
      1786137984,
      1786138017,
      1786138044,
      1786138077,
      1786138104,
      1786138164,
      1786138224,
      1786138284,
      1786138344,
      1786138404,
      1786138464,
      1786138524,
      1786138584,
      1786138599,
      1786138645,
      1786138659,
      1786138705,
      1786138719,
      1786138765,
      1786138779,
      1786138825,
      1786138839,
      1786138899,
      1786138959,
      1786139005,
      1786139019,
      1786139079,
      1786139125,
      1786139140,
      1786139185,
      1786139200,
      1786139245,
      1786139260,
      1786139305,
      1786139320,
      1786139365,
      1786139380,
      1786139426,
      1786139440,
      1786139500,
      1786139546,
      1786139560,
      1786139606,
      1786139620,
      1786139666,
      1786139726,
      1786139740,
      1786139786,
      1786139801,
      1786139861,
      1786139921,
      1786139981,
      1786140041,
      1786140101,
      1786140161,
      1786140221,
      1786140281,
      1786140341,
      1786140401,
      1786140447,
      1786140461,
      1786140514,
      1786140582,
      1786140642,
      1786140693,
      1786140702,
      1786140753,
      1786140762,
      1786140813,
      1786140822,
      1786140874,
      1786140882,
      1786140934,
      1786140942,
      1786140994,
      1786141002,
      1786141062,
      1786141122,
      1786141182,
      1786141243,
      1786141303,
      1786141363,
      1786141414,
      1786141474,
      1786141483,
      1786141534,
      1786141543,
      1786141594,
      1786141603,
      1786141654,
      1786141663
    ],
    "wof:geomhash": "878be992621b3ce37c680d57b5443dc8",
    "wof:id": 2047875459,
    "wof:repo": "sfomuseum-data-flights-2026-08"
  },
  "bbox": [
    -122.33333333333333,
    37.493611111111115,
    -77.51055555555556,
    38.97972222222222
  ],
  "geometry": {"type":"LineString","coordinates":[[-77.51055555555556,38.95],[-77.58694444444444,38.946666666666665],[-77.67500000000001,38.928888888888885],[-77.75805555555556,38.891666666666666],[-77.85,38.900277777777774],[-77.95,38.93333333333333],[-78.04583333333333,38.965],[-78.16333333333334,38.9675],[-78.28916666666666,38.97027777777778],[-78.41611111111112,38.973055555555554],[-78.54722222222222,38.97666666666667],[-78.67972222222222,38.97916666666667],[-78.81805555555555,38.97972222222222],[-78.95027777777779,38.945277777777775],[-79.0775,38.90277777777778],[-79.21833333333333,38.87305555555555],[-79.35,38.831944444444446],[-79.50055555555555,38.83416666666667],[-79.63416666666667,38.83166666666667],[-79.78444444444445,38.82805555555556],[-79.93777777777778,38.82416666666667],[-80.0925,38.82027777777778],[-80.24833333333333,38.81638888888889],[-80.41555555555556,38.81166666666666],[-80.57833333333333,38.80777777777777],[-80.73722222222223,38.835],[-80.89444444444445,38.86527777777778],[-81.05722222222222,38.871944444444445],[-81.21472222222222,38.86333333333334],[-81.37888888888888,38.85444444444445],[-81.53833333333333,38.84527777777778],[-81.69444444444444,38.836111111111116],[-81.84527777777777,38.827222222222225],[-82.00222222222222,38.8175],[-82.16055555555556,38.80777777777777],[-82.31888888888888,38.7975],[-82.47722222222222,38.78722222222222],[-82.63277777777778,38.77638888888889],[-82.79333333333334,38.76555555555556],[-82.95,38.75472222222222],[-83.10749999999999,38.74333333333333],[-83.27805555555555,38.73111111111111],[-83.42583333333334,38.698611111111106],[-83.57444444444444,38.657222222222224],[-83.73333333333333,38.665],[-83.89250000000001,38.67472222222222],[-84.04833333333333,38.68388888888889],[-84.17500000000001,38.691111111111105],[-84.33111111111111,38.7],[-84.50916666666667,38.71194444444445],[-84.66527777777779,38.719722222222224],[-84.80277777777778,38.72416666666667],[-84.95722222222223,38.731388888888894],[-85.13333333333334,38.74055555555556],[-85.2713888888889,38.74583333333334],[-85.42833333333334,38.75277777777778],[-85.6061111111111,38.76083333333333],[-85.74416666666667,38.76583333333333],[-85.92055555555557,38.7675],[-86.07472222222222,38.76],[-86.23166666666667,38.754444444444445],[-86.38694444444445,38.74722222222222],[-86.5425,38.73277777777778],[-86.69805555555556,38.70916666666667],[-86.8536111111111,38.68527777777778],[-87.00805555555556,38.6625],[-87.16194444444444,38.6375],[-87.31722222222221,38.61083333333333],[-87.31722222222221,38.61083333333333],[-87.47055555555556,38.584722222222226],[-87.6261111111111,38.55694444444444],[-87.78555555555555,38.558055555555555],[-87.94111111111111,38.5775],[-88.09416666666667,38.59638888888889],[-88.24861111111112,38.61527777777778],[-88.41416666666667,38.635],[-88.55499999999999,38.651666666666664],[-88.72333333333333,38.67111111111111],[-88.87472222222222,38.67583333333333],[-88.87888888888888,38.67611111111111],[-89.03,38.67861111111111],[-89.03111111111112,38.67861111111111],[-89.1825,38.68083333333333],[-89.33527777777778,38.68333333333333],[-89.4888888888889,38.684999999999995],[-89.64027777777778,38.68694444444444],[-89.79027777777777,38.68861111111111],[-89.94194444444445,38.69],[-90.0775,38.691111111111105],[-90.22777777777777,38.69222222222222],[-90.39944444444446,38.69305555555555],[-90.55166666666666,38.693888888888885],[-90.70222222222222,38.69416666666666],[-90.83222222222221,38.69444444444444],[-90.98222222222222,38.69444444444444],[-91.13416666666667,38.69416666666666],[-91.30805555555555,38.693888888888885],[-91.58444444444444,38.69277777777778],[-91.73388888888888,38.69138888888889],[-91.88388888888889,38.67166666666667],[-92.03333333333333,38.650277777777774],[-92.18305555555555,38.62861111111111],[-92.33444444444444,38.60666666666667],[-92.47888888888889,38.58555555555556],[-92.6286111111111,38.56361111111111],[-92.77722222222222,38.54138888888889],[-92.9238888888889,38.51916666666666],[-93.07333333333332,38.49666666666667],[-93.37027777777777,38.45138888888889],[-93.51861111111111,38.42805555555555],[-93.66638888888889,38.40472222222222],[-93.81638888888888,38.38111111111111],[-93.96583333333334,38.35722222222223],[-94.13444444444445,38.330000000000005],[-94.28472222222221,38.30555555555555],[-94.43388888888889,38.280833333333334],[-94.58666666666666,38.26916666666666],[-94.74,38.26416666666667],[-94.89250000000001,38.25944444444445],[-95.0436111111111,38.25416666666667],[-95.19694444444445,38.24888888888889],[-95.35111111111111,38.24305555555556],[-95.50305555555556,38.23722222222222],[-95.65833333333335,38.23111111111111],[-95.81555555555555,38.225],[-95.97277777777778,38.218333333333334],[-96.13166666666666,38.21138888888889],[-96.28972222222222,38.20444444444445],[-96.44861111111112,38.197222222222216],[-96.60666666666665,38.189722222222215],[-96.76305555555555,38.18194444444444],[-96.92222222222223,38.17388888888889],[-97.07888888888888,38.16583333333333],[-97.23861111111111,38.1575],[-97.39611111111111,38.14888888888889],[-97.54472222222222,38.14083333333333],[-97.70055555555555,38.13194444444444],[-97.84583333333333,38.12361111111111],[-98.00222222222222,38.114444444444445],[-98.16027777777778,38.10472222222222],[-98.29055555555556,38.09527777777778],[-98.32249999999999,38.094722222222224],[-98.44694444444445,38.086111111111116],[-98.47944444444444,38.084722222222226],[-98.60416666666666,38.075833333333335],[-98.6375,38.074444444444445],[-98.76305555555555,38.06666666666667],[-98.79388888888889,38.06444444444444],[-98.92,38.05555555555555],[-98.95111111111112,38.05361111111111],[-99.07888888888888,38.043055555555554],[-99.10944444444443,38.0425],[-99.27,38.03138888888889],[-99.42750000000001,38.019999999999996],[-99.58722222222222,38.00833333333333],[-99.74833333333333,37.99638888888889],[-99.74555555555555,37.99666666666667],[-99.90833333333335,37.98416666666667],[-99.90583333333333,37.98444444444444],[-100.06166666666667,37.972500000000004],[-100.22055555555556,37.96],[-100.37833333333333,37.947222222222216],[-100.53527777777778,37.93444444444444],[-100.56777777777778,37.93194444444444],[-100.84916666666666,37.933611111111105],[-100.87833333333333,37.93694444444444],[-101.03361111111111,37.95472222222222],[-101.18916666666667,37.972500000000004],[-101.31305555555555,37.986666666666665],[-101.3436111111111,37.99],[-101.46944444444445,38.00416666666667],[-101.5,38.0075],[-101.6261111111111,38.021388888888886],[-101.65666666666667,38.02472222222222],[-101.78138888888888,38.038333333333334],[-101.80888888888889,38.04138888888889],[-101.93833333333333,38.055],[-102.09638888888888,38.07194444444445],[-102.12416666666665,38.075],[-102.25472222222223,38.08861111111111],[-102.28388888888888,38.09166666666667],[-102.41166666666668,38.105000000000004],[-102.4388888888889,38.1075],[-102.56916666666666,38.12083333333334],[-102.72888888888889,38.136944444444445],[-102.88916666666667,38.15277777777778],[-103.04888888888888,38.16833333333333],[-103.21194444444444,38.18416666666666],[-103.37166666666666,38.19944444444444],[-103.53388888888888,38.214444444444446],[-103.69416666666667,38.22944444444445],[-103.85499999999999,38.24388888888889],[-104.01388888888889,38.25805555555556],[-104.17472222222223,38.2725],[-104.33277777777778,38.28583333333333],[-104.49222222222222,38.299166666666665],[-104.6525,38.309999999999995],[-104.97111111111111,38.33166666666667],[-105.30694444444444,38.35388888888889],[-105.47083333333333,38.36222222222222],[-105.63305555555554,38.37166666666667],[-105.79416666666667,38.382222222222225],[-105.95611111111111,38.39111111111111],[-106.11805555555554,38.401111111111106],[-106.28111111111112,38.409444444444446],[-106.44361111111111,38.41861111111111],[-106.6061111111111,38.42805555555555],[-106.76944444444445,38.436388888888885],[-106.93166666666667,38.44444444444444],[-107.09583333333333,38.45138888888889],[-107.25888888888889,38.45111111111111],[-107.42111111111112,38.4525],[-107.58472222222221,38.4525],[-107.7475,38.45305555555556],[-107.90916666666668,38.4525],[-108.07222222222222,38.45277777777778],[-108.23416666666667,38.45166666666667],[-108.39722222222223,38.45138888888889],[-108.55527777777777,38.45111111111111],[-108.71805555555555,38.45027777777778],[-108.87777777777777,38.44888888888889],[-109.035,38.44694444444444],[-109.19527777777778,38.44499999999999],[-109.35166666666666,38.44305555555555],[-109.51222222222222,38.44083333333333],[-109.66916666666667,38.43833333333333],[-109.82805555555555,38.43555555555555],[-109.98611111111111,38.4325],[-110.14444444444445,38.42944444444444],[-110.30444444444444,38.42611111111111],[-110.46361111111112,38.4225],[-110.6211111111111,38.41888888888889],[-110.78111111111112,38.415277777777774],[-110.93555555555555,38.41305555555555],[-111.07305555555556,38.41083333333333],[-111.22916666666667,38.407777777777774],[-111.38444444444445,38.40472222222222],[-111.57111111111111,38.401111111111106],[-111.7286111111111,38.3975],[-111.91805555555555,38.39277777777778],[-112.07583333333334,38.38861111111111],[-112.265,38.38361111111111],[-112.42194444444445,38.37916666666667],[-112.57972222222222,38.37444444444444],[-112.73472222222222,38.36972222222222],[-112.88916666666667,38.35527777777778],[-113.02305555555556,38.28611111111111],[-113.15194444444445,38.21222222222222],[-113.28138888888888,38.13805555555555],[-113.36083333333333,38.0925],[-113.41166666666668,38.06361111111111],[-113.49111111111111,38.01833333333333],[-113.54527777777777,37.99638888888889],[-113.64222222222223,37.99],[-113.70305555555557,37.99055555555556],[-113.79944444444445,37.99138888888889],[-113.85944444444443,37.998333333333335],[-113.9525,38.01972222222222],[-114.01166666666667,38.03333333333333],[-114.10194444444444,38.05472222222222],[-114.16388888888889,38.06111111111111],[-114.31833333333333,38.065],[-114.47305555555556,38.08916666666667],[-114.62472222222222,38.11333333333334],[-114.77805555555555,38.13805555555555],[-114.93111111111112,38.163888888888884],[-115.08277777777778,38.19],[-115.23694444444445,38.217222222222226],[-115.3775,38.2425],[-115.4088888888889,38.24861111111111],[-115.53055555555555,38.26611111111111],[-115.56333333333333,38.26916666666666],[-115.68666666666667,38.27166666666667],[-115.71888888888888,38.2725],[-115.84166666666667,38.25861111111111],[-115.90722222222223,38.25111111111111],[-115.99944444444445,38.24055555555556],[-116.06305555555555,38.23361111111111],[-116.21916666666667,38.215833333333336],[-116.37444444444444,38.198055555555555],[-116.46694444444445,38.18722222222222],[-116.52944444444444,38.18],[-116.68583333333333,38.16166666666666],[-116.7761111111111,38.15083333333333],[-116.83916666666666,38.14333333333333],[-116.9325,38.13194444444444],[-116.99638888888889,38.12416666666667],[-117.08833333333332,38.113055555555555],[-117.12249999999999,38.10888888888889],[-117.25444444444445,38.0925],[-117.28055555555555,38.089444444444446],[-117.41166666666668,38.073055555555555],[-117.44250000000001,38.06916666666667],[-117.56777777777778,38.05361111111111],[-117.60194444444444,38.049166666666665],[-117.75777777777778,38.02916666666667],[-117.88222222222221,38.013333333333335],[-117.91333333333334,38.009166666666665],[-118.03888888888889,37.99305555555556],[-118.07138888888889,37.98861111111111],[-118.19611111111111,37.97222222222222],[-118.35305555555556,37.95138888888889],[-118.3875,37.946666666666665],[-118.5111111111111,37.930277777777775],[-118.54277777777777,37.92583333333333],[-118.70222222222222,37.90416666666667],[-118.85944444444443,37.884166666666665],[-119.01666666666667,37.867222222222225],[-119.16805555555555,37.85],[-119.32472222222222,37.83111111111111],[-119.48194444444445,37.8125],[-119.63777777777779,37.79388888888889],[-119.79472222222222,37.775],[-119.95027777777779,37.75611111111111],[-120.10749999999999,37.73638888888889],[-120.25,37.71666666666667],[-120.26916666666666,37.71611111111111],[-120.41666666666667,37.7],[-120.5761111111111,37.67944444444444],[-120.72444444444444,37.661944444444444],[-120.86666666666666,37.65],[-120.86638888888888,37.64472222222222],[-121,37.63333333333333],[-121.00166666666667,37.628055555555555],[-121.11666666666666,37.61666666666667],[-121.12305555555555,37.611666666666665],[-121.23333333333333,37.6],[-121.22888888888889,37.596944444444446],[-121.35,37.583333333333336],[-121.34027777777777,37.58361111111111],[-121.45,37.56666666666667],[-121.44833333333334,37.57166666666667],[-121.55611111111111,37.55888888888889],[-121.65944444444445,37.5425],[-121.75527777777778,37.51972222222222],[-121.845,37.49805555555556],[-121.92305555555556,37.493611111111115],[-122.005,37.498333333333335],[-122.08333333333333,37.5],[-122.15,37.53333333333333],[-122.155,37.52833333333333],[-122.21666666666667,37.55],[-122.21666666666667,37.55444444444444],[-122.28333333333333,37.583333333333336],[-122.2761111111111,37.57944444444445],[-122.33333333333333,37.6],[-122.32416666666666,37.599444444444444]]}
}
