{
  "id": 2047879559,
  "type": "Feature",
  "properties": {
    "geom:area": 0,
    "geom:bbox": "-121.595278,33.276667,-111.800000,36.911667",
    "geom:latitude": 34.52169297325343,
    "geom:longitude": -116.78649301942671,
    "src:alt_label": "swim-path",
    "src:geom": "swim",
    "swim:altitudes": [
      "292",
      "309",
      "311",
      "325",
      "344",
      "347",
      "362",
      "380",
      "389C",
      "390C",
      "390C",
      "390C",
      "390C",
      "390C",
      "390C",
      "390C",
      "390C",
      "390C",
      "390C",
      "390C",
      "390C",
      "390C",
      "390C",
      "390C",
      "390C",
      "390C",
      "390C",
      "390C",
      "390C",
      "390C",
      "390C",
      "390C",
      "390C",
      "390C",
      "390C",
      "390C",
      "390C",
      "390C",
      "390C",
      "390C",
      "390C",
      "390C",
      "390C",
      "390C",
      "390C",
      "390C",
      "390C",
      "390C",
      "390C",
      "390C",
      "390C",
      "390C",
      "390C",
      "390C",
      "390C",
      "390",
      "390",
      "390",
      "381",
      "360",
      "323",
      "292",
      "268",
      "250C",
      "250C",
      "250",
      "250",
      "245",
      "234",
      "227",
      "215",
      "207",
      "191",
      "190",
      "184",
      "174",
      "170",
      "170",
      "170",
      "167",
      "162",
      "152",
      "147",
      "137",
      "133",
      "123",
      "118",
      "108",
      "103",
      "095",
      "093",
      "090",
      "087",
      "082",
      "078",
      "071",
      "069",
      "060",
      "056",
      "049",
      "045",
      "038",
      "035",
      "030",
      "027",
      "021",
      "019",
      "014"
    ],
    "swim:geom": "path",
    "swim:speeds": [
      461,
      466,
      468,
      466,
      464,
      466,
      454,
      448,
      446,
      446,
      446,
      446,
      445,
      445,
      444,
      444,
      443,
      442,
      440,
      440,
      439,
      438,
      438,
      437,
      437,
      437,
      437,
      436,
      436,
      436,
      437,
      437,
      437,
      437,
      438,
      438,
      439,
      440,
      442,
      443,
      443,
      444,
      444,
      445,
      445,
      446,
      447,
      448,
      449,
      451,
      452,
      453,
      454,
      454,
      454,
      454,
      453,
      453,
      452,
      449,
      449,
      468,
      456,
      437,
      415,
      412,
      411,
      409,
      405,
      401,
      385,
      382,
      370,
      341,
      333,
      328,
      314,
      309,
      302,
      304,
      295,
      300,
      304,
      300,
      293,
      294,
      290,
      293,
      293,
      289,
      270,
      249,
      237,
      232,
      226,
      220,
      214,
      218,
      221,
      218,
      212,
      212,
      200,
      193,
      185,
      156,
      152,
      153
    ],
    "swim:timestamps": [
      1786157749,
      1786157799,
      1786157809,
      1786157860,
      1786157920,
      1786157930,
      1786157980,
      1786158050,
      1786158100,
      1786158110,
      1786158160,
      1786158170,
      1786158280,
      1786158290,
      1786158340,
      1786158350,
      1786158410,
      1786158472,
      1786158532,
      1786158591,
      1786158652,
      1786158712,
      1786158771,
      1786158833,
      1786158893,
      1786158951,
      1786159013,
      1786159073,
      1786159131,
      1786159193,
      1786159253,
      1786159312,
      1786159372,
      1786159432,
      1786159492,
      1786159552,
      1786159612,
      1786159672,
      1786159732,
      1786159792,
      1786159852,
      1786159912,
      1786159973,
      1786160033,
      1786160093,
      1786160153,
      1786160213,
      1786160273,
      1786160333,
      1786160393,
      1786160453,
      1786160513,
      1786160573,
      1786160634,
      1786160694,
      1786160754,
      1786160814,
      1786160874,
      1786160928,
      1786160988,
      1786161049,
      1786161109,
      1786161169,
      1786161229,
      1786161289,
      1786161349,
      1786161355,
      1786161415,
      1786161475,
      1786161530,
      1786161595,
      1786161647,
      1786161707,
      1786161767,
      1786161781,
      1786161827,
      1786161841,
      1786161887,
      1786161901,
      1786161947,
      1786161961,
      1786162007,
      1786162021,
      1786162067,
      1786162081,
      1786162127,
      1786162141,
      1786162187,
      1786162201,
      1786162248,
      1786162261,
      1786162308,
      1786162321,
      1786162368,
      1786162381,
      1786162428,
      1786162441,
      1786162489,
      1786162501,
      1786162549,
      1786162561,
      1786162609,
      1786162621,
      1786162669,
      1786162682,
      1786162729,
      1786162741,
      1786162791
    ],
    "wof:geomhash": "d34adc9e9595111b7e21421fffa98c70",
    "wof:id": 2047879559,
    "wof:repo": "sfomuseum-data-flights-2026-08"
  },
  "bbox": [
    -121.59527777777777,
    33.276666666666664,
    -111.8,
    36.91166666666666
  ],
  "geometry": {"type":"LineString","coordinates":[[-121.59527777777777,36.91166666666666],[-121.48666666666666,36.84666666666667],[-121.46666666666667,36.830000000000005],[-121.36083333333333,36.763333333333335],[-121.2363888888889,36.68055555555555],[-121.22,36.66611111111111],[-121.11555555555555,36.6],[-120.97666666666667,36.50694444444444],[-120.87916666666666,36.44194444444444],[-120.85916666666667,36.42833333333333],[-120.76055555555556,36.362500000000004],[-120.74083333333333,36.34916666666667],[-120.525,36.20416666666667],[-120.50583333333333,36.191111111111105],[-120.40861111111111,36.12444444444444],[-120.3875,36.11027777777778],[-120.2713888888889,36.032222222222224],[-120.15222222222222,35.95111111111111],[-120.03555555555555,35.87138888888889],[-119.92527777777778,35.794999999999995],[-119.8086111111111,35.712500000000006],[-119.69361111111111,35.63138888888889],[-119.58416666666666,35.553888888888885],[-119.46861111111112,35.47166666666667],[-119.35555555555555,35.39083333333333],[-119.24722222222222,35.31333333333333],[-119.1325,35.23111111111111],[-119.02111111111111,35.151111111111106],[-118.91305555555556,35.07277777777778],[-118.79861111111111,34.99],[-118.6875,34.90888888888889],[-118.58749999999999,34.836111111111116],[-118.47638888888889,34.75472222222222],[-118.35944444444443,34.68833333333333],[-118.2213888888889,34.64888888888889],[-118.08138888888888,34.60861111111111],[-117.94194444444445,34.568333333333335],[-117.80361111111111,34.52777777777778],[-117.66305555555556,34.48694444444445],[-117.52472222222222,34.44638888888888],[-117.38527777777779,34.40555555555555],[-117.2286111111111,34.35916666666667],[-117.10527777777777,34.322500000000005],[-116.9363888888889,34.27194444444444],[-116.7961111111111,34.23027777777778],[-116.655,34.1875],[-116.51472222222222,34.14472222222222],[-116.3761111111111,34.10277777777778],[-116.23555555555555,34.05972222222222],[-116.09222222222222,34.01555555555556],[-115.94861111111112,33.971111111111114],[-115.80777777777777,33.92722222222222],[-115.66333333333334,33.882222222222225],[-115.52305555555556,33.83861111111111],[-115.37888888888888,33.793055555555554],[-115.23777777777778,33.748333333333335],[-115.09694444444445,33.703611111111115],[-114.95694444444445,33.65888888888889],[-114.83333333333333,33.619166666666665],[-114.71972222222223,33.58777777777778],[-114.54416666666667,33.55361111111111],[-114.39527777777778,33.52444444444444],[-114.24527777777777,33.495],[-114.10305555555556,33.466944444444444],[-113.99472222222222,33.445277777777775],[-113.86444444444444,33.41916666666666],[-113.82166666666666,33.410555555555554],[-113.69055555555556,33.38388888888889],[-113.55944444444444,33.35722222222223],[-113.47111111111111,33.33916666666667],[-113.31944444444444,33.312777777777775],[-113.22111111111111,33.295833333333334],[-113.1,33.27861111111111],[-112.9875,33.276666666666664],[-112.93333333333334,33.28333333333333],[-112.87777777777777,33.27916666666667],[-112.83333333333333,33.28333333333333],[-112.77555555555556,33.28472222222222],[-112.73333333333333,33.28333333333333],[-112.67500000000001,33.29416666666666],[-112.63333333333334,33.3],[-112.5675,33.30416666666667],[-112.53333333333333,33.3],[-112.46944444444445,33.31361111111111],[-112.43333333333334,33.31666666666667],[-112.37472222222222,33.32194444444445],[-112.33333333333333,33.333333333333336],[-112.27694444444444,33.33083333333334],[-112.25,33.333333333333336],[-112.18222222222222,33.339444444444446],[-112.15,33.35],[-112.09638888888888,33.34722222222222],[-112.06666666666666,33.35],[-112.02,33.34666666666667],[-112,33.35],[-111.94638888888889,33.34583333333334],[-111.91666666666667,33.35],[-111.87583333333333,33.344722222222224],[-111.85,33.35],[-111.81,33.35861111111111],[-111.8,33.38333333333333],[-111.81583333333333,33.413888888888884],[-111.83333333333333,33.43333333333333],[-111.87666666666667,33.428888888888885],[-111.9,33.43333333333333],[-111.93333333333334,33.42861111111111],[-111.95,33.43333333333333],[-111.98333333333333,33.428888888888885]]}
}
