{
  "id": 2032072955,
  "type": "Feature",
  "properties": {
    "geom:area": 0,
    "geom:bbox": "-123.350850,37.002600,-122.099430,37.611940",
    "geom:latitude": 37.313493419612165,
    "geom:longitude": -122.63776707783303,
    "src:alt_label": "swim-approach",
    "src:geom": "swim",
    "swim:elevations": [
      4960,
      4775,
      4495,
      4316,
      4021,
      3873,
      3760,
      3721,
      3374,
      3290,
      3267,
      3083,
      3047,
      3048,
      3048,
      3048,
      3048,
      3048,
      3048,
      3048,
      3048,
      3048,
      2932,
      2883,
      2801,
      2647,
      2453,
      2255,
      2249,
      1996,
      1769,
      1571,
      1487,
      1369,
      1242,
      1097,
      1012,
      882,
      538,
      492,
      369,
      251,
      183,
      50
    ],
    "swim:geom": "approach",
    "swim:timestamps": [
      1785737190,
      1785737215,
      1785737248,
      1785737270,
      1785737306,
      1785737325,
      1785737337,
      1785737343,
      1785737386,
      1785737398,
      1785737401,
      1785737454,
      1785737479,
      1785737498,
      1785737522,
      1785737550,
      1785737593,
      1785737607,
      1785737612,
      1785737642,
      1785737673,
      1785737722,
      1785737754,
      1785737761,
      1785737773,
      1785737803,
      1785737840,
      1785737878,
      1785737881,
      1785737908,
      1785737934,
      1785737960,
      1785737977,
      1785737994,
      1785738024,
      1785738056,
      1785738068,
      1785738094,
      1785738148,
      1785738160,
      1785738178,
      1785738208,
      1785738225,
      1785738255
    ],
    "wof:geomhash": "7ebaa966649b8e2e9ab90cb3fefbcccc",
    "wof:id": 2032072955,
    "wof:repo": "sfomuseum-data-flights-2026-08"
  },
  "bbox": [
    -123.35085,
    37.0026,
    -122.09943,
    37.61194
  ],
  "geometry": {"coordinates":[[-123.35085,37.0026],[-123.30727,37.02534],[-123.24846,37.05647],[-123.20896,37.07726],[-123.14625,37.11019],[-123.11234,37.12801],[-123.09182,37.13866],[-123.08135,37.14406],[-123.00872,37.18253],[-122.9876,37.19338],[-122.98253,37.19597],[-122.89679,37.24008],[-122.85749,37.25763],[-122.82665,37.26631],[-122.78734,37.27546],[-122.74048,37.28626],[-122.66938,37.30267],[-122.6465,37.30794],[-122.63824,37.30987],[-122.58882,37.32134],[-122.53801,37.33333],[-122.45999,37.35135],[-122.40971,37.36307],[-122.39884,37.36552],[-122.3804,37.36969],[-122.33457,37.38029],[-122.2783,37.39318],[-122.21963,37.40665],[-122.21522,37.40768],[-122.17805,37.41652],[-122.14507,37.43113],[-122.11815,37.44857],[-122.10569,37.46504],[-122.09943,37.48239],[-122.11514,37.51084],[-122.15286,37.52739],[-122.16768,37.53348],[-122.19909,37.54692],[-122.25939,37.57232],[-122.27164,37.57742],[-122.28868,37.58477],[-122.31492,37.59574],[-122.32929,37.6019],[-122.3534,37.61194]],"type":"LineString"}
}
