{
  "id": 2048067519,
  "type": "Feature",
  "properties": {
    "date:inception_lower": "2026-08-19",
    "date:inception_upper": "2026-08-19",
    "edtf:cessation": "",
    "edtf:inception": "2026-08-19",
    "flysfo:actual_timestamp": -1,
    "flysfo:airline": "DL",
    "flysfo:base_airline": "",
    "flysfo:base_flight_number": "6292",
    "flysfo:date": "2026-08-19",
    "flysfo:estimated_timestamp": -1,
    "flysfo:event": "D",
    "flysfo:flight_number": "DL383",
    "flysfo:gate": "",
    "flysfo:journey": "SFO-JFK",
    "flysfo:scheduled_timestamp": 1787154900,
    "flysfo:timestamp": 1787154900,
    "geom:area": 0,
    "geom:bbox": "-122.370943,37.617990,-73.787845,40.643286",
    "geom:latitude": 39.130638000000005,
    "geom:longitude": -98.07939400000001,
    "iata:airline": "DL",
    "iata:base_airline": "",
    "icao:airline": "DAL",
    "icao:base_airline": "KLM",
    "lbl:latitude": 37.61799,
    "lbl:longitude": -122.370943,
    "sfomuseum:airline_id": 1159284261,
    "sfomuseum:arrival_id": 102534365,
    "sfomuseum:base_flight_id": "20260819-D-KLM-6292",
    "sfomuseum:departure_id": 102527513,
    "sfomuseum:flight_id": "20260819-D-DAL-383",
    "sfomuseum:flight_number": [
      "DAL383",
      "DL383"
    ],
    "sfomuseum:placetype": "flight",
    "src:geom": "flysfo",
    "wof:belongsto": [],
    "wof:country": "US",
    "wof:created": 1787242455,
    "wof:geomhash": "1348792a172720778d3219cc18ccd8ee",
    "wof:hierarchy": [
      {
        "custom_id": 2048067519,
        "flight_id": 2048067519
      }
    ],
    "wof:id": 2048067519,
    "wof:involves": [
      102534365,
      102527513,
      1159284261,
      -1,
      1159284613
    ],
    "wof:lastmodified": 1787242455,
    "wof:name": "DL383 (SFO-JFK)",
    "wof:parent_id": -1,
    "wof:placetype": "custom",
    "wof:placetype_alt": [
      "flight"
    ],
    "wof:repo": "sfomuseum-data-flights-2026-08",
    "wof:superseded_by": [],
    "wof:supersedes": []
  },
  "bbox": [
    -122.370943,
    37.61799,
    -73.787845,
    40.643286
  ],
  "geometry": {"type":"MultiPoint","coordinates":[[-122.370943,37.61799],[-73.787845,40.643286]]}
}
