{
  "id": 2048079153,
  "type": "Feature",
  "properties": {
    "geom:area": 0,
    "geom:bbox": "-122.732310,37.410630,-122.096320,38.103210",
    "geom:latitude": 37.663880132200205,
    "geom:longitude": -122.3964299709613,
    "src:alt_label": "swim-approach",
    "src:geom": "swim",
    "swim:elevations": [
      5792,
      5600,
      5295,
      5174,
      4673,
      4377,
      4251,
      4037,
      3634,
      3509,
      3353,
      3353,
      3353,
      3353,
      3220,
      3082,
      2813,
      2492,
      2436,
      2079,
      2022,
      1678,
      1652,
      1391,
      1221,
      1218,
      1219,
      1201,
      1130,
      1099,
      859,
      849,
      690,
      593,
      347,
      271,
      214,
      44
    ],
    "swim:geom": "approach",
    "swim:timestamps": [
      1787247266,
      1787247287,
      1787247318,
      1787247331,
      1787247386,
      1787247418,
      1787247431,
      1787247454,
      1787247500,
      1787247515,
      1787247557,
      1787247577,
      1787247619,
      1787247637,
      1787247687,
      1787247712,
      1787247741,
      1787247775,
      1787247781,
      1787247835,
      1787247843,
      1787247898,
      1787247906,
      1787247951,
      1787247986,
      1787248014,
      1787248026,
      1787248075,
      1787248103,
      1787248122,
      1787248167,
      1787248174,
      1787248208,
      1787248230,
      1787248288,
      1787248307,
      1787248323,
      1787248372
    ],
    "wof:geomhash": "56fe18b8fc52f5d42334dc1a74237a8c",
    "wof:id": 2048079153,
    "wof:repo": "sfomuseum-data-flights-2026-08"
  },
  "bbox": [
    -122.73231,
    37.41063,
    -122.09632,
    38.10321
  ],
  "geometry": {"type":"LineString","coordinates":[[-122.73231,38.10321],[-122.72328,38.07196],[-122.70974,38.02571],[-122.70421,38.0066],[-122.68151,37.92777],[-122.6574,37.88462],[-122.64132,37.86932],[-122.61304,37.84248],[-122.55817,37.79049],[-122.54024,37.77372],[-122.49213,37.72834],[-122.47045,37.70819],[-122.42572,37.66613],[-122.40709,37.64843],[-122.36111,37.60322],[-122.34632,37.5797],[-122.33284,37.55003],[-122.31358,37.51888],[-122.31002,37.51283],[-122.27975,37.46389],[-122.2761,37.45778],[-122.22428,37.42929],[-122.21596,37.42646],[-122.16861,37.41063],[-122.12929,37.41938],[-122.1033,37.43476],[-122.09632,37.4453],[-122.10513,37.48647],[-122.122,37.50802],[-122.13808,37.5189],[-122.18207,37.53759],[-122.1879,37.54001],[-122.22015,37.55356],[-122.24055,37.56217],[-122.29102,37.58352],[-122.30583,37.58957],[-122.31858,37.59496],[-122.35398,37.60989]]}
}
