{
  "id": 2032078021,
  "type": "Feature",
  "properties": {
    "geom:area": 0,
    "geom:bbox": "-122.520000,34.198056,-118.381111,37.665556",
    "geom:latitude": 35.838017487078474,
    "geom:longitude": -120.59579968100773,
    "src:alt_label": "swim-path",
    "src:geom": "swim",
    "swim:altitudes": [
      "007",
      "012",
      "030",
      "039",
      "060",
      "088",
      "114",
      "129",
      "161",
      "179",
      "192",
      "196",
      "224",
      "237",
      "245",
      "256",
      "260",
      "273",
      "282",
      "290C",
      "290C",
      "290C",
      "290C",
      "289C",
      "289C",
      "290C",
      "290",
      "289",
      "285",
      "272",
      "250",
      "231",
      "214",
      "193",
      "176",
      "160",
      "159",
      "145",
      "128",
      "117",
      "115",
      "107",
      "091",
      "077",
      "070",
      "070",
      "069",
      "065",
      "057",
      "054",
      "046",
      "047",
      "035",
      "025",
      "022",
      "017",
      "015",
      "010"
    ],
    "swim:geom": "path",
    "swim:speeds": [
      147,
      145,
      162,
      230,
      276,
      296,
      306,
      347,
      404,
      417,
      413,
      425,
      442,
      449,
      450,
      458,
      466,
      468,
      475,
      473,
      484,
      485,
      484,
      484,
      485,
      485,
      483,
      483,
      466,
      445,
      438,
      425,
      406,
      396,
      385,
      376,
      376,
      353,
      344,
      340,
      319,
      307,
      304,
      302,
      300,
      285,
      256,
      251,
      250,
      244,
      242,
      221,
      207,
      194,
      172,
      146,
      140,
      144
    ],
    "swim:timestamps": [
      1785705756,
      1785705781,
      1785705841,
      1785705901,
      1785705961,
      1785706021,
      1785706081,
      1785706141,
      1785706261,
      1785706321,
      1785706376,
      1785706382,
      1785706502,
      1785706562,
      1785706616,
      1785706676,
      1785706682,
      1785706742,
      1785706796,
      1785706862,
      1785706917,
      1785706977,
      1785707037,
      1785707103,
      1785707163,
      1785707277,
      1785707343,
      1785707403,
      1785707463,
      1785707523,
      1785707583,
      1785707638,
      1785707698,
      1785707763,
      1785707824,
      1785707878,
      1785707884,
      1785707944,
      1785707999,
      1785708058,
      1785708068,
      1785708118,
      1785708178,
      1785708238,
      1785708299,
      1785708308,
      1785708359,
      1785708368,
      1785708419,
      1785708428,
      1785708479,
      1785708488,
      1785708539,
      1785708599,
      1785708611,
      1785708659,
      1785708667,
      1785708719
    ],
    "wof:geomhash": "a39b645e084e0d4cb859cb16c8ed6219",
    "wof:id": 2032078021,
    "wof:repo": "sfomuseum-data-flights-2026-08"
  },
  "bbox": [
    -122.52,
    34.198055555555555,
    -118.38111111111111,
    37.66555555555556
  ],
  "geometry": {"coordinates":[[-122.38333333333334,37.63333333333333],[-122.39527777777778,37.629444444444445],[-122.44555555555556,37.65],[-122.51,37.66555555555556],[-122.52,37.6025],[-122.48833333333333,37.52388888888889],[-122.4563888888889,37.44277777777778],[-122.40861111111111,37.36194444444445],[-122.19250000000001,37.19499999999999],[-122.08777777777777,37.11388888888889],[-122.01472222222222,37.050555555555555],[-121.9825,37.031666666666666],[-121.76388888888889,36.86055555555556],[-121.655,36.77472222222222],[-121.57138888888889,36.70583333333334],[-121.45833333333334,36.614444444444445],[-121.42555555555556,36.593333333333334],[-121.31,36.501666666666665],[-121.22194444444445,36.43138888888889],[-121.08805555555556,36.31083333333333],[-121.00527777777778,36.23027777777778],[-120.89916666666667,36.126666666666665],[-120.79333333333334,36.022777777777776],[-120.66472222222222,35.89555555555555],[-120.55916666666667,35.79138888888889],[-120.36666666666666,35.599444444444444],[-120.26027777777777,35.49722222222222],[-120.1525,35.39388888888889],[-120.04583333333333,35.29083333333333],[-119.94722222222222,35.19555555555555],[-119.85111111111111,35.102222222222224],[-119.7625,35.01611111111111],[-119.67277777777778,34.92861111111111],[-119.57777777777777,34.84805555555556],[-119.47694444444444,34.780277777777776],[-119.38055555555555,34.716944444444444],[-119.37722222222222,34.71472222222223],[-119.28305555555555,34.653055555555554],[-119.18333333333334,34.6],[-119.09388888888888,34.5625],[-119.06666666666666,34.55],[-119.01583333333333,34.507222222222225],[-118.9588888888889,34.437777777777775],[-118.90305555555557,34.36944444444445],[-118.83555555555554,34.30833333333333],[-118.81666666666666,34.28333333333333],[-118.7675,34.25944444444445],[-118.75,34.25],[-118.6913888888889,34.230555555555554],[-118.66666666666667,34.21666666666667],[-118.61666666666666,34.203611111111115],[-118.6,34.2],[-118.54583333333333,34.20055555555556],[-118.48138888888889,34.19944444444444],[-118.46666666666667,34.2],[-118.42777777777778,34.19888888888889],[-118.41666666666667,34.2],[-118.38111111111111,34.198055555555555]],"type":"LineString"}
}
