{
  "id": 2032113095,
  "type": "Feature",
  "properties": {
    "geom:area": 0,
    "geom:bbox": "-122.354320,37.444140,-121.246680,37.612370",
    "geom:latitude": 37.5304623153828,
    "geom:longitude": -121.8088059562876,
    "src:alt_label": "swim-approach",
    "src:geom": "swim",
    "swim:elevations": [
      3469,
      3332,
      3101,
      2938,
      2959,
      2988,
      3017,
      3046,
      3050,
      3016,
      2902,
      2602,
      2576,
      2473,
      2402,
      2344,
      2197,
      2132,
      2134,
      2134,
      2065,
      1833,
      1634,
      1524,
      1524,
      1442,
      1276,
      1038,
      911,
      673,
      523,
      479,
      365,
      257,
      88,
      39
    ],
    "swim:geom": "approach",
    "swim:timestamps": [
      1785962905,
      1785962915,
      1785962966,
      1785962996,
      1785963012,
      1785963027,
      1785963042,
      1785963067,
      1785963098,
      1785963142,
      1785963169,
      1785963207,
      1785963214,
      1785963233,
      1785963251,
      1785963262,
      1785963296,
      1785963317,
      1785963346,
      1785963372,
      1785963404,
      1785963441,
      1785963467,
      1785963498,
      1785963515,
      1785963536,
      1785963555,
      1785963584,
      1785963602,
      1785963653,
      1785963682,
      1785963692,
      1785963724,
      1785963753,
      1785963798,
      1785963811
    ],
    "wof:geomhash": "718c644aa4aafbd48138f28741b88cbe",
    "wof:id": 2032113095,
    "wof:repo": "sfomuseum-data-flights-2026-08"
  },
  "bbox": [
    -122.35432,
    37.44414,
    -121.24668,
    37.61237
  ],
  "geometry": {"type":"LineString","coordinates":[[-121.24668,37.59498],[-121.26678,37.59224],[-121.36059,37.58148],[-121.413,37.5754],[-121.44061,37.57225],[-121.46497,37.56942],[-121.49008,37.56646],[-121.53445,37.56136],[-121.58772,37.55516],[-121.65702,37.54301],[-121.69567,37.53377],[-121.74698,37.52156],[-121.75704,37.51901],[-121.77758,37.50665],[-121.78588,37.48837],[-121.78907,37.47717],[-121.81285,37.44696],[-121.84096,37.44414],[-121.88087,37.44717],[-121.917,37.44977],[-121.96139,37.4529],[-122.00832,37.46641],[-122.03963,37.47957],[-122.0758,37.49494],[-122.09562,37.50336],[-122.11871,37.51318],[-122.13872,37.52153],[-122.1672,37.53348],[-122.18466,37.54087],[-122.23324,37.56141],[-122.26027,37.57282],[-122.26905,37.57648],[-122.29295,37.58656],[-122.31339,37.59516],[-122.34522,37.6085],[-122.35432,37.61237]]}
}
