{
  "id": 2047944155,
  "type": "Feature",
  "properties": {
    "geom:area": 0,
    "geom:bbox": "-122.404530,37.629560,-121.261020,38.118530",
    "geom:latitude": 37.88369824734111,
    "geom:longitude": -121.84371425837801,
    "src:alt_label": "swim-takeoff",
    "src:geom": "swim",
    "swim:elevations": [
      289,
      364,
      715,
      1055,
      1495,
      1783,
      2392,
      2608,
      3073,
      3265,
      3325,
      3646,
      4240,
      4294,
      4523,
      4575,
      4749,
      5029,
      5319,
      5383,
      5459,
      5782,
      6036
    ],
    "swim:geom": "takeoff",
    "swim:timestamps": [
      1786522137,
      1786522143,
      1786522186,
      1786522228,
      1786522295,
      1786522328,
      1786522382,
      1786522402,
      1786522452,
      1786522489,
      1786522500,
      1786522558,
      1786522616,
      1786522623,
      1786522646,
      1786522653,
      1786522674,
      1786522704,
      1786522734,
      1786522742,
      1786522749,
      1786522783,
      1786522822
    ],
    "wof:geomhash": "7ba431cbc9d91e2b3a9776c3cbe0c2cc",
    "wof:id": 2047944155,
    "wof:repo": "sfomuseum-data-flights-2026-08"
  },
  "bbox": [
    -122.40453,
    37.62956,
    -121.26102,
    38.11853
  ],
  "geometry": {"type":"LineString","coordinates":[[-122.39947,37.62956],[-122.40453,37.63366],[-122.38749,37.66394],[-122.34147,37.67794],[-122.2526,37.70581],[-122.20431,37.72332],[-122.12643,37.76337],[-122.09725,37.77816],[-122.02196,37.81738],[-121.95994,37.84384],[-121.94097,37.85122],[-121.82674,37.89653],[-121.70669,37.94408],[-121.6942,37.94894],[-121.64438,37.96851],[-121.63112,37.97372],[-121.5864,37.99114],[-121.51959,38.01714],[-121.45645,38.0421],[-121.43887,38.04913],[-121.42374,38.05508],[-121.34766,38.08485],[-121.26102,38.11853]]}
}
