{
  "id": 2047927089,
  "type": "Feature",
  "properties": {
    "geom:area": 0,
    "geom:bbox": "-122.850000,37.166667,-122.145000,37.600000",
    "geom:latitude": 37.33756712993648,
    "geom:longitude": -122.42387887853803,
    "src:alt_label": "swim-path",
    "src:geom": "swim",
    "swim:altitudes": [
      "100C",
      "100",
      "100C",
      "100",
      "100",
      "100C",
      "100",
      "096",
      "094",
      "090",
      "080",
      "080",
      "079",
      "070",
      "069",
      "060",
      "058",
      "047",
      "046",
      "044",
      "043",
      "036",
      "035",
      "027",
      "025",
      "015",
      "009",
      "008"
    ],
    "swim:geom": "path",
    "swim:speeds": [
      310,
      283,
      279,
      277,
      251,
      253,
      251,
      252,
      252,
      261,
      255,
      253,
      249,
      250,
      246,
      248,
      243,
      247,
      246,
      224,
      214,
      202,
      192,
      195,
      199,
      168,
      154,
      153
    ],
    "swim:timestamps": [
      1786494398,
      1786494405,
      1786494458,
      1786494464,
      1786494524,
      1786494578,
      1786494590,
      1786494638,
      1786494645,
      1786494705,
      1786494819,
      1786494830,
      1786494885,
      1786494939,
      1786494945,
      1786494999,
      1786495010,
      1786495059,
      1786495070,
      1786495119,
      1786495130,
      1786495179,
      1786495190,
      1786495239,
      1786495245,
      1786495310,
      1786495359,
      1786495365
    ],
    "wof:geomhash": "1cf6ec1200c44ebfc481f19e67541bf3",
    "wof:id": 2047927089,
    "wof:repo": "sfomuseum-data-flights-2026-08"
  },
  "bbox": [
    -122.85,
    37.166666666666664,
    -122.14500000000001,
    37.6
  ],
  "geometry": {"type":"LineString","coordinates":[[-122.85,37.25972222222222],[-122.81666666666666,37.266666666666666],[-122.75833333333334,37.2425],[-122.73333333333333,37.233333333333334],[-122.65,37.21666666666667],[-122.59027777777777,37.19416666666666],[-122.56666666666666,37.18333333333333],[-122.5075,37.17055555555555],[-122.48333333333333,37.166666666666664],[-122.41666666666667,37.2],[-122.47166666666666,37.30694444444444],[-122.46666666666667,37.333333333333336],[-122.41666666666667,37.36666666666667],[-122.33472222222221,37.34777777777778],[-122.33333333333333,37.35],[-122.255,37.3675],[-122.25,37.38333333333333],[-122.19555555555556,37.416666666666664],[-122.18333333333334,37.43333333333333],[-122.15222222222222,37.47027777777778],[-122.15,37.483333333333334],[-122.14500000000001,37.52305555555555],[-122.15,37.53333333333333],[-122.20444444444445,37.549166666666665],[-122.21666666666667,37.55],[-122.26666666666667,37.583333333333336],[-122.31083333333333,37.59388888888889],[-122.31666666666666,37.6]]}
}
