{
  "id": 2048037073,
  "type": "Feature",
  "properties": {
    "geom:area": 0,
    "geom:bbox": "-122.352940,37.453310,-121.250600,37.611850",
    "geom:latitude": 37.54034988554088,
    "geom:longitude": -121.81723777519012,
    "src:alt_label": "swim-approach",
    "src:geom": "swim",
    "swim:elevations": [
      5430,
      5138,
      5033,
      4676,
      4413,
      4333,
      4235,
      4025,
      3944,
      3907,
      3738,
      3557,
      3470,
      3336,
      3199,
      3049,
      3048,
      2817,
      2715,
      2543,
      2472,
      2438,
      2357,
      2189,
      2134,
      2113,
      2042,
      1831,
      1648,
      1370,
      1333,
      1217,
      1173,
      1094,
      974,
      884,
      729,
      585,
      457,
      303,
      274,
      187,
      86,
      45
    ],
    "swim:geom": "approach",
    "swim:timestamps": [
      1787001579,
      1787001618,
      1787001632,
      1787001674,
      1787001709,
      1787001727,
      1787001754,
      1787001780,
      1787001787,
      1787001792,
      1787001811,
      1787001834,
      1787001844,
      1787001867,
      1787001882,
      1787001912,
      1787001932,
      1787001982,
      1787001994,
      1787002018,
      1787002028,
      1787002067,
      1787002107,
      1787002124,
      1787002168,
      1787002186,
      1787002201,
      1787002240,
      1787002267,
      1787002308,
      1787002334,
      1787002362,
      1787002378,
      1787002393,
      1787002414,
      1787002432,
      1787002462,
      1787002492,
      1787002519,
      1787002556,
      1787002564,
      1787002583,
      1787002610,
      1787002621
    ],
    "wof:geomhash": "195d68dc04c9ac04fe67582bef033080",
    "wof:id": 2048037073,
    "wof:repo": "sfomuseum-data-flights-2026-08"
  },
  "bbox": [
    -122.35294,
    37.45331,
    -121.2506,
    37.61185
  ],
  "geometry": {"type":"LineString","coordinates":[[-121.2506,37.59432],[-121.3314,37.58478],[-121.35928,37.58178],[-121.43792,37.57283],[-121.50096,37.56528],[-121.53189,37.56153],[-121.5742,37.55659],[-121.61242,37.55212],[-121.62335,37.55064],[-121.6301,37.54928],[-121.65591,37.5432],[-121.68786,37.53556],[-121.70177,37.53386],[-121.73214,37.5435],[-121.75089,37.55394],[-121.78698,37.57384],[-121.81061,37.58657],[-121.87481,37.59565],[-121.88553,37.58628],[-121.88883,37.56072],[-121.88424,37.54993],[-121.84895,37.51802],[-121.81381,37.48558],[-121.81595,37.46811],[-121.86721,37.45331],[-121.89058,37.455],[-121.91126,37.45653],[-121.96445,37.46093],[-121.99946,37.46451],[-122.04902,37.48345],[-122.07872,37.49636],[-122.11184,37.51021],[-122.13042,37.51806],[-122.14841,37.52565],[-122.17229,37.53566],[-122.192,37.54408],[-122.22297,37.55713],[-122.25142,37.56905],[-122.27387,37.5785],[-122.30322,37.59085],[-122.30922,37.59338],[-122.32379,37.5995],[-122.34491,37.6084],[-122.35294,37.61185]]}
}
