{
  "id": 2047912793,
  "type": "Feature",
  "properties": {
    "geom:area": 0,
    "geom:bbox": "-122.859080,37.401330,-122.074820,38.482670",
    "geom:latitude": 37.80078311355048,
    "geom:longitude": -122.47781593409891,
    "src:alt_label": "swim-approach",
    "src:geom": "swim",
    "swim:elevations": [
      7620,
      7437,
      7036,
      6421,
      6353,
      6256,
      6106,
      5902,
      5448,
      5126,
      4952,
      4766,
      4663,
      4286,
      4080,
      3656,
      3576,
      3539,
      3395,
      3353,
      3353,
      3353,
      3353,
      3353,
      3309,
      3174,
      3086,
      2991,
      2880,
      2749,
      2447,
      2286,
      2117,
      1870,
      1813,
      1788,
      1643,
      1490,
      1424,
      1270,
      1241,
      1005,
      913,
      868,
      711,
      497,
      381,
      300,
      205,
      163,
      58,
      0
    ],
    "swim:geom": "approach",
    "swim:timestamps": [
      1786393433,
      1786393450,
      1786393490,
      1786393555,
      1786393561,
      1786393574,
      1786393597,
      1786393616,
      1786393662,
      1786393696,
      1786393717,
      1786393736,
      1786393748,
      1786393791,
      1786393816,
      1786393860,
      1786393866,
      1786393872,
      1786393915,
      1786393939,
      1786393966,
      1786393984,
      1786394037,
      1786394058,
      1786394098,
      1786394124,
      1786394142,
      1786394154,
      1786394178,
      1786394201,
      1786394236,
      1786394264,
      1786394308,
      1786394338,
      1786394349,
      1786394353,
      1786394389,
      1786394414,
      1786394428,
      1786394457,
      1786394466,
      1786394516,
      1786394547,
      1786394560,
      1786394592,
      1786394636,
      1786394665,
      1786394685,
      1786394704,
      1786394722,
      1786394753,
      1786394765
    ],
    "wof:geomhash": "9da5990d8eb1ed5a6ab280163a96333e",
    "wof:id": 2047912793,
    "wof:repo": "sfomuseum-data-flights-2026-08"
  },
  "bbox": [
    -122.85908,
    37.40133,
    -122.07482,
    38.48267
  ],
  "geometry": {"type":"LineString","coordinates":[[-122.85908,38.48267],[-122.84844,38.45272],[-122.82278,38.38044],[-122.7828,38.26808],[-122.77918,38.25786],[-122.77116,38.2351],[-122.75829,38.19778],[-122.74898,38.1656],[-122.72855,38.09108],[-122.71222,38.03405],[-122.70242,38.00019],[-122.69398,37.97109],[-122.68847,37.95198],[-122.66016,37.88534],[-122.62722,37.85546],[-122.57059,37.80273],[-122.56279,37.79535],[-122.55554,37.78842],[-122.50775,37.74335],[-122.4831,37.71995],[-122.45722,37.69571],[-122.44048,37.68001],[-122.39076,37.63318],[-122.3709,37.61449],[-122.33979,37.57601],[-122.32227,37.55042],[-122.3106,37.53205],[-122.30289,37.52003],[-122.28747,37.49607],[-122.27334,37.47414],[-122.25072,37.43912],[-122.2238,37.41803],[-122.16751,37.40133],[-122.13372,37.40616],[-122.12205,37.41311],[-122.1183,37.41542],[-122.08268,37.43765],[-122.07482,37.45914],[-122.08141,37.47064],[-122.09967,37.49308],[-122.1054,37.49988],[-122.14917,37.526],[-122.17895,37.53846],[-122.19152,37.54381],[-122.22282,37.55708],[-122.26536,37.57499],[-122.29025,37.58552],[-122.30563,37.5919],[-122.31931,37.59767],[-122.33139,37.60275],[-122.35126,37.61111],[-122.35877,37.6141]]}
}
