{
  "id": 2048097161,
  "type": "Feature",
  "properties": {
    "geom:area": 0,
    "geom:bbox": "-123.312690,37.624140,-122.387560,38.486250",
    "geom:latitude": 38.01315687350489,
    "geom:longitude": -122.88364048646166,
    "src:alt_label": "swim-takeoff",
    "src:geom": "swim",
    "swim:elevations": [
      91,
      398,
      637,
      923,
      1044,
      1122,
      1399,
      1661,
      1891,
      2380,
      2662,
      2894,
      3074,
      3280,
      3415,
      3542,
      3622,
      3966,
      4049,
      4431,
      4699,
      4803,
      5026,
      5311,
      5369,
      5639
    ],
    "swim:geom": "takeoff",
    "swim:timestamps": [
      1787323645,
      1787323670,
      1787323692,
      1787323733,
      1787323757,
      1787323778,
      1787323818,
      1787323840,
      1787323861,
      1787323910,
      1787323940,
      1787323965,
      1787323983,
      1787324026,
      1787324056,
      1787324088,
      1787324105,
      1787324148,
      1787324161,
      1787324212,
      1787324245,
      1787324261,
      1787324289,
      1787324329,
      1787324340,
      1787324381
    ],
    "wof:geomhash": "e72ac52ced0c53833f34ce9426d43f32",
    "wof:id": 2048097161,
    "wof:repo": "sfomuseum-data-flights-2026-08"
  },
  "bbox": [
    -123.31269,
    37.62414,
    -122.38756,
    38.48625
  ],
  "geometry": {"type":"LineString","coordinates":[[-122.38756,37.62414],[-122.40897,37.63361],[-122.42828,37.64204],[-122.46794,37.65915],[-122.4932,37.67034],[-122.51674,37.68251],[-122.56551,37.71158],[-122.5943,37.72847],[-122.62188,37.74458],[-122.68681,37.7828],[-122.72863,37.80708],[-122.76139,37.83064],[-122.78013,37.85174],[-122.82615,37.90717],[-122.86146,37.94979],[-122.90124,37.99768],[-122.92185,38.0226],[-122.98027,38.09279],[-122.99651,38.11233],[-123.06697,38.19602],[-123.11472,38.25302],[-123.13696,38.27952],[-123.17712,38.32742],[-123.23498,38.39529],[-123.25152,38.41448],[-123.31269,38.48625]]}
}
