{
  "id": 2032059247,
  "type": "Feature",
  "properties": {
    "geom:area": 0,
    "geom:bbox": "-122.333333,37.374444,-122.020278,37.600000",
    "geom:latitude": 37.464905332261495,
    "geom:longitude": -122.1729195221717,
    "src:alt_label": "swim-path",
    "src:geom": "swim",
    "swim:altitudes": [
      "086",
      "084",
      "075",
      "073",
      "061",
      "060",
      "060",
      "060",
      "056",
      "048",
      "045",
      "035",
      "028",
      "026",
      "020",
      "018",
      "012",
      "010",
      "005"
    ],
    "swim:geom": "path",
    "swim:speeds": [
      254,
      255,
      248,
      250,
      243,
      210,
      210,
      203,
      199,
      189,
      186,
      165,
      169,
      166,
      159,
      160,
      146,
      141,
      145
    ],
    "swim:timestamps": [
      1785639790,
      1785639815,
      1785639850,
      1785639875,
      1785639936,
      1785639970,
      1785640030,
      1785640116,
      1785640176,
      1785640210,
      1785640236,
      1785640270,
      1785640330,
      1785640356,
      1785640391,
      1785640416,
      1785640450,
      1785640476,
      1785640510
    ],
    "wof:geomhash": "f8ab744e570341c204db0a07c93b0760",
    "wof:id": 2032059247,
    "wof:repo": "sfomuseum-data-flights-2026-08"
  },
  "bbox": [
    -122.33333333333333,
    37.37444444444444,
    -122.02027777777778,
    37.6
  ],
  "geometry": {"coordinates":[[-122.3,37.5],[-122.29138888888889,37.480555555555554],[-122.26666666666667,37.43333333333333],[-122.25305555555556,37.419444444444444],[-122.1975,37.37444444444444],[-122.13333333333334,37.38333333333333],[-122.06666666666666,37.38333333333333],[-122.02027777777778,37.41555555555556],[-122.06916666666666,37.45388888888889],[-122.1,37.483333333333334],[-122.11749999999999,37.49055555555556],[-122.15,37.516666666666666],[-122.2,37.55],[-122.205,37.54944444444444],[-122.25,37.56666666666667],[-122.25416666666666,37.57027777777778],[-122.28333333333333,37.583333333333336],[-122.30666666666666,37.592222222222226],[-122.33333333333333,37.6]],"type":"LineString"}
}
