{
  "id": 2047917757,
  "type": "Feature",
  "properties": {
    "geom:area": 0,
    "geom:bbox": "-122.391667,37.628611,-119.766667,39.700000",
    "geom:latitude": 38.7739175001025,
    "geom:longitude": -121.12031284579476,
    "src:alt_label": "swim-path",
    "src:geom": "swim",
    "swim:altitudes": [
      "009",
      "032",
      "047",
      "076",
      "104",
      "126",
      "157",
      "185",
      "217",
      "230C",
      "230C",
      "230C",
      "230C",
      "230C",
      "230C",
      "230C",
      "230C",
      "230C",
      "230",
      "230",
      "230",
      "219",
      "214",
      "213",
      "191",
      "191",
      "171",
      "172",
      "160C",
      "157",
      "148",
      "147",
      "135",
      "118",
      "104",
      "096",
      "093",
      "086",
      "083",
      "073",
      "067",
      "065",
      "058",
      "056",
      "049",
      "047",
      "044"
    ],
    "swim:geom": "path",
    "swim:speeds": [
      156,
      183,
      266,
      290,
      313,
      362,
      364,
      379,
      378,
      376,
      375,
      402,
      403,
      404,
      405,
      406,
      407,
      409,
      411,
      412,
      413,
      403,
      401,
      404,
      391,
      396,
      382,
      387,
      349,
      320,
      313,
      315,
      311,
      284,
      252,
      222,
      222,
      210,
      212,
      170,
      160,
      164,
      161,
      162,
      166,
      163,
      138
    ],
    "swim:timestamps": [
      1786428671,
      1786428731,
      1786428792,
      1786428852,
      1786428912,
      1786428972,
      1786429032,
      1786429092,
      1786429152,
      1786429212,
      1786429272,
      1786429332,
      1786429392,
      1786429452,
      1786429512,
      1786429572,
      1786429632,
      1786429692,
      1786429752,
      1786429812,
      1786429872,
      1786429905,
      1786429918,
      1786429932,
      1786429983,
      1786429992,
      1786430043,
      1786430052,
      1786430112,
      1786430172,
      1786430217,
      1786430232,
      1786430278,
      1786430353,
      1786430413,
      1786430452,
      1786430473,
      1786430512,
      1786430533,
      1786430593,
      1786430632,
      1786430653,
      1786430692,
      1786430713,
      1786430752,
      1786430773,
      1786430833
    ],
    "wof:geomhash": "0b59a9a2780e7e92375e09d4d754ccc1",
    "wof:id": 2047917757,
    "wof:repo": "sfomuseum-data-flights-2026-08"
  },
  "bbox": [
    -122.39166666666668,
    37.62861111111111,
    -119.76666666666667,
    39.7
  ],
  "geometry": {"type":"LineString","coordinates":[[-122.39166666666668,37.62861111111111],[-122.37833333333333,37.669444444444444],[-122.33833333333332,37.72555555555556],[-122.36583333333333,37.80083333333333],[-122.38666666666667,37.88361111111111],[-122.33749999999999,37.969166666666666],[-122.2363888888889,38.03055555555555],[-122.13083333333333,38.095],[-122.02555555555556,38.15861111111111],[-121.92111111111112,38.221944444444446],[-121.80416666666666,38.29222222222222],[-121.69055555555556,38.36055555555556],[-121.57638888888889,38.428888888888885],[-121.47277777777778,38.505833333333335],[-121.36722222222221,38.58833333333334],[-121.28305555555555,38.653888888888886],[-121.17805555555556,38.73555555555556],[-121.07277777777777,38.8175],[-120.9675,38.89861111111111],[-120.86361111111111,38.978611111111114],[-120.75833333333334,39.059444444444445],[-120.68333333333334,39.11666666666667],[-120.66666666666667,39.13333333333333],[-120.65472222222223,39.13861111111111],[-120.55,39.21666666666667],[-120.55305555555556,39.21638888888889],[-120.45,39.28333333333333],[-120.4538888888889,39.29138888888889],[-120.36194444444443,39.361111111111114],[-120.27694444444444,39.422777777777775],[-120.2,39.46666666666667],[-120.19166666666668,39.47833333333333],[-120.11666666666666,39.53333333333333],[-120.02083333333333,39.58972222222222],[-119.94861111111112,39.63638888888889],[-119.9,39.666666666666664],[-119.88666666666667,39.67638888888889],[-119.83333333333333,39.7],[-119.8175,39.69],[-119.77333333333333,39.65472222222222],[-119.76666666666667,39.61666666666667],[-119.76888888888888,39.61027777777778],[-119.76666666666667,39.583333333333336],[-119.76916666666666,39.565555555555555],[-119.76666666666667,39.53333333333333],[-119.76916666666666,39.519999999999996],[-119.76944444444445,39.485]]}
}
