{
  "id": 2032061017,
  "type": "Feature",
  "properties": {
    "geom:area": 0,
    "geom:bbox": "-123.503310,36.832440,-122.393920,37.665920",
    "geom:latitude": 37.298797317174845,
    "geom:longitude": -122.96942580005013,
    "src:alt_label": "swim-takeoff",
    "src:geom": "swim",
    "swim:elevations": [
      183,
      380,
      793,
      982,
      1152,
      1209,
      1548,
      2072,
      2413,
      2671,
      2837,
      3367,
      3553,
      3624,
      3767,
      3965,
      4147,
      4370,
      4626,
      4787,
      5037,
      5236,
      5327,
      5415,
      5512,
      5663,
      5972,
      6066,
      6372,
      6401
    ],
    "swim:geom": "takeoff",
    "swim:timestamps": [
      1785569233,
      1785569250,
      1785569308,
      1785569326,
      1785569344,
      1785569351,
      1785569381,
      1785569426,
      1785569457,
      1785569482,
      1785569495,
      1785569544,
      1785569577,
      1785569588,
      1785569623,
      1785569665,
      1785569697,
      1785569727,
      1785569758,
      1785569781,
      1785569816,
      1785569846,
      1785569859,
      1785569876,
      1785569891,
      1785569916,
      1785569966,
      1785569982,
      1785570026,
      1785570030
    ],
    "wof:geomhash": "833066efc974dfdbc785022b9ebd64e6",
    "wof:id": 2032061017,
    "wof:repo": "sfomuseum-data-flights-2026-08"
  },
  "bbox": [
    -123.50331,
    36.83244,
    -122.39392,
    37.66592
  ],
  "geometry": {"coordinates":[[-122.39392,37.62669],[-122.4104,37.63393],[-122.47469,37.662],[-122.50136,37.66592],[-122.52732,37.65926],[-122.53653,37.65427],[-122.57282,37.6309],[-122.63074,37.59323],[-122.66964,37.56827],[-122.70298,37.54676],[-122.72035,37.53555],[-122.78328,37.49303],[-122.82043,37.45774],[-122.83309,37.44578],[-122.87611,37.40513],[-122.9334,37.3517],[-122.97875,37.3095],[-123.02348,37.26801],[-123.07004,37.22478],[-123.10443,37.19277],[-123.15659,37.14364],[-123.20306,37.10082],[-123.22457,37.08151],[-123.25127,37.05779],[-123.27434,37.03739],[-123.31617,37.00033],[-123.39658,36.92855],[-123.42325,36.90425],[-123.49734,36.83799],[-123.50331,36.83244]],"type":"LineString"}
}
