{
  "id": 2047945579,
  "type": "Feature",
  "properties": {
    "geom:area": 0,
    "geom:bbox": "-122.539167,33.933333,-118.200000,37.666667",
    "geom:latitude": 35.70168313431674,
    "geom:longitude": -120.36106533943962,
    "src:alt_label": "swim-path",
    "src:geom": "swim",
    "swim:altitudes": [
      "004",
      "009",
      "017",
      "034",
      "041",
      "054",
      "085",
      "112",
      "127",
      "150",
      "173",
      "197",
      "217",
      "237",
      "251",
      "267",
      "283",
      "306",
      "320",
      "328C",
      "330C",
      "330C",
      "330C",
      "330C",
      "330C",
      "330C",
      "330C",
      "330C",
      "330C",
      "330C",
      "330C",
      "330",
      "330",
      "330",
      "330",
      "330",
      "329",
      "304",
      "290",
      "270",
      "248",
      "225",
      "205",
      "195",
      "185",
      "176",
      "165",
      "157",
      "146",
      "140",
      "130",
      "128",
      "120",
      "113",
      "105",
      "100",
      "093",
      "087",
      "081",
      "078",
      "075",
      "071",
      "066",
      "055",
      "051",
      "038",
      "032",
      "022",
      "020",
      "020",
      "020",
      "015",
      "013",
      "007",
      "003",
      "001"
    ],
    "swim:geom": "path",
    "swim:speeds": [
      183,
      181,
      193,
      196,
      227,
      265,
      276,
      286,
      350,
      375,
      382,
      397,
      410,
      418,
      420,
      427,
      436,
      436,
      433,
      435,
      433,
      433,
      435,
      434,
      432,
      431,
      430,
      427,
      425,
      423,
      422,
      423,
      423,
      423,
      421,
      420,
      419,
      425,
      418,
      408,
      398,
      389,
      378,
      370,
      371,
      362,
      364,
      356,
      357,
      351,
      348,
      328,
      319,
      312,
      312,
      295,
      300,
      294,
      293,
      276,
      271,
      259,
      250,
      236,
      235,
      223,
      223,
      205,
      201,
      190,
      192,
      169,
      163,
      150,
      152,
      126
    ],
    "swim:timestamps": [
      1786598010,
      1786598024,
      1786598041,
      1786598084,
      1786598101,
      1786598144,
      1786598204,
      1786598264,
      1786598324,
      1786598384,
      1786598444,
      1786598504,
      1786598564,
      1786598624,
      1786598679,
      1786598739,
      1786598799,
      1786598864,
      1786598925,
      1786598979,
      1786598985,
      1786599045,
      1786599099,
      1786599160,
      1786599225,
      1786599280,
      1786599340,
      1786599405,
      1786599460,
      1786599520,
      1786599640,
      1786599700,
      1786599765,
      1786599820,
      1786599880,
      1786599945,
      1786600000,
      1786600060,
      1786600125,
      1786600181,
      1786600241,
      1786600301,
      1786600361,
      1786600391,
      1786600421,
      1786600451,
      1786600481,
      1786600511,
      1786600541,
      1786600565,
      1786600601,
      1786600625,
      1786600661,
      1786600691,
      1786600721,
      1786600751,
      1786600781,
      1786600810,
      1786600841,
      1786600868,
      1786600901,
      1786600925,
      1786600961,
      1786600995,
      1786601021,
      1786601055,
      1786601081,
      1786601118,
      1786601141,
      1786601175,
      1786601202,
      1786601235,
      1786601262,
      1786601295,
      1786601322,
      1786601382
    ],
    "wof:geomhash": "0729af45a329b4f6b70091e664d13ef6",
    "wof:id": 2047945579,
    "wof:repo": "sfomuseum-data-flights-2026-08"
  },
  "bbox": [
    -122.53916666666666,
    33.93333333333333,
    -118.2,
    37.666666666666664
  ],
  "geometry": {"type":"LineString","coordinates":[[-122.4,37.63333333333333],[-122.4038888888889,37.63111111111111],[-122.41666666666667,37.63333333333333],[-122.46333333333334,37.65694444444444],[-122.48333333333333,37.666666666666664],[-122.53916666666666,37.65222222222222],[-122.52222222222223,37.57972222222222],[-122.48277777777778,37.50555555555555],[-122.40472222222223,37.43833333333333],[-122.30916666666667,37.36833333333333],[-122.21305555555556,37.29694444444444],[-122.11222222222221,37.222500000000004],[-122.01083333333334,37.14111111111111],[-121.91000000000001,37.05833333333333],[-121.83138888888888,36.98777777777778],[-121.72638888888889,36.901666666666664],[-121.61972222222222,36.81388888888888],[-121.48555555555555,36.70777777777778],[-121.38111111111111,36.620555555555555],[-121.30583333333333,36.55416666666667],[-121.27805555555555,36.534166666666664],[-121.17472222222223,36.44777777777777],[-121.09416666666667,36.38],[-120.99111111111111,36.293055555555554],[-120.86694444444444,36.187777777777775],[-120.78777777777778,36.12027777777778],[-120.68555555555555,36.03361111111111],[-120.56361111111111,35.92916666666667],[-120.485,35.86194444444445],[-120.38583333333334,35.776666666666664],[-120.18166666666667,35.60027777777778],[-120.08527777777778,35.516666666666666],[-119.98388888888888,35.42833333333333],[-119.8875,35.344166666666666],[-119.79277777777777,35.255],[-119.7038888888889,35.15972222222222],[-119.61944444444444,35.06944444444445],[-119.53194444444445,34.97527777777778],[-119.44472222222223,34.88],[-119.365,34.79083333333333],[-119.28694444444444,34.702222222222225],[-119.20222222222222,34.60472222222222],[-119.12888888888888,34.52055555555555],[-119.1,34.483333333333334],[-119.05472222222222,34.43694444444444],[-119.01666666666667,34.4],[-118.98444444444445,34.355555555555554],[-118.95,34.31666666666667],[-118.91222222222223,34.27583333333333],[-118.88333333333334,34.25],[-118.84194444444444,34.19888888888889],[-118.81666666666666,34.166666666666664],[-118.77416666666666,34.13111111111111],[-118.73333333333333,34.1],[-118.70444444444445,34.066944444444445],[-118.66666666666667,34.03333333333333],[-118.62194444444444,34.02583333333333],[-118.58333333333333,34.016666666666666],[-118.52388888888889,34.01638888888889],[-118.48333333333333,34.016666666666666],[-118.45,34.01166666666666],[-118.4,34.016666666666666],[-118.36472222222221,34.02611111111111],[-118.3,34.03333333333333],[-118.28583333333333,34.03444444444444],[-118.23333333333333,34.03333333333333],[-118.21305555555556,34.033055555555556],[-118.2,34],[-118.20194444444445,33.977222222222224],[-118.23333333333333,33.95],[-118.25416666666666,33.95027777777778],[-118.3,33.95],[-118.31277777777777,33.94444444444444],[-118.35,33.93333333333333],[-118.37138888888889,33.93861111111111],[-118.40972222222223,33.93472222222222]]}
}
