{
  "id": 2047993467,
  "type": "Feature",
  "properties": {
    "geom:area": 0,
    "geom:bbox": "-122.360570,37.491530,-121.272950,37.614770",
    "geom:latitude": 37.541962869284006,
    "geom:longitude": -121.82376340985624,
    "src:alt_label": "swim-approach",
    "src:geom": "swim",
    "swim:elevations": [
      4470,
      4305,
      4192,
      4062,
      3801,
      3352,
      3113,
      3107,
      2856,
      2674,
      2488,
      2467,
      2251,
      2083,
      1929,
      1874,
      1561,
      1434,
      1294,
      1116,
      1101,
      935,
      819,
      702,
      580,
      404,
      336,
      267,
      174,
      62,
      207
    ],
    "swim:geom": "approach",
    "swim:timestamps": [
      1786869146,
      1786869164,
      1786869175,
      1786869188,
      1786869216,
      1786869263,
      1786869294,
      1786869300,
      1786869358,
      1786869383,
      1786869418,
      1786869430,
      1786869466,
      1786869501,
      1786869528,
      1786869541,
      1786869598,
      1786869622,
      1786869653,
      1786869687,
      1786869690,
      1786869720,
      1786869742,
      1786869763,
      1786869791,
      1786869831,
      1786869847,
      1786869862,
      1786869888,
      1786869914,
      1786869930
    ],
    "wof:geomhash": "4e50fc3efc878f9c5ce4cadaf29f8202",
    "wof:id": 2047993467,
    "wof:repo": "sfomuseum-data-flights-2026-08"
  },
  "bbox": [
    -122.36057,
    37.49153,
    -121.27295,
    37.61477
  ],
  "geometry": {"type":"LineString","coordinates":[[-121.27295,37.59129],[-121.30841,37.58699],[-121.3305,37.58464],[-121.35623,37.58191],[-121.40921,37.57603],[-121.49983,37.56549],[-121.55768,37.55862],[-121.56886,37.55735],[-121.66797,37.54029],[-121.70792,37.53081],[-121.76403,37.51753],[-121.78164,37.51336],[-121.83555,37.50031],[-121.88948,37.49153],[-121.93006,37.49406],[-121.949,37.49524],[-122.03101,37.49983],[-122.06383,37.50166],[-122.10434,37.50702],[-122.14518,37.52425],[-122.1487,37.52576],[-122.18304,37.54028],[-122.20575,37.54991],[-122.2264,37.55853],[-122.25195,37.5693],[-122.28443,37.583],[-122.2971,37.58836],[-122.30877,37.59322],[-122.32835,37.60143],[-122.34831,37.60988],[-122.36057,37.61477]]}
}
