{
  "id": 2047879837,
  "type": "Feature",
  "properties": {
    "geom:area": 0,
    "geom:bbox": "-122.653611,32.687222,-116.933333,37.665278",
    "geom:latitude": 34.99909546687816,
    "geom:longitude": -119.96375082688645,
    "src:alt_label": "swim-path",
    "src:geom": "swim",
    "swim:altitudes": [
      "025",
      "039",
      "057",
      "070",
      "085",
      "109",
      "135",
      "162",
      "183",
      "191",
      "208",
      "228",
      "249",
      "258",
      "266",
      "281",
      "297",
      "312",
      "326",
      "343",
      "350C",
      "350C",
      "350C",
      "350C",
      "350C",
      "350C",
      "350C",
      "350C",
      "350C",
      "350C",
      "350C",
      "350C",
      "350C",
      "350C",
      "350C",
      "350C",
      "350C",
      "350C",
      "350C",
      "350C",
      "350C",
      "350C",
      "350C",
      "350C",
      "350C",
      "350C",
      "350C",
      "350C",
      "350C",
      "350C",
      "350C",
      "350C",
      "350C",
      "350C",
      "350C",
      "350C",
      "350C",
      "350C",
      "350C",
      "350",
      "350",
      "350",
      "324",
      "306",
      "284",
      "261",
      "238",
      "217",
      "211",
      "198",
      "179",
      "160",
      "139",
      "139",
      "120",
      "103",
      "097",
      "085",
      "072",
      "062",
      "060",
      "060",
      "053",
      "050",
      "050",
      "046",
      "030",
      "007"
    ],
    "swim:geom": "path",
    "swim:speeds": [
      167,
      201,
      269,
      283,
      288,
      310,
      326,
      330,
      338,
      406,
      425,
      436,
      437,
      449,
      472,
      476,
      475,
      471,
      469,
      456,
      449,
      448,
      448,
      448,
      448,
      448,
      449,
      449,
      449,
      449,
      450,
      450,
      451,
      450,
      450,
      450,
      450,
      449,
      449,
      449,
      449,
      449,
      449,
      450,
      450,
      450,
      451,
      451,
      452,
      452,
      453,
      453,
      453,
      453,
      453,
      453,
      453,
      454,
      455,
      455,
      455,
      455,
      454,
      444,
      431,
      422,
      413,
      403,
      392,
      386,
      374,
      363,
      348,
      353,
      346,
      323,
      278,
      271,
      263,
      235,
      194,
      197,
      194,
      192,
      189,
      183,
      165,
      141
    ],
    "swim:timestamps": [
      1786145587,
      1786145641,
      1786145701,
      1786145761,
      1786145821,
      1786145881,
      1786145936,
      1786145996,
      1786146056,
      1786146121,
      1786146177,
      1786146237,
      1786146297,
      1786146357,
      1786146417,
      1786146482,
      1786146537,
      1786146597,
      1786146657,
      1786146717,
      1786146778,
      1786146794,
      1786146838,
      1786146854,
      1786146898,
      1786146914,
      1786146958,
      1786146974,
      1786147018,
      1786147035,
      1786147078,
      1786147095,
      1786147138,
      1786147155,
      1786147198,
      1786147258,
      1786147275,
      1786147318,
      1786147335,
      1786147378,
      1786147395,
      1786147438,
      1786147455,
      1786147515,
      1786147559,
      1786147575,
      1786147619,
      1786147635,
      1786147679,
      1786147695,
      1786147739,
      1786147755,
      1786147799,
      1786147859,
      1786147919,
      1786147979,
      1786148039,
      1786148099,
      1786148160,
      1786148220,
      1786148280,
      1786148340,
      1786148400,
      1786148460,
      1786148520,
      1786148580,
      1786148640,
      1786148700,
      1786148708,
      1786148760,
      1786148820,
      1786148881,
      1786148933,
      1786148941,
      1786149001,
      1786149061,
      1786149121,
      1786149181,
      1786149241,
      1786149301,
      1786149353,
      1786149361,
      1786149421,
      1786149479,
      1786149542,
      1786149602,
      1786149662,
      1786149774
    ],
    "wof:geomhash": "34db8b537972f3370910883f0f7f657d",
    "wof:id": 2047879837,
    "wof:repo": "sfomuseum-data-flights-2026-08"
  },
  "bbox": [
    -122.65361111111112,
    32.68722222222222,
    -116.93333333333334,
    37.665277777777774
  ],
  "geometry": {"type":"LineString","coordinates":[[-122.43333333333334,37.65],[-122.47805555555556,37.665277777777774],[-122.55944444444444,37.66361111111111],[-122.64694444444446,37.62388888888889],[-122.65361111111112,37.547777777777775],[-122.64027777777778,37.46527777777778],[-122.62583333333333,37.38111111111111],[-122.61,37.28805555555555],[-122.55388888888889,37.213055555555556],[-122.46722222222222,37.11666666666667],[-122.38444444444445,37.024166666666666],[-122.29583333333333,36.925],[-122.20861111111111,36.82694444444445],[-122.11833333333333,36.725],[-122.02583333333334,36.61972222222222],[-121.92666666666668,36.507222222222225],[-121.835,36.40333333333333],[-121.74166666666667,36.29694444444444],[-121.65,36.19138888888889],[-121.55944444444444,36.087500000000006],[-121.47277777777778,35.986666666666665],[-121.45194444444445,35.962500000000006],[-121.38388888888889,35.88361111111111],[-121.36388888888888,35.86055555555556],[-121.2961111111111,35.782222222222224],[-121.27694444444444,35.75972222222222],[-121.20777777777778,35.678888888888885],[-121.20611111111111,35.67722222222222],[-121.13111111111111,35.589444444444446],[-121.10222222222221,35.55555555555555],[-121.03222222222222,35.495555555555555],[-120.99027777777778,35.471111111111114],[-120.90666666666667,35.42222222222222],[-120.865,35.397777777777776],[-120.78138888888888,35.34916666666667],[-120.65833333333335,35.277499999999996],[-120.61944444444444,35.25472222222222],[-120.5325,35.20388888888889],[-120.49694444444445,35.183055555555555],[-120.40861111111111,35.130833333333335],[-120.37583333333333,35.11138888888889],[-120.28444444444445,35.0575],[-120.25361111111111,35.03916666666667],[-120.12972222222221,34.96555555555556],[-120.03472222222221,34.909166666666664],[-120.00694444444444,34.89277777777778],[-119.91222222222223,34.836111111111116],[-119.88333333333334,34.81916666666667],[-119.78722222222223,34.76138888888889],[-119.73472222222222,34.730000000000004],[-119.66444444444446,34.6875],[-119.6111111111111,34.65555555555555],[-119.53972222222222,34.612500000000004],[-119.40361111111112,34.53],[-119.28083333333333,34.455555555555556],[-119.15972222222223,34.38194444444444],[-119.03666666666666,34.30638888888888],[-118.915,34.23166666666667],[-118.79083333333332,34.15555555555555],[-118.66861111111112,34.080000000000005],[-118.54527777777777,34.00333333333333],[-118.42361111111111,33.92666666666666],[-118.31055555555555,33.83916666666667],[-118.21888888888888,33.76833333333333],[-118.11083333333333,33.686388888888885],[-118.00861111111111,33.608333333333334],[-117.90777777777778,33.52833333333333],[-117.815,33.448611111111106],[-117.78333333333333,33.416666666666664],[-117.7286111111111,33.36833333333333],[-117.64611111111111,33.29111111111111],[-117.56583333333333,33.21555555555556],[-117.48333333333333,33.15],[-117.48861111111111,33.14194444444444],[-117.4225,33.06388888888888],[-117.34944444444444,32.97666666666667],[-117.29416666666667,32.91083333333333],[-117.24361111111111,32.849722222222226],[-117.18027777777779,32.805],[-117.10277777777777,32.7875],[-117.05,32.766666666666666],[-117.03972222222222,32.769444444444446],[-116.98277777777778,32.746944444444445],[-116.93333333333334,32.733333333333334],[-116.94111111111111,32.68722222222222],[-117.00055555555555,32.68833333333333],[-117.05361111111111,32.70055555555556],[-117.15,32.71666666666667]]}
}
