{
  "id": 2047882931,
  "type": "Feature",
  "properties": {
    "geom:area": 0,
    "geom:bbox": "-122.365250,36.743260,-121.890880,37.617390",
    "geom:latitude": 37.23357732031971,
    "geom:longitude": -122.07944639245055,
    "src:alt_label": "swim-approach",
    "src:geom": "swim",
    "swim:elevations": [
      5365,
      5117,
      4992,
      4482,
      4250,
      4076,
      3757,
      3653,
      3481,
      3321,
      3190,
      2997,
      2660,
      2424,
      2212,
      2023,
      1935,
      1853,
      1829,
      1829,
      1677,
      1436,
      1348,
      1222,
      1100,
      923,
      795,
      769,
      671,
      496,
      400,
      242,
      171,
      88,
      235
    ],
    "swim:geom": "approach",
    "swim:timestamps": [
      1786226661,
      1786226693,
      1786226705,
      1786226757,
      1786226786,
      1786226806,
      1786226847,
      1786226877,
      1786226907,
      1786226930,
      1786226949,
      1786226973,
      1786227024,
      1786227056,
      1786227087,
      1786227111,
      1786227123,
      1786227135,
      1786227162,
      1786227195,
      1786227236,
      1786227266,
      1786227290,
      1786227321,
      1786227346,
      1786227382,
      1786227409,
      1786227438,
      1786227459,
      1786227508,
      1786227532,
      1786227565,
      1786227589,
      1786227607,
      1786227637
    ],
    "wof:geomhash": "7bc4685a6447e566b02f846a62b0741a",
    "wof:id": 2047882931,
    "wof:repo": "sfomuseum-data-flights-2026-08"
  },
  "bbox": [
    -122.36525,
    36.74326,
    -121.89088,
    37.61739
  ],
  "geometry": {"type":"LineString","coordinates":[[-121.89088,36.74326],[-121.90713,36.78918],[-121.91199,36.80651],[-121.9332,36.88121],[-121.94464,36.92268],[-121.95226,36.94954],[-121.97324,37.0051],[-121.98851,37.04349],[-122.00192,37.07834],[-122.01184,37.10359],[-122.02033,37.12482],[-122.03067,37.15093],[-122.05261,37.20532],[-122.06526,37.23849],[-122.08901,37.26571],[-122.11264,37.28339],[-122.12433,37.2923],[-122.13591,37.30119],[-122.15106,37.32542],[-122.1284,37.35566],[-122.11355,37.39613],[-122.11615,37.42729],[-122.11846,37.45176],[-122.12067,37.48025],[-122.12688,37.50032],[-122.14998,37.52265],[-122.17362,37.53385],[-122.20036,37.54537],[-122.22082,37.55395],[-122.26152,37.57107],[-122.28147,37.57936],[-122.30939,37.59116],[-122.3286,37.5992],[-122.34286,37.60518],[-122.36525,37.61739]]}
}
