{
  "id": 2032087637,
  "type": "Feature",
  "properties": {
    "geom:area": 0,
    "geom:bbox": "-122.369722,37.493056,-87.850000,42.467778",
    "geom:latitude": 40.890730870223024,
    "geom:longitude": -105.25971084255988,
    "src:alt_label": "swim-path",
    "src:geom": "swim",
    "swim:altitudes": [
      "035",
      "048",
      "050",
      "058",
      "070",
      "107",
      "113",
      "130",
      "148",
      "170",
      "184",
      "198",
      "211",
      "225",
      "242",
      "250",
      "251",
      "263",
      "271",
      "273",
      "280",
      "282",
      "292",
      "300C",
      "300C",
      "300C",
      "300C",
      "300C",
      "300C",
      "300C",
      "300C",
      "300C",
      "300C",
      "300C",
      "300C",
      "300C",
      "300C",
      "300C",
      "300C",
      "300C",
      "300C",
      "300C",
      "300C",
      "300C",
      "300C",
      "300C",
      "300C",
      "300C",
      "300C",
      "300C",
      "300C",
      "300C",
      "300C",
      "300C",
      "300C",
      "300C",
      "300C",
      "300C",
      "300C",
      "300C",
      "300C",
      "300C",
      "300C",
      "300C",
      "300C",
      "300C",
      "300C",
      "300C",
      "300C",
      "300C",
      "312",
      "320C",
      "320C",
      "320C",
      "320C",
      "320C",
      "320C",
      "320C",
      "320C",
      "320C",
      "320C",
      "320C",
      "320C",
      "320C",
      "320C",
      "320C",
      "320C",
      "320C",
      "320C",
      "320C",
      "320C",
      "320C",
      "320C",
      "320C",
      "320C",
      "320C",
      "320C",
      "320C",
      "320C",
      "320C",
      "320C",
      "320C",
      "320C",
      "321",
      "324",
      "335",
      "340C",
      "340C",
      "340C",
      "340C",
      "340C",
      "340C",
      "340C",
      "340C",
      "340C",
      "340C",
      "340C",
      "340C",
      "340C",
      "340C",
      "340C",
      "340C",
      "340C",
      "340C",
      "340C",
      "340C",
      "340C",
      "340C",
      "340C",
      "340C",
      "340C",
      "340C",
      "340C",
      "340C",
      "340C",
      "340C",
      "340C",
      "340C",
      "340C",
      "340C",
      "340C",
      "340C",
      "340C",
      "340C",
      "340C",
      "340C",
      "340C",
      "340C",
      "340C",
      "340C",
      "340C",
      "340C",
      "340C",
      "340C",
      "340C",
      "340C",
      "340C",
      "340C",
      "340C",
      "340C",
      "340C",
      "340C",
      "340C",
      "340C",
      "340C",
      "340C",
      "340C",
      "340C",
      "340C",
      "340C",
      "340C",
      "340C",
      "340C",
      "340C",
      "340C",
      "340C",
      "340C",
      "340C",
      "340C",
      "340C",
      "340C",
      "340C",
      "340C",
      "340C",
      "340C",
      "340C",
      "340C",
      "340C",
      "340C",
      "340C",
      "340C",
      "340C",
      "340C",
      "340C",
      "340C",
      "340C",
      "340C",
      "340C",
      "340C",
      "340C",
      "340C",
      "340C",
      "340C",
      "340C",
      "340C",
      "340C",
      "340C",
      "340C",
      "340C",
      "340C",
      "340C",
      "340C",
      "340C",
      "340C",
      "340C",
      "340C",
      "340C",
      "340C",
      "340C",
      "340C",
      "340C",
      "340C",
      "340C",
      "340C",
      "340C",
      "340C",
      "340C",
      "340C",
      "340C",
      "340C",
      "340C",
      "340C",
      "340C",
      "340C",
      "340C",
      "340C",
      "340C",
      "340C",
      "340C",
      "340C",
      "340C",
      "340C",
      "340C",
      "340C",
      "340C",
      "340C",
      "340C",
      "340C",
      "340C",
      "340C",
      "340C",
      "340C",
      "340C",
      "340C",
      "340C",
      "340C",
      "340C",
      "340C",
      "340C",
      "340C",
      "340C",
      "340C",
      "340",
      "328",
      "315",
      "303",
      "300C",
      "300C",
      "300C",
      "273",
      "268",
      "250",
      "246",
      "230",
      "226",
      "212",
      "208",
      "194",
      "190",
      "172",
      "162",
      "139",
      "131",
      "125",
      "115",
      "109",
      "102",
      "097",
      "093",
      "084",
      "082",
      "076",
      "072",
      "071",
      "058",
      "051",
      "041",
      "040",
      "033",
      "029",
      "022",
      "019",
      "013",
      "011",
      "006",
      "003",
      "001"
    ],
    "swim:geom": "path",
    "swim:speeds": [
      199,
      244,
      264,
      276,
      273,
      314,
      373,
      393,
      403,
      409,
      425,
      433,
      443,
      449,
      451,
      452,
      454,
      464,
      467,
      470,
      471,
      477,
      477,
      475,
      469,
      467,
      466,
      466,
      465,
      465,
      465,
      465,
      465,
      465,
      464,
      464,
      464,
      463,
      463,
      463,
      463,
      463,
      462,
      461,
      460,
      459,
      458,
      456,
      456,
      454,
      453,
      453,
      453,
      452,
      452,
      452,
      452,
      453,
      453,
      454,
      454,
      455,
      456,
      457,
      456,
      456,
      455,
      454,
      454,
      453,
      453,
      448,
      447,
      449,
      447,
      445,
      444,
      444,
      443,
      442,
      442,
      441,
      441,
      441,
      440,
      440,
      439,
      438,
      438,
      439,
      436,
      439,
      435,
      433,
      434,
      433,
      433,
      430,
      431,
      429,
      430,
      428,
      429,
      429,
      429,
      428,
      425,
      425,
      425,
      425,
      425,
      423,
      420,
      422,
      420,
      420,
      420,
      419,
      420,
      418,
      420,
      417,
      420,
      417,
      419,
      417,
      419,
      416,
      418,
      415,
      418,
      415,
      417,
      415,
      417,
      417,
      414,
      417,
      414,
      417,
      414,
      417,
      414,
      417,
      414,
      417,
      413,
      413,
      413,
      414,
      414,
      415,
      415,
      415,
      415,
      415,
      414,
      413,
      412,
      411,
      412,
      412,
      413,
      413,
      413,
      413,
      413,
      412,
      413,
      412,
      413,
      413,
      412,
      411,
      410,
      409,
      409,
      409,
      409,
      408,
      408,
      408,
      407,
      406,
      406,
      406,
      406,
      405,
      406,
      405,
      405,
      409,
      409,
      412,
      413,
      415,
      415,
      418,
      421,
      422,
      422,
      422,
      422,
      421,
      420,
      420,
      420,
      422,
      423,
      424,
      427,
      435,
      438,
      437,
      436,
      437,
      437,
      433,
      432,
      434,
      436,
      438,
      439,
      439,
      440,
      441,
      440,
      439,
      440,
      439,
      439,
      439,
      439,
      439,
      439,
      442,
      439,
      438,
      438,
      438,
      437,
      437,
      438,
      439,
      440,
      441,
      441,
      441,
      441,
      441,
      441,
      441,
      441,
      441,
      441,
      440,
      441,
      441,
      440,
      441,
      441,
      441,
      441,
      442,
      449,
      455,
      457,
      463,
      466,
      430,
      421,
      397,
      391,
      391,
      383,
      369,
      362,
      361,
      357,
      349,
      335,
      310,
      310,
      304,
      285,
      278,
      270,
      272,
      269,
      251,
      244,
      246,
      246,
      245,
      241,
      238,
      240,
      230,
      234,
      226,
      202,
      189,
      167,
      148,
      151,
      154,
      125
    ],
    "swim:timestamps": [
      1785787176,
      1785787236,
      1785787263,
      1785787296,
      1785787324,
      1785787444,
      1785787504,
      1785787564,
      1785787624,
      1785787696,
      1785787756,
      1785787816,
      1785787877,
      1785787937,
      1785787997,
      1785788044,
      1785788057,
      1785788117,
      1785788164,
      1785788177,
      1785788224,
      1785788237,
      1785788284,
      1785788357,
      1785788404,
      1785788429,
      1785788464,
      1785788489,
      1785788524,
      1785788550,
      1785788585,
      1785788610,
      1785788645,
      1785788670,
      1785788705,
      1785788730,
      1785788790,
      1785788850,
      1785788885,
      1785788910,
      1785788945,
      1785788970,
      1785789030,
      1785789065,
      1785789125,
      1785789185,
      1785789211,
      1785789271,
      1785789306,
      1785789391,
      1785789426,
      1785789451,
      1785789486,
      1785789511,
      1785789546,
      1785789571,
      1785789606,
      1785789666,
      1785789726,
      1785789786,
      1785789846,
      1785789906,
      1785789966,
      1785790147,
      1785790267,
      1785790327,
      1785790387,
      1785790447,
      1785790507,
      1785790567,
      1785790687,
      1785790748,
      1785790808,
      1785790854,
      1785790914,
      1785790928,
      1785790988,
      1785791034,
      1785791048,
      1785791094,
      1785791108,
      1785791154,
      1785791214,
      1785791228,
      1785791288,
      1785791334,
      1785791348,
      1785791395,
      1785791408,
      1785791461,
      1785791529,
      1785791581,
      1785791589,
      1785791635,
      1785791649,
      1785791701,
      1785791709,
      1785791755,
      1785791769,
      1785791815,
      1785791829,
      1785791881,
      1785791889,
      1785791935,
      1785791949,
      1785792009,
      1785792115,
      1785792182,
      1785792242,
      1785792302,
      1785792362,
      1785792392,
      1785792422,
      1785792452,
      1785792482,
      1785792512,
      1785792542,
      1785792572,
      1785792602,
      1785792632,
      1785792662,
      1785792692,
      1785792722,
      1785792752,
      1785792782,
      1785792812,
      1785792843,
      1785792873,
      1785792903,
      1785792933,
      1785792963,
      1785792993,
      1785793023,
      1785793053,
      1785793083,
      1785793143,
      1785793173,
      1785793203,
      1785793233,
      1785793263,
      1785793293,
      1785793323,
      1785793353,
      1785793383,
      1785793413,
      1785793443,
      1785793533,
      1785793563,
      1785793624,
      1785793654,
      1785793684,
      1785793714,
      1785793744,
      1785793774,
      1785793804,
      1785793834,
      1785793864,
      1785793894,
      1785793924,
      1785793954,
      1785793984,
      1785794014,
      1785794044,
      1785794074,
      1785794104,
      1785794134,
      1785794164,
      1785794194,
      1785794224,
      1785794254,
      1785794284,
      1785794314,
      1785794345,
      1785794375,
      1785794405,
      1785794435,
      1785794465,
      1785794495,
      1785794525,
      1785794555,
      1785794615,
      1785794645,
      1785794705,
      1785794735,
      1785794777,
      1785794795,
      1785794837,
      1785794855,
      1785794897,
      1785794957,
      1785794975,
      1785795017,
      1785795035,
      1785795096,
      1785795156,
      1785795198,
      1785795216,
      1785795258,
      1785795318,
      1785795336,
      1785795378,
      1785795396,
      1785795438,
      1785795498,
      1785795558,
      1785795618,
      1785795678,
      1785795750,
      1785795811,
      1785795871,
      1785795991,
      1785796051,
      1785796111,
      1785796171,
      1785796231,
      1785796291,
      1785796351,
      1785796411,
      1785796592,
      1785796652,
      1785796712,
      1785796772,
      1785796892,
      1785796952,
      1785797072,
      1785797132,
      1785797192,
      1785797253,
      1785797313,
      1785797373,
      1785797433,
      1785797493,
      1785797553,
      1785797613,
      1785797673,
      1785797793,
      1785797853,
      1785797913,
      1785797973,
      1785798034,
      1785798154,
      1785798214,
      1785798274,
      1785798334,
      1785798394,
      1785798454,
      1785798514,
      1785798574,
      1785798634,
      1785798694,
      1785798754,
      1785798815,
      1785798875,
      1785798935,
      1785798995,
      1785799055,
      1785799115,
      1785799175,
      1785799235,
      1785799295,
      1785799355,
      1785799415,
      1785799475,
      1785799536,
      1785799596,
      1785799656,
      1785799716,
      1785799836,
      1785799896,
      1785800016,
      1785800026,
      1785800076,
      1785800086,
      1785800136,
      1785800146,
      1785800196,
      1785800206,
      1785800256,
      1785800266,
      1785800327,
      1785800377,
      1785800447,
      1785800497,
      1785800507,
      1785800567,
      1785800617,
      1785800627,
      1785800677,
      1785800686,
      1785800737,
      1785800747,
      1785800797,
      1785800807,
      1785800857,
      1785800917,
      1785800927,
      1785800977,
      1785800987,
      1785801037,
      1785801047,
      1785801098,
      1785801107,
      1785801158,
      1785801167,
      1785801218,
      1785801227,
      1785801278
    ],
    "wof:geomhash": "81f0db195393cc0574938c2454b2217b",
    "wof:id": 2032087637,
    "wof:repo": "sfomuseum-data-flights-2026-08"
  },
  "bbox": [
    -122.36972222222222,
    37.49305555555556,
    -87.85,
    42.467777777777776
  ],
  "geometry": {"type":"LineString","coordinates":[[-87.85,42.03333333333333],[-87.9,42.06666666666667],[-87.93472222222222,42.0925],[-87.98333333333333,42.13333333333333],[-88.00361111111111,42.14972222222222],[-88.20472222222223,42.18722222222222],[-88.33694444444444,42.183611111111105],[-88.48333333333333,42.17861111111111],[-88.62194444444444,42.17194444444444],[-88.80583333333333,42.163333333333334],[-88.96361111111112,42.159444444444446],[-89.12527777777777,42.15611111111111],[-89.29222222222222,42.151666666666664],[-89.4588888888889,42.14611111111111],[-89.62972222222221,42.14055555555556],[-89.78055555555555,42.13444444444444],[-89.79972222222221,42.13611111111111],[-89.9875,42.12972222222222],[-90.13027777777778,42.12305555555555],[-90.16361111111112,42.123333333333335],[-90.30833333333334,42.11527777777778],[-90.34444444444443,42.11611111111111],[-90.48805555555556,42.108333333333334],[-90.69777777777779,42.10277777777778],[-90.83972222222222,42.09722222222222],[-90.90777777777778,42.095],[-91.01194444444444,42.09111111111111],[-91.08055555555555,42.088055555555556],[-91.1875,42.083333333333336],[-91.255,42.080555555555556],[-91.36166666666666,42.080000000000005],[-91.42972222222222,42.080555555555556],[-91.53305555555555,42.081944444444446],[-91.60277777777777,42.0825],[-91.70972222222223,42.08388888888889],[-91.7775,42.08444444444444],[-91.95222222222222,42.08583333333333],[-92.12416666666665,42.08694444444445],[-92.23083333333334,42.087500000000006],[-92.29888888888888,42.08777777777778],[-92.40361111111112,42.088055555555556],[-92.47055555555556,42.08833333333334],[-92.64472222222223,42.08888888888889],[-92.715,42.08888888888889],[-92.88611111111112,42.08888888888889],[-93.05638888888889,42.08861111111111],[-93.15666666666667,42.08833333333334],[-93.32777777777777,42.087500000000006],[-93.39555555555556,42.08722222222222],[-93.66555555555556,42.099722222222226],[-93.73194444444445,42.10611111111111],[-93.83194444444445,42.115833333333335],[-93.92888888888889,42.125],[-93.99972222222222,42.13166666666667],[-94.09416666666667,42.14055555555556],[-94.1675,42.14722222222222],[-94.26305555555555,42.155833333333334],[-94.43027777777779,42.17111111111111],[-94.59944444444444,42.18611111111111],[-94.7675,42.20055555555556],[-94.93555555555555,42.215],[-95.1036111111111,42.22916666666667],[-95.2725,42.24305555555556],[-95.78277777777778,42.28361111111111],[-96.12055555555555,42.30916666666666],[-96.28916666666666,42.32166666666667],[-96.45694444444445,42.33361111111111],[-96.62638888888888,42.345555555555556],[-96.79638888888888,42.35722222222223],[-96.96416666666667,42.368611111111115],[-97.30222222222221,42.39055555555556],[-97.46888888888888,42.401111111111106],[-97.63555555555556,42.41138888888889],[-97.78,42.419999999999995],[-97.9475,42.43],[-97.96694444444445,42.43111111111111],[-98.13222222222221,42.440555555555555],[-98.27527777777777,42.448611111111106],[-98.29527777777777,42.44972222222222],[-98.44027777777778,42.4575],[-98.46222222222222,42.45861111111111],[-98.60666666666665,42.46638888888889],[-98.77305555555556,42.467777777777776],[-98.79083333333332,42.467222222222226],[-98.95611111111111,42.461666666666666],[-99.07388888888889,42.4575],[-99.11861111111111,42.45583333333334],[-99.26972222222223,42.45027777777778],[-99.28361111111111,42.44972222222222],[-99.42944444444444,42.443888888888885],[-99.60722222222222,42.43722222222222],[-99.75444444444445,42.43055555555555],[-99.78527777777778,42.43],[-99.91527777777779,42.42444444444444],[-99.94861111111112,42.42305555555555],[-100.07416666666666,42.4175],[-100.10916666666667,42.41583333333333],[-100.23583333333333,42.41027777777778],[-100.26888888888888,42.40861111111111],[-100.39555555555556,42.40277777777778],[-100.43,42.401111111111106],[-100.56944444444444,42.39333333333333],[-100.58638888888889,42.39361111111111],[-100.715,42.38722222222222],[-100.75027777777778,42.385555555555555],[-100.90916666666668,42.3775],[-101.19027777777778,42.36277777777778],[-101.36666666666666,42.35055555555556],[-101.52416666666666,42.34166666666667],[-101.68416666666667,42.33305555555556],[-101.84194444444444,42.32333333333334],[-101.9038888888889,42.32194444444445],[-101.99722222222222,42.31388888888888],[-102.06027777777777,42.31222222222222],[-102.15361111111112,42.303888888888885],[-102.2175,42.302499999999995],[-102.31027777777777,42.29361111111111],[-102.3736111111111,42.2925],[-102.46666666666667,42.28444444444444],[-102.5286111111111,42.2825],[-102.62194444444444,42.27388888888889],[-102.68333333333334,42.27222222222222],[-102.77666666666667,42.26444444444444],[-102.83999999999999,42.26138888888889],[-102.93166666666667,42.25388888888889],[-102.99361111111111,42.25083333333333],[-103.08583333333333,42.24305555555556],[-103.14944444444446,42.23972222222222],[-103.24138888888889,42.2325],[-103.30388888888889,42.228611111111114],[-103.39444444444445,42.221111111111114],[-103.45861111111111,42.217222222222226],[-103.54916666666666,42.21027777777778],[-103.61305555555555,42.20583333333334],[-103.70333333333333,42.19833333333333],[-103.85805555555555,42.18527777777778],[-103.9225,42.18194444444444],[-104.01277777777777,42.17361111111111],[-104.07638888888889,42.16972222222222],[-104.16777777777779,42.16111111111111],[-104.23138888888889,42.157222222222224],[-104.32305555555556,42.14833333333333],[-104.38583333333334,42.14472222222222],[-104.4786111111111,42.13611111111111],[-104.54055555555556,42.13166666666667],[-104.6325,42.1225],[-104.84833333333333,42.105555555555554],[-104.90861111111111,42.09916666666667],[-105.06305555555555,42.086111111111116],[-105.15611111111112,42.078611111111115],[-105.21888888888888,42.07166666666667],[-105.31305555555555,42.06444444444444],[-105.37277777777777,42.05694444444444],[-105.46527777777779,42.050555555555555],[-105.5261111111111,42.04388888888889],[-105.61888888888888,42.03611111111111],[-105.67972222222222,42.02916666666667],[-105.77166666666666,42.02194444444444],[-105.83222222222221,42.01611111111111],[-105.92416666666666,42.007222222222225],[-105.98527777777778,42.00138888888889],[-106.075,41.99138888888889],[-106.13666666666667,41.983333333333334],[-106.22638888888889,41.971944444444446],[-106.29027777777777,41.96388888888889],[-106.38055555555555,41.95277777777778],[-106.44055555555556,41.945277777777775],[-106.53083333333333,41.93388888888889],[-106.59166666666667,41.92611111111111],[-106.6713888888889,41.91611111111111],[-106.76277777777777,41.90416666666667],[-106.82333333333332,41.896388888888886],[-106.91444444444446,41.88444444444444],[-106.97222222222223,41.87694444444445],[-107.06333333333333,41.865],[-107.12277777777777,41.85722222222223],[-107.21194444444444,41.84527777777778],[-107.2725,41.83722222222222],[-107.36333333333333,41.825],[-107.42194444444445,41.81722222222223],[-107.56944444444444,41.79722222222222],[-107.65861111111111,41.785],[-107.80749999999999,41.76444444444444],[-107.86611111111111,41.756388888888885],[-107.95611111111111,41.743611111111115],[-108.01416666666667,41.73555555555556],[-108.13166666666666,41.71888888888889],[-108.16194444444444,41.71472222222223],[-108.28055555555555,41.69777777777777],[-108.42750000000001,41.67583333333333],[-108.4775,41.664722222222224],[-108.56777777777778,41.634166666666665],[-108.5936111111111,41.6225],[-108.72361111111111,41.56305555555555],[-108.85527777777777,41.50194444444445],[-108.96194444444444,41.452222222222225],[-108.98833333333333,41.44],[-109.10055555555554,41.38722222222222],[-109.23416666666667,41.32416666666667],[-109.26083333333334,41.31166666666666],[-109.34138888888889,41.27361111111111],[-109.39444444444445,41.248333333333335],[-109.50111111111111,41.19777777777777],[-109.63138888888888,41.135555555555555],[-109.7611111111111,41.07333333333334],[-109.8913888888889,41.010555555555555],[-110.02166666666666,40.94777777777777],[-110.17777777777778,40.871944444444445],[-110.31027777777777,40.80722222222222],[-110.44083333333333,40.74333333333333],[-110.69972222222222,40.61527777777778],[-110.80805555555555,40.52638888888889],[-110.91194444444444,40.431666666666665],[-111.02777777777777,40.34916666666667],[-111.16444444444446,40.28583333333333],[-111.30083333333333,40.22361111111111],[-111.43833333333333,40.16027777777778],[-111.57111111111111,40.09861111111111],[-111.9738888888889,39.91111111111111],[-112.10916666666667,39.847500000000004],[-112.24444444444444,39.78361111111111],[-112.37888888888888,39.719722222222224],[-112.64861111111112,39.59111111111111],[-112.76472222222222,39.53527777777778],[-113.03083333333333,39.406666666666666],[-113.16611111111112,39.340833333333336],[-113.30694444444444,39.286944444444444],[-113.45583333333333,39.25277777777778],[-113.60749999999999,39.218611111111116],[-113.75694444444444,39.18416666666666],[-113.90694444444445,39.149166666666666],[-114.05833333333334,39.11361111111111],[-114.20666666666666,39.07888888888889],[-114.35777777777777,39.043055555555554],[-114.50555555555556,39.007777777777775],[-114.80805555555555,38.934999999999995],[-114.95583333333333,38.899166666666666],[-115.1036111111111,38.863055555555555],[-115.2538888888889,38.82611111111112],[-115.41527777777779,38.78583333333333],[-115.7088888888889,38.71277777777778],[-115.85833333333333,38.67527777777777],[-116.0075,38.63722222222222],[-116.15361111111112,38.6],[-116.30444444444444,38.56111111111111],[-116.4538888888889,38.5225],[-116.59972222222221,38.484722222222224],[-116.75027777777778,38.445277777777775],[-116.89805555555556,38.406388888888884],[-117.04333333333334,38.367777777777775],[-117.20138888888889,38.325833333333335],[-117.34833333333333,38.28666666666666],[-117.47777777777777,38.251666666666665],[-117.62555555555555,38.211666666666666],[-117.77083333333333,38.17222222222222],[-117.9175,38.13194444444444],[-118.065,38.09138888888889],[-118.21111111111111,38.051111111111105],[-118.38361111111112,38.00277777777778],[-118.50333333333333,37.96944444444445],[-118.65027777777779,37.92805555555555],[-118.79805555555555,37.89222222222222],[-118.95055555555555,37.87416666666667],[-119.12333333333332,37.85472222222222],[-119.28111111111112,37.83638888888889],[-119.44111111111111,37.8175],[-119.59944444444444,37.79861111111111],[-119.91972222222223,37.75972222222222],[-120.08361111111111,37.739444444444445],[-120.40194444444445,37.69944444444444],[-120.43333333333334,37.7],[-120.5436111111111,37.68277777777777],[-120.56666666666666,37.68333333333333],[-120.67861111111111,37.66722222222222],[-120.7,37.666666666666664],[-120.80694444444444,37.651944444444446],[-120.83333333333333,37.65],[-120.93194444444445,37.63666666666666],[-120.95,37.63333333333333],[-121.08333333333333,37.61666666666667],[-121.1725,37.60444444444445],[-121.3,37.583333333333336],[-121.37027777777777,37.580555555555556],[-121.41666666666667,37.583333333333336],[-121.51666666666667,37.56666666666667],[-121.57277777777777,37.55694444444444],[-121.6,37.55],[-121.66527777777779,37.54111111111111],[-121.7,37.53333333333333],[-121.75166666666667,37.52027777777778],[-121.78333333333333,37.516666666666666],[-121.83361111111111,37.50083333333333],[-121.86666666666666,37.5],[-121.91833333333334,37.49305555555556],[-122.00166666666667,37.498333333333335],[-122.03333333333333,37.5],[-122.08444444444444,37.503055555555555],[-122.11666666666666,37.516666666666666],[-122.15833333333335,37.52972222222222],[-122.18333333333334,37.53333333333333],[-122.22500000000001,37.558055555555555],[-122.25,37.56666666666667],[-122.27972222222222,37.58083333333334],[-122.3,37.583333333333336],[-122.32666666666667,37.600833333333334],[-122.35,37.6],[-122.36972222222222,37.61888888888889]]}
}
