{
  "id": 2032106529,
  "type": "Feature",
  "properties": {
    "date:cessation_lower": "1970-01-01",
    "date:cessation_upper": "1970-01-01",
    "date:inception_lower": "2026-08-04",
    "date:inception_upper": "2026-08-04",
    "edtf:cessation": "1970-01-01T00:00:00Z",
    "edtf:inception": "2026-08-04T12:00:27-07:00",
    "flysfo:actual_timestamp": -1,
    "flysfo:airline": "UA",
    "flysfo:base_airline": "",
    "flysfo:base_flight_number": "7698",
    "flysfo:date": "2026-08-04",
    "flysfo:estimated_timestamp": 1785894240,
    "flysfo:event": "D",
    "flysfo:flight_number": "UA1594",
    "flysfo:gate": "D16",
    "flysfo:journey": "SFO-ANC",
    "flysfo:scheduled_timestamp": 1785894420,
    "flysfo:timestamp": 1785894420,
    "geom:area": 0,
    "geom:bbox": "-149.968401,37.617990,-122.370943,61.173606",
    "geom:latitude": 49.395798,
    "geom:longitude": -136.169672,
    "iata:airline": "UA",
    "iata:base_airline": "",
    "icao:aircraft": "B38M",
    "icao:airline": "UAL",
    "icao:base_airline": "DLH",
    "lbl:latitude": 37.617532,
    "lbl:longitude": -122.382384,
    "sfomuseum:aircraft_id": 1528104575,
    "sfomuseum:airline_id": 1159285413,
    "sfomuseum:arrival_id": 102531979,
    "sfomuseum:base_flight_id": "20260804-D-DLH-7698",
    "sfomuseum:departure_id": 102527513,
    "sfomuseum:flight_id": "20260804-D-UAL-1594",
    "sfomuseum:flight_number": [
      "UAL1594",
      "UA1594"
    ],
    "sfomuseum:placetype": "flight",
    "src:geom": "flysfo",
    "src:geom_alt": [
      "swim-path",
      "swim-takeoff"
    ],
    "swim:tail_number": "N47281",
    "wof:belongsto": [
      1947304067,
      102527513,
      1947304595,
      102191575,
      85633793,
      102087579,
      85922583,
      554784711,
      85688637,
      1947304619,
      1947304591,
      102085387
    ],
    "wof:country": "US",
    "wof:created": 1785946599,
    "wof:geomhash": "24c5d8bcd340273688237ae435bbe348",
    "wof:hierarchy": [
      {
        "building_id": 1947304067,
        "campus_id": 102527513,
        "concourse_id": 1947304595,
        "continent_id": 102191575,
        "country_id": 85633793,
        "county_id": 102087579,
        "custom_id": 2032106529,
        "flight_id": 2032106529,
        "locality_id": 85922583,
        "postalcode_id": 554784711,
        "region_id": 85688637,
        "venue_id": 1947304619,
        "wing_id": 1947304591
      },
      {
        "building_id": 1947304067,
        "campus_id": 102527513,
        "concourse_id": 1947304595,
        "continent_id": 102191575,
        "country_id": 85633793,
        "county_id": 102085387,
        "custom_id": 2032106529,
        "flight_id": 2032106529,
        "region_id": 85688637,
        "venue_id": 1947304619,
        "wing_id": 1947304591
      }
    ],
    "wof:id": 2032106529,
    "wof:involves": [
      102531979,
      102527513,
      1159285413,
      1947304619,
      1159286015,
      1528104575
    ],
    "wof:lastmodified": 1785946822,
    "wof:name": "UA1594 (SFO-ANC)",
    "wof:parent_id": 1947304619,
    "wof:placetype": "custom",
    "wof:placetype_alt": [
      "flight"
    ],
    "wof:repo": "sfomuseum-data-flights-2026-08",
    "wof:superseded_by": [],
    "wof:supersedes": []
  },
  "bbox": [
    -149.968401,
    37.61799,
    -122.370943,
    61.173606
  ],
  "geometry": {"type":"MultiPoint","coordinates":[[-122.370943,37.61799],[-149.968401,61.173606]]}
}
