{
  "id": 2032129443,
  "type": "Feature",
  "properties": {
    "geom:area": 0,
    "geom:bbox": "-122.758590,37.419860,-122.095260,38.513570",
    "geom:latitude": 37.855921004792286,
    "geom:longitude": -122.46991266358205,
    "src:alt_label": "swim-approach",
    "src:geom": "swim",
    "swim:elevations": [
      7281,
      7178,
      7070,
      6887,
      6847,
      6814,
      6694,
      6611,
      6416,
      6299,
      6181,
      6078,
      5707,
      5618,
      5553,
      5213,
      5057,
      4709,
      4521,
      4272,
      4207,
      4138,
      4070,
      3911,
      3699,
      3382,
      3372,
      3350,
      3359,
      3348,
      3189,
      3100,
      2675,
      2567,
      2369,
      1683,
      1635,
      1566,
      1216,
      1219,
      1219,
      1219,
      1218,
      1219,
      1219,
      1219,
      1143,
      954,
      913,
      802,
      622,
      526,
      405,
      309,
      187,
      134,
      42
    ],
    "swim:geom": "approach",
    "swim:timestamps": [
      1786058453,
      1786058473,
      1786058497,
      1786058531,
      1786058537,
      1786058546,
      1786058567,
      1786058586,
      1786058625,
      1786058647,
      1786058664,
      1786058683,
      1786058722,
      1786058731,
      1786058739,
      1786058775,
      1786058793,
      1786058833,
      1786058850,
      1786058872,
      1786058886,
      1786058905,
      1786058914,
      1786058940,
      1786058970,
      1786059028,
      1786059034,
      1786059078,
      1786059103,
      1786059115,
      1786059145,
      1786059153,
      1786059207,
      1786059219,
      1786059243,
      1786059297,
      1786059302,
      1786059306,
      1786059354,
      1786059387,
      1786059412,
      1786059448,
      1786059460,
      1786059478,
      1786059481,
      1786059505,
      1786059533,
      1786059564,
      1786059576,
      1786059618,
      1786059658,
      1786059681,
      1786059711,
      1786059739,
      1786059772,
      1786059787,
      1786059814
    ],
    "wof:geomhash": "8be7f0d46023d11e3d737508c4602717",
    "wof:id": 2032129443,
    "wof:repo": "sfomuseum-data-flights-2026-08"
  },
  "bbox": [
    -122.75859,
    37.41986,
    -122.09526,
    38.51357
  ],
  "geometry": {"type":"LineString","coordinates":[[-122.46965,38.51357],[-122.49856,38.4857],[-122.53468,38.45071],[-122.58445,38.40258],[-122.5932,38.39408],[-122.60639,38.38127],[-122.63688,38.35153],[-122.66419,38.32507],[-122.72038,38.27032],[-122.749,38.23807],[-122.75859,38.20979],[-122.75329,38.17638],[-122.73404,38.1108],[-122.72962,38.09529],[-122.72562,38.08135],[-122.70865,38.02228],[-122.70025,37.99337],[-122.68215,37.93088],[-122.67269,37.90483],[-122.64704,37.87507],[-122.62894,37.85802],[-122.60653,37.83693],[-122.59615,37.8271],[-122.56674,37.79929],[-122.53525,37.76952],[-122.47862,37.71601],[-122.47334,37.71103],[-122.43224,37.67245],[-122.40959,37.65114],[-122.39768,37.63989],[-122.371,37.61432],[-122.36547,37.60653],[-122.33477,37.55322],[-122.32757,37.54151],[-122.31338,37.51841],[-122.28255,37.46824],[-122.27944,37.46415],[-122.27569,37.46036],[-122.21686,37.43963],[-122.17758,37.4276],[-122.15063,37.41986],[-122.11438,37.43562],[-122.10591,37.44539],[-122.09578,37.46052],[-122.09526,37.46334],[-122.10214,37.48484],[-122.11682,37.50706],[-122.14573,37.52183],[-122.15734,37.52694],[-122.19812,37.54437],[-122.23588,37.56023],[-122.25486,37.56827],[-122.27852,37.57814],[-122.30006,37.58724],[-122.32491,37.59766],[-122.33557,37.60217],[-122.35396,37.60991]]}
}
