{
  "id": 2047912879,
  "type": "Feature",
  "properties": {
    "geom:area": 0,
    "geom:bbox": "-122.331667,35.885833,-115.175556,37.700000",
    "geom:latitude": 37.15391525015313,
    "geom:longitude": -118.57534612423879,
    "src:alt_label": "swim-path",
    "src:geom": "swim",
    "swim:altitudes": [
      "031",
      "051",
      "055",
      "069",
      "076",
      "097",
      "106",
      "115",
      "117",
      "136",
      "161",
      "187",
      "229",
      "246",
      "258",
      "266",
      "280",
      "287",
      "300",
      "320",
      "322",
      "335",
      "335",
      "351",
      "360C",
      "360C",
      "360C",
      "360C",
      "360C",
      "360C",
      "360C",
      "360C",
      "360C",
      "360C",
      "360C",
      "360C",
      "360C",
      "360C",
      "360C",
      "360C",
      "360C",
      "360",
      "357",
      "346",
      "340C",
      "340C",
      "340C",
      "340C",
      "340C",
      "340C",
      "340C",
      "340C",
      "340",
      "340",
      "340",
      "322",
      "312",
      "290",
      "281",
      "263",
      "255",
      "237",
      "233",
      "219",
      "212",
      "202",
      "190",
      "182",
      "170",
      "159",
      "150",
      "139",
      "129",
      "119",
      "110",
      "104",
      "101",
      "096",
      "092",
      "085",
      "079",
      "072",
      "068",
      "063",
      "060",
      "054",
      "049",
      "043",
      "038",
      "032",
      "027",
      "021",
      "017",
      "012",
      "009",
      "005"
    ],
    "swim:geom": "path",
    "swim:speeds": [
      182,
      230,
      229,
      279,
      274,
      278,
      277,
      318,
      338,
      391,
      413,
      428,
      463,
      469,
      485,
      481,
      484,
      481,
      483,
      478,
      478,
      479,
      479,
      479,
      481,
      483,
      483,
      483,
      482,
      480,
      480,
      472,
      467,
      437,
      437,
      433,
      430,
      430,
      428,
      428,
      428,
      428,
      428,
      436,
      441,
      442,
      443,
      443,
      442,
      442,
      442,
      443,
      443,
      444,
      444,
      443,
      443,
      449,
      445,
      444,
      439,
      435,
      420,
      408,
      398,
      395,
      380,
      378,
      366,
      366,
      356,
      355,
      346,
      345,
      336,
      333,
      299,
      289,
      270,
      267,
      254,
      259,
      244,
      245,
      233,
      226,
      233,
      233,
      238,
      235,
      209,
      197,
      185,
      164,
      141,
      144
    ],
    "swim:timestamps": [
      1786376818,
      1786376878,
      1786376894,
      1786376938,
      1786376954,
      1786376992,
      1786377014,
      1786377052,
      1786377074,
      1786377135,
      1786377195,
      1786377255,
      1786377375,
      1786377435,
      1786377486,
      1786377495,
      1786377546,
      1786377555,
      1786377607,
      1786377667,
      1786377675,
      1786377727,
      1786377735,
      1786377796,
      1786377856,
      1786377907,
      1786377916,
      1786377976,
      1786378036,
      1786378087,
      1786378096,
      1786378147,
      1786378216,
      1786378267,
      1786378276,
      1786378336,
      1786378388,
      1786378396,
      1786378448,
      1786378456,
      1786378508,
      1786378517,
      1786378568,
      1786378637,
      1786378688,
      1786378697,
      1786378748,
      1786378808,
      1786378868,
      1786378928,
      1786378988,
      1786379109,
      1786379169,
      1786379229,
      1786379242,
      1786379289,
      1786379309,
      1786379349,
      1786379369,
      1786379409,
      1786379429,
      1786379469,
      1786379489,
      1786379529,
      1786379549,
      1786379589,
      1786379614,
      1786379649,
      1786379669,
      1786379709,
      1786379729,
      1786379769,
      1786379789,
      1786379829,
      1786379849,
      1786379890,
      1786379909,
      1786379950,
      1786379969,
      1786380010,
      1786380029,
      1786380070,
      1786380090,
      1786380130,
      1786380149,
      1786380190,
      1786380209,
      1786380250,
      1786380269,
      1786380310,
      1786380329,
      1786380370,
      1786380389,
      1786380430,
      1786380449,
      1786380490
    ],
    "wof:geomhash": "71a2877d7a1c14f1079d82d9303660a4",
    "wof:id": 2047912879,
    "wof:repo": "sfomuseum-data-flights-2026-08"
  },
  "bbox": [
    -122.33166666666666,
    35.88583333333333,
    -115.17555555555556,
    37.7
  ],
  "geometry": {"type":"LineString","coordinates":[[-115.17555555555556,36.077222222222225],[-115.24805555555555,36.069722222222225],[-115.2611111111111,36.058055555555555],[-115.28888888888889,36.00805555555556],[-115.29638888888888,35.98916666666667],[-115.32777777777777,35.943888888888885],[-115.34166666666667,35.920833333333334],[-115.39111111111112,35.88583333333333],[-115.42472222222223,35.88638888888889],[-115.55944444444444,35.88916666666667],[-115.69861111111112,35.89111111111111],[-115.84472222222222,35.89388888888889],[-116.09638888888888,36.02361111111111],[-116.19722222222222,36.10472222222222],[-116.29277777777777,36.18],[-116.32527777777777,36.2075],[-116.40916666666668,36.275277777777774],[-116.4413888888889,36.30083333333333],[-116.52527777777777,36.37],[-116.6588888888889,36.48555555555556],[-116.66916666666667,36.49472222222222],[-116.7713888888889,36.58527777777778],[-116.7713888888889,36.58555555555556],[-116.8913888888889,36.69027777777777],[-116.98583333333333,36.8],[-117.05777777777777,36.91111111111111],[-117.05777777777777,36.91111111111111],[-117.13527777777779,37.03],[-117.21361111111112,37.15],[-117.29055555555556,37.2675],[-117.29055555555556,37.2675],[-117.38916666666667,37.37166666666667],[-117.49555555555555,37.46944444444445],[-117.61138888888888,37.50111111111111],[-117.6413888888889,37.50361111111111],[-117.79138888888889,37.516666666666666],[-117.91111111111111,37.52638888888889],[-117.94083333333333,37.52861111111111],[-118.05916666666667,37.53805555555555],[-118.08833333333332,37.540277777777774],[-118.20944444444444,37.54944444444444],[-118.2375,37.55166666666666],[-118.35888888888888,37.56111111111111],[-118.54222222222222,37.575],[-118.66444444444446,37.58388888888889],[-118.69583333333334,37.58638888888889],[-118.83972222222222,37.596944444444446],[-118.99861111111112,37.608333333333334],[-119.15305555555557,37.619166666666665],[-119.30611111111111,37.62972222222222],[-119.46055555555556,37.64],[-119.77111111111111,37.66027777777778],[-119.92583333333334,37.669999999999995],[-120.08305555555555,37.67944444444444],[-120.11666666666666,37.68333333333333],[-120.23666666666666,37.689166666666665],[-120.28333333333333,37.7],[-120.3938888888889,37.6975],[-120.45,37.7],[-120.54944444444445,37.6825],[-120.6,37.68333333333333],[-120.70055555555555,37.664722222222224],[-120.75,37.666666666666664],[-120.84472222222222,37.64722222222222],[-120.88333333333334,37.65],[-120.9538888888889,37.634166666666665],[-121.03333333333333,37.61666666666667],[-121.08527777777778,37.61666666666667],[-121.15,37.6],[-121.2175,37.59861111111111],[-121.28333333333333,37.583333333333336],[-121.33666666666666,37.58388888888889],[-121.4,37.583333333333336],[-121.45583333333333,37.57083333333334],[-121.51666666666667,37.56666666666667],[-121.57111111111111,37.55722222222222],[-121.61666666666666,37.55],[-121.6725,37.53944444444444],[-121.71666666666667,37.53333333333333],[-121.7625,37.51777777777777],[-121.8,37.5],[-121.85,37.496944444444445],[-121.9,37.5],[-121.93333333333334,37.494166666666665],[-121.96666666666667,37.5],[-122.01472222222222,37.49861111111111],[-122.05,37.5],[-122.09555555555555,37.50416666666667],[-122.13333333333334,37.516666666666666],[-122.17,37.53472222222222],[-122.2,37.55],[-122.23222222222222,37.56083333333333],[-122.26666666666667,37.56666666666667],[-122.28666666666666,37.58388888888889],[-122.3,37.6],[-122.33166666666666,37.60277777777778]]}
}
