{
  "id": 2047940527,
  "type": "Feature",
  "properties": {
    "geom:area": 0,
    "geom:bbox": "-123.165030,37.451470,-122.118860,38.338200",
    "geom:latitude": 37.812606148901956,
    "geom:longitude": -122.5728437768437,
    "src:alt_label": "swim-approach",
    "src:geom": "swim",
    "swim:elevations": [
      7336,
      7072,
      6754,
      6413,
      6033,
      5781,
      5181,
      4349,
      4256,
      4184,
      3548,
      3352,
      3353,
      3353,
      3353,
      3353,
      3353,
      3119,
      2920,
      2652,
      2408,
      2127,
      2020,
      1776,
      1524,
      1408,
      1164,
      1152,
      854,
      596,
      465,
      358,
      48
    ],
    "swim:geom": "approach",
    "swim:timestamps": [
      1786534799,
      1786534820,
      1786534846,
      1786534875,
      1786534908,
      1786534929,
      1786534982,
      1786535064,
      1786535097,
      1786535107,
      1786535176,
      1786535245,
      1786535252,
      1786535308,
      1786535331,
      1786535368,
      1786535384,
      1786535424,
      1786535452,
      1786535488,
      1786535511,
      1786535535,
      1786535545,
      1786535572,
      1786535598,
      1786535610,
      1786535667,
      1786535672,
      1786535725,
      1786535771,
      1786535800,
      1786535829,
      1786535909
    ],
    "wof:geomhash": "cd87227800f02043505257c9e6f68bc7",
    "wof:id": 2047940527,
    "wof:repo": "sfomuseum-data-flights-2026-08"
  },
  "bbox": [
    -123.16503,
    37.45147,
    -122.11886,
    38.3382
  ],
  "geometry": {"type":"LineString","coordinates":[[-123.16503,38.3382],[-123.12606,38.30368],[-123.08049,38.26327],[-123.02954,38.218],[-122.9732,38.16767],[-122.93867,38.13696],[-122.84933,38.05721],[-122.71875,37.94025],[-122.67135,37.89777],[-122.65851,37.88579],[-122.56806,37.80026],[-122.48817,37.72467],[-122.48047,37.71736],[-122.42243,37.66293],[-122.40038,37.64215],[-122.36406,37.60712],[-122.35255,37.5907],[-122.32837,37.54889],[-122.31109,37.51937],[-122.28081,37.48703],[-122.25236,37.47328],[-122.22033,37.46164],[-122.20581,37.45721],[-122.16967,37.45147],[-122.13333,37.45964],[-122.11886,37.46619],[-122.12643,37.51845],[-122.1316,37.51957],[-122.19107,37.54132],[-122.23838,37.56132],[-122.2641,37.57213],[-122.28766,37.58202],[-122.35291,37.60942]]}
}
