{
  "id": 2047945733,
  "type": "Feature",
  "properties": {
    "geom:area": 0,
    "geom:bbox": "-122.390556,37.616667,-87.947778,41.966667",
    "geom:latitude": 39.76397029812901,
    "geom:longitude": -105.15433669882479,
    "src:alt_label": "swim-path",
    "src:geom": "swim",
    "swim:altitudes": [
      "007",
      "009",
      "028",
      "039",
      "048",
      "069",
      "088",
      "105",
      "119",
      "132",
      "146",
      "157",
      "168",
      "179",
      "189",
      "211",
      "219",
      "227",
      "235",
      "242",
      "249",
      "250",
      "258",
      "261",
      "270",
      "277",
      "280",
      "286",
      "288",
      "296",
      "303",
      "304",
      "312",
      "312",
      "320",
      "329C",
      "329C",
      "330C",
      "330C",
      "330C",
      "330C",
      "330C",
      "330C",
      "330C",
      "330C",
      "330C",
      "330C",
      "330C",
      "330C",
      "330C",
      "330C",
      "330C",
      "330C",
      "330C",
      "330C",
      "330C",
      "330C",
      "330C",
      "330C",
      "330C",
      "330C",
      "330C",
      "330C",
      "331C",
      "330C",
      "330C",
      "330C",
      "330C",
      "331C",
      "330C",
      "330C",
      "330C",
      "330C",
      "330C",
      "330C",
      "330C",
      "330C",
      "330C",
      "330C",
      "330C",
      "330C",
      "330C",
      "330C",
      "330C",
      "330C",
      "330C",
      "330C",
      "330C",
      "330C",
      "330C",
      "330C",
      "330C",
      "330C",
      "330C",
      "330C",
      "330C",
      "330C",
      "330C",
      "330C",
      "330C",
      "330C",
      "330C",
      "330C",
      "330C",
      "330C",
      "330C",
      "330C",
      "330C",
      "330C",
      "330C",
      "330C",
      "330C",
      "330C",
      "330C",
      "330C",
      "330C",
      "330C",
      "330C",
      "330C",
      "330C",
      "330C",
      "330C",
      "330C",
      "330C",
      "330C",
      "330C",
      "330C",
      "330C",
      "330C",
      "330C",
      "330C",
      "330C",
      "330C",
      "330C",
      "330C",
      "330C",
      "330C",
      "330C",
      "330C",
      "330C",
      "330C",
      "331C",
      "330C",
      "330C",
      "330C",
      "330C",
      "330C",
      "330C",
      "330C",
      "330C",
      "330C",
      "330C",
      "330C",
      "330C",
      "331C",
      "330C",
      "330C",
      "330C",
      "330C",
      "330C",
      "330C",
      "330C",
      "330C",
      "330C",
      "330C",
      "330C",
      "330C",
      "330C",
      "330C",
      "330C",
      "330C",
      "330C",
      "330C",
      "330C",
      "330C",
      "330C",
      "330C",
      "330C",
      "330C",
      "330C",
      "330C",
      "330C",
      "330C",
      "330C",
      "330C",
      "330C",
      "330C",
      "330C",
      "330C",
      "330C",
      "330C",
      "330C",
      "330C",
      "330C",
      "330C",
      "330C",
      "330C",
      "330C",
      "330C",
      "330C",
      "330C",
      "330C",
      "330C",
      "330C",
      "330C",
      "330C",
      "330C",
      "330C",
      "330C",
      "330C",
      "330C",
      "330C",
      "330C",
      "330C",
      "330C",
      "330C",
      "330C",
      "330C",
      "330C",
      "330C",
      "330C",
      "330C",
      "330C",
      "330C",
      "330C",
      "330C",
      "330C",
      "330C",
      "330C",
      "330C",
      "330C",
      "330C",
      "330C",
      "331C",
      "331C",
      "330C",
      "330C",
      "330C",
      "330C",
      "330C",
      "330C",
      "330C",
      "330C",
      "330C",
      "330C",
      "330C",
      "330C",
      "330C",
      "330C",
      "330C",
      "330C",
      "330C",
      "330C",
      "330C",
      "330C",
      "331C",
      "330C",
      "330C",
      "330C",
      "329",
      "324",
      "316",
      "310",
      "302",
      "296",
      "290C",
      "290C",
      "290C",
      "290C",
      "290",
      "288",
      "279",
      "276",
      "265",
      "263",
      "251C",
      "250C",
      "250C",
      "250C",
      "250C",
      "250C",
      "250C",
      "250C",
      "250C",
      "250C",
      "250",
      "250",
      "242",
      "240",
      "234",
      "230",
      "223",
      "216",
      "202",
      "194",
      "172",
      "170",
      "140",
      "120",
      "120C",
      "116",
      "113",
      "110",
      "110",
      "110",
      "109",
      "097",
      "093",
      "090",
      "085",
      "077",
      "075",
      "067",
      "065",
      "059",
      "057",
      "050",
      "050",
      "050",
      "049",
      "043",
      "038",
      "030",
      "027",
      "019",
      "017",
      "011",
      "009"
    ],
    "swim:geom": "path",
    "swim:speeds": [
      163,
      162,
      183,
      211,
      264,
      284,
      297,
      305,
      331,
      360,
      380,
      404,
      425,
      440,
      456,
      470,
      480,
      486,
      492,
      497,
      502,
      499,
      502,
      500,
      500,
      498,
      498,
      498,
      497,
      495,
      495,
      494,
      494,
      494,
      495,
      493,
      493,
      492,
      491,
      492,
      493,
      493,
      493,
      492,
      491,
      487,
      487,
      483,
      483,
      482,
      488,
      488,
      489,
      489,
      489,
      488,
      488,
      487,
      486,
      486,
      486,
      486,
      487,
      489,
      489,
      489,
      488,
      488,
      489,
      489,
      489,
      490,
      490,
      492,
      493,
      493,
      493,
      492,
      492,
      492,
      492,
      493,
      492,
      492,
      492,
      492,
      493,
      494,
      495,
      497,
      495,
      496,
      494,
      492,
      492,
      490,
      490,
      487,
      486,
      486,
      485,
      485,
      485,
      485,
      486,
      486,
      487,
      487,
      488,
      488,
      489,
      490,
      491,
      491,
      491,
      491,
      491,
      491,
      490,
      490,
      490,
      490,
      489,
      490,
      490,
      490,
      490,
      490,
      491,
      492,
      493,
      493,
      492,
      492,
      493,
      494,
      494,
      495,
      495,
      496,
      498,
      497,
      496,
      493,
      492,
      491,
      491,
      492,
      492,
      492,
      492,
      492,
      493,
      495,
      497,
      498,
      498,
      497,
      498,
      500,
      502,
      503,
      503,
      503,
      503,
      502,
      502,
      503,
      504,
      505,
      506,
      507,
      505,
      507,
      505,
      503,
      504,
      503,
      503,
      502,
      502,
      502,
      502,
      502,
      502,
      502,
      501,
      500,
      499,
      499,
      498,
      497,
      496,
      497,
      496,
      496,
      495,
      495,
      496,
      496,
      497,
      498,
      499,
      500,
      501,
      502,
      503,
      503,
      505,
      505,
      506,
      507,
      508,
      508,
      509,
      509,
      509,
      508,
      507,
      507,
      506,
      505,
      503,
      503,
      502,
      502,
      502,
      503,
      503,
      504,
      504,
      505,
      505,
      504,
      505,
      503,
      503,
      498,
      496,
      493,
      493,
      491,
      491,
      490,
      490,
      489,
      488,
      488,
      488,
      488,
      488,
      488,
      488,
      488,
      488,
      487,
      487,
      486,
      485,
      484,
      484,
      485,
      487,
      488,
      489,
      493,
      496,
      497,
      499,
      501,
      501,
      500,
      500,
      499,
      498,
      503,
      505,
      506,
      506,
      504,
      504,
      503,
      503,
      505,
      505,
      505,
      505,
      482,
      476,
      461,
      453,
      445,
      443,
      443,
      427,
      406,
      410,
      382,
      366,
      369,
      375,
      370,
      374,
      372,
      322,
      322,
      312,
      310,
      295,
      295,
      293,
      290,
      266,
      266,
      234,
      236,
      224,
      228,
      228,
      228,
      227,
      227,
      203,
      205,
      178,
      177,
      150,
      150
    ],
    "swim:timestamps": [
      1786521287,
      1786521301,
      1786521361,
      1786521421,
      1786521481,
      1786521541,
      1786521601,
      1786521661,
      1786521721,
      1786521781,
      1786521841,
      1786521901,
      1786521961,
      1786522021,
      1786522081,
      1786522201,
      1786522261,
      1786522321,
      1786522381,
      1786522441,
      1786522493,
      1786522501,
      1786522553,
      1786522561,
      1786522621,
      1786522673,
      1786522681,
      1786522733,
      1786522741,
      1786522801,
      1786522853,
      1786522861,
      1786522913,
      1786522921,
      1786522981,
      1786523033,
      1786523041,
      1786523093,
      1786523101,
      1786523153,
      1786523213,
      1786523221,
      1786523273,
      1786523281,
      1786523341,
      1786523393,
      1786523401,
      1786523453,
      1786523461,
      1786523513,
      1786523573,
      1786523581,
      1786523633,
      1786523641,
      1786523693,
      1786523701,
      1786523753,
      1786523761,
      1786523813,
      1786523821,
      1786523873,
      1786523882,
      1786523942,
      1786523993,
      1786524053,
      1786524113,
      1786524173,
      1786524233,
      1786524293,
      1786524353,
      1786524413,
      1786524474,
      1786524534,
      1786524594,
      1786524654,
      1786524714,
      1786524774,
      1786524834,
      1786524894,
      1786524954,
      1786525014,
      1786525074,
      1786525134,
      1786525194,
      1786525254,
      1786525314,
      1786525374,
      1786525434,
      1786525494,
      1786525509,
      1786525554,
      1786525570,
      1786525630,
      1786525674,
      1786525690,
      1786525734,
      1786525750,
      1786525810,
      1786525854,
      1786525870,
      1786525914,
      1786525930,
      1786525974,
      1786525990,
      1786526034,
      1786526050,
      1786526094,
      1786526110,
      1786526154,
      1786526170,
      1786526214,
      1786526230,
      1786526274,
      1786526290,
      1786526334,
      1786526350,
      1786526394,
      1786526410,
      1786526454,
      1786526470,
      1786526514,
      1786526530,
      1786526574,
      1786526590,
      1786526634,
      1786526650,
      1786526694,
      1786526710,
      1786526770,
      1786526830,
      1786526890,
      1786526950,
      1786527010,
      1786527070,
      1786527130,
      1786527190,
      1786527250,
      1786527310,
      1786527370,
      1786527430,
      1786527490,
      1786527550,
      1786527610,
      1786527670,
      1786527730,
      1786527791,
      1786527851,
      1786527911,
      1786527971,
      1786528031,
      1786528091,
      1786528151,
      1786528211,
      1786528271,
      1786528331,
      1786528391,
      1786528451,
      1786528511,
      1786528571,
      1786528631,
      1786528691,
      1786528751,
      1786528811,
      1786528871,
      1786528931,
      1786528991,
      1786529051,
      1786529111,
      1786529171,
      1786529231,
      1786529291,
      1786529305,
      1786529351,
      1786529365,
      1786529411,
      1786529428,
      1786529471,
      1786529485,
      1786529531,
      1786529546,
      1786529608,
      1786529668,
      1786529690,
      1786529725,
      1786529735,
      1786529750,
      1786529795,
      1786529810,
      1786529855,
      1786529870,
      1786529915,
      1786529930,
      1786529975,
      1786529991,
      1786530028,
      1786530051,
      1786530085,
      1786530111,
      1786530145,
      1786530171,
      1786530206,
      1786530231,
      1786530266,
      1786530291,
      1786530326,
      1786530351,
      1786530385,
      1786530411,
      1786530447,
      1786530471,
      1786530505,
      1786530531,
      1786530566,
      1786530591,
      1786530625,
      1786530651,
      1786530685,
      1786530711,
      1786530747,
      1786530771,
      1786530808,
      1786530831,
      1786530867,
      1786530891,
      1786530928,
      1786530951,
      1786530988,
      1786531011,
      1786531048,
      1786531108,
      1786531166,
      1786531227,
      1786531241,
      1786531286,
      1786531302,
      1786531346,
      1786531362,
      1786531406,
      1786531423,
      1786531467,
      1786531483,
      1786531526,
      1786531543,
      1786531586,
      1786531603,
      1786531648,
      1786531663,
      1786531708,
      1786531724,
      1786531766,
      1786531784,
      1786531826,
      1786531842,
      1786531886,
      1786531903,
      1786531946,
      1786531962,
      1786532007,
      1786532023,
      1786532069,
      1786532083,
      1786532127,
      1786532144,
      1786532189,
      1786532204,
      1786532246,
      1786532264,
      1786532306,
      1786532325,
      1786532367,
      1786532385,
      1786532427,
      1786532445,
      1786532487,
      1786532505,
      1786532547,
      1786532565,
      1786532608,
      1786532622,
      1786532668,
      1786532682,
      1786532727,
      1786532742,
      1786532788,
      1786532803,
      1786532847,
      1786532863,
      1786532907,
      1786532923,
      1786532967,
      1786532983,
      1786533027,
      1786533043,
      1786533087,
      1786533103,
      1786533153,
      1786533164,
      1786533224,
      1786533267,
      1786533284,
      1786533327,
      1786533344,
      1786533381,
      1786533404,
      1786533441,
      1786533464,
      1786533501,
      1786533524,
      1786533555,
      1786533584,
      1786533621,
      1786533644,
      1786533687,
      1786533704,
      1786533747,
      1786533764,
      1786533813,
      1786533825,
      1786533861,
      1786533885,
      1786533915,
      1786533945,
      1786533982,
      1786534005,
      1786534047,
      1786534065,
      1786534107,
      1786534125
    ],
    "wof:geomhash": "9d8c260faf8ff303240f299a2fa93aec",
    "wof:id": 2047945733,
    "wof:repo": "sfomuseum-data-flights-2026-08"
  },
  "bbox": [
    -122.39055555555557,
    37.61666666666667,
    -87.94777777777779,
    41.96666666666667
  ],
  "geometry": {"type":"LineString","coordinates":[[-122.38333333333334,37.61666666666667],[-122.39055555555557,37.625277777777775],[-122.38305555555554,37.668055555555554],[-122.34555555555555,37.712500000000006],[-122.35249999999999,37.77722222222222],[-122.3875,37.85194444444445],[-122.37472222222222,37.93138888888889],[-122.27722222222222,37.96194444444445],[-122.16527777777779,37.985],[-122.045,38.009166666666665],[-121.91694444444445,38.035],[-121.7786111111111,38.06222222222222],[-121.6325,38.090833333333336],[-121.48388888888888,38.120555555555555],[-121.33111111111111,38.14944444444444],[-121.00916666666667,38.209722222222226],[-120.84333333333333,38.233333333333334],[-120.67527777777778,38.25694444444444],[-120.50444444444445,38.280833333333334],[-120.33194444444445,38.30472222222222],[-120.18138888888889,38.32277777777778],[-120.15583333333333,38.328611111111115],[-120.00777777777778,38.34638888888889],[-119.94694444444445,38.35666666666667],[-119.77472222222222,38.379444444444445],[-119.66055555555556,38.391666666666666],[-119.60138888888888,38.40222222222222],[-119.48916666666666,38.41583333333333],[-119.45333333333333,38.421388888888885],[-119.28166666666667,38.44333333333333],[-119.14611111111111,38.459722222222226],[-119.11083333333333,38.465],[-118.9413888888889,38.48555555555556],[-118.93972222222223,38.48638888888889],[-118.76638888888888,38.50805555555556],[-118.59722222222221,38.528055555555554],[-118.59555555555555,38.528888888888886],[-118.42861111111111,38.54888888888889],[-118.42694444444444,38.549166666666665],[-118.25472222222223,38.569722222222225],[-118.08305555555555,38.59],[-118.08138888888888,38.59],[-117.90861111111111,38.61027777777778],[-117.90694444444445,38.61055555555556],[-117.73388888888888,38.63027777777778],[-117.56388888888888,38.64944444444444],[-117.56277777777777,38.64972222222222],[-117.39583333333334,38.66833333333333],[-117.39416666666668,38.66861111111111],[-117.22583333333334,38.69166666666666],[-117.05388888888889,38.721111111111114],[-117.0525,38.72138888888889],[-116.91555555555556,38.74444444444445],[-116.88055555555555,38.750277777777775],[-116.74472222222222,38.77305555555555],[-116.70916666666668,38.778888888888886],[-116.57583333333334,38.801111111111105],[-116.53888888888889,38.80722222222222],[-116.4075,38.82888888888889],[-116.37055555555555,38.835],[-116.235,38.856944444444444],[-116.20138888888889,38.86222222222222],[-116.03722222222223,38.888888888888886],[-115.8938888888889,38.91166666666666],[-115.72166666666666,38.93888888888888],[-115.54972222222221,38.965833333333336],[-115.38027777777778,38.99194444444444],[-115.18722222222223,39.02166666666667],[-115.01416666666667,39.04805555555556],[-114.84333333333333,39.07361111111111],[-114.66972222222223,39.099444444444444],[-114.49888888888889,39.12444444444444],[-114.32472222222222,39.14972222222222],[-114.15194444444445,39.17472222222222],[-113.97666666666667,39.19972222222222],[-113.80361111111111,39.223888888888894],[-113.63055555555555,39.24805555555556],[-113.4575,39.27194444444444],[-113.28361111111111,39.29555555555555],[-113.1111111111111,39.32333333333334],[-112.93583333333333,39.3525],[-112.76444444444445,39.380833333333335],[-112.60194444444444,39.4075],[-112.43083333333334,39.434999999999995],[-112.25861111111111,39.46277777777778],[-112.08638888888889,39.49],[-111.91361111111112,39.51722222222222],[-111.74,39.54416666666666],[-111.56277777777777,39.57138888888889],[-111.51888888888888,39.57805555555556],[-111.38972222222223,39.59777777777778],[-111.34666666666666,39.60416666666667],[-111.17027777777778,39.630833333333335],[-111.03222222222222,39.65138888888889],[-110.99833333333333,39.656388888888884],[-110.86055555555555,39.67666666666666],[-110.82666666666667,39.681666666666665],[-110.65416666666667,39.70666666666667],[-110.51722222222222,39.72666666666667],[-110.48416666666667,39.731388888888894],[-110.34555555555555,39.75111111111111],[-110.31222222222222,39.75555555555555],[-110.17472222222223,39.775],[-110.14055555555557,39.77972222222222],[-110.00111111111111,39.79944444444444],[-109.96805555555555,39.803888888888885],[-109.82555555555555,39.82333333333334],[-109.7936111111111,39.82777777777778],[-109.65222222222222,39.846944444444446],[-109.61694444444444,39.85194444444445],[-109.47638888888889,39.87083333333334],[-109.44388888888889,39.875],[-109.30166666666666,39.89416666666666],[-109.26694444444445,39.89861111111111],[-109.12555555555555,39.91722222222222],[-109.09027777777777,39.92166666666667],[-108.98555555555555,39.933611111111105],[-108.91222222222223,39.93805555555555],[-108.80416666666666,39.94499999999999],[-108.73444444444445,39.94972222222222],[-108.62638888888888,39.95638888888889],[-108.55638888888889,39.96083333333333],[-108.44777777777779,39.9675],[-108.37833333333333,39.97166666666667],[-108.27194444444444,39.97805555555556],[-108.19944444444445,39.98222222222223],[-108.095,39.98833333333334],[-108.02472222222222,39.9925],[-107.845,40.00277777777778],[-107.66666666666667,40.0125],[-107.48944444444444,40.02194444444444],[-107.3125,40.030833333333334],[-107.14444444444445,40.03944444444444],[-106.96944444444445,40.04805555555556],[-106.79333333333334,40.05638888888888],[-106.61277777777777,40.06472222222222],[-106.43805555555556,40.07222222222222],[-106.25972222222222,40.080000000000005],[-106.07833333333333,40.087500000000006],[-105.89944444444446,40.09444444444445],[-105.71694444444445,40.10138888888889],[-105.53777777777778,40.10805555555556],[-105.35805555555555,40.11416666666667],[-105.18111111111112,40.12],[-105.00111111111111,40.12583333333333],[-104.82138888888889,40.13138888888889],[-104.64250000000001,40.13638888888889],[-104.46416666666667,40.14138888888889],[-104.28277777777778,40.14722222222222],[-104.10583333333332,40.15361111111111],[-103.92666666666668,40.16],[-103.74638888888889,40.16583333333333],[-103.56805555555555,40.171388888888885],[-103.38694444444445,40.176944444444445],[-103.20611111111111,40.18222222222222],[-103.02694444444444,40.18694444444444],[-102.84416666666667,40.19138888888889],[-102.665,40.19583333333333],[-102.48444444444445,40.19972222222222],[-102.30361111111111,40.20333333333333],[-102.11944444444444,40.206944444444446],[-101.93972222222223,40.21],[-101.7575,40.213055555555556],[-101.57472222222222,40.21555555555556],[-101.39166666666668,40.21805555555556],[-101.21055555555556,40.22],[-101.02944444444444,40.221944444444446],[-100.85111111111111,40.21527777777778],[-100.67750000000001,40.16722222222222],[-100.50944444444444,40.11833333333333],[-100.33666666666666,40.06777777777778],[-100.28472222222221,40.052499999999995],[-100.16666666666667,40.0175],[-100.11361111111111,40.00194444444445],[-99.99666666666667,39.96805555555556],[-99.94500000000001,39.95305555555556],[-99.8275,39.91888888888889],[-99.77555555555556,39.90361111111111],[-99.65805555555556,39.87222222222222],[-99.60527777777777,39.86083333333333],[-99.45444444444445,39.82777777777778],[-99.27944444444444,39.78861111111111],[-99.2075,39.7725],[-99.07972222222222,39.744166666666665],[-99.06666666666666,39.74166666666667],[-99.02972222222222,39.73527777777778],[-98.88972222222223,39.731944444444444],[-98.85277777777777,39.73555555555556],[-98.7125,39.74777777777778],[-98.67527777777778,39.75083333333333],[-98.53527777777778,39.763333333333335],[-98.49888888888889,39.766666666666666],[-98.35555555555555,39.77916666666667],[-98.32194444444444,39.78194444444444],[-98.1975,39.79277777777778],[-98.14361111111111,39.79722222222222],[-98.01888888888888,39.80777777777777],[-97.96722222222222,39.81194444444444],[-97.86027777777777,39.821111111111115],[-97.78888888888889,39.82694444444445],[-97.67972222222222,39.83583333333333],[-97.61027777777777,39.84138888888889],[-97.50055555555555,39.85027777777778],[-97.42944444444444,39.85583333333334],[-97.32027777777778,39.864444444444445],[-97.24805555555555,39.87],[-97.11305555555555,39.88027777777778],[-97.06694444444445,39.88388888888889],[-96.935,39.89361111111111],[-96.88611111111112,39.89722222222222],[-96.75611111111111,39.90694444444444],[-96.66694444444445,39.913333333333334],[-96.565,39.92055555555555],[-96.48527777777778,39.92638888888889],[-96.38805555555557,39.933055555555555],[-96.3,39.939166666666665],[-96.1975,39.94638888888888],[-96.11888888888888,39.95166666666667],[-96.01972222222223,39.958333333333336],[-95.9375,39.96361111111111],[-95.8386111111111,39.97],[-95.75805555555556,39.97527777777778],[-95.65583333333333,39.981944444444444],[-95.57888888888888,39.986666666666665],[-95.47472222222223,39.99305555555556],[-95.39944444444446,39.99777777777778],[-95.29388888888889,40.00416666666667],[-95.21861111111112,40.00861111111111],[-95.1086111111111,40.015277777777776],[-94.92777777777778,40.025555555555556],[-94.74444444444444,40.03583333333333],[-94.56305555555555,40.04555555555555],[-94.52888888888889,40.0475],[-94.41555555555556,40.05361111111111],[-94.34916666666666,40.05722222222222],[-94.2325,40.06305555555555],[-94.16638888888889,40.06638888888889],[-94.0213888888889,40.07888888888889],[-93.98916666666666,40.084722222222226],[-93.85249999999999,40.11666666666667],[-93.81833333333333,40.12444444444444],[-93.68305555555555,40.15611111111111],[-93.64916666666667,40.163888888888884],[-93.51194444444444,40.19555555555555],[-93.48111111111112,40.20277777777778],[-93.34333333333333,40.23416666666667],[-93.31277777777777,40.24138888888889],[-93.17444444444445,40.27305555555555],[-93.14111111111112,40.28055555555555],[-93.005,40.31111111111111],[-92.97166666666666,40.31861111111112],[-92.86388888888888,40.34305555555556],[-92.80055555555555,40.35722222222223],[-92.69222222222223,40.38138888888889],[-92.62555555555555,40.396388888888886],[-92.50277777777778,40.42361111111111],[-92.45027777777779,40.434999999999995],[-92.33555555555554,40.46027777777778],[-92.27916666666667,40.47277777777778],[-92.17611111111111,40.495],[-92.10944444444443,40.50972222222222],[-92.00472222222223,40.532222222222224],[-91.93805555555556,40.54666666666667],[-91.83277777777778,40.56916666666667],[-91.76555555555555,40.58361111111111],[-91.66000000000001,40.60611111111111],[-91.58888888888889,40.62111111111111],[-91.485,40.643055555555556],[-91.41388888888889,40.658055555555556],[-91.30527777777777,40.68083333333333],[-91.27,40.68805555555555],[-91.11833333333333,40.719722222222224],[-91.08638888888889,40.72638888888889],[-90.94444444444444,40.75527777777778],[-90.91000000000001,40.7625],[-90.76527777777778,40.79194444444444],[-90.7325,40.79861111111111],[-90.58694444444444,40.83083333333334],[-90.55305555555556,40.84111111111111],[-90.41833333333334,40.88611111111111],[-90.38555555555556,40.89722222222222],[-90.2461111111111,40.94333333333333],[-90.215,40.953611111111115],[-90.0761111111111,40.99944444444444],[-90.04083333333332,41.01083333333333],[-89.90305555555557,41.05611111111111],[-89.87027777777777,41.066944444444445],[-89.73444444444445,41.11194444444445],[-89.70305555555557,41.12222222222222],[-89.61,41.153055555555554],[-89.55722222222222,41.18416666666666],[-89.48861111111111,41.237500000000004],[-89.44305555555556,41.2725],[-89.37666666666667,41.32527777777778],[-89.33527777777778,41.35861111111111],[-89.23333333333333,41.43333333333333],[-89.23027777777779,41.44194444444444],[-89.17444444444445,41.538333333333334],[-89.15,41.61666666666667],[-89.13777777777779,41.63777777777778],[-89.08333333333333,41.71666666666667],[-89.07527777777777,41.72666666666667],[-89,41.78333333333333],[-88.9825,41.80277777777778],[-88.91666666666667,41.85],[-88.90444444444445,41.86527777777778],[-88.83333333333333,41.916666666666664],[-88.80388888888889,41.92916666666667],[-88.75,41.95],[-88.70305555555557,41.961111111111116],[-88.63333333333334,41.96666666666667],[-88.59444444444443,41.962500000000006],[-88.51666666666667,41.96666666666667],[-88.49472222222222,41.963055555555556],[-88.41666666666667,41.96666666666667],[-88.40444444444445,41.96388888888889],[-88.33333333333333,41.96666666666667],[-88.31916666666666,41.96416666666667],[-88.26666666666667,41.96666666666667],[-88.23472222222222,41.96472222222223],[-88.18333333333334,41.96666666666667],[-88.15083333333334,41.965],[-88.1,41.96666666666667],[-88.0736111111111,41.96527777777778],[-88.01666666666667,41.96666666666667],[-88.0038888888889,41.96555555555556],[-87.96666666666667,41.96666666666667],[-87.94777777777779,41.96555555555556]]}
}
