{
  "id": 2032092665,
  "type": "Feature",
  "properties": {
    "geom:area": 0,
    "geom:bbox": "-123.503720,37.472800,-122.391610,37.727230",
    "geom:latitude": 37.62093869547046,
    "geom:longitude": -122.94450396749863,
    "src:alt_label": "swim-takeoff",
    "src:geom": "swim",
    "swim:elevations": [
      152,
      654,
      676,
      856,
      978,
      1085,
      1177,
      1417,
      1679,
      1873,
      2022,
      2120,
      2260,
      2484,
      2788,
      3198,
      3257,
      3499,
      3607,
      3740,
      3835,
      3981,
      4196,
      4242,
      4437,
      4631,
      4848,
      4915
    ],
    "swim:geom": "takeoff",
    "swim:timestamps": [
      1785793811,
      1785793856,
      1785793860,
      1785793886,
      1785793904,
      1785793942,
      1785793961,
      1785793999,
      1785794029,
      1785794047,
      1785794062,
      1785794071,
      1785794087,
      1785794107,
      1785794137,
      1785794183,
      1785794190,
      1785794241,
      1785794258,
      1785794277,
      1785794293,
      1785794325,
      1785794361,
      1785794370,
      1785794412,
      1785794436,
      1785794481,
      1785794491
    ],
    "wof:geomhash": "11c787cf9bc100183a91375cb51e9845",
    "wof:id": 2032092665,
    "wof:repo": "sfomuseum-data-flights-2026-08"
  },
  "bbox": [
    -123.50372,
    37.4728,
    -122.39161,
    37.72723
  ],
  "geometry": {"type":"LineString","coordinates":[[-122.39161,37.62556],[-122.43339,37.64383],[-122.4364,37.64514],[-122.4616,37.6563],[-122.4792,37.66404],[-122.52021,37.68147],[-122.54277,37.69108],[-122.59415,37.7136],[-122.63937,37.72723],[-122.6692,37.72546],[-122.69286,37.71871],[-122.70672,37.71454],[-122.73167,37.70707],[-122.76273,37.69763],[-122.81074,37.68295],[-122.88428,37.66078],[-122.89591,37.65727],[-122.98431,37.63088],[-123.01462,37.62182],[-123.05037,37.61099],[-123.08011,37.60198],[-123.14199,37.583],[-123.21711,37.56033],[-123.23588,37.55457],[-123.32556,37.527],[-123.37786,37.51115],[-123.48044,37.47996],[-123.50372,37.4728]]}
}
