{
  "id": 2048064937,
  "type": "Feature",
  "properties": {
    "geom:area": 0,
    "geom:bbox": "-122.754750,37.432870,-122.109170,38.296710",
    "geom:latitude": 37.75936945016471,
    "geom:longitude": -122.45695844065695,
    "src:alt_label": "swim-approach",
    "src:geom": "swim",
    "swim:elevations": [
      6646,
      6432,
      6061,
      5866,
      5657,
      5210,
      4969,
      4796,
      4421,
      4386,
      3867,
      3654,
      3483,
      3372,
      3353,
      3353,
      3353,
      3353,
      3353,
      3195,
      2858,
      2679,
      2600,
      2306,
      2125,
      1828,
      1745,
      1610,
      1524,
      1469,
      1160,
      852,
      689,
      578,
      394,
      303,
      212,
      53
    ],
    "swim:geom": "approach",
    "swim:timestamps": [
      1787159147,
      1787159171,
      1787159210,
      1787159234,
      1787159257,
      1787159306,
      1787159334,
      1787159356,
      1787159396,
      1787159402,
      1787159455,
      1787159478,
      1787159504,
      1787159547,
      1787159569,
      1787159596,
      1787159621,
      1787159666,
      1787159671,
      1787159705,
      1787159754,
      1787159779,
      1787159790,
      1787159831,
      1787159860,
      1787159904,
      1787159918,
      1787159942,
      1787159979,
      1787160002,
      1787160044,
      1787160078,
      1787160100,
      1787160120,
      1787160168,
      1787160193,
      1787160216,
      1787160261
    ],
    "wof:geomhash": "aa378df10e234de1b9c79a285f8bacb1",
    "wof:id": 2048064937,
    "wof:repo": "sfomuseum-data-flights-2026-08"
  },
  "bbox": [
    -122.75475,
    37.43287,
    -122.10917,
    38.29671
  ],
  "geometry": {"type":"LineString","coordinates":[[-122.66266,38.29671],[-122.70063,38.27057],[-122.75198,38.22097],[-122.75475,38.18191],[-122.74507,38.14531],[-122.72172,38.06755],[-122.70925,38.02538],[-122.69901,37.99014],[-122.68119,37.92874],[-122.67818,37.91959],[-122.62042,37.84836],[-122.58958,37.81986],[-122.55569,37.78863],[-122.50392,37.74022],[-122.47911,37.71666],[-122.44886,37.68816],[-122.42049,37.66147],[-122.37515,37.61865],[-122.37058,37.61433],[-122.34948,37.57957],[-122.3219,37.5296],[-122.30579,37.50384],[-122.29891,37.49308],[-122.25902,37.46148],[-122.22079,37.44975],[-122.16388,37.43287],[-122.144,37.43433],[-122.12119,37.45218],[-122.10917,37.49038],[-122.12546,37.51129],[-122.17071,37.53283],[-122.20464,37.54712],[-122.22532,37.55581],[-122.24345,37.56341],[-122.28247,37.57981],[-122.30224,37.58805],[-122.32102,37.59599],[-122.35427,37.60999]]}
}
