{
  "id": 2047875551,
  "type": "Feature",
  "properties": {
    "geom:area": 0,
    "geom:bbox": "-122.350000,37.492222,-83.388611,42.465556",
    "geom:latitude": 40.085141955606154,
    "geom:longitude": -102.85650924794189,
    "src:alt_label": "swim-path",
    "src:geom": "swim",
    "swim:altitudes": [
      "025",
      "033",
      "041",
      "046",
      "059",
      "063",
      "067",
      "071",
      "087",
      "099",
      "113",
      "123",
      "148",
      "160",
      "168",
      "177",
      "181",
      "188",
      "195",
      "204",
      "209",
      "219",
      "225",
      "233",
      "238",
      "249",
      "255",
      "261",
      "269",
      "273",
      "280",
      "284",
      "293",
      "298",
      "301",
      "305",
      "310",
      "316",
      "319",
      "324",
      "327",
      "332",
      "340C",
      "340C",
      "340C",
      "340C",
      "340C",
      "340C",
      "340C",
      "340C",
      "340C",
      "341C",
      "341C",
      "340C",
      "340C",
      "340C",
      "341C",
      "340C",
      "340C",
      "340C",
      "340C",
      "340C",
      "340C",
      "340C",
      "340C",
      "340C",
      "340C",
      "340C",
      "340C",
      "340C",
      "340C",
      "340C",
      "340C",
      "340C",
      "340C",
      "339C",
      "340C",
      "340C",
      "340C",
      "340C",
      "340C",
      "341C",
      "340C",
      "341C",
      "340C",
      "340C",
      "340C",
      "340C",
      "341C",
      "340C",
      "340C",
      "340C",
      "340C",
      "340C",
      "340C",
      "340C",
      "340C",
      "340C",
      "340C",
      "340C",
      "340C",
      "340C",
      "340C",
      "340C",
      "340C",
      "340C",
      "340C",
      "340C",
      "340C",
      "340C",
      "340C",
      "340C",
      "340C",
      "340C",
      "340C",
      "340C",
      "340C",
      "340C",
      "340C",
      "340C",
      "341C",
      "340C",
      "340C",
      "340C",
      "340C",
      "340C",
      "341C",
      "340C",
      "340C",
      "340C",
      "340C",
      "340C",
      "340C",
      "340C",
      "340C",
      "340C",
      "340C",
      "340C",
      "340C",
      "340C",
      "340C",
      "340C",
      "340C",
      "340C",
      "340C",
      "340C",
      "340C",
      "340C",
      "340C",
      "340C",
      "340C",
      "340C",
      "340C",
      "340C",
      "340C",
      "340C",
      "340C",
      "340C",
      "340C",
      "340C",
      "340C",
      "340C",
      "340C",
      "340C",
      "340C",
      "340C",
      "340C",
      "340C",
      "340C",
      "340C",
      "340C",
      "340C",
      "340C",
      "340C",
      "340C",
      "340C",
      "340C",
      "340C",
      "340C",
      "340C",
      "340C",
      "340C",
      "340C",
      "340C",
      "340C",
      "340C",
      "340C",
      "340C",
      "340C",
      "340C",
      "340C",
      "340C",
      "340C",
      "340C",
      "340C",
      "340C",
      "340C",
      "340C",
      "340C",
      "340C",
      "340C",
      "340C",
      "340C",
      "340C",
      "340C",
      "340C",
      "340C",
      "340C",
      "340C",
      "340C",
      "340C",
      "340C",
      "340C",
      "340C",
      "340C",
      "340C",
      "340C",
      "340C",
      "340C",
      "340C",
      "340C",
      "340C",
      "340C",
      "340C",
      "340C",
      "340C",
      "340C",
      "340C",
      "340C",
      "340C",
      "340C",
      "340C",
      "340C",
      "340C",
      "340C",
      "340C",
      "340C",
      "340C",
      "340C",
      "340C",
      "340C",
      "340C",
      "340C",
      "340C",
      "340C",
      "340C",
      "340C",
      "340C",
      "340C",
      "340C",
      "340C",
      "340C",
      "340C",
      "340C",
      "340C",
      "339C",
      "340C",
      "340C",
      "341C",
      "341C",
      "340C",
      "340C",
      "340C",
      "340C",
      "340C",
      "340C",
      "340C",
      "340C",
      "340C",
      "340C",
      "340C",
      "340C",
      "340C",
      "340C",
      "340C",
      "340C",
      "340C",
      "340C",
      "340C",
      "340C",
      "340C",
      "340C",
      "340C",
      "340C",
      "340C",
      "340C",
      "340C",
      "340C",
      "340C",
      "340C",
      "340C",
      "340C",
      "340C",
      "340C",
      "340C",
      "339C",
      "340C",
      "337",
      "320",
      "294",
      "272",
      "248",
      "237",
      "226",
      "208",
      "196",
      "187",
      "174",
      "167",
      "155",
      "147",
      "135",
      "131",
      "123",
      "106",
      "103",
      "103",
      "099",
      "081",
      "071",
      "064",
      "060",
      "061",
      "051",
      "040",
      "035",
      "026",
      "024",
      "013",
      "009",
      "007",
      "002"
    ],
    "swim:geom": "path",
    "swim:speeds": [
      185,
      222,
      242,
      237,
      256,
      274,
      272,
      274,
      277,
      278,
      282,
      288,
      300,
      298,
      299,
      301,
      320,
      339,
      345,
      351,
      360,
      364,
      366,
      369,
      374,
      374,
      375,
      379,
      381,
      381,
      385,
      389,
      400,
      405,
      411,
      418,
      419,
      420,
      421,
      421,
      423,
      425,
      419,
      419,
      425,
      429,
      429,
      428,
      429,
      433,
      435,
      438,
      439,
      437,
      427,
      425,
      432,
      431,
      430,
      429,
      429,
      426,
      426,
      426,
      428,
      432,
      435,
      438,
      440,
      439,
      438,
      438,
      440,
      438,
      437,
      433,
      430,
      433,
      431,
      432,
      433,
      436,
      436,
      439,
      437,
      439,
      444,
      445,
      446,
      445,
      443,
      438,
      434,
      426,
      418,
      418,
      416,
      416,
      418,
      419,
      420,
      421,
      421,
      422,
      423,
      424,
      425,
      426,
      426,
      427,
      427,
      428,
      427,
      427,
      426,
      425,
      425,
      426,
      427,
      428,
      428,
      426,
      425,
      425,
      426,
      429,
      431,
      432,
      432,
      432,
      431,
      431,
      431,
      431,
      431,
      431,
      430,
      428,
      427,
      428,
      427,
      426,
      426,
      425,
      424,
      423,
      423,
      423,
      423,
      423,
      424,
      425,
      425,
      426,
      425,
      425,
      425,
      425,
      426,
      425,
      424,
      424,
      422,
      425,
      423,
      423,
      426,
      424,
      426,
      430,
      427,
      428,
      432,
      428,
      428,
      434,
      434,
      434,
      435,
      432,
      432,
      435,
      436,
      436,
      435,
      435,
      435,
      435,
      435,
      435,
      432,
      434,
      434,
      434,
      434,
      434,
      436,
      434,
      435,
      435,
      435,
      435,
      441,
      439,
      435,
      436,
      435,
      433,
      433,
      433,
      433,
      432,
      433,
      434,
      434,
      434,
      437,
      440,
      441,
      441,
      441,
      441,
      439,
      440,
      442,
      440,
      440,
      438,
      437,
      436,
      435,
      436,
      437,
      436,
      435,
      433,
      435,
      435,
      435,
      432,
      428,
      434,
      437,
      437,
      438,
      438,
      439,
      441,
      444,
      443,
      445,
      444,
      445,
      445,
      446,
      445,
      446,
      447,
      447,
      448,
      447,
      448,
      447,
      447,
      447,
      447,
      447,
      447,
      447,
      447,
      448,
      448,
      448,
      447,
      447,
      447,
      447,
      447,
      447,
      447,
      448,
      448,
      449,
      448,
      448,
      447,
      446,
      446,
      445,
      444,
      446,
      447,
      449,
      450,
      449,
      449,
      450,
      451,
      448,
      446,
      432,
      428,
      423,
      420,
      397,
      388,
      389,
      379,
      380,
      369,
      370,
      356,
      353,
      346,
      364,
      359,
      312,
      306,
      293,
      284,
      287,
      281,
      284,
      246,
      235,
      239,
      211,
      211,
      177,
      146,
      148,
      124
    ],
    "swim:timestamps": [
      1786139065,
      1786139110,
      1786139125,
      1786139140,
      1786139170,
      1786139185,
      1786139200,
      1786139230,
      1786139260,
      1786139290,
      1786139320,
      1786139351,
      1786139411,
      1786139440,
      1786139471,
      1786139501,
      1786139531,
      1786139561,
      1786139591,
      1786139621,
      1786139651,
      1786139681,
      1786139711,
      1786139741,
      1786139771,
      1786139801,
      1786139831,
      1786139861,
      1786139891,
      1786139921,
      1786139951,
      1786139981,
      1786140041,
      1786140072,
      1786140102,
      1786140132,
      1786140162,
      1786140192,
      1786140222,
      1786140252,
      1786140282,
      1786140312,
      1786140342,
      1786140372,
      1786140402,
      1786140462,
      1786140522,
      1786140582,
      1786140642,
      1786140702,
      1786140763,
      1786140823,
      1786140883,
      1786140943,
      1786141003,
      1786141063,
      1786141123,
      1786141183,
      1786141243,
      1786141303,
      1786141364,
      1786141424,
      1786141484,
      1786141544,
      1786141604,
      1786141664,
      1786141742,
      1786141802,
      1786141844,
      1786141862,
      1786141922,
      1786141982,
      1786142025,
      1786142042,
      1786142102,
      1786142162,
      1786142205,
      1786142223,
      1786142265,
      1786142283,
      1786142343,
      1786142385,
      1786142403,
      1786142445,
      1786142463,
      1786142523,
      1786142565,
      1786142583,
      1786142626,
      1786142643,
      1786142686,
      1786142746,
      1786142763,
      1786142823,
      1786142866,
      1786142883,
      1786142926,
      1786142943,
      1786142986,
      1786143004,
      1786143064,
      1786143106,
      1786143124,
      1786143166,
      1786143184,
      1786143226,
      1786143244,
      1786143287,
      1786143304,
      1786143347,
      1786143364,
      1786143407,
      1786143467,
      1786143484,
      1786143527,
      1786143544,
      1786143587,
      1786143664,
      1786143725,
      1786143785,
      1786143845,
      1786143905,
      1786143965,
      1786144025,
      1786144085,
      1786144145,
      1786144205,
      1786144265,
      1786144325,
      1786144385,
      1786144446,
      1786144506,
      1786144566,
      1786144626,
      1786144686,
      1786144746,
      1786144806,
      1786144866,
      1786144926,
      1786144990,
      1786145046,
      1786145106,
      1786145171,
      1786145227,
      1786145287,
      1786145351,
      1786145407,
      1786145467,
      1786145531,
      1786145587,
      1786145647,
      1786145711,
      1786145767,
      1786145827,
      1786145887,
      1786145948,
      1786146012,
      1786146072,
      1786146132,
      1786146192,
      1786146252,
      1786146312,
      1786146371,
      1786146432,
      1786146491,
      1786146551,
      1786146612,
      1786146671,
      1786146731,
      1786146793,
      1786146852,
      1786146912,
      1786146973,
      1786147032,
      1786147092,
      1786147153,
      1786147273,
      1786147333,
      1786147394,
      1786147452,
      1786147512,
      1786147574,
      1786147633,
      1786147693,
      1786147754,
      1786147813,
      1786147873,
      1786147934,
      1786147993,
      1786148053,
      1786148115,
      1786148173,
      1786148233,
      1786148294,
      1786148354,
      1786148414,
      1786148475,
      1786148534,
      1786148594,
      1786148655,
      1786148714,
      1786148775,
      1786148834,
      1786148894,
      1786148956,
      1786149075,
      1786149135,
      1786149195,
      1786149255,
      1786149316,
      1786149375,
      1786149435,
      1786149495,
      1786149555,
      1786149617,
      1786149677,
      1786149737,
      1786149795,
      1786149857,
      1786149916,
      1786149976,
      1786150036,
      1786150096,
      1786150156,
      1786150216,
      1786150276,
      1786150336,
      1786150396,
      1786150456,
      1786150516,
      1786150577,
      1786150637,
      1786150697,
      1786150757,
      1786150817,
      1786150877,
      1786150937,
      1786150997,
      1786151057,
      1786151117,
      1786151177,
      1786151237,
      1786151297,
      1786151358,
      1786151418,
      1786151478,
      1786151538,
      1786151598,
      1786151648,
      1786151658,
      1786151708,
      1786151718,
      1786151768,
      1786151829,
      1786151838,
      1786151889,
      1786151898,
      1786151958,
      1786152009,
      1786152018,
      1786152069,
      1786152079,
      1786152129,
      1786152189,
      1786152199,
      1786152249,
      1786152259,
      1786152309,
      1786152369,
      1786152379,
      1786152429,
      1786152439,
      1786152499,
      1786152549,
      1786152559,
      1786152609,
      1786152619,
      1786152679,
      1786152730,
      1786152739,
      1786152790,
      1786152799,
      1786152850,
      1786152860,
      1786152910,
      1786152920,
      1786152970,
      1786152980,
      1786153030,
      1786153090,
      1786153150,
      1786153210,
      1786153270,
      1786153330,
      1786153390,
      1786153451,
      1786153511,
      1786153571,
      1786153631,
      1786153691,
      1786153751,
      1786153811,
      1786153837,
      1786153871,
      1786153931,
      1786153963,
      1786153991,
      1786154023,
      1786154051,
      1786154083,
      1786154111,
      1786154149,
      1786154171,
      1786154204,
      1786154269,
      1786154292,
      1786154324,
      1786154352,
      1786154412,
      1786154449,
      1786154472,
      1786154509,
      1786154532,
      1786154592,
      1786154630,
      1786154652,
      1786154695,
      1786154712,
      1786154772,
      1786154815,
      1786154832,
      1786154876
    ],
    "wof:geomhash": "728de1234923bb36726cadc950a8fb5b",
    "wof:id": 2047875551,
    "wof:repo": "sfomuseum-data-flights-2026-08"
  },
  "bbox": [
    -122.35,
    37.492222222222225,
    -83.38861111111112,
    42.46555555555556
  ],
  "geometry": {"type":"LineString","coordinates":[[-83.38861111111112,42.17916666666667],[-83.43222222222222,42.155],[-83.4538888888889,42.14277777777778],[-83.46555555555555,42.13777777777778],[-83.51888888888888,42.13444444444444],[-83.54388888888889,42.14194444444444],[-83.55527777777777,42.147777777777776],[-83.5925,42.16222222222222],[-83.64777777777779,42.18277777777777],[-83.68777777777778,42.1975],[-83.74277777777777,42.217777777777776],[-83.785,42.23361111111111],[-83.8913888888889,42.25861111111111],[-83.95333333333333,42.269999999999996],[-84.00083333333333,42.27861111111111],[-84.06333333333333,42.28972222222222],[-84.11444444444444,42.29888888888889],[-84.18472222222222,42.311388888888885],[-84.23833333333333,42.321111111111115],[-84.31194444444444,42.33416666666667],[-84.36916666666666,42.344166666666666],[-84.44500000000001,42.3575],[-84.50361111111111,42.367777777777775],[-84.58277777777778,42.38166666666667],[-84.64111111111112,42.39194444444444],[-84.71888888888888,42.405277777777776],[-84.80055555555555,42.419444444444444],[-84.85666666666665,42.42916666666667],[-84.94222222222223,42.44305555555555],[-84.99833333333333,42.4475],[-85.08777777777777,42.44944444444444],[-85.14805555555556,42.450833333333335],[-85.2975,42.453611111111115],[-85.38833333333334,42.45527777777778],[-85.45361111111112,42.45638888888889],[-85.54833333333333,42.45805555555556],[-85.61027777777777,42.45916666666667],[-85.70694444444445,42.46055555555556],[-85.77,42.461666666666666],[-85.83138888888888,42.462500000000006],[-85.93111111111112,42.46388888888889],[-85.995,42.46472222222223],[-86.08972222222222,42.46555555555556],[-86.1525,42.462500000000006],[-86.24944444444445,42.450833333333335],[-86.40833333333335,42.43055555555555],[-86.56944444444444,42.41],[-86.71527777777779,42.39083333333333],[-86.87416666666665,42.37],[-87.03416666666666,42.348333333333336],[-87.19388888888889,42.32694444444445],[-87.35499999999999,42.305],[-87.51611111111112,42.282777777777774],[-87.67500000000001,42.26083333333333],[-87.83138888888888,42.23861111111111],[-87.9825,42.209722222222226],[-88.15472222222223,42.14083333333333],[-88.2936111111111,42.0825],[-88.43055555555556,42.025555555555556],[-88.57277777777777,41.970555555555556],[-88.71472222222222,41.922777777777775],[-88.86555555555555,41.88805555555555],[-89.01666666666667,41.853611111111114],[-89.16805555555555,41.81916666666667],[-89.31861111111111,41.78444444444444],[-89.47083333333333,41.74916666666667],[-89.6763888888889,41.69972222222222],[-89.83305555555555,41.6625],[-89.94333333333334,41.63805555555555],[-89.99694444444445,41.62416666666667],[-90.15194444444445,41.587500000000006],[-90.30749999999999,41.55027777777777],[-90.40777777777778,41.526944444444446],[-90.46138888888889,41.51361111111111],[-90.61361111111111,41.47638888888889],[-90.76444444444445,41.43944444444444],[-90.86027777777777,41.41611111111111],[-90.91555555555556,41.401944444444446],[-91.01055555555556,41.37888888888889],[-91.05666666666666,41.36555555555556],[-91.20972222222223,41.32805555555556],[-91.31694444444445,41.301944444444445],[-91.36416666666666,41.28972222222222],[-91.46777777777778,41.26416666666667],[-91.51777777777778,41.250277777777775],[-91.6725,41.211111111111116],[-91.76805555555555,41.18722222222222],[-91.82916666666667,41.170833333333334],[-91.92305555555556,41.14722222222222],[-91.98388888888888,41.13138888888889],[-92.07555555555555,41.10777777777778],[-92.22722222222222,41.068333333333335],[-92.28722222222223,41.052499999999995],[-92.43361111111112,41.013888888888886],[-92.54638888888888,40.98416666666667],[-92.57833333333333,40.975833333333334],[-92.6888888888889,40.94638888888888],[-92.71833333333333,40.93833333333333],[-92.83277777777778,40.907777777777774],[-92.865,40.89944444444444],[-93.00861111111111,40.86055555555556],[-93.12388888888889,40.82944444444445],[-93.15222222222222,40.82166666666667],[-93.26888888888888,40.79],[-93.29861111111111,40.781666666666666],[-93.41444444444446,40.750277777777775],[-93.44444444444444,40.74194444444444],[-93.5625,40.70944444444445],[-93.59138888888889,40.70138888888889],[-93.7075,40.669444444444444],[-93.73916666666666,40.660555555555554],[-93.8561111111111,40.628055555555555],[-94.00722222222223,40.60111111111111],[-94.07,40.59805555555556],[-94.16166666666668,40.59861111111111],[-94.22222222222223,40.598888888888894],[-94.31416666666667,40.599722222222226],[-94.53361111111111,40.600833333333334],[-94.68833333333333,40.60138888888889],[-94.84416666666667,40.60194444444445],[-95.00055555555555,40.60194444444445],[-95.15694444444445,40.60194444444445],[-95.31138888888889,40.60194444444445],[-95.46583333333334,40.60138888888889],[-95.62388888888889,40.600833333333334],[-95.78166666666667,40.6],[-95.94083333333333,40.598888888888894],[-96.06722222222221,40.59777777777778],[-96.22638888888889,40.59638888888889],[-96.38333333333334,40.594722222222224],[-96.54055555555556,40.59277777777778],[-96.69777777777779,40.590833333333336],[-96.85666666666665,40.58833333333334],[-97.01361111111112,40.58583333333333],[-97.17055555555557,40.58305555555556],[-97.3275,40.58027777777778],[-97.48472222222222,40.57694444444445],[-97.63916666666667,40.573888888888895],[-97.7961111111111,40.57],[-97.97833333333334,40.565555555555555],[-98.10583333333332,40.56222222222222],[-98.26277777777777,40.558055555555555],[-98.44444444444444,40.55305555555555],[-98.57194444444444,40.549166666666665],[-98.72694444444444,40.544444444444444],[-98.90555555555557,40.53861111111111],[-99.03444444444445,40.53444444444444],[-99.18583333333333,40.528888888888886],[-99.36944444444444,40.5225],[-99.49666666666667,40.5175],[-99.65027777777779,40.51166666666666],[-99.83416666666666,40.50416666666667],[-99.96000000000001,40.49888888888889],[-100.11638888888888,40.492222222222225],[-100.2975,40.48416666666667],[-100.43722222222223,40.47777777777778],[-100.6125,40.46944444444445],[-100.7675,40.46194444444445],[-100.9238888888889,40.45388888888889],[-101.07833333333333,40.44083333333333],[-101.23083333333334,40.43055555555555],[-101.38527777777779,40.41916666666666],[-101.53833333333333,40.406388888888884],[-101.69472222222223,40.39611111111111],[-101.84555555555555,40.38361111111111],[-101.99972222222222,40.37166666666667],[-102.15611111111112,40.36],[-102.31083333333333,40.34666666666667],[-102.4675,40.33305555555556],[-102.62583333333333,40.32138888888889],[-102.77916666666667,40.30694444444444],[-102.93583333333333,40.29361111111111],[-103.09805555555555,40.280833333333334],[-103.24416666666667,40.268055555555556],[-103.40083333333334,40.25416666666667],[-103.56555555555555,40.23833333333334],[-103.87944444444443,40.20916666666667],[-104.03444444444445,40.19416666666666],[-104.1913888888889,40.178888888888885],[-104.34055555555555,40.163333333333334],[-104.49777777777778,40.1475],[-104.65722222222223,40.132222222222225],[-104.81305555555555,40.11555555555556],[-104.96916666666667,40.099444444444444],[-105.12333333333332,40.08361111111111],[-105.25333333333333,40.06888888888889],[-105.40944444444445,40.05138888888889],[-105.58749999999999,40.03333333333333],[-105.72055555555556,40.01722222222222],[-105.87416666666665,40],[-106.05055555555555,39.98083333333334],[-106.18388888888889,39.96527777777778],[-106.33833333333332,39.94777777777777],[-106.49361111111111,39.92972222222222],[-106.64833333333334,39.91083333333333],[-106.80277777777778,39.89222222222222],[-106.97888888888889,39.87083333333334],[-107.11388888888888,39.853611111111114],[-107.26861111111111,39.83361111111111],[-107.44916666666667,39.81166666666666],[-107.57833333333333,39.79472222222222],[-107.74055555555556,39.77444444444444],[-107.91916666666667,39.75111111111111],[-108.07333333333332,39.730555555555554],[-108.21083333333334,39.71222222222222],[-108.53805555555556,39.66777777777777],[-108.69027777777778,39.64666666666667],[-108.82111111111111,39.62861111111111],[-108.98111111111112,39.60611111111111],[-109.13444444444445,39.58416666666667],[-109.28777777777778,39.56222222222222],[-109.44027777777778,39.540277777777774],[-109.59166666666667,39.518055555555556],[-109.7461111111111,39.49527777777778],[-109.89777777777779,39.47277777777778],[-110.05111111111111,39.44972222222222],[-110.20166666666667,39.42055555555555],[-110.34916666666666,39.37555555555556],[-110.49583333333334,39.33083333333334],[-110.64416666666668,39.28583333333333],[-110.79027777777777,39.24194444444444],[-110.93833333333333,39.19694444444444],[-111.085,39.153055555555554],[-111.23138888888889,39.11],[-111.39055555555557,39.073888888888895],[-111.54416666666667,39.05416666666667],[-111.69833333333334,39.03444444444444],[-111.85305555555556,39.01444444444444],[-112.00416666666666,38.99472222222222],[-112.15611111111112,38.974444444444444],[-112.30944444444444,38.95388888888889],[-112.4625,38.93333333333333],[-112.61527777777778,38.9125],[-112.76666666666667,38.891666666666666],[-112.91916666666667,38.87027777777778],[-113.06805555555555,38.849444444444444],[-113.22111111111111,38.82777777777778],[-113.3736111111111,38.80583333333333],[-113.52416666666666,38.78388888888889],[-113.67416666666666,38.76222222222222],[-113.8236111111111,38.757777777777775],[-113.95722222222223,38.81666666666667],[-114.10694444444444,38.82777777777778],[-114.25944444444444,38.80083333333333],[-114.41055555555556,38.77361111111111],[-114.5625,38.74583333333334],[-114.71361111111112,38.718333333333334],[-114.86694444444444,38.69],[-114.99027777777778,38.66722222222222],[-115.02083333333333,38.66138888888889],[-115.14583333333334,38.63777777777778],[-115.17527777777778,38.6325],[-115.29861111111111,38.609722222222224],[-115.4738888888889,38.575833333333335],[-115.50416666666666,38.57027777777778],[-115.62694444444443,38.547777777777775],[-115.6575,38.54083333333333],[-115.81194444444444,38.51083333333333],[-115.93472222222222,38.48694444444445],[-115.96555555555555,38.48083333333334],[-116.08999999999999,38.45638888888889],[-116.11861111111111,38.450833333333335],[-116.2425,38.42638888888889],[-116.39750000000001,38.39555555555555],[-116.42722222222223,38.38972222222222],[-116.54944444444445,38.365],[-116.57888888888888,38.35916666666667],[-116.705,38.33388888888889],[-116.85666666666665,38.30305555555555],[-116.88444444444445,38.29722222222222],[-117.00944444444444,38.27166666666667],[-117.03861111111111,38.26555555555556],[-117.18722222222223,38.234722222222224],[-117.31472222222222,38.208333333333336],[-117.33527777777778,38.20388888888889],[-117.45694444444445,38.17861111111111],[-117.485,38.172777777777775],[-117.6363888888889,38.14083333333333],[-117.76055555555556,38.114444444444445],[-117.78777777777778,38.10861111111111],[-117.91305555555556,38.081944444444446],[-117.94250000000001,38.07555555555556],[-118.06527777777778,38.04888888888889],[-118.09222222222222,38.04333333333333],[-118.21722222222222,38.01611111111111],[-118.24416666666667,38.01027777777778],[-118.36749999999999,37.983333333333334],[-118.39527777777778,37.977222222222224],[-118.51722222222222,37.95027777777778],[-118.66666666666667,37.91722222222222],[-118.82083333333333,37.88916666666667],[-118.9775,37.87138888888889],[-119.14777777777779,37.85166666666667],[-119.30388888888889,37.833333333333336],[-119.45972222222223,37.815],[-119.61777777777777,37.79611111111111],[-119.77416666666666,37.77722222222222],[-119.93083333333334,37.75805555555556],[-120.08583333333333,37.73916666666667],[-120.24083333333333,37.719722222222224],[-120.38972222222223,37.700833333333335],[-120.53916666666666,37.68333333333333],[-120.61666666666666,37.68333333333333],[-120.68472222222222,37.66638888888889],[-120.82333333333332,37.65],[-120.9,37.63333333333333],[-120.95833333333334,37.63361111111111],[-121.03333333333333,37.61666666666667],[-121.09055555555555,37.61611111111111],[-121.16666666666667,37.6],[-121.21777777777778,37.598888888888894],[-121.3,37.583333333333336],[-121.34055555555555,37.58361111111111],[-121.41666666666667,37.583333333333336],[-121.55,37.56666666666667],[-121.58666666666666,37.555277777777775],[-121.65,37.55],[-121.69277777777778,37.53444444444444],[-121.79083333333332,37.51111111111111],[-121.85,37.5],[-121.88805555555557,37.492222222222225],[-121.95,37.5],[-121.9863888888889,37.49722222222222],[-122.07472222222222,37.5025],[-122.13333333333334,37.516666666666666],[-122.15083333333334,37.526666666666664],[-122.2,37.55],[-122.21777777777778,37.555],[-122.27527777777777,37.57916666666667],[-122.31666666666666,37.6],[-122.32138888888889,37.598333333333336],[-122.35,37.61666666666667]]}
}
