{
  "id": 2047912373,
  "type": "Feature",
  "properties": {
    "geom:area": 0,
    "geom:bbox": "-122.351680,37.454400,-121.253580,37.608850",
    "geom:latitude": 37.53433020645521,
    "geom:longitude": -121.8111907873044,
    "src:alt_label": "swim-approach",
    "src:geom": "swim",
    "swim:elevations": [
      4601,
      4243,
      4003,
      3909,
      3817,
      3655,
      3651,
      3529,
      3414,
      3061,
      2915,
      2835,
      2778,
      2752,
      2711,
      2591,
      2494,
      2224,
      2134,
      2134,
      1854,
      1777,
      1541,
      1390,
      1294,
      999,
      922,
      884,
      844,
      825,
      816,
      786,
      540,
      335,
      245,
      171,
      51
    ],
    "swim:geom": "approach",
    "swim:timestamps": [
      1786359488,
      1786359532,
      1786359561,
      1786359570,
      1786359582,
      1786359617,
      1786359627,
      1786359646,
      1786359665,
      1786359711,
      1786359732,
      1786359750,
      1786359766,
      1786359773,
      1786359784,
      1786359808,
      1786359823,
      1786359851,
      1786359880,
      1786359887,
      1786359952,
      1786359988,
      1786360015,
      1786360043,
      1786360060,
      1786360092,
      1786360137,
      1786360148,
      1786360157,
      1786360161,
      1786360165,
      1786360173,
      1786360231,
      1786360283,
      1786360312,
      1786360331,
      1786360365
    ],
    "wof:geomhash": "0581632a711082da1b22b3d610073ef7",
    "wof:id": 2047912373,
    "wof:repo": "sfomuseum-data-flights-2026-08"
  },
  "bbox": [
    -122.35168,
    37.4544,
    -121.25358,
    37.60885
  ],
  "geometry": {"type":"LineString","coordinates":[[-121.25358,37.594],[-121.34052,37.58339],[-121.39664,37.57738],[-121.4144,37.5754],[-121.43761,37.57274],[-121.50192,37.56531],[-121.52114,37.56306],[-121.55311,37.55929],[-121.5861,37.55539],[-121.6634,37.5524],[-121.69875,37.54988],[-121.72364,37.53778],[-121.74399,37.52621],[-121.75253,37.52137],[-121.76544,37.51411],[-121.79272,37.49894],[-121.80904,37.48994],[-121.83899,37.47286],[-121.87491,37.4602],[-121.88438,37.4594],[-121.97137,37.4544],[-122.01683,37.46787],[-122.04881,37.4813],[-122.08018,37.49445],[-122.09864,37.50228],[-122.13017,37.5157],[-122.16882,37.532],[-122.1782,37.53596],[-122.18636,37.53939],[-122.18995,37.54087],[-122.19314,37.54218],[-122.20035,37.5452],[-122.25025,37.56624],[-122.29183,37.58378],[-122.31303,37.59269],[-122.32658,37.59838],[-122.35168,37.60885]]}
}
