{
  "id": 2032092683,
  "type": "Feature",
  "properties": {
    "geom:area": 0,
    "geom:bbox": "-123.469670,37.421360,-122.394420,37.670200",
    "geom:latitude": 37.55912789634019,
    "geom:longitude": -122.93055253928732,
    "src:alt_label": "swim-takeoff",
    "src:geom": "swim",
    "swim:elevations": [
      122,
      353,
      660,
      862,
      1199,
      1263,
      1666,
      1955,
      2280,
      2393,
      2415,
      2678,
      3096,
      3240,
      3366,
      3580,
      3913,
      4186,
      4283,
      4507,
      4874,
      5050,
      5203,
      5456
    ],
    "swim:geom": "takeoff",
    "swim:timestamps": [
      1785753176,
      1785753192,
      1785753227,
      1785753246,
      1785753291,
      1785753310,
      1785753355,
      1785753379,
      1785753411,
      1785753423,
      1785753426,
      1785753451,
      1785753497,
      1785753531,
      1785753557,
      1785753582,
      1785753622,
      1785753654,
      1785753667,
      1785753696,
      1785753742,
      1785753764,
      1785753786,
      1785753818
    ],
    "wof:geomhash": "34b173a54e9260f2018b2c3b8e9afdc3",
    "wof:id": 2032092683,
    "wof:repo": "sfomuseum-data-flights-2026-08"
  },
  "bbox": [
    -123.46967,
    37.42136,
    -122.39442,
    37.6702
  ],
  "geometry": {"type":"LineString","coordinates":[[-122.39442,37.62681],[-122.41058,37.63369],[-122.4462,37.64927],[-122.46698,37.65856],[-122.5208,37.6702],[-122.54563,37.66405],[-122.61335,37.64592],[-122.65125,37.63623],[-122.70108,37.62339],[-122.72113,37.61829],[-122.72588,37.61704],[-122.76592,37.60683],[-122.84033,37.58807],[-122.89904,37.57237],[-122.94771,37.55885],[-122.99752,37.54557],[-123.07412,37.52622],[-123.13802,37.50976],[-123.16357,37.50298],[-123.22174,37.4874],[-123.31406,37.46273],[-123.35884,37.45092],[-123.40331,37.43913],[-123.46967,37.42136]]}
}
