{
  "id": 2048092441,
  "type": "Feature",
  "properties": {
    "geom:area": 0,
    "geom:bbox": "-122.354580,37.491010,-121.295700,37.612400",
    "geom:latitude": 37.54443027254546,
    "geom:longitude": -121.82977233361359,
    "src:alt_label": "swim-approach",
    "src:geom": "swim",
    "swim:elevations": [
      4662,
      4637,
      4467,
      4232,
      3821,
      3697,
      3584,
      3561,
      3320,
      3152,
      2966,
      2591,
      2380,
      2194,
      2109,
      2046,
      1890,
      1830,
      1753,
      1456,
      1215,
      1037,
      946,
      944,
      882,
      690,
      549,
      366,
      263,
      230,
      118,
      35
    ],
    "swim:geom": "approach",
    "swim:timestamps": [
      1787347947,
      1787347950,
      1787347965,
      1787347987,
      1787348036,
      1787348064,
      1787348096,
      1787348103,
      1787348154,
      1787348173,
      1787348196,
      1787348238,
      1787348272,
      1787348305,
      1787348314,
      1787348331,
      1787348365,
      1787348380,
      1787348416,
      1787348452,
      1787348485,
      1787348517,
      1787348545,
      1787348559,
      1787348583,
      1787348625,
      1787348651,
      1787348696,
      1787348727,
      1787348736,
      1787348770,
      1787348791
    ],
    "wof:geomhash": "4c332acd3b2aa2474554fc997899fcba",
    "wof:id": 2048092441,
    "wof:repo": "sfomuseum-data-flights-2026-08"
  },
  "bbox": [
    -122.35458,
    37.49101,
    -121.2957,
    37.6124
  ],
  "geometry": {"type":"LineString","coordinates":[[-121.2957,37.58824],[-121.3019,37.58748],[-121.33273,37.58393],[-121.37656,37.5792],[-121.47562,37.56812],[-121.5276,37.56206],[-121.58315,37.55562],[-121.59299,37.55448],[-121.66788,37.5403],[-121.69373,37.53423],[-121.72312,37.52715],[-121.77852,37.51397],[-121.82272,37.50333],[-121.86529,37.49315],[-121.87704,37.49101],[-121.9005,37.49157],[-121.94643,37.49276],[-121.96667,37.49332],[-122.00917,37.50156],[-122.05069,37.51512],[-122.08911,37.52757],[-122.12559,37.53945],[-122.15416,37.54868],[-122.16757,37.55307],[-122.19088,37.56058],[-122.23135,37.57359],[-122.25532,37.58143],[-122.29233,37.59228],[-122.3129,37.59825],[-122.31924,37.60008],[-122.3413,37.60696],[-122.35458,37.6124]]}
}
