{
  "id": 2047918321,
  "type": "Feature",
  "properties": {
    "geom:area": 0,
    "geom:bbox": "-177.133333,37.653056,-122.455278,54.100000",
    "geom:latitude": 48.46926867148932,
    "geom:longitude": -149.1163552962969,
    "src:alt_label": "swim-path",
    "src:geom": "swim",
    "swim:altitudes": [
      "027",
      "035C",
      "037",
      "046C",
      "072",
      "091",
      "106",
      "116",
      "122C",
      "130",
      "140C",
      "149",
      "156C",
      "164",
      "182",
      "197",
      "211",
      "224",
      "238",
      "250",
      "260",
      "268",
      "278",
      "286",
      "294",
      "305",
      "314",
      "320C",
      "320C",
      "320C",
      "320C",
      "320C",
      "320C",
      "320C",
      "320C",
      "320C",
      "320C",
      "320C",
      "320C",
      "320C",
      "330",
      "330",
      "330",
      "330",
      "330",
      "330",
      "330",
      "330",
      "330",
      "330",
      "330",
      "330",
      "330",
      "330",
      "330",
      "330",
      "330",
      "330",
      "330",
      "330",
      "330",
      "330",
      "330",
      "330",
      "330",
      "330",
      "330",
      "330",
      "330",
      "330",
      "330",
      "330",
      "330",
      "330",
      "330",
      "330",
      "330",
      "330",
      "330",
      "330",
      "330",
      "330",
      "330",
      "331",
      "340",
      "340",
      "340",
      "340",
      "340",
      "340",
      "340",
      "340",
      "340",
      "340",
      "340",
      "340",
      "340",
      "340",
      "340",
      "340",
      "340",
      "340",
      "340",
      "340",
      "340",
      "340",
      "340",
      "340"
    ],
    "swim:geom": "path",
    "swim:speeds": [
      187,
      200,
      220,
      250,
      277,
      285,
      313,
      358,
      370,
      392,
      400,
      403,
      410,
      422,
      426,
      434,
      443,
      450,
      458,
      463,
      474,
      477,
      480,
      487,
      496,
      498,
      496,
      496,
      495,
      494,
      492,
      492,
      491,
      490,
      490,
      489,
      489,
      489,
      490,
      490,
      530,
      510,
      510,
      510,
      510,
      510,
      510,
      510,
      510,
      510,
      500,
      510,
      510,
      510,
      500,
      500,
      500,
      500,
      500,
      500,
      500,
      500,
      500,
      500,
      500,
      500,
      500,
      500,
      500,
      500,
      500,
      500,
      500,
      500,
      500,
      500,
      500,
      500,
      500,
      500,
      500,
      490,
      490,
      490,
      450,
      480,
      470,
      470,
      470,
      470,
      470,
      470,
      470,
      470,
      470,
      470,
      470,
      470,
      470,
      470,
      470,
      470,
      470,
      470,
      470,
      470,
      470,
      460
    ],
    "swim:timestamps": [
      1786385766,
      1786385810,
      1786385826,
      1786385870,
      1786385946,
      1786386006,
      1786386066,
      1786386126,
      1786386171,
      1786386187,
      1786386231,
      1786386247,
      1786386291,
      1786386307,
      1786386367,
      1786386427,
      1786386487,
      1786386547,
      1786386607,
      1786386667,
      1786386727,
      1786386787,
      1786386848,
      1786386908,
      1786386968,
      1786387028,
      1786387088,
      1786387208,
      1786387268,
      1786387328,
      1786387388,
      1786387448,
      1786387508,
      1786387569,
      1786387629,
      1786387689,
      1786387749,
      1786387809,
      1786387869,
      1786387929,
      1786399693,
      1786399754,
      1786399814,
      1786399874,
      1786399935,
      1786399995,
      1786400056,
      1786400116,
      1786400177,
      1786400237,
      1786400298,
      1786400359,
      1786400420,
      1786400480,
      1786400541,
      1786400601,
      1786400662,
      1786400722,
      1786400782,
      1786400843,
      1786400903,
      1786400964,
      1786401024,
      1786401085,
      1786401145,
      1786401206,
      1786401266,
      1786401327,
      1786401387,
      1786401448,
      1786401509,
      1786401569,
      1786401628,
      1786401688,
      1786401748,
      1786401809,
      1786401869,
      1786401929,
      1786401989,
      1786402049,
      1786402109,
      1786402169,
      1786402229,
      1786402289,
      1786403053,
      1786403143,
      1786403203,
      1786403264,
      1786403325,
      1786403385,
      1786403446,
      1786403508,
      1786403568,
      1786403628,
      1786403688,
      1786403749,
      1786403809,
      1786403870,
      1786403930,
      1786403991,
      1786404052,
      1786404113,
      1786404173,
      1786404235,
      1786404295,
      1786404355,
      1786404415,
      1786404485
    ],
    "wof:geomhash": "97cd5aba4fd24fcad7c77ded4ba272f9",
    "wof:id": 2047918321,
    "wof:repo": "sfomuseum-data-flights-2026-08"
  },
  "bbox": [
    -177.13333333333333,
    37.653055555555554,
    -122.45527777777778,
    54.1
  ],
  "geometry": {"type":"LineString","coordinates":[[-122.45527777777778,37.653055555555554],[-122.5,37.666666666666664],[-122.51611111111112,37.68194444444444],[-122.56666666666666,37.7],[-122.66861111111112,37.77222222222222],[-122.75111111111111,37.82138888888889],[-122.81361111111111,37.89194444444444],[-122.88055555555555,37.97277777777778],[-122.91666666666667,38.016666666666666],[-122.95527777777778,38.06305555555555],[-122.98333333333333,38.1],[-123.03416666666666,38.157222222222224],[-123.06666666666666,38.2],[-123.11527777777778,38.254444444444445],[-123.2,38.35444444444445],[-123.28444444444445,38.45444444444445],[-123.37138888888889,38.55694444444444],[-123.46055555555556,38.661944444444444],[-123.55222222222221,38.769444444444446],[-123.64472222222223,38.8775],[-123.74222222222222,38.98388888888889],[-123.88555555555556,39.05166666666666],[-124.0275,39.105000000000004],[-124.18333333333334,39.16361111111111],[-124.35916666666667,39.22944444444445],[-124.52166666666666,39.29],[-124.67916666666667,39.348333333333336],[-124.98916666666666,39.46222222222222],[-125.15138888888889,39.52111111111111],[-125.31138888888889,39.57916666666667],[-125.47222222222223,39.63722222222222],[-125.63111111111111,39.69416666666666],[-125.79305555555555,39.751666666666665],[-125.95472222222223,39.80916666666666],[-126.11305555555555,39.865],[-126.2761111111111,39.92194444444444],[-126.43833333333333,39.978611111111114],[-126.58472222222221,40.051111111111105],[-126.72638888888889,40.13638888888889],[-126.86638888888888,40.22027777777778],[-158.91666666666666,53.81666666666667],[-159.15,53.86666666666667],[-159.38333333333333,53.9],[-159.61666666666667,53.93333333333333],[-159.85,53.96666666666667],[-160.08333333333334,54],[-160.31666666666666,54],[-160.56666666666666,54.016666666666666],[-160.8,54.016666666666666],[-161.03333333333333,54.03333333333333],[-161.28333333333333,54.03333333333333],[-161.51666666666668,54.05],[-161.76666666666668,54.05],[-162,54.06666666666667],[-162.25,54.06666666666667],[-162.48333333333332,54.06666666666667],[-162.71666666666667,54.06666666666667],[-162.96666666666667,54.083333333333336],[-163.2,54.083333333333336],[-163.43333333333334,54.083333333333336],[-163.66666666666666,54.083333333333336],[-163.9,54.083333333333336],[-164.15,54.1],[-164.38333333333333,54.1],[-164.61666666666667,54.1],[-164.85,54.1],[-165.08333333333334,54.1],[-165.33333333333334,54.1],[-165.56666666666666,54.1],[-165.8,54.1],[-166.03333333333333,54.083333333333336],[-166.26666666666668,54.083333333333336],[-166.5,54.083333333333336],[-166.73333333333332,54.083333333333336],[-166.96666666666667,54.083333333333336],[-167.2,54.083333333333336],[-167.45,54.06666666666667],[-167.68333333333334,54.06666666666667],[-167.91666666666666,54.06666666666667],[-168.15,54.05],[-168.38333333333333,54.05],[-168.61666666666667,54.03333333333333],[-168.83333333333334,54.03333333333333],[-169.06666666666666,54.03333333333333],[-171.95,53.86666666666667],[-172.28333333333333,53.833333333333336],[-172.5,53.81666666666667],[-172.73333333333332,53.8],[-172.95,53.78333333333333],[-173.16666666666666,53.766666666666666],[-173.4,53.75],[-173.61666666666667,53.733333333333334],[-173.83333333333334,53.71666666666667],[-174.05,53.7],[-174.26666666666668,53.666666666666664],[-174.5,53.65],[-174.71666666666667,53.63333333333333],[-174.93333333333334,53.6],[-175.15,53.583333333333336],[-175.36666666666667,53.56666666666667],[-175.58333333333334,53.53333333333333],[-175.8,53.516666666666666],[-176.01666666666668,53.5],[-176.23333333333332,53.46666666666667],[-176.45,53.45],[-176.66666666666666,53.416666666666664],[-176.88333333333333,53.4],[-177.13333333333333,53.36666666666667]]}
}
