{
  "id": 2047927855,
  "type": "Feature",
  "properties": {
    "date:cessation_lower": "2026-08-11",
    "date:cessation_upper": "2026-08-11",
    "date:inception_lower": "2026-08-11",
    "date:inception_upper": "2026-08-11",
    "edtf:cessation": "2026-08-11T05:01:22-07:00",
    "edtf:inception": "2026-08-11T18:10:00Z",
    "flysfo:actual_timestamp": -1,
    "flysfo:airline": "UA",
    "flysfo:date": "2026-08-11",
    "flysfo:estimated_timestamp": 1786475220,
    "flysfo:event": "A",
    "flysfo:flight_number": "UA3938",
    "flysfo:gate": "F17",
    "flysfo:journey": "LAX-SFO",
    "flysfo:scheduled_timestamp": 1786473120,
    "flysfo:timestamp": 1786475220,
    "geom:area": 0,
    "geom:bbox": "-122.370943,33.942593,-118.389510,37.617990",
    "geom:latitude": 35.780291500000004,
    "geom:longitude": -120.38022649999999,
    "iata:airline": "UA",
    "icao:aircraft": "B38M",
    "icao:airline": "UAL",
    "lbl:latitude": 37.620791,
    "lbl:longitude": -122.390014,
    "sfomuseum:aircraft_id": 1528104575,
    "sfomuseum:airline_id": 1159285413,
    "sfomuseum:arrival_id": 102527513,
    "sfomuseum:departure_id": 102533795,
    "sfomuseum:flight_id": "20260811-A-UAL-3938",
    "sfomuseum:flight_number": [
      "UAL3938",
      "UA3938"
    ],
    "sfomuseum:placetype": "flight",
    "src:geom": "flysfo",
    "src:geom_alt": [
      "swim-path",
      "swim-approach"
    ],
    "swim:tail_number": "N17317",
    "wof:belongsto": [
      1947304067,
      102527513,
      1947304451,
      102191575,
      85633793,
      102087579,
      85922583,
      554784711,
      85688637,
      1947304473,
      1947304447,
      102085387
    ],
    "wof:concordances": {
      "swim:flight_ref": "154364267"
    },
    "wof:country": "US",
    "wof:created": 1786550929,
    "wof:geomhash": "f16008bc2ad68c6d1bc593247c6c74a9",
    "wof:hierarchy": [
      {
        "building_id": 1947304067,
        "campus_id": 102527513,
        "concourse_id": 1947304451,
        "continent_id": 102191575,
        "country_id": 85633793,
        "county_id": 102087579,
        "custom_id": 2047927855,
        "flight_id": 2047927855,
        "locality_id": 85922583,
        "postalcode_id": 554784711,
        "region_id": 85688637,
        "venue_id": 1947304473,
        "wing_id": 1947304447
      },
      {
        "building_id": 1947304067,
        "campus_id": 102527513,
        "concourse_id": 1947304451,
        "continent_id": 102191575,
        "country_id": 85633793,
        "county_id": 102085387,
        "custom_id": 2047927855,
        "flight_id": 2047927855,
        "region_id": 85688637,
        "venue_id": 1947304473,
        "wing_id": 1947304447
      }
    ],
    "wof:id": 2047927855,
    "wof:involves": [
      1528104575,
      102527513,
      102533795,
      1159285413,
      1947304473
    ],
    "wof:lastmodified": 1786551523,
    "wof:name": "UA3938 (LAX-SFO)",
    "wof:parent_id": 1947304473,
    "wof:placetype": "custom",
    "wof:placetype_alt": [
      "flight"
    ],
    "wof:repo": "sfomuseum-data-flights-2026-08",
    "wof:superseded_by": [],
    "wof:supersedes": []
  },
  "bbox": [
    -122.370943,
    33.942593,
    -118.38951,
    37.61799
  ],
  "geometry": {"type":"MultiPoint","coordinates":[[-118.38951,33.942593],[-122.370943,37.61799]]}
}
