{
  "id": 2032129487,
  "type": "Feature",
  "properties": {
    "geom:area": 0,
    "geom:bbox": "-122.334444,37.493889,-73.546944,43.196944",
    "geom:latitude": 41.29381110256051,
    "geom:longitude": -97.69709004781093,
    "src:alt_label": "swim-path",
    "src:geom": "swim",
    "swim:altitudes": [
      "006",
      "032",
      "039",
      "052",
      "062",
      "078",
      "086",
      "102",
      "106",
      "112",
      "115",
      "124",
      "130",
      "143",
      "150",
      "163",
      "170",
      "179",
      "194",
      "208",
      "210",
      "210",
      "215",
      "241",
      "260",
      "280",
      "286",
      "294",
      "303",
      "311",
      "317",
      "320C",
      "320C",
      "320C",
      "320C",
      "320C",
      "320C",
      "320C",
      "320C",
      "320C",
      "320C",
      "320C",
      "313",
      "300C",
      "300C",
      "300C",
      "300C",
      "300C",
      "300C",
      "300C",
      "300C",
      "300C",
      "300C",
      "300C",
      "300C",
      "300C",
      "300C",
      "300C",
      "300C",
      "300C",
      "300C",
      "300C",
      "300C",
      "300C",
      "300C",
      "300C",
      "300C",
      "300C",
      "300C",
      "300C",
      "300C",
      "300C",
      "305",
      "316",
      "329",
      "342",
      "351",
      "362",
      "370",
      "372",
      "377",
      "378C",
      "380C",
      "380C",
      "380C",
      "380C",
      "380C",
      "380C",
      "380C",
      "380C",
      "380C",
      "380C",
      "380C",
      "380C",
      "380C",
      "380C",
      "380C",
      "380C",
      "380C",
      "380C",
      "380C",
      "380C",
      "380C",
      "380C",
      "380C",
      "380C",
      "380C",
      "380C",
      "380C",
      "380C",
      "380C",
      "380C",
      "380C",
      "380C",
      "380C",
      "380C",
      "380C",
      "380C",
      "380C",
      "380C",
      "380C",
      "380C",
      "380C",
      "380C",
      "380C",
      "380C",
      "380C",
      "380C",
      "380C",
      "380C",
      "380C",
      "380C",
      "380C",
      "380C",
      "380C",
      "380C",
      "380C",
      "380C",
      "380C",
      "380C",
      "380C",
      "380C",
      "380C",
      "380C",
      "380C",
      "380C",
      "380C",
      "380C",
      "380C",
      "380C",
      "380C",
      "380C",
      "380C",
      "380C",
      "380C",
      "380C",
      "380C",
      "380C",
      "380C",
      "380C",
      "380C",
      "380C",
      "380C",
      "380C",
      "380C",
      "380C",
      "380C",
      "380C",
      "380C",
      "380C",
      "380C",
      "380C",
      "380C",
      "380C",
      "380C",
      "380C",
      "380C",
      "380C",
      "380C",
      "380C",
      "380C",
      "380C",
      "380C",
      "380C",
      "380C",
      "380C",
      "380C",
      "380C",
      "380C",
      "380C",
      "380C",
      "380C",
      "380C",
      "380C",
      "380C",
      "380C",
      "380C",
      "380C",
      "380C",
      "380C",
      "380C",
      "380C",
      "380C",
      "380C",
      "380C",
      "380C",
      "380C",
      "380C",
      "380C",
      "380C",
      "380C",
      "380C",
      "380C",
      "380C",
      "380C",
      "380C",
      "380C",
      "380C",
      "380C",
      "380C",
      "380C",
      "380C",
      "380C",
      "380C",
      "380C",
      "380C",
      "380C",
      "380C",
      "380C",
      "380C",
      "380C",
      "380C",
      "380C",
      "380C",
      "380C",
      "380C",
      "380C",
      "380C",
      "380C",
      "380C",
      "380C",
      "380C",
      "380C",
      "380C",
      "380C",
      "380C",
      "380C",
      "380C",
      "380C",
      "380C",
      "380C",
      "380C",
      "380C",
      "380C",
      "380C",
      "380C",
      "380C",
      "380C",
      "380C",
      "380C",
      "380C",
      "380C",
      "380C",
      "380C",
      "380C",
      "380C",
      "380C",
      "380C",
      "380C",
      "380C",
      "380C",
      "380C",
      "380C",
      "380C",
      "380C",
      "380C",
      "380C",
      "380C",
      "380C",
      "380C",
      "380C",
      "380C",
      "380C",
      "380C",
      "380C",
      "380C",
      "380C",
      "380C",
      "380C",
      "380C",
      "380C",
      "380C",
      "380C",
      "380C",
      "380C",
      "380C",
      "380C",
      "380C",
      "380C",
      "380C",
      "380C",
      "380C",
      "380C",
      "380C",
      "380C",
      "380C",
      "380C",
      "380C",
      "380C",
      "380C",
      "380C",
      "380C",
      "380C",
      "380C",
      "380C",
      "380C",
      "380C",
      "380C",
      "378",
      "364",
      "360C",
      "360C",
      "360C",
      "360C",
      "360C",
      "360C",
      "360C",
      "360C",
      "360C",
      "360C",
      "360C",
      "360",
      "348",
      "340C",
      "340C",
      "340C",
      "340C",
      "340C",
      "340C",
      "340C",
      "340C",
      "340C",
      "340C",
      "340C",
      "338",
      "319",
      "302",
      "283",
      "273",
      "265",
      "246",
      "227",
      "213",
      "195",
      "173",
      "152",
      "135",
      "131",
      "118",
      "110",
      "099",
      "074",
      "068",
      "055",
      "040",
      "032",
      "021",
      "012",
      "004"
    ],
    "swim:geom": "path",
    "swim:speeds": [
      177,
      227,
      273,
      290,
      302,
      305,
      306,
      303,
      315,
      348,
      370,
      391,
      402,
      397,
      395,
      395,
      395,
      396,
      407,
      415,
      422,
      423,
      429,
      442,
      444,
      414,
      427,
      435,
      441,
      448,
      452,
      456,
      457,
      462,
      463,
      463,
      460,
      459,
      458,
      458,
      457,
      457,
      457,
      462,
      462,
      464,
      466,
      468,
      468,
      463,
      458,
      456,
      455,
      453,
      452,
      452,
      451,
      453,
      453,
      453,
      453,
      452,
      451,
      450,
      449,
      439,
      422,
      410,
      411,
      411,
      412,
      411,
      412,
      413,
      410,
      401,
      391,
      388,
      378,
      378,
      371,
      371,
      369,
      368,
      364,
      364,
      365,
      367,
      369,
      371,
      370,
      372,
      373,
      371,
      370,
      371,
      374,
      375,
      377,
      377,
      377,
      377,
      377,
      378,
      386,
      383,
      388,
      387,
      388,
      387,
      386,
      391,
      394,
      396,
      398,
      399,
      399,
      400,
      400,
      402,
      403,
      405,
      407,
      407,
      407,
      407,
      408,
      409,
      410,
      412,
      414,
      416,
      417,
      419,
      422,
      423,
      425,
      425,
      426,
      427,
      427,
      427,
      428,
      428,
      428,
      428,
      428,
      427,
      425,
      424,
      424,
      426,
      429,
      430,
      432,
      432,
      433,
      433,
      434,
      436,
      437,
      439,
      441,
      441,
      439,
      436,
      434,
      433,
      433,
      433,
      443,
      435,
      440,
      437,
      440,
      441,
      443,
      443,
      446,
      446,
      462,
      450,
      461,
      452,
      461,
      453,
      454,
      454,
      454,
      454,
      454,
      453,
      452,
      451,
      450,
      448,
      447,
      446,
      446,
      444,
      445,
      443,
      444,
      442,
      442,
      441,
      442,
      442,
      441,
      441,
      441,
      441,
      441,
      441,
      441,
      441,
      441,
      441,
      441,
      440,
      440,
      441,
      441,
      442,
      441,
      441,
      443,
      443,
      443,
      443,
      444,
      445,
      446,
      446,
      446,
      446,
      446,
      447,
      446,
      446,
      445,
      446,
      445,
      445,
      446,
      445,
      446,
      447,
      447,
      447,
      447,
      448,
      449,
      449,
      449,
      450,
      450,
      450,
      450,
      451,
      451,
      451,
      452,
      452,
      453,
      453,
      453,
      453,
      454,
      455,
      456,
      456,
      457,
      457,
      456,
      456,
      456,
      455,
      455,
      455,
      456,
      456,
      455,
      456,
      456,
      456,
      457,
      457,
      457,
      458,
      458,
      458,
      458,
      458,
      458,
      458,
      459,
      458,
      458,
      457,
      457,
      454,
      452,
      451,
      451,
      452,
      453,
      453,
      451,
      447,
      446,
      446,
      445,
      430,
      421,
      417,
      419,
      420,
      423,
      423,
      424,
      425,
      424,
      424,
      423,
      423,
      423,
      423,
      424,
      425,
      426,
      427,
      428,
      430,
      433,
      433,
      434,
      434,
      433,
      433,
      434,
      433,
      433,
      433,
      434,
      421,
      410,
      399,
      391,
      390,
      386,
      383,
      383,
      377,
      362,
      355,
      345,
      338,
      331,
      325,
      284,
      268,
      242,
      234,
      238,
      236,
      207,
      158,
      143
    ],
    "swim:timestamps": [
      1786032825,
      1786032904,
      1786032928,
      1786032965,
      1786032987,
      1786033025,
      1786033042,
      1786033085,
      1786033102,
      1786033145,
      1786033161,
      1786033205,
      1786033222,
      1786033265,
      1786033282,
      1786033325,
      1786033385,
      1786033445,
      1786033505,
      1786033565,
      1786033626,
      1786033686,
      1786033746,
      1786033866,
      1786033926,
      1786033986,
      1786034046,
      1786034106,
      1786034166,
      1786034226,
      1786034283,
      1786034347,
      1786034403,
      1786034467,
      1786034527,
      1786034587,
      1786034707,
      1786034767,
      1786034827,
      1786034947,
      1786035008,
      1786035065,
      1786035125,
      1786035185,
      1786035245,
      1786035365,
      1786035425,
      1786035485,
      1786035545,
      1786035666,
      1786035726,
      1786035786,
      1786035846,
      1786035966,
      1786036026,
      1786036086,
      1786036146,
      1786036267,
      1786036327,
      1786036387,
      1786036447,
      1786036507,
      1786036567,
      1786036627,
      1786036687,
      1786036747,
      1786036807,
      1786036874,
      1786036934,
      1786036994,
      1786037048,
      1786037108,
      1786037174,
      1786037234,
      1786037288,
      1786037354,
      1786037408,
      1786037475,
      1786037529,
      1786037535,
      1786037589,
      1786037595,
      1786037649,
      1786037655,
      1786037715,
      1786037775,
      1786037835,
      1786037895,
      1786037956,
      1786038016,
      1786038070,
      1786038076,
      1786038136,
      1786038195,
      1786038256,
      1786038316,
      1786038437,
      1786038497,
      1786038616,
      1786038737,
      1786038797,
      1786038857,
      1786038917,
      1786038978,
      1786039036,
      1786039098,
      1786039156,
      1786039217,
      1786039277,
      1786039338,
      1786039397,
      1786039457,
      1786039517,
      1786039577,
      1786039639,
      1786039697,
      1786039759,
      1786039817,
      1786039879,
      1786039938,
      1786039998,
      1786040059,
      1786040178,
      1786040240,
      1786040298,
      1786040358,
      1786040418,
      1786040480,
      1786040538,
      1786040600,
      1786040660,
      1786040719,
      1786040732,
      1786040792,
      1786040839,
      1786040853,
      1786040899,
      1786040913,
      1786040959,
      1786040973,
      1786041019,
      1786041033,
      1786041093,
      1786041139,
      1786041153,
      1786041199,
      1786041259,
      1786041319,
      1786041379,
      1786041440,
      1786041500,
      1786041560,
      1786041620,
      1786041680,
      1786041740,
      1786041800,
      1786041860,
      1786041920,
      1786041980,
      1786042040,
      1786042100,
      1786042161,
      1786042221,
      1786042281,
      1786042341,
      1786042401,
      1786042461,
      1786042521,
      1786042581,
      1786042641,
      1786042657,
      1786042701,
      1786042717,
      1786042761,
      1786042777,
      1786042837,
      1786042882,
      1786042897,
      1786042942,
      1786042957,
      1786043005,
      1786043017,
      1786043065,
      1786043077,
      1786043125,
      1786043138,
      1786043182,
      1786043198,
      1786043242,
      1786043258,
      1786043302,
      1786043318,
      1786043362,
      1786043378,
      1786043422,
      1786043438,
      1786043482,
      1786043498,
      1786043542,
      1786043558,
      1786043602,
      1786043618,
      1786043663,
      1786043678,
      1786043738,
      1786043798,
      1786043858,
      1786043918,
      1786043979,
      1786044039,
      1786044099,
      1786044159,
      1786044219,
      1786044279,
      1786044339,
      1786044399,
      1786044459,
      1786044519,
      1786044579,
      1786044639,
      1786044699,
      1786044760,
      1786044820,
      1786044880,
      1786044940,
      1786045000,
      1786045060,
      1786045120,
      1786045180,
      1786045240,
      1786045300,
      1786045360,
      1786045420,
      1786045481,
      1786045541,
      1786045601,
      1786045721,
      1786045781,
      1786045841,
      1786045913,
      1786045961,
      1786045973,
      1786046022,
      1786046033,
      1786046082,
      1786046093,
      1786046142,
      1786046153,
      1786046202,
      1786046226,
      1786046262,
      1786046286,
      1786046322,
      1786046346,
      1786046382,
      1786046406,
      1786046442,
      1786046466,
      1786046502,
      1786046526,
      1786046562,
      1786046586,
      1786046622,
      1786046646,
      1786046682,
      1786046706,
      1786046743,
      1786046766,
      1786046803,
      1786046826,
      1786046863,
      1786046886,
      1786046923,
      1786046947,
      1786046983,
      1786047007,
      1786047043,
      1786047067,
      1786047103,
      1786047127,
      1786047163,
      1786047187,
      1786047223,
      1786047283,
      1786047343,
      1786047367,
      1786047403,
      1786047464,
      1786047487,
      1786047524,
      1786047547,
      1786047607,
      1786047667,
      1786047728,
      1786047788,
      1786047848,
      1786047908,
      1786047968,
      1786048028,
      1786048088,
      1786048148,
      1786048268,
      1786048328,
      1786048388,
      1786048449,
      1786048509,
      1786048569,
      1786048629,
      1786048689,
      1786048809,
      1786048869,
      1786048929,
      1786048989,
      1786049049,
      1786049169,
      1786049287,
      1786049467,
      1786049527,
      1786049590,
      1786049648,
      1786049710,
      1786049770,
      1786049828,
      1786049890,
      1786049951,
      1786050008,
      1786050068,
      1786050131,
      1786050191,
      1786050251,
      1786050311,
      1786050371,
      1786050431,
      1786050491,
      1786050549,
      1786050611,
      1786050669,
      1786050729,
      1786050789,
      1786050849,
      1786050909,
      1786050969,
      1786051030,
      1786051090,
      1786051210,
      1786051270,
      1786051330,
      1786051390,
      1786051422,
      1786051450,
      1786051510,
      1786051570,
      1786051630,
      1786051691,
      1786051751,
      1786051811,
      1786051871,
      1786051878,
      1786051931,
      1786051991,
      1786052051,
      1786052171,
      1786052231,
      1786052291,
      1786052351,
      1786052412,
      1786052472,
      1786052532,
      1786052592
    ],
    "wof:geomhash": "f4d32ef6c97dd85c330012ceebe6c42f",
    "wof:id": 2032129487,
    "wof:repo": "sfomuseum-data-flights-2026-08"
  },
  "bbox": [
    -122.33444444444444,
    37.49388888888889,
    -73.54694444444445,
    43.19694444444444
  ],
  "geometry": {"type":"LineString","coordinates":[[-73.78333333333333,40.61666666666667],[-73.78916666666666,40.56083333333333],[-73.75,40.55],[-73.69,40.56638888888889],[-73.65,40.56666666666667],[-73.58222222222221,40.58777777777778],[-73.55,40.6],[-73.54694444444445,40.66027777777778],[-73.55,40.68333333333333],[-73.565,40.75055555555556],[-73.56666666666666,40.78333333333333],[-73.58888888888889,40.85722222222223],[-73.6,40.88333333333333],[-73.6525,40.955000000000005],[-73.68333333333334,40.983333333333334],[-73.77444444444444,41.01],[-73.91583333333334,41.03055555555555],[-74.0586111111111,41.05],[-74.205,41.07027777777778],[-74.35694444444444,41.090833333333336],[-74.51222222222222,41.11194444444445],[-74.66472222222222,41.132777777777775],[-74.8025,41.18194444444444],[-75.08694444444444,41.30638888888888],[-75.2286111111111,41.3675],[-75.36194444444443,41.424166666666665],[-75.50027777777778,41.480000000000004],[-75.64805555555556,41.52361111111111],[-75.8025,41.5675],[-75.9575,41.61138888888889],[-76.10222222222221,41.652499999999996],[-76.27055555555556,41.69972222222222],[-76.41888888888889,41.74111111111111],[-76.61194444444443,41.79472222222222],[-76.77305555555556,41.83888888888889],[-76.93694444444445,41.88388888888889],[-77.25916666666667,41.97083333333334],[-77.38555555555556,42.00472222222222],[-77.54694444444445,42.04833333333333],[-77.87083333333332,42.13583333333333],[-78.03416666666666,42.17944444444444],[-78.19694444444445,42.222500000000004],[-78.35944444444443,42.264722222222225],[-78.52666666666667,42.30555555555555],[-78.69055555555556,42.34583333333334],[-79.00583333333333,42.422777777777775],[-79.19111111111111,42.468333333333334],[-79.35777777777777,42.50888888888889],[-79.52416666666666,42.54888888888889],[-79.86138888888888,42.61527777777778],[-80.03388888888888,42.62305555555555],[-80.20722222222223,42.63],[-80.37722222222222,42.636944444444445],[-80.71777777777778,42.64944444444444],[-80.88472222222222,42.655],[-81.05555555555556,42.66027777777778],[-81.22416666666666,42.66555555555556],[-81.56305555555555,42.700833333333335],[-81.73111111111112,42.72],[-81.91305555555556,42.74027777777778],[-82.08027777777778,42.75888888888889],[-82.24777777777778,42.776944444444446],[-82.41555555555556,42.794999999999995],[-82.58527777777778,42.81305555555555],[-82.75055555555555,42.83638888888889],[-82.91305555555556,42.85888888888889],[-83.06944444444444,42.87916666666667],[-83.235,42.90083333333333],[-83.38972222222223,42.91861111111111],[-83.54416666666667,42.930277777777775],[-83.68305555555555,42.94305555555555],[-83.83388888888888,42.95611111111111],[-84.00777777777778,42.97083333333334],[-84.16527777777779,42.98388888888889],[-84.29888888888888,42.99472222222222],[-84.47027777777778,43.00833333333333],[-84.58472222222221,43.0175],[-84.75666666666666,43.03722222222222],[-84.87055555555555,43.05027777777777],[-84.89555555555556,43.05305555555555],[-85.00861111111111,43.06527777777777],[-85.03555555555555,43.068333333333335],[-85.14305555555556,43.080000000000005],[-85.17194444444445,43.083333333333336],[-85.30694444444444,43.09805555555556],[-85.44333333333334,43.112500000000004],[-85.58166666666666,43.1275],[-85.72027777777778,43.14194444444444],[-85.85777777777777,43.15611111111111],[-85.99388888888889,43.17027777777778],[-86.12916666666666,43.18388888888889],[-86.13138888888888,43.18416666666666],[-86.27111111111111,43.19694444444444],[-86.41305555555556,43.19416666666666],[-86.5775,43.18833333333333],[-86.71833333333333,43.18333333333333],[-87.00333333333333,43.172777777777775],[-87.14555555555556,43.1675],[-87.41833333333334,43.156388888888884],[-87.70055555555555,43.14416666666666],[-87.84555555555555,43.1375],[-87.98805555555556,43.13111111111111],[-88.13277777777778,43.12416666666667],[-88.2775,43.1175],[-88.4225,43.11666666666667],[-88.57249999999999,43.12166666666667],[-88.72,43.1225],[-88.86805555555554,43.124722222222225],[-89.01611111111112,43.12638888888889],[-89.16472222222222,43.12888888888889],[-89.30916666666667,43.129444444444445],[-89.46000000000001,43.130833333333335],[-89.60777777777777,43.1325],[-89.76888888888888,43.13333333333333],[-89.915,43.13388888888889],[-90.07166666666666,43.13444444444444],[-90.2213888888889,43.13472222222222],[-90.36333333333333,43.13472222222222],[-90.515,43.13444444444444],[-90.66972222222223,43.134166666666665],[-90.82277777777777,43.13361111111111],[-90.97583333333334,43.132777777777775],[-91.28388888888888,43.13055555555555],[-91.43833333333333,43.12916666666667],[-91.59194444444444,43.1275],[-91.7461111111111,43.12555555555556],[-91.89722222222223,43.12361111111111],[-92.08305555555555,43.12083333333334],[-92.24027777777778,43.11833333333333],[-92.39361111111111,43.11555555555556],[-92.55166666666666,43.11277777777778],[-92.71055555555556,43.10944444444445],[-92.74388888888889,43.10861111111111],[-92.90416666666667,43.10527777777778],[-93.03277777777778,43.102222222222224],[-93.06527777777778,43.10138888888889],[-93.19416666666667,43.098333333333336],[-93.22527777777778,43.097500000000004],[-93.35777777777777,43.091944444444444],[-93.38722222222223,43.089444444444446],[-93.51805555555555,43.0775],[-93.54833333333333,43.074444444444445],[-93.71055555555556,43.05888888888889],[-93.83833333333332,43.04666666666667],[-93.86999999999999,43.04361111111111],[-94.00083333333333,43.030833333333334],[-94.16055555555556,43.015],[-94.31944444444444,42.99916666666667],[-94.47972222222222,42.98277777777778],[-94.64222222222223,42.96611111111111],[-94.80333333333333,42.94916666666666],[-94.96361111111112,42.93222222222222],[-95.12472222222222,42.914722222222224],[-95.28722222222223,42.89694444444444],[-95.44916666666667,42.87916666666667],[-95.61083333333333,42.861111111111114],[-95.77416666666666,42.8425],[-95.93694444444445,42.823888888888895],[-96.09861111111111,42.805],[-96.26083333333334,42.78583333333333],[-96.3938888888889,42.769999999999996],[-96.55777777777777,42.75],[-96.72361111111111,42.72972222222222],[-96.88722222222223,42.709722222222226],[-97.05194444444444,42.68888888888888],[-97.21666666666667,42.668055555555554],[-97.37555555555555,42.647777777777776],[-97.53555555555555,42.62694444444445],[-97.69555555555556,42.60583333333334],[-97.85527777777777,42.584722222222226],[-97.9113888888889,42.577222222222225],[-98.01805555555555,42.562777777777775],[-98.05972222222222,42.55722222222222],[-98.18,42.54083333333333],[-98.22500000000001,42.53472222222222],[-98.39,42.511944444444445],[-98.50611111111111,42.49583333333334],[-98.55222222222221,42.489444444444445],[-98.6738888888889,42.47222222222222],[-98.72055555555556,42.46555555555556],[-98.85166666666666,42.441111111111105],[-98.88666666666667,42.434999999999995],[-99.01777777777778,42.41111111111111],[-99.05333333333333,42.40472222222222],[-99.1825,42.380833333333335],[-99.21916666666667,42.375],[-99.36749999999999,42.34805555555556],[-99.38555555555556,42.344722222222224],[-99.52888888888889,42.318333333333335],[-99.55166666666666,42.314166666666665],[-99.69638888888889,42.286944444444444],[-99.71527777777779,42.28361111111111],[-99.85777777777777,42.25694444444444],[-99.87694444444443,42.25333333333333],[-100.0025,42.22972222222222],[-100.03805555555556,42.22277777777778],[-100.16611111111112,42.19833333333333],[-100.19722222222222,42.192499999999995],[-100.3275,42.1675],[-100.3586111111111,42.16138888888889],[-100.4875,42.13638888888889],[-100.51527777777778,42.13111111111111],[-100.64333333333335,42.10611111111111],[-100.67333333333333,42.10027777777778],[-100.84916666666666,42.064166666666665],[-101.0075,42.0325],[-101.16583333333334,42.00055555555556],[-101.32444444444444,41.968611111111116],[-101.48166666666667,41.93666666666666],[-101.63944444444445,41.90416666666667],[-101.79722222222222,41.87166666666667],[-101.9538888888889,41.83888888888889],[-102.11138888888888,41.80638888888888],[-102.2675,41.77305555555555],[-102.42472222222223,41.73888888888889],[-102.58027777777778,41.705555555555556],[-102.7375,41.67222222222222],[-102.89444444444445,41.638888888888886],[-103.05138888888888,41.60444444444445],[-103.20805555555556,41.56944444444445],[-103.36361111111111,41.53444444444444],[-103.52055555555556,41.499722222222225],[-103.67750000000001,41.46472222222223],[-103.83416666666666,41.42972222222222],[-103.99277777777777,41.39333333333333],[-104.15027777777779,41.35611111111111],[-104.30888888888889,41.319722222222225],[-104.46611111111112,41.28361111111111],[-104.62138888888889,41.24638888888889],[-104.77638888888889,41.21],[-104.93666666666667,41.18111111111111],[-105.09694444444445,41.15333333333333],[-105.25666666666666,41.125277777777775],[-105.41722222222222,41.097500000000004],[-105.5761111111111,41.06805555555556],[-105.73583333333333,41.03944444444444],[-106.05555555555556,40.98166666666667],[-106.21583333333334,40.9525],[-106.37416666666665,40.921388888888885],[-106.53277777777778,40.89222222222222],[-106.69111111111111,40.86277777777778],[-106.72111111111111,40.85583333333334],[-106.84333333333333,40.83388888888889],[-106.88055555555555,40.825833333333335],[-107.01666666666667,40.80027777777777],[-107.03805555555556,40.79555555555555],[-107.17583333333334,40.76916666666666],[-107.21361111111112,40.76166666666666],[-107.32888888888888,40.73916666666667],[-107.35805555555555,40.733333333333334],[-107.49472222222222,40.70638888888889],[-107.54638888888888,40.69611111111111],[-107.65472222222223,40.67444444444444],[-107.70583333333333,40.66416666666667],[-107.78666666666666,40.64805555555556],[-107.86555555555555,40.63194444444444],[-107.94444444444444,40.61611111111111],[-108.025,40.599722222222226],[-108.10722222222222,40.58277777777778],[-108.18472222222222,40.566944444444445],[-108.26833333333333,40.54972222222222],[-108.34416666666667,40.534166666666664],[-108.43694444444445,40.515],[-108.50277777777778,40.50111111111111],[-108.59527777777777,40.48166666666667],[-108.665,40.466944444444444],[-108.75305555555556,40.448611111111106],[-108.82527777777777,40.43333333333333],[-108.91305555555556,40.414722222222224],[-108.97694444444444,40.401111111111106],[-109.07083333333333,40.38111111111111],[-109.13583333333334,40.36694444444444],[-109.23055555555555,40.34666666666667],[-109.2961111111111,40.3325],[-109.38944444444445,40.31222222222222],[-109.45583333333333,40.297777777777775],[-109.54861111111111,40.277499999999996],[-109.6111111111111,40.26361111111111],[-109.70777777777778,40.2425],[-109.77166666666666,40.22833333333333],[-109.86611111111111,40.2075],[-109.92944444444444,40.19333333333333],[-110.02472222222222,40.17194444444444],[-110.17722222222223,40.13194444444444],[-110.33083333333333,40.07944444444445],[-110.39055555555557,40.058611111111105],[-110.48027777777779,40.02777777777778],[-110.63166666666666,39.975],[-110.69250000000001,39.95388888888889],[-110.78277777777778,39.9225],[-110.8425,39.901666666666664],[-110.99194444444444,39.84916666666667],[-111.14305555555556,39.795833333333334],[-111.3125,39.73555555555556],[-111.46333333333334,39.68194444444444],[-111.61333333333333,39.628055555555555],[-111.76277777777777,39.57416666666667],[-111.91194444444444,39.519999999999996],[-112.0611111111111,39.465833333333336],[-112.2088888888889,39.41166666666666],[-112.35749999999999,39.356944444444444],[-112.6588888888889,39.26777777777777],[-112.795,39.238055555555555],[-112.94916666666667,39.203611111111115],[-113.10333333333332,39.16888888888889],[-113.25777777777778,39.13388888888889],[-113.41305555555556,39.09861111111111],[-113.59722222222221,39.05611111111111],[-113.75,39.02055555555555],[-114.05388888888889,38.94972222222222],[-114.2063888888889,38.91361111111111],[-114.35777777777777,38.8775],[-114.50888888888889,38.84138888888889],[-114.65333333333334,38.806666666666665],[-114.93861111111111,38.73722222222222],[-115.19277777777778,38.675555555555555],[-115.63194444444444,38.56527777777777],[-115.77444444444444,38.52972222222222],[-115.9175,38.49277777777778],[-116.06166666666667,38.45611111111111],[-116.20305555555557,38.41972222222222],[-116.34638888888888,38.382777777777775],[-116.48805555555556,38.346111111111114],[-116.62916666666666,38.30916666666666],[-116.77194444444444,38.27166666666667],[-116.91583333333334,38.23361111111111],[-117.05499999999999,38.196666666666665],[-117.215,38.15361111111111],[-117.35444444444444,38.11638888888889],[-117.49527777777777,38.07833333333333],[-117.6388888888889,38.03916666666667],[-117.78083333333333,38.00361111111111],[-117.93138888888889,37.986111111111114],[-118.08055555555555,37.970555555555556],[-118.20611111111111,37.95722222222223],[-118.38555555555556,37.937777777777775],[-118.5075,37.924166666666665],[-118.65972222222223,37.9075],[-118.8086111111111,37.89055555555556],[-118.96111111111111,37.873333333333335],[-119.12333333333332,37.85472222222222],[-119.2725,37.83722222222222],[-119.42444444444445,37.81944444444445],[-119.57416666666666,37.80166666666666],[-119.87555555555555,37.765277777777776],[-120.02305555555556,37.746944444444445],[-120.16388888888889,37.72944444444445],[-120.30361111111111,37.71194444444445],[-120.38333333333334,37.7],[-120.43722222222223,37.69499999999999],[-120.57111111111111,37.67972222222222],[-120.70194444444445,37.66444444444444],[-120.83638888888889,37.64833333333333],[-120.97111111111111,37.63194444444444],[-121.09388888888888,37.61527777777778],[-121.21472222222222,37.59916666666667],[-121.33277777777778,37.58444444444444],[-121.35,37.583333333333336],[-121.44888888888889,37.57138888888889],[-121.56,37.55833333333333],[-121.66305555555556,37.541666666666664],[-121.84583333333333,37.49805555555556],[-121.93361111111112,37.49388888888889],[-122.01361111111112,37.49888888888889],[-122.0975,37.50527777777778],[-122.17,37.53472222222222],[-122.23472222222222,37.56194444444444],[-122.29194444444444,37.586111111111116],[-122.33444444444444,37.60388888888889]]}
}
