{
  "id": 2048040809,
  "type": "Feature",
  "properties": {
    "geom:area": 0,
    "geom:bbox": "-122.542470,37.196030,-121.276210,37.668820",
    "geom:latitude": 37.384835408722765,
    "geom:longitude": -122.01315487245672,
    "src:alt_label": "swim-takeoff",
    "src:geom": "swim",
    "swim:elevations": [
      183,
      430,
      610,
      884,
      1035,
      1086,
      1481,
      1850,
      2245,
      3146,
      3447,
      3501,
      4211,
      4694,
      4997,
      5398,
      5733,
      6065,
      6463,
      6695,
      7101,
      7287,
      7488,
      7621,
      7954,
      8415,
      8611,
      8731,
      9053
    ],
    "swim:geom": "takeoff",
    "swim:timestamps": [
      1786969282,
      1786969310,
      1786969344,
      1786969362,
      1786969378,
      1786969385,
      1786969425,
      1786969449,
      1786969471,
      1786969522,
      1786969556,
      1786969561,
      1786969613,
      1786969648,
      1786969668,
      1786969699,
      1786969729,
      1786969755,
      1786969788,
      1786969808,
      1786969849,
      1786969876,
      1786969908,
      1786969924,
      1786969961,
      1786970008,
      1786970029,
      1786970042,
      1786970084
    ],
    "wof:geomhash": "c1c6a0d3db4c4dc96b9c6186bd2779e9",
    "wof:id": 2048040809,
    "wof:repo": "sfomuseum-data-flights-2026-08"
  },
  "bbox": [
    -122.54247,
    37.19603,
    -121.27621,
    37.66882
  ],
  "geometry": {"type":"LineString","coordinates":[[-122.38589,37.62311],[-122.409,37.63319],[-122.44544,37.649],[-122.46636,37.65828],[-122.48558,37.6665],[-122.49575,37.66882],[-122.54247,37.64488],[-122.53931,37.61626],[-122.52628,37.59047],[-122.4955,37.53002],[-122.46718,37.48781],[-122.46023,37.48238],[-122.37968,37.43487],[-122.31414,37.40703],[-122.27247,37.39839],[-122.20749,37.38533],[-122.14222,37.37242],[-122.08545,37.36118],[-122.0108,37.34631],[-121.96472,37.33703],[-121.86989,37.31794],[-121.80577,37.30502],[-121.72726,37.28902],[-121.68654,37.28077],[-121.59178,37.26117],[-121.47173,37.23628],[-121.41677,37.22533],[-121.38272,37.21878],[-121.27621,37.19603]]}
}
