{
  "id": 2047994155,
  "type": "Feature",
  "properties": {
    "date:inception_lower": "2026-08-16",
    "date:inception_upper": "2026-08-16",
    "edtf:cessation": "",
    "edtf:inception": "2026-08-16",
    "flysfo:actual_timestamp": -1,
    "flysfo:airline": "AA",
    "flysfo:base_airline": "",
    "flysfo:base_flight_number": "5616",
    "flysfo:date": "2026-08-16",
    "flysfo:estimated_timestamp": 1786899060,
    "flysfo:event": "D",
    "flysfo:flight_number": "AA1845",
    "flysfo:gate": "B27",
    "flysfo:journey": "SFO-PHL",
    "flysfo:scheduled_timestamp": 1786899060,
    "flysfo:timestamp": 1786899060,
    "geom:area": 0,
    "geom:bbox": "-75.247885,0.000000,0.000000,39.880952",
    "geom:latitude": 19.940476,
    "geom:longitude": -37.6239425,
    "iata:airline": "AA",
    "iata:base_airline": "",
    "icao:airline": "AAL",
    "icao:base_airline": "BAW",
    "lbl:latitude": 37.61799,
    "lbl:longitude": -122.370943,
    "sfomuseum:airline_id": 1159283849,
    "sfomuseum:arrival_id": 102529403,
    "sfomuseum:base_flight_id": "20260816-D-BAW-5616",
    "sfomuseum:departure_id": 102527513,
    "sfomuseum:flight_id": "20260816-D-AAL-1845",
    "sfomuseum:flight_number": [
      "AAL1845",
      "AA1845"
    ],
    "sfomuseum:placetype": "flight",
    "src:geom": "flysfo",
    "wof:belongsto": [
      1947304067,
      102527513,
      1947304261,
      102191575,
      85633793,
      102087579,
      85922583,
      554784711,
      85688637,
      1947304291,
      1947304259,
      102085387
    ],
    "wof:country": "US",
    "wof:created": 1786983490,
    "wof:geomhash": "1ee0f8ad6886d9314e6733a251fdb5db",
    "wof:hierarchy": [
      {
        "building_id": 1947304067,
        "campus_id": 102527513,
        "concourse_id": 1947304261,
        "continent_id": 102191575,
        "country_id": 85633793,
        "county_id": 102087579,
        "custom_id": 2047994155,
        "flight_id": 2047994155,
        "locality_id": 85922583,
        "postalcode_id": 554784711,
        "region_id": 85688637,
        "venue_id": 1947304291,
        "wing_id": 1947304259
      },
      {
        "building_id": 1947304067,
        "campus_id": 102527513,
        "concourse_id": 1947304261,
        "continent_id": 102191575,
        "country_id": 85633793,
        "county_id": 102085387,
        "custom_id": 2047994155,
        "flight_id": 2047994155,
        "region_id": 85688637,
        "venue_id": 1947304291,
        "wing_id": 1947304259
      }
    ],
    "wof:id": 2047994155,
    "wof:involves": [
      102529403,
      102527513,
      1159283849,
      1947304291,
      1159284021
    ],
    "wof:lastmodified": 1786983490,
    "wof:name": "AA1845 (SFO-PHL)",
    "wof:parent_id": 1947304291,
    "wof:placetype": "custom",
    "wof:placetype_alt": [
      "flight"
    ],
    "wof:repo": "sfomuseum-data-flights-2026-08",
    "wof:superseded_by": [],
    "wof:supersedes": []
  },
  "bbox": [
    -75.247885,
    0,
    0,
    39.880952
  ],
  "geometry": {"type":"MultiPoint","coordinates":[[0,0],[-75.247885,39.880952]]}
}
