{
  "id": 2047938123,
  "type": "Feature",
  "properties": {
    "geom:area": 0,
    "geom:bbox": "-122.352222,33.433333,-111.821111,37.979167",
    "geom:latitude": 36.55310171905505,
    "geom:longitude": -116.2148495837395,
    "src:alt_label": "swim-path",
    "src:geom": "swim",
    "swim:altitudes": [
      "018",
      "031",
      "032",
      "050",
      "056",
      "076",
      "079",
      "104",
      "124",
      "129",
      "147",
      "150",
      "169",
      "190",
      "209",
      "224",
      "237",
      "244",
      "248",
      "250",
      "250",
      "250",
      "250",
      "259",
      "267",
      "277",
      "280",
      "285",
      "294",
      "300C",
      "300C",
      "300C",
      "300C",
      "300C",
      "300C",
      "300C",
      "300C",
      "300C",
      "300C",
      "300C",
      "300C",
      "300C",
      "300C",
      "300C",
      "300C",
      "300C",
      "300C",
      "313",
      "327",
      "337",
      "348",
      "355",
      "360C",
      "360C",
      "360C",
      "360C",
      "360C",
      "360C",
      "360C",
      "360C",
      "360C",
      "360C",
      "360C",
      "360C",
      "360C",
      "360C",
      "360C",
      "360C",
      "360C",
      "360C",
      "360C",
      "361C",
      "360C",
      "360C",
      "360C",
      "360C",
      "361C",
      "360C",
      "360C",
      "360C",
      "360",
      "360",
      "360",
      "349",
      "317",
      "294",
      "276",
      "254",
      "254",
      "234",
      "225",
      "208",
      "196",
      "188",
      "176",
      "169",
      "158",
      "152",
      "142",
      "136",
      "125",
      "120",
      "112",
      "109",
      "105",
      "103",
      "099",
      "096",
      "086",
      "082",
      "076",
      "073",
      "066",
      "059",
      "056",
      "051",
      "048",
      "038",
      "034",
      "029",
      "024",
      "018",
      "015",
      "009",
      "006",
      "002"
    ],
    "swim:geom": "path",
    "swim:speeds": [
      172,
      199,
      208,
      258,
      255,
      292,
      287,
      309,
      326,
      323,
      339,
      338,
      346,
      354,
      363,
      366,
      380,
      394,
      444,
      447,
      450,
      449,
      449,
      451,
      459,
      460,
      462,
      462,
      463,
      467,
      463,
      452,
      451,
      451,
      449,
      448,
      449,
      449,
      445,
      444,
      444,
      444,
      452,
      453,
      451,
      451,
      453,
      449,
      428,
      431,
      428,
      428,
      433,
      453,
      475,
      481,
      487,
      483,
      480,
      478,
      496,
      499,
      500,
      500,
      498,
      497,
      498,
      499,
      501,
      502,
      480,
      457,
      451,
      450,
      450,
      451,
      452,
      452,
      452,
      453,
      454,
      455,
      456,
      456,
      467,
      467,
      460,
      441,
      442,
      420,
      407,
      390,
      383,
      374,
      369,
      357,
      359,
      350,
      345,
      342,
      342,
      333,
      327,
      305,
      294,
      278,
      256,
      236,
      237,
      236,
      235,
      236,
      231,
      233,
      231,
      232,
      230,
      226,
      219,
      203,
      201,
      198,
      182,
      154,
      141,
      134
    ],
    "swim:timestamps": [
      1786583587,
      1786583629,
      1786583647,
      1786583689,
      1786583707,
      1786583755,
      1786583767,
      1786583827,
      1786583870,
      1786583887,
      1786583930,
      1786583947,
      1786584006,
      1786584066,
      1786584126,
      1786584186,
      1786584246,
      1786584306,
      1786584367,
      1786584427,
      1786584487,
      1786584547,
      1786584607,
      1786584667,
      1786584727,
      1786584787,
      1786584847,
      1786584907,
      1786584967,
      1786585028,
      1786585088,
      1786585148,
      1786585208,
      1786585268,
      1786585388,
      1786585448,
      1786585508,
      1786585568,
      1786585628,
      1786585688,
      1786585749,
      1786585809,
      1786585869,
      1786585929,
      1786585989,
      1786586049,
      1786586109,
      1786586169,
      1786586229,
      1786586289,
      1786586349,
      1786586410,
      1786586470,
      1786586530,
      1786586590,
      1786586650,
      1786586709,
      1786586769,
      1786586829,
      1786586890,
      1786586949,
      1786587010,
      1786587071,
      1786587129,
      1786587191,
      1786587251,
      1786587309,
      1786587371,
      1786587431,
      1786587490,
      1786587551,
      1786587611,
      1786587670,
      1786587730,
      1786587790,
      1786587850,
      1786587910,
      1786587970,
      1786588030,
      1786588090,
      1786588151,
      1786588211,
      1786588271,
      1786588331,
      1786588391,
      1786588451,
      1786588511,
      1786588561,
      1786588571,
      1786588631,
      1786588645,
      1786588700,
      1786588751,
      1786588765,
      1786588811,
      1786588825,
      1786588871,
      1786588885,
      1786588931,
      1786588945,
      1786588991,
      1786589005,
      1786589052,
      1786589065,
      1786589112,
      1786589126,
      1786589172,
      1786589179,
      1786589232,
      1786589240,
      1786589292,
      1786589305,
      1786589360,
      1786589412,
      1786589425,
      1786589472,
      1786589480,
      1786589532,
      1786589546,
      1786589592,
      1786589606,
      1786589652,
      1786589660,
      1786589712,
      1786589726,
      1786589772
    ],
    "wof:geomhash": "84e57ab68701d6db9d130266a798ef1d",
    "wof:id": 2047938123,
    "wof:repo": "sfomuseum-data-flights-2026-08"
  },
  "bbox": [
    -122.35222222222221,
    33.43333333333333,
    -111.82111111111111,
    37.97916666666667
  ],
  "geometry": {"type":"LineString","coordinates":[[-112.03333333333333,33.43333333333333],[-112.06666666666666,33.45],[-112.07638888888889,33.45027777777778],[-112.13333333333334,33.483333333333334],[-112.1413888888889,33.4925],[-112.13333333333334,33.56666666666667],[-112.12888888888888,33.56888888888889],[-112.07972222222222,33.64361111111111],[-112.03333333333333,33.7],[-112.02166666666666,33.721111111111114],[-111.98333333333333,33.78333333333333],[-111.96222222222222,33.801111111111105],[-111.90666666666667,33.87722222222222],[-111.89611111111111,33.97138888888889],[-111.92500000000001,34.07361111111111],[-111.93444444444445,34.17638888888889],[-111.91277777777778,34.282222222222224],[-111.89333333333335,34.39361111111111],[-111.8775,34.514722222222225],[-111.86,34.640277777777776],[-111.84583333333333,34.764722222222225],[-111.83805555555556,34.88861111111111],[-111.82944444444443,35.0125],[-111.82111111111111,35.13805555555555],[-111.82305555555556,35.265277777777776],[-111.8711111111111,35.38527777777778],[-111.92777777777778,35.50527777777778],[-111.98555555555555,35.626111111111115],[-112.0425,35.745555555555555],[-112.10249999999999,35.863055555555555],[-112.22027777777778,35.948055555555555],[-112.37138888888889,35.96527777777778],[-112.52361111111111,35.968611111111116],[-112.67750000000001,35.971944444444446],[-112.9825,35.97777777777778],[-113.16388888888889,35.980555555555554],[-113.28972222222222,35.9825],[-113.44305555555556,35.984722222222224],[-113.59527777777777,35.986666666666665],[-113.74638888888889,35.98833333333334],[-113.89972222222222,35.99],[-114.08111111111111,35.99166666666667],[-114.2325,36.01888888888889],[-114.38277777777778,36.05472222222222],[-114.53027777777778,36.08972222222222],[-114.67777777777778,36.124722222222225],[-114.82777777777777,36.16],[-114.97777777777777,36.19499999999999],[-115.11833333333333,36.22777777777778],[-115.26138888888889,36.26083333333333],[-115.40166666666667,36.293055555555554],[-115.53555555555555,36.33361111111111],[-115.66222222222223,36.38333333333333],[-115.80055555555555,36.43722222222222],[-115.95444444444445,36.496944444444445],[-116.10527777777777,36.555277777777775],[-116.25888888888889,36.614444444444445],[-116.40972222222223,36.67222222222222],[-116.56,36.72944444444445],[-116.70277777777778,36.79527777777778],[-116.82277777777777,36.89222222222222],[-116.92111111111112,37.00805555555556],[-117.01916666666666,37.124722222222225],[-117.11555555555555,37.23888888888889],[-117.21305555555556,37.35388888888889],[-117.31027777777777,37.46805555555556],[-117.4088888888889,37.58361111111111],[-117.50888888888889,37.70027777777778],[-117.60944444444443,37.8175],[-117.69333333333334,37.91],[-117.83916666666666,37.97916666666667],[-118.00027777777778,37.97916666666667],[-118.1563888888889,37.962500000000006],[-118.31416666666667,37.94555555555555],[-118.47111111111111,37.92833333333333],[-118.62916666666666,37.91083333333333],[-118.78472222222221,37.89333333333333],[-118.94305555555556,37.875277777777775],[-119.12277777777777,37.85444444444445],[-119.28027777777778,37.836111111111116],[-119.44,37.81722222222223],[-119.59638888888888,37.79861111111111],[-119.75527777777778,37.779444444444444],[-119.91416666666667,37.76],[-120.0761111111111,37.74],[-120.23611111111111,37.72027777777778],[-120.36361111111111,37.70416666666667],[-120.51666666666667,37.68333333333333],[-120.52,37.68527777777778],[-120.66666666666667,37.66833333333333],[-120.73333333333333,37.666666666666664],[-120.85,37.65],[-120.9413888888889,37.635555555555555],[-121,37.63333333333333],[-121.07083333333333,37.618611111111115],[-121.11666666666666,37.61666666666667],[-121.19777777777779,37.60138888888889],[-121.25,37.6],[-121.31666666666666,37.586111111111116],[-121.36666666666666,37.583333333333336],[-121.43444444444445,37.573055555555555],[-121.48333333333333,37.56666666666667],[-121.54777777777778,37.55972222222222],[-121.58333333333333,37.55],[-121.65138888888889,37.55888888888889],[-121.68333333333334,37.56666666666667],[-121.73694444444445,37.58527777777778],[-121.75,37.583333333333336],[-121.77694444444444,37.532777777777774],[-121.78333333333333,37.516666666666666],[-121.81222222222222,37.477222222222224],[-121.85,37.483333333333334],[-121.91666666666667,37.483333333333334],[-121.97416666666666,37.4925],[-122,37.5],[-122.04944444444445,37.514722222222225],[-122.06666666666666,37.516666666666666],[-122.12166666666666,37.53805555555555],[-122.15,37.55],[-122.18972222222223,37.559999999999995],[-122.21666666666667,37.56666666666667],[-122.25444444444445,37.58111111111111],[-122.26666666666667,37.583333333333336],[-122.30833333333334,37.596944444444446],[-122.33333333333333,37.6],[-122.35222222222221,37.61138888888889]]}
}
