{
  "id": 2047941317,
  "type": "Feature",
  "properties": {
    "geom:area": 0,
    "geom:bbox": "-122.340070,37.491980,-121.294180,37.606480",
    "geom:latitude": 37.54386998992281,
    "geom:longitude": -121.82142896253755,
    "src:alt_label": "swim-approach",
    "src:geom": "swim",
    "swim:elevations": [
      4464,
      4367,
      4020,
      3801,
      3605,
      3408,
      3267,
      3154,
      2990,
      2896,
      2774,
      2568,
      2436,
      2339,
      2042,
      1935,
      1837,
      1740,
      1693,
      1483,
      1307,
      1087,
      870,
      590,
      423,
      271,
      109
    ],
    "swim:geom": "approach",
    "swim:timestamps": [
      1786531075,
      1786531084,
      1786531123,
      1786531147,
      1786531170,
      1786531193,
      1786531223,
      1786531254,
      1786531280,
      1786531291,
      1786531305,
      1786531339,
      1786531374,
      1786531386,
      1786531433,
      1786531460,
      1786531483,
      1786531524,
      1786531536,
      1786531587,
      1786531611,
      1786531642,
      1786531673,
      1786531705,
      1786531740,
      1786531777,
      1786531819
    ],
    "wof:geomhash": "72daec4ec81aef045ce1712672fd3934",
    "wof:id": 2047941317,
    "wof:repo": "sfomuseum-data-flights-2026-08"
  },
  "bbox": [
    -122.34007,
    37.49198,
    -121.29418,
    37.60648
  ],
  "geometry": {"type":"LineString","coordinates":[[-121.29418,37.58863],[-121.31187,37.58661],[-121.38907,37.5782],[-121.43428,37.57301],[-121.47761,37.56795],[-121.52118,37.56291],[-121.57641,37.55643],[-121.62881,37.54964],[-121.67007,37.5398],[-121.68847,37.53539],[-121.7105,37.53022],[-121.76384,37.51742],[-121.81545,37.50507],[-121.83437,37.50051],[-121.90434,37.49198],[-121.9473,37.49306],[-121.98114,37.49432],[-122.03861,37.51156],[-122.05496,37.51679],[-122.1165,37.53666],[-122.1438,37.5453],[-122.17738,37.55622],[-122.21026,37.56699],[-122.24388,37.57749],[-122.27756,37.58799],[-122.30681,37.59639],[-122.34007,37.60648]]}
}
