{
  "id": 2048068517,
  "type": "Feature",
  "properties": {
    "geom:area": 0,
    "geom:bbox": "-122.625630,36.728170,-122.285740,37.344100",
    "geom:latitude": 37.01052926363843,
    "geom:longitude": -122.50343550782014,
    "src:alt_label": "swim-takeoff",
    "src:geom": "swim",
    "swim:elevations": [
      4419,
      4889,
      5489,
      5863,
      5931,
      6269,
      6794,
      6907,
      7191,
      7551,
      7836,
      8004,
      8154
    ],
    "swim:geom": "takeoff",
    "swim:timestamps": [
      1787164892,
      1787164931,
      1787164977,
      1787165006,
      1787165012,
      1787165042,
      1787165098,
      1787165109,
      1787165142,
      1787165186,
      1787165218,
      1787165234,
      1787165251
    ],
    "wof:geomhash": "5c3aec493a9de56f31200b0bd8ec5870",
    "wof:id": 2048068517,
    "wof:repo": "sfomuseum-data-flights-2026-08"
  },
  "bbox": [
    -122.62563,
    36.72817,
    -122.28574,
    37.3441
  ],
  "geometry": {"type":"LineString","coordinates":[[-122.62563,37.3441],[-122.61331,37.27642],[-122.59797,37.19247],[-122.58832,37.14029],[-122.58615,37.12825],[-122.57618,37.07313],[-122.53424,36.97205],[-122.51731,36.95476],[-122.46516,36.90397],[-122.39187,36.83262],[-122.33934,36.78045],[-122.31266,36.75452],[-122.28574,36.72817]]}
}
