{
  "id": 2047930327,
  "type": "Feature",
  "properties": {
    "geom:area": 0,
    "geom:bbox": "-122.389210,37.624640,-121.260790,38.416000",
    "geom:latitude": 38.02582218253758,
    "geom:longitude": -121.83549505491,
    "src:alt_label": "swim-takeoff",
    "src:geom": "swim",
    "swim:elevations": [
      207,
      786,
      1097,
      1392,
      1605,
      1881,
      2110,
      2314,
      2491,
      2654,
      3043,
      3278,
      3711,
      3993,
      4135,
      4668,
      4813,
      4937,
      4987,
      5360,
      5399,
      5420,
      5439,
      5458,
      5560,
      6379,
      6688
    ],
    "swim:geom": "takeoff",
    "swim:timestamps": [
      1786442225,
      1786442289,
      1786442329,
      1786442366,
      1786442387,
      1786442413,
      1786442433,
      1786442454,
      1786442472,
      1786442488,
      1786442524,
      1786442561,
      1786442623,
      1786442654,
      1786442671,
      1786442723,
      1786442743,
      1786442760,
      1786442767,
      1786442811,
      1786442816,
      1786442819,
      1786442822,
      1786442825,
      1786442839,
      1786442953,
      1786443008
    ],
    "wof:geomhash": "8e7b22e337c6a36fe6f653cf37f62dcb",
    "wof:id": 2047930327,
    "wof:repo": "sfomuseum-data-flights-2026-08"
  },
  "bbox": [
    -122.38921,
    37.62464,
    -121.26079,
    38.416
  ],
  "geometry": {"type":"LineString","coordinates":[[-122.38921,37.62464],[-122.37059,37.66047],[-122.32452,37.6769],[-122.27459,37.6956],[-122.24292,37.7074],[-122.20802,37.72546],[-122.18848,37.74767],[-122.16679,37.77114],[-122.14894,37.79061],[-122.1314,37.80997],[-122.09307,37.85221],[-122.04734,37.89354],[-121.94877,37.96075],[-121.89597,37.99652],[-121.86765,38.01567],[-121.77821,38.07602],[-121.74577,38.09784],[-121.71524,38.11846],[-121.70295,38.12667],[-121.62705,38.17766],[-121.61824,38.18354],[-121.61295,38.18711],[-121.60761,38.19068],[-121.60225,38.19425],[-121.57546,38.21218],[-121.36774,38.35006],[-121.26079,38.416]]}
}
