{
  "id": 2032092685,
  "type": "Feature",
  "properties": {
    "geom:area": 0,
    "geom:bbox": "-122.528830,37.638500,-121.250220,38.422640",
    "geom:latitude": 38.04385190714088,
    "geom:longitude": -121.95342943291583,
    "src:alt_label": "swim-takeoff",
    "src:geom": "swim",
    "swim:elevations": [
      484,
      737,
      1038,
      1209,
      1276,
      1380,
      1569,
      2211,
      3102,
      3430,
      3675,
      3846,
      4163,
      4515,
      5024,
      5090,
      5233,
      5590,
      5916,
      5991,
      6190,
      6361,
      6540,
      6567,
      6675,
      6948,
      7218,
      7556
    ],
    "swim:geom": "takeoff",
    "swim:timestamps": [
      1785755318,
      1785755349,
      1785755378,
      1785755408,
      1785755427,
      1785755436,
      1785755460,
      1785755522,
      1785755593,
      1785755645,
      1785755685,
      1785755704,
      1785755735,
      1785755775,
      1785755829,
      1785755840,
      1785755853,
      1785755893,
      1785755933,
      1785755943,
      1785755966,
      1785755989,
      1785756005,
      1785756014,
      1785756030,
      1785756071,
      1785756109,
      1785756158
    ],
    "wof:geomhash": "4c722cfcd1cb5f34bad6b25bc76609bf",
    "wof:id": 2032092685,
    "wof:repo": "sfomuseum-data-flights-2026-08"
  },
  "bbox": [
    -122.52883,
    37.6385,
    -121.25022,
    38.42264
  ],
  "geometry": {"type":"LineString","coordinates":[[-122.42186,37.6385],[-122.45251,37.65171],[-122.48283,37.66482],[-122.51413,37.68108],[-122.52717,37.70004],[-122.52883,37.71092],[-122.52722,37.74023],[-122.46609,37.79878],[-122.36097,37.85014],[-122.27847,37.89109],[-122.20762,37.9264],[-122.17298,37.94393],[-122.11558,37.97339],[-122.04111,38.01125],[-121.93568,38.0641],[-121.91438,38.0748],[-121.88816,38.0879],[-121.80925,38.12745],[-121.72682,38.16871],[-121.70668,38.17884],[-121.65832,38.20292],[-121.6101,38.22692],[-121.57642,38.24324],[-121.55849,38.2526],[-121.52456,38.26947],[-121.43478,38.31377],[-121.35137,38.35961],[-121.25022,38.42264]]}
}
