{
  "id": 2047931789,
  "type": "Feature",
  "properties": {
    "geom:area": 0,
    "geom:bbox": "-122.408333,37.633333,-70.683333,44.683889",
    "geom:latitude": 42.895899466304726,
    "geom:longitude": -96.7550220827876,
    "src:alt_label": "swim-path",
    "src:geom": "swim",
    "swim:altitudes": [
      "006",
      "011",
      "029",
      "040",
      "057",
      "075",
      "093",
      "107",
      "130",
      "147",
      "164",
      "177",
      "190",
      "205",
      "216",
      "225",
      "232",
      "234",
      "245",
      "252",
      "255",
      "261",
      "264",
      "273",
      "276",
      "283",
      "286",
      "292",
      "296",
      "301",
      "308C",
      "310C",
      "310C",
      "310C",
      "310C",
      "310C",
      "310C",
      "310C",
      "310C",
      "310C",
      "310C",
      "310C",
      "310C",
      "310C",
      "310C",
      "310C",
      "310C",
      "310C",
      "310C",
      "310C",
      "310C",
      "310C",
      "310C",
      "310C",
      "310C",
      "310C",
      "310C",
      "310C",
      "310C",
      "310C",
      "310C",
      "310C",
      "310C",
      "310C",
      "310C",
      "310C",
      "310C",
      "310C",
      "310C",
      "310C",
      "310C",
      "310",
      "314",
      "324",
      "330C",
      "330C",
      "330C",
      "330C",
      "330C",
      "330C",
      "330C",
      "330C",
      "330C",
      "330C",
      "330C",
      "330C",
      "330C",
      "330C",
      "330C",
      "330C",
      "330C",
      "330C",
      "330C",
      "330C",
      "330C",
      "330C",
      "330C",
      "330C",
      "330C",
      "330C",
      "330C",
      "330C",
      "330C",
      "330C",
      "330C",
      "330C",
      "330C",
      "330C",
      "330C",
      "330C",
      "330C",
      "330C",
      "330C",
      "330C",
      "330C",
      "330C",
      "330C",
      "330C",
      "330C",
      "330C",
      "330C",
      "330C",
      "330C",
      "330C",
      "330C",
      "330C",
      "330C",
      "330C",
      "330C",
      "330C",
      "330C",
      "330C",
      "330C",
      "330C",
      "330C",
      "330C",
      "330C",
      "330C",
      "330C",
      "330C",
      "330C",
      "330C",
      "330C",
      "330C",
      "330C",
      "330C",
      "330C",
      "330C",
      "330C",
      "330C",
      "330C",
      "330C",
      "330C",
      "330C",
      "330C",
      "330C",
      "330C",
      "330C",
      "330C",
      "330C",
      "330C",
      "330C",
      "330C",
      "330C",
      "330C",
      "330C",
      "330C",
      "330C",
      "330C",
      "330C",
      "330C",
      "330C",
      "330C",
      "330C",
      "330C",
      "330C",
      "330C",
      "330C",
      "330C",
      "330C",
      "330C",
      "330C",
      "330C",
      "330C",
      "330C",
      "330C",
      "330C",
      "330C",
      "330C",
      "330C",
      "330C",
      "330C",
      "330C",
      "330C",
      "330C",
      "330C",
      "330C",
      "330C",
      "330C",
      "330C",
      "330C",
      "330C",
      "330C",
      "330C",
      "330C",
      "330C",
      "330C",
      "330C",
      "330C",
      "330C",
      "330C",
      "330C",
      "330C",
      "330C",
      "330C",
      "330C",
      "330C",
      "330C",
      "330C",
      "330C",
      "330C",
      "330C",
      "330C",
      "330C",
      "330C",
      "330C",
      "330C",
      "330C",
      "330C",
      "330",
      "321",
      "312C",
      "310C",
      "310C",
      "310C",
      "310C",
      "310C",
      "310C",
      "310C",
      "310C",
      "310C",
      "310C",
      "310C",
      "310C",
      "310C",
      "310C",
      "310C",
      "310C",
      "310C",
      "310C",
      "310C",
      "310C",
      "310C",
      "310C",
      "310C",
      "310C",
      "310C",
      "310C",
      "310C",
      "310C",
      "310C",
      "310C",
      "310C",
      "310C",
      "310C",
      "310C",
      "310C",
      "310C",
      "310C",
      "310C",
      "310C",
      "310C",
      "310C",
      "310C",
      "310C",
      "310C",
      "310C",
      "310C",
      "310C",
      "310C",
      "310C",
      "310C",
      "310C",
      "310C",
      "310C",
      "310C",
      "310C",
      "310C",
      "310C",
      "310C",
      "310C",
      "310C",
      "310C",
      "310C",
      "310C",
      "310C",
      "310C",
      "310C",
      "310",
      "310",
      "303",
      "291",
      "275",
      "259",
      "246",
      "224",
      "201",
      "177",
      "163",
      "160",
      "142",
      "138",
      "130",
      "121",
      "112C",
      "108",
      "101",
      "100",
      "093",
      "090",
      "081",
      "080",
      "080",
      "080",
      "078",
      "068",
      "064",
      "057",
      "052",
      "041",
      "035",
      "030",
      "030",
      "030",
      "030",
      "026",
      "023",
      "017",
      "014",
      "009",
      "007",
      "110"
    ],
    "swim:geom": "path",
    "swim:speeds": [
      188,
      188,
      207,
      247,
      279,
      294,
      308,
      332,
      392,
      402,
      404,
      416,
      421,
      426,
      433,
      444,
      463,
      454,
      462,
      463,
      467,
      470,
      474,
      475,
      476,
      475,
      475,
      475,
      476,
      476,
      476,
      494,
      495,
      497,
      496,
      499,
      500,
      501,
      504,
      501,
      503,
      502,
      503,
      502,
      502,
      501,
      502,
      502,
      503,
      502,
      504,
      504,
      505,
      506,
      507,
      507,
      508,
      508,
      509,
      509,
      509,
      509,
      509,
      509,
      510,
      509,
      510,
      510,
      510,
      510,
      511,
      512,
      512,
      512,
      508,
      508,
      509,
      512,
      513,
      512,
      512,
      512,
      513,
      514,
      515,
      518,
      518,
      518,
      518,
      518,
      518,
      517,
      517,
      517,
      517,
      517,
      518,
      519,
      521,
      521,
      522,
      521,
      521,
      522,
      522,
      523,
      523,
      523,
      524,
      522,
      524,
      522,
      523,
      521,
      523,
      523,
      524,
      524,
      525,
      525,
      525,
      524,
      523,
      522,
      522,
      522,
      521,
      520,
      519,
      519,
      518,
      517,
      517,
      516,
      516,
      516,
      516,
      516,
      516,
      516,
      517,
      517,
      517,
      518,
      519,
      519,
      520,
      520,
      518,
      515,
      513,
      511,
      511,
      510,
      510,
      511,
      512,
      513,
      513,
      513,
      513,
      512,
      511,
      510,
      511,
      511,
      511,
      512,
      515,
      516,
      516,
      516,
      516,
      516,
      517,
      518,
      518,
      518,
      519,
      519,
      519,
      518,
      517,
      516,
      515,
      513,
      511,
      509,
      507,
      506,
      507,
      508,
      509,
      511,
      512,
      513,
      515,
      516,
      517,
      517,
      518,
      517,
      517,
      518,
      518,
      519,
      519,
      520,
      521,
      522,
      523,
      524,
      524,
      523,
      523,
      523,
      523,
      523,
      523,
      523,
      523,
      522,
      521,
      521,
      521,
      524,
      532,
      537,
      542,
      538,
      537,
      542,
      544,
      547,
      549,
      551,
      553,
      554,
      553,
      551,
      550,
      549,
      547,
      547,
      547,
      547,
      548,
      548,
      548,
      547,
      546,
      545,
      543,
      541,
      541,
      509,
      534,
      536,
      537,
      538,
      539,
      539,
      539,
      540,
      542,
      543,
      544,
      544,
      544,
      544,
      545,
      547,
      547,
      548,
      550,
      549,
      550,
      551,
      551,
      551,
      551,
      551,
      552,
      552,
      552,
      551,
      550,
      550,
      548,
      547,
      548,
      546,
      547,
      546,
      546,
      548,
      550,
      552,
      554,
      555,
      544,
      513,
      489,
      477,
      467,
      451,
      449,
      432,
      408,
      411,
      401,
      393,
      391,
      380,
      366,
      357,
      352,
      333,
      319,
      311,
      308,
      294,
      290,
      287,
      250,
      253,
      244,
      228,
      221,
      219,
      217,
      208,
      181,
      176,
      172,
      174,
      167,
      164,
      163,
      163,
      159,
      161
    ],
    "swim:timestamps": [
      1786462586,
      1786462602,
      1786462663,
      1786462723,
      1786462783,
      1786462843,
      1786462903,
      1786462963,
      1786463083,
      1786463143,
      1786463203,
      1786463263,
      1786463323,
      1786463383,
      1786463444,
      1786463504,
      1786463550,
      1786463564,
      1786463624,
      1786463670,
      1786463684,
      1786463731,
      1786463744,
      1786463791,
      1786463804,
      1786463851,
      1786463864,
      1786463911,
      1786463924,
      1786463971,
      1786464031,
      1786464104,
      1786464151,
      1786464164,
      1786464211,
      1786464225,
      1786464271,
      1786464285,
      1786464331,
      1786464345,
      1786464391,
      1786464405,
      1786464452,
      1786464465,
      1786464512,
      1786464525,
      1786464572,
      1786464585,
      1786464632,
      1786464645,
      1786464692,
      1786464705,
      1786464752,
      1786464765,
      1786464812,
      1786464825,
      1786464872,
      1786464885,
      1786464932,
      1786464945,
      1786464992,
      1786465006,
      1786465052,
      1786465066,
      1786465112,
      1786465138,
      1786465172,
      1786465198,
      1786465233,
      1786465258,
      1786465293,
      1786465353,
      1786465413,
      1786465473,
      1786465533,
      1786465593,
      1786465653,
      1786465773,
      1786465893,
      1786465954,
      1786466014,
      1786466074,
      1786466134,
      1786466194,
      1786466254,
      1786466434,
      1786466494,
      1786466554,
      1786466614,
      1786466675,
      1786466735,
      1786466795,
      1786466855,
      1786466915,
      1786466975,
      1786467035,
      1786467095,
      1786467155,
      1786467215,
      1786467275,
      1786467335,
      1786467395,
      1786467456,
      1786467516,
      1786467576,
      1786467636,
      1786467696,
      1786467756,
      1786467797,
      1786467816,
      1786467857,
      1786467876,
      1786467917,
      1786467936,
      1786467977,
      1786467996,
      1786468037,
      1786468056,
      1786468097,
      1786468116,
      1786468157,
      1786468177,
      1786468218,
      1786468237,
      1786468278,
      1786468297,
      1786468338,
      1786468357,
      1786468398,
      1786468417,
      1786468458,
      1786468477,
      1786468518,
      1786468537,
      1786468578,
      1786468597,
      1786468638,
      1786468657,
      1786468698,
      1786468717,
      1786468758,
      1786468818,
      1786468878,
      1786468939,
      1786468999,
      1786469059,
      1786469119,
      1786469179,
      1786469239,
      1786469299,
      1786469359,
      1786469419,
      1786469479,
      1786469539,
      1786469599,
      1786469660,
      1786469720,
      1786469780,
      1786469840,
      1786469900,
      1786469960,
      1786470020,
      1786470080,
      1786470140,
      1786470200,
      1786470260,
      1786470320,
      1786470381,
      1786470505,
      1786470565,
      1786470625,
      1786470685,
      1786470745,
      1786470805,
      1786470865,
      1786470925,
      1786470985,
      1786471046,
      1786471106,
      1786471166,
      1786471226,
      1786471286,
      1786471346,
      1786471406,
      1786471466,
      1786471526,
      1786471586,
      1786471646,
      1786471706,
      1786471766,
      1786471827,
      1786471887,
      1786471947,
      1786472007,
      1786472067,
      1786472127,
      1786472187,
      1786472247,
      1786472307,
      1786472367,
      1786472427,
      1786472487,
      1786472548,
      1786472608,
      1786472668,
      1786472728,
      1786472788,
      1786472848,
      1786472908,
      1786472968,
      1786473028,
      1786473088,
      1786473148,
      1786473208,
      1786473269,
      1786473329,
      1786473389,
      1786473449,
      1786473509,
      1786473569,
      1786473629,
      1786473689,
      1786473749,
      1786473809,
      1786473869,
      1786473929,
      1786473990,
      1786474050,
      1786474110,
      1786474170,
      1786474230,
      1786474290,
      1786474350,
      1786474410,
      1786474470,
      1786474530,
      1786474590,
      1786474650,
      1786474711,
      1786474771,
      1786474831,
      1786474891,
      1786474951,
      1786475011,
      1786475071,
      1786475131,
      1786475191,
      1786475251,
      1786475311,
      1786475371,
      1786475432,
      1786475492,
      1786475552,
      1786475612,
      1786475672,
      1786475822,
      1786475882,
      1786475942,
      1786476002,
      1786476062,
      1786476122,
      1786476182,
      1786476243,
      1786476303,
      1786476423,
      1786476483,
      1786476543,
      1786476663,
      1786476723,
      1786476783,
      1786476844,
      1786476964,
      1786477024,
      1786477084,
      1786477137,
      1786477144,
      1786477204,
      1786477264,
      1786477324,
      1786477384,
      1786477438,
      1786477445,
      1786477498,
      1786477565,
      1786477625,
      1786477685,
      1786477738,
      1786477745,
      1786477798,
      1786477858,
      1786477865,
      1786477918,
      1786477925,
      1786477985,
      1786478099,
      1786478159,
      1786478219,
      1786478279,
      1786478339,
      1786478399,
      1786478459,
      1786478519,
      1786478579,
      1786478639,
      1786478700,
      1786478760,
      1786478820,
      1786478880,
      1786478927,
      1786478940,
      1786479000,
      1786479011,
      1786479060,
      1786479077,
      1786479120,
      1786479137,
      1786479180,
      1786479197,
      1786479240,
      1786479257,
      1786479300,
      1786479312,
      1786479360,
      1786479372,
      1786479437,
      1786479481,
      1786479497,
      1786479541,
      1786479557,
      1786479601,
      1786479617,
      1786479661,
      1786479677,
      1786479721,
      1786479738,
      1786479781,
      1786479798,
      1786479841,
      1786479858,
      1786479901,
      1786479912,
      1786479961
    ],
    "wof:geomhash": "2c9fdfdd53d9458e5022dc15c626f761",
    "wof:id": 2047931789,
    "wof:repo": "sfomuseum-data-flights-2026-08"
  },
  "bbox": [
    -122.40833333333335,
    37.63333333333333,
    -70.68333333333334,
    44.68388888888889
  ],
  "geometry": {"type":"LineString","coordinates":[[-122.4,37.63333333333333],[-122.40833333333335,37.63444444444444],[-122.3711111111111,37.67111111111111],[-122.29555555555555,37.69361111111111],[-122.2075,37.724444444444444],[-122.14888888888889,37.79055555555556],[-122.08555555555554,37.859722222222224],[-122.00527777777778,37.92222222222222],[-121.80583333333333,38.0575],[-121.69694444444445,38.130833333333335],[-121.58833333333332,38.20333333333333],[-121.47611111111111,38.27861111111111],[-121.36166666666666,38.35416666666667],[-121.24388888888889,38.42611111111111],[-121.1261111111111,38.49916666666667],[-121.00472222222223,38.57416666666667],[-120.91166666666668,38.63111111111111],[-120.87916666666666,38.651111111111106],[-120.74805555555555,38.731388888888894],[-120.65111111111112,38.78805555555555],[-120.61666666666666,38.811388888888885],[-120.51722222222222,38.86944444444445],[-120.48305555555555,38.89222222222222],[-120.3825,38.95111111111111],[-120.34888888888888,38.973055555555554],[-120.24888888888889,39.03194444444444],[-120.215,39.053888888888885],[-120.11416666666666,39.11194444444445],[-120.05916666666667,39.14694444444444],[-119.97805555555556,39.19444444444444],[-119.8411111111111,39.275],[-119.64416666666668,39.39277777777778],[-119.5586111111111,39.44194444444444],[-119.49888888888889,39.47777777777778],[-119.41388888888889,39.52583333333333],[-119.35583333333332,39.56166666666666],[-119.26944444444445,39.61222222222222],[-119.20861111111111,39.6475],[-119.09416666666667,39.71388888888889],[-119.06305555555555,39.731944444444444],[-118.9775,39.78138888888889],[-118.91666666666667,39.81638888888889],[-118.83277777777778,39.864444444444445],[-118.79888888888888,39.8825],[-118.67416666666666,39.93472222222222],[-118.63916666666667,39.94888888888889],[-118.51222222222222,40.00055555555556],[-118.47805555555556,40.01444444444444],[-118.35416666666666,40.06444444444444],[-118.31638888888888,40.07972222222222],[-118.19194444444445,40.12972222222222],[-118.15222222222222,40.145833333333336],[-118.02833333333334,40.195277777777775],[-117.98555555555555,40.20916666666667],[-117.85666666666665,40.24805555555556],[-117.785,40.26972222222222],[-117.68333333333334,40.3],[-117.61194444444443,40.321111111111115],[-117.51138888888889,40.350833333333334],[-117.43861111111111,40.3725],[-117.33805555555556,40.40222222222222],[-117.26583333333333,40.42333333333333],[-117.16444444444446,40.45305555555556],[-117.125,40.464444444444446],[-116.9875,40.504444444444445],[-116.94916666666667,40.51555555555556],[-116.80805555555555,40.55611111111111],[-116.73305555555555,40.57805555555556],[-116.63083333333333,40.60722222222223],[-116.55805555555555,40.628055555555555],[-116.45527777777778,40.657222222222224],[-116.2761111111111,40.70805555555556],[-116.10027777777778,40.75833333333333],[-115.92527777777778,40.808055555555555],[-115.75222222222222,40.85444444444445],[-115.57916666666667,40.901944444444446],[-115.40222222222222,40.95055555555556],[-115.0475,41.04666666666667],[-114.68388888888889,41.14333333333333],[-114.50527777777778,41.190555555555555],[-114.3261111111111,41.237500000000004],[-114.15,41.28333333333333],[-113.96833333333333,41.33027777777778],[-113.78861111111111,41.37638888888889],[-113.60916666666667,41.42472222222222],[-113.06444444444445,41.56805555555556],[-112.885,41.614444444444445],[-112.70055555555555,41.66166666666666],[-112.5175,41.708333333333336],[-112.335,41.75472222222222],[-112.15111111111112,41.80083333333333],[-111.96916666666667,41.846111111111114],[-111.7863888888889,41.89138888888889],[-111.6,41.93722222222222],[-111.41666666666667,41.98166666666667],[-111.23444444444445,42.025555555555556],[-111.04861111111111,42.07027777777778],[-110.88027777777778,42.11027777777778],[-110.69472222222223,42.153888888888886],[-110.50888888888889,42.197222222222216],[-110.32166666666666,42.240833333333335],[-110.1363888888889,42.28333333333333],[-109.94694444444445,42.32638888888889],[-109.75916666666667,42.36888888888889],[-109.57138888888889,42.41111111111111],[-109.38305555555554,42.45277777777778],[-109.19388888888889,42.49444444444445],[-109.00305555555556,42.53611111111111],[-108.88916666666667,42.56027777777778],[-108.81666666666666,42.57638888888889],[-108.70194444444445,42.60194444444445],[-108.62722222222222,42.617222222222225],[-108.47527777777778,42.64944444444444],[-108.43666666666667,42.657777777777774],[-108.28805555555556,42.689166666666665],[-108.2475,42.69777777777777],[-108.095,42.72944444444445],[-108.05694444444444,42.73722222222222],[-107.94194444444445,42.76111111111111],[-107.86388888888888,42.776944444444446],[-107.74916666666667,42.80027777777777],[-107.67527777777778,42.815555555555555],[-107.5225,42.84666666666667],[-107.48527777777778,42.85416666666667],[-107.33305555555555,42.885],[-107.29472222222222,42.89277777777778],[-107.16055555555556,42.919444444444444],[-107.1061111111111,42.930277777777775],[-106.97277777777778,42.95638888888889],[-106.89722222222223,42.971111111111114],[-106.78222222222222,42.993611111111115],[-106.70805555555556,43.00805555555556],[-106.59583333333333,43.02972222222222],[-106.51805555555555,43.04472222222222],[-106.40694444444445,43.06583333333333],[-106.32916666666667,43.08083333333334],[-106.21611111111112,43.10194444444445],[-106.13777777777779,43.11527777777778],[-106.02472222222222,43.134166666666665],[-105.94583333333334,43.14722222222222],[-105.83333333333333,43.16611111111111],[-105.63861111111112,43.19888888888889],[-105.44555555555556,43.23111111111111],[-105.25472222222223,43.26277777777778],[-105.06166666666667,43.29388888888889],[-104.86611111111111,43.325],[-104.67083333333333,43.35583333333334],[-104.47444444444444,43.38666666666666],[-104.28361111111111,43.41638888888889],[-104.09194444444444,43.44555555555555],[-103.90083333333334,43.47416666666667],[-103.70777777777778,43.503055555555555],[-103.51888888888888,43.53111111111111],[-103.3261111111111,43.55888888888889],[-103.13583333333334,43.586666666666666],[-102.94305555555556,43.61361111111111],[-102.74861111111112,43.64111111111111],[-102.55416666666666,43.66777777777777],[-102.36305555555555,43.693888888888885],[-102.16833333333334,43.72027777777778],[-101.98277777777778,43.745],[-101.78972222222222,43.769999999999996],[-101.60111111111111,43.794444444444444],[-101.40472222222223,43.81888888888889],[-101.21555555555555,43.831388888888895],[-101.0175,43.84444444444445],[-100.82194444444444,43.856944444444444],[-100.62555555555555,43.869166666666665],[-100.23194444444445,43.8925],[-99.99444444444444,43.90611111111111],[-99.79805555555555,43.91694444444444],[-99.59888888888888,43.927499999999995],[-99.40305555555557,43.937777777777775],[-99.20666666666666,43.9475],[-99.00833333333334,43.95666666666667],[-98.8111111111111,43.96611111111111],[-98.62444444444444,43.974444444444444],[-98.4213888888889,43.98305555555556],[-98.22305555555556,43.99111111111111],[-98.02305555555556,43.99916666666667],[-97.8286111111111,44.019999999999996],[-97.62916666666666,44.0425],[-97.43222222222222,44.06444444444444],[-97.23777777777778,44.08583333333333],[-97.04138888888889,44.106944444444444],[-96.84666666666666,44.12777777777778],[-96.65361111111112,44.14805555555556],[-96.46000000000001,44.168055555555554],[-96.26638888888888,44.1875],[-96.05305555555556,44.20888888888889],[-95.86083333333333,44.22777777777778],[-95.665,44.24638888888889],[-95.46777777777778,44.265],[-95.27305555555556,44.283055555555556],[-95.07416666666666,44.30083333333333],[-94.87638888888888,44.318333333333335],[-94.67916666666667,44.33555555555556],[-94.49555555555555,44.35138888888889],[-94.29333333333334,44.36805555555556],[-94.0975,44.384166666666665],[-93.89666666666668,44.4],[-93.70083333333334,44.415277777777774],[-93.50277777777778,44.425555555555555],[-93.30333333333333,44.43277777777777],[-93.1061111111111,44.43944444444444],[-92.90694444444445,44.44583333333333],[-92.70527777777778,44.452222222222225],[-92.5038888888889,44.45777777777778],[-92.30388888888889,44.46333333333334],[-92.10444444444444,44.468333333333334],[-91.89500000000001,44.473333333333336],[-91.69277777777778,44.4775],[-91.48944444444444,44.48166666666667],[-91.2475,44.48583333333333],[-91.0425,44.48916666666667],[-90.8825,44.49138888888889],[-90.67305555555556,44.49388888888889],[-90.4713888888889,44.49611111111111],[-90.30972222222222,44.49777777777778],[-90.06333333333333,44.499722222222225],[-89.86083333333333,44.513333333333335],[-89.66111111111111,44.53944444444444],[-89.46416666666667,44.575],[-89.26888888888888,44.612500000000004],[-89.07111111111111,44.651111111111106],[-88.87416666666665,44.68388888888889],[-88.66638888888889,44.68055555555555],[-88.45166666666667,44.67194444444444],[-88.24027777777778,44.66305555555555],[-88.03222222222222,44.653888888888886],[-87.79388888888889,44.64277777777778],[-87.59055555555555,44.632777777777775],[-87.37805555555555,44.62277777777778],[-87.16305555555556,44.61138888888889],[-86.95055555555555,44.6],[-86.73611111111111,44.588055555555556],[-86.52333333333333,44.575833333333335],[-86.31027777777777,44.56333333333333],[-86.09777777777778,44.550555555555555],[-85.89111111111112,44.5375],[-85.68138888888889,44.52388888888889],[-85.46805555555555,44.50972222222222],[-85.25972222222222,44.49527777777778],[-85.04861111111111,44.48083333333334],[-84.83916666666666,44.46555555555556],[-84.6286111111111,44.45],[-84.41722222222222,44.43416666666666],[-84.20472222222223,44.41777777777777],[-83.99194444444444,44.400555555555556],[-83.78166666666667,44.38361111111111],[-83.57444444444444,44.36638888888889],[-83.36611111111111,44.34861111111111],[-83.15833333333335,44.33027777777778],[-82.94944444444445,44.31166666666666],[-82.74166666666667,44.293055555555554],[-82.25916666666667,44.24583333333334],[-82.06166666666667,44.205555555555556],[-81.86,44.163333333333334],[-81.6588888888889,44.12083333333334],[-81.46138888888889,44.078611111111115],[-81.26166666666667,44.035555555555554],[-81.0625,43.992222222222225],[-80.86194444444443,43.948055555555555],[-80.64861111111112,43.90083333333333],[-80.25,43.811388888888885],[-80.04944444444445,43.76555555555556],[-79.85055555555554,43.72],[-79.45138888888889,43.626666666666665],[-79.25527777777778,43.58027777777778],[-79.05555555555556,43.5325],[-78.85694444444444,43.484722222222224],[-78.45722222222223,43.39194444444444],[-78.25111111111111,43.3675],[-78.045,43.34277777777778],[-77.87722222222222,43.322500000000005],[-77.83666666666666,43.3175],[-77.62777777777777,43.291666666666664],[-77.42083333333333,43.26555555555556],[-77.21083333333334,43.23861111111111],[-77.00888888888889,43.212500000000006],[-76.83888888888889,43.19],[-76.79694444444445,43.18444444444444],[-76.63166666666666,43.1625],[-76.39166666666668,43.13],[-76.18388888888889,43.10166666666667],[-75.98388888888888,43.073888888888895],[-75.78027777777778,43.04472222222222],[-75.78222222222222,43.044999999999995],[-75.5775,43.01583333333333],[-75.38027777777778,42.98694444444445],[-75.38027777777778,42.98694444444445],[-75.17805555555556,42.9575],[-75.17805555555556,42.9575],[-74.97722222222222,42.92777777777778],[-74.57638888888889,42.86694444444444],[-74.37222222222222,42.83527777777778],[-74.16972222222223,42.80333333333333],[-73.97666666666667,42.7725],[-73.76777777777778,42.74722222222222],[-73.55833333333334,42.74527777777778],[-73.35083333333333,42.74333333333333],[-73.1525,42.74111111111111],[-72.9675,42.72361111111111],[-72.7911111111111,42.70333333333333],[-72.65361111111112,42.68722222222222],[-72.44388888888889,42.66166666666666],[-72.27833333333334,42.64111111111111],[-72.09944444444444,42.62083333333334],[-71.98333333333333,42.6],[-71.94861111111112,42.6025],[-71.80111111111111,42.583333333333336],[-71.76666666666667,42.583333333333336],[-71.6913888888889,42.56583333333333],[-71.61666666666666,42.55],[-71.52361111111111,42.53611111111111],[-71.48333333333333,42.53333333333333],[-71.39694444444446,42.50944444444445],[-71.36666666666666,42.5],[-71.27972222222222,42.486111111111114],[-71.25,42.483333333333334],[-71.16888888888889,42.46388888888889],[-71.15,42.46666666666667],[-71.0611111111111,42.45277777777778],[-71.03333333333333,42.45],[-70.93333333333334,42.45],[-70.86583333333333,42.45583333333334],[-70.83333333333333,42.46666666666667],[-70.78611111111111,42.467777777777776],[-70.75,42.46666666666667],[-70.70472222222223,42.47805555555556],[-70.68333333333334,42.46666666666667],[-70.69,42.42916666666667],[-70.7,42.416666666666664],[-70.74388888888889,42.40277777777778],[-70.76666666666667,42.4],[-70.80638888888889,42.39222222222222],[-70.83333333333333,42.38333333333333],[-70.87055555555555,42.380833333333335],[-70.88333333333334,42.38333333333333],[-70.92944444444444,42.370555555555555],[-70.95,42.36666666666667],[-70.9875,42.36027777777778]]}
}
