{
  "id": 2032063055,
  "type": "Feature",
  "properties": {
    "date:inception_lower": "2026-08-01",
    "date:inception_upper": "2026-08-01",
    "edtf:cessation": "",
    "edtf:inception": "2026-08-01",
    "flysfo:actual_timestamp": -1,
    "flysfo:airline": "UA",
    "flysfo:base_airline": "",
    "flysfo:base_flight_number": "9567",
    "flysfo:date": "2026-08-01",
    "flysfo:estimated_timestamp": 1785655980,
    "flysfo:event": "D",
    "flysfo:flight_number": "UA1965",
    "flysfo:gate": "B16",
    "flysfo:journey": "SFO-RDU",
    "flysfo:scheduled_timestamp": 1785653940,
    "flysfo:timestamp": 1785655980,
    "geom:area": 0,
    "geom:bbox": "-122.370943,35.876323,-78.790399,37.617990",
    "geom:latitude": 36.7471565,
    "geom:longitude": -100.580671,
    "iata:airline": "UA",
    "iata:base_airline": "",
    "icao:airline": "UAL",
    "icao:base_airline": "ANZ",
    "lbl:latitude": 37.61799,
    "lbl:longitude": -122.370943,
    "sfomuseum:airline_id": 1159285413,
    "sfomuseum:arrival_id": 102528779,
    "sfomuseum:base_flight_id": "20260801-D-ANZ-9567",
    "sfomuseum:departure_id": 102527513,
    "sfomuseum:flight_id": "20260801-D-UAL-1965",
    "sfomuseum:flight_number": [
      "UAL1965",
      "UA1965"
    ],
    "sfomuseum:placetype": "flight",
    "src:geom": "flysfo",
    "wof:belongsto": [
      1947304067,
      102527513,
      1947304261,
      102191575,
      85633793,
      102087579,
      85922583,
      554784711,
      85688637,
      1947304265,
      1947304259,
      102085387
    ],
    "wof:country": "US",
    "wof:created": 1785687363,
    "wof:geomhash": "739cf7062aa24bbf1662c0bae366af8d",
    "wof:hierarchy": [
      {
        "building_id": 1947304067,
        "campus_id": 102527513,
        "concourse_id": 1947304261,
        "continent_id": 102191575,
        "country_id": 85633793,
        "county_id": 102087579,
        "custom_id": 2032063055,
        "flight_id": 2032063055,
        "locality_id": 85922583,
        "postalcode_id": 554784711,
        "region_id": 85688637,
        "venue_id": 1947304265,
        "wing_id": 1947304259
      },
      {
        "building_id": 1947304067,
        "campus_id": 102527513,
        "concourse_id": 1947304261,
        "continent_id": 102191575,
        "country_id": 85633793,
        "county_id": 102085387,
        "custom_id": 2032063055,
        "flight_id": 2032063055,
        "region_id": 85688637,
        "venue_id": 1947304265,
        "wing_id": 1947304259
      }
    ],
    "wof:id": 2032063055,
    "wof:involves": [
      102528779,
      102527513,
      1159285413,
      1947304265,
      1159283697
    ],
    "wof:lastmodified": 1785687363,
    "wof:name": "UA1965 (SFO-RDU)",
    "wof:parent_id": 1947304265,
    "wof:placetype": "custom",
    "wof:placetype_alt": [
      "flight"
    ],
    "wof:repo": "sfomuseum-data-flights-2026-08",
    "wof:superseded_by": [],
    "wof:supersedes": []
  },
  "bbox": [
    -122.370943,
    35.876323,
    -78.790399,
    37.61799
  ],
  "geometry": {"coordinates":[[-122.370943,37.61799],[-78.790399,35.876323]],"type":"MultiPoint"}
}
