{
  "id": 2047992019,
  "type": "Feature",
  "properties": {
    "date:inception_lower": "2026-08-16",
    "date:inception_upper": "2026-08-16",
    "edtf:cessation": "",
    "edtf:inception": "2026-08-16",
    "flysfo:actual_timestamp": -1,
    "flysfo:airline": "IB",
    "flysfo:base_airline": "",
    "flysfo:base_flight_number": "5318",
    "flysfo:date": "2026-08-16",
    "flysfo:estimated_timestamp": 1786939320,
    "flysfo:event": "A",
    "flysfo:flight_number": "IB8623",
    "flysfo:gate": "B26",
    "flysfo:journey": "ORD-SFO",
    "flysfo:scheduled_timestamp": 1786934880,
    "flysfo:timestamp": 1786939320,
    "geom:area": 0,
    "geom:bbox": "0.000000,0.000000,0.000000,0.000000",
    "geom:latitude": 0,
    "geom:longitude": 0,
    "iata:airline": "IB",
    "iata:base_airline": "",
    "icao:airline": "IBE",
    "icao:base_airline": "BAW",
    "lbl:latitude": 37.61799,
    "lbl:longitude": -122.370943,
    "sfomuseum:airline_id": 1159284511,
    "sfomuseum:arrival_id": 102527513,
    "sfomuseum:base_flight_id": "20260816-A-BAW-5318",
    "sfomuseum:departure_id": 102533631,
    "sfomuseum:flight_id": "20260816-A-IBE-8623",
    "sfomuseum:flight_number": [
      "IBE8623",
      "IB8623"
    ],
    "sfomuseum:placetype": "flight",
    "src:geom": "flysfo",
    "wof:belongsto": [],
    "wof:country": "US",
    "wof:created": 1786983188,
    "wof:geomhash": "58fe0ac52aab9ea6af40709b179f7a28",
    "wof:hierarchy": [
      {
        "custom_id": 2047992019,
        "flight_id": 2047992019
      }
    ],
    "wof:id": 2047992019,
    "wof:involves": [
      102527513,
      102533631,
      1159284511,
      1947304283,
      1159284021
    ],
    "wof:lastmodified": 1786983188,
    "wof:name": "IB8623 (ORD-SFO)",
    "wof:parent_id": -1,
    "wof:placetype": "custom",
    "wof:placetype_alt": [
      "flight"
    ],
    "wof:repo": "sfomuseum-data-flights-2026-08",
    "wof:superseded_by": [],
    "wof:supersedes": []
  },
  "bbox": [
    0,
    0,
    0,
    0
  ],
  "geometry": {"type":"MultiPoint","coordinates":[[0,0],[0,0]]}
}
