{
  "id": 2047879993,
  "type": "Feature",
  "properties": {
    "geom:area": 0,
    "geom:bbox": "-122.402980,37.626640,-121.243440,38.427280",
    "geom:latitude": 38.086858451662785,
    "geom:longitude": -121.92896537422776,
    "src:alt_label": "swim-takeoff",
    "src:geom": "swim",
    "swim:elevations": [
      274,
      534,
      958,
      1066,
      1189,
      1313,
      1399,
      1786,
      2110,
      2474,
      2638,
      2874,
      3197,
      3233,
      3291,
      3364,
      3680,
      3834,
      4156,
      4376,
      4536,
      4843,
      4972,
      5331,
      5409,
      5746,
      5987,
      6067,
      6246,
      6383,
      6494
    ],
    "swim:geom": "takeoff",
    "swim:timestamps": [
      1786151785,
      1786151806,
      1786151846,
      1786151873,
      1786151897,
      1786151930,
      1786151954,
      1786151994,
      1786152025,
      1786152058,
      1786152073,
      1786152100,
      1786152148,
      1786152169,
      1786152199,
      1786152229,
      1786152265,
      1786152283,
      1786152325,
      1786152352,
      1786152371,
      1786152413,
      1786152431,
      1786152473,
      1786152488,
      1786152527,
      1786152566,
      1786152578,
      1786152605,
      1786152627,
      1786152649
    ],
    "wof:geomhash": "23c1decd7688f4d7ed7a8bcf5c8af96c",
    "wof:id": 2047879993,
    "wof:repo": "sfomuseum-data-flights-2026-08"
  },
  "bbox": [
    -122.40298,
    37.62664,
    -121.24344,
    38.42728
  ],
  "geometry": {"type":"LineString","coordinates":[[-122.39383,37.62664],[-122.40298,37.63993],[-122.38462,37.66789],[-122.36835,37.687],[-122.35205,37.70636],[-122.33643,37.73854],[-122.3478,37.76516],[-122.3709,37.81271],[-122.38636,37.84962],[-122.3852,37.89249],[-122.38432,37.91202],[-122.36721,37.94407],[-122.29465,37.97632],[-122.25911,37.99067],[-122.20419,38.01268],[-122.14466,38.0367],[-122.07066,38.06683],[-122.03337,38.0818],[-121.94587,38.11659],[-121.8885,38.13942],[-121.84776,38.15571],[-121.75651,38.19181],[-121.7169,38.20753],[-121.62417,38.24417],[-121.59069,38.25736],[-121.5032,38.29187],[-121.4148,38.32661],[-121.38827,38.3388],[-121.33281,38.37221],[-121.28729,38.40029],[-121.24344,38.42728]]}
}
