{
  "id": 2047900245,
  "type": "Feature",
  "properties": {
    "geom:area": 0,
    "geom:bbox": "-122.525833,37.616667,-82.455278,42.819722",
    "geom:latitude": 40.52317347295015,
    "geom:longitude": -102.6625723309669,
    "src:alt_label": "swim-path",
    "src:geom": "swim",
    "swim:altitudes": [
      "004",
      "011",
      "016",
      "026",
      "041",
      "056",
      "072",
      "089",
      "102",
      "111",
      "122",
      "137",
      "150",
      "162",
      "175",
      "187",
      "196",
      "204",
      "214",
      "223",
      "232",
      "239",
      "248",
      "249",
      "252",
      "255",
      "259",
      "262",
      "268",
      "271",
      "275",
      "279",
      "284",
      "288",
      "293",
      "299",
      "305",
      "308",
      "315",
      "317",
      "325",
      "326",
      "332",
      "334",
      "337",
      "337",
      "340",
      "341",
      "344",
      "345",
      "347",
      "349C",
      "350C",
      "350C",
      "350C",
      "350C",
      "350C",
      "350C",
      "350C",
      "350C",
      "350C",
      "350C",
      "350C",
      "350C",
      "350C",
      "350C",
      "350C",
      "350C",
      "350C",
      "350C",
      "350C",
      "350C",
      "350C",
      "350C",
      "350C",
      "350C",
      "350C",
      "350C",
      "350C",
      "350C",
      "350C",
      "350C",
      "350C",
      "350C",
      "350C",
      "350C",
      "350C",
      "350C",
      "350C",
      "350C",
      "350C",
      "350C",
      "350C",
      "350C",
      "350C",
      "350C",
      "350C",
      "350C",
      "350C",
      "350C",
      "350C",
      "350C",
      "350C",
      "350C",
      "350C",
      "350C",
      "350C",
      "350C",
      "350C",
      "350C",
      "350C",
      "350C",
      "350C",
      "350C",
      "350C",
      "350C",
      "350C",
      "350C",
      "350C",
      "350C",
      "350C",
      "350C",
      "350C",
      "350C",
      "350C",
      "350C",
      "350C",
      "350C",
      "350C",
      "350C",
      "350C",
      "350C",
      "350C",
      "350C",
      "350C",
      "350C",
      "350C",
      "350C",
      "350C",
      "350C",
      "350C",
      "350C",
      "350C",
      "350C",
      "350C",
      "350C",
      "350C",
      "350C",
      "350C",
      "350C",
      "350C",
      "350C",
      "350C",
      "350C",
      "350C",
      "350C",
      "350C",
      "350C",
      "350C",
      "350C",
      "350C",
      "350C",
      "350C",
      "350C",
      "350C",
      "350C",
      "350C",
      "350C",
      "350C",
      "350C",
      "350C",
      "350C",
      "350C",
      "350C",
      "350C",
      "350C",
      "350C",
      "350C",
      "350C",
      "350C",
      "350C",
      "350C",
      "350C",
      "350C",
      "350C",
      "350C",
      "350C",
      "350C",
      "350C",
      "350C",
      "350C",
      "350C",
      "350C",
      "350C",
      "350C",
      "350C",
      "350C",
      "350C",
      "350C",
      "350C",
      "350C",
      "350C",
      "350C",
      "350C",
      "350C",
      "350C",
      "350C",
      "350C",
      "350C",
      "350C",
      "350C",
      "350C",
      "350C",
      "350C",
      "350C",
      "350C",
      "350C",
      "350C",
      "350C",
      "350C",
      "350C",
      "350C",
      "350C",
      "350C",
      "350C",
      "350C",
      "350C",
      "350C",
      "350C",
      "350C",
      "350C",
      "350C",
      "350C",
      "350C",
      "350C",
      "350C",
      "350C",
      "350C",
      "350C",
      "350C",
      "350C",
      "350C",
      "350C",
      "350C",
      "350C",
      "350C",
      "350C",
      "350C",
      "350C",
      "350C",
      "350C",
      "350C",
      "350C",
      "350C",
      "350C",
      "350C",
      "350C",
      "350C",
      "350C",
      "350C",
      "350C",
      "350C",
      "350C",
      "350C",
      "350C",
      "350C",
      "350C",
      "350C",
      "350C",
      "350C",
      "350C",
      "350C",
      "350C",
      "350C",
      "350C",
      "350C",
      "350C",
      "350C",
      "350C",
      "350C",
      "350C",
      "350C",
      "350C",
      "350C",
      "350C",
      "350C",
      "350C",
      "350C",
      "350C",
      "350C",
      "350C",
      "350C",
      "350C",
      "350C",
      "350C",
      "350C",
      "350C",
      "350C",
      "350C",
      "350C",
      "346",
      "340C",
      "340",
      "330C",
      "330C",
      "324",
      "314",
      "310C"
    ],
    "swim:geom": "path",
    "swim:speeds": [
      142,
      161,
      173,
      223,
      260,
      278,
      292,
      297,
      306,
      342,
      363,
      366,
      370,
      380,
      388,
      392,
      399,
      407,
      411,
      417,
      417,
      424,
      427,
      428,
      435,
      435,
      444,
      449,
      447,
      449,
      456,
      460,
      458,
      460,
      460,
      461,
      458,
      460,
      450,
      451,
      448,
      449,
      446,
      446,
      445,
      446,
      449,
      450,
      453,
      455,
      462,
      462,
      462,
      462,
      466,
      467,
      468,
      468,
      470,
      469,
      470,
      470,
      471,
      471,
      472,
      472,
      472,
      472,
      473,
      472,
      472,
      472,
      473,
      473,
      473,
      473,
      474,
      474,
      476,
      478,
      483,
      483,
      483,
      483,
      481,
      481,
      483,
      484,
      484,
      483,
      483,
      483,
      482,
      481,
      481,
      480,
      480,
      482,
      483,
      479,
      480,
      478,
      477,
      477,
      480,
      479,
      479,
      478,
      476,
      476,
      477,
      479,
      478,
      477,
      473,
      472,
      479,
      480,
      479,
      482,
      482,
      482,
      481,
      482,
      483,
      481,
      481,
      481,
      482,
      485,
      485,
      485,
      487,
      485,
      482,
      481,
      485,
      488,
      488,
      488,
      489,
      488,
      486,
      486,
      487,
      487,
      486,
      491,
      490,
      490,
      494,
      493,
      490,
      488,
      488,
      490,
      491,
      491,
      490,
      489,
      488,
      493,
      494,
      493,
      493,
      491,
      492,
      490,
      491,
      489,
      490,
      489,
      490,
      490,
      490,
      488,
      488,
      487,
      488,
      487,
      488,
      487,
      487,
      486,
      484,
      482,
      480,
      480,
      481,
      485,
      485,
      484,
      484,
      484,
      484,
      484,
      483,
      483,
      483,
      482,
      481,
      479,
      478,
      474,
      477,
      477,
      478,
      479,
      479,
      479,
      479,
      480,
      480,
      479,
      479,
      479,
      479,
      480,
      480,
      480,
      480,
      481,
      481,
      480,
      487,
      491,
      492,
      494,
      495,
      496,
      496,
      497,
      497,
      497,
      497,
      496,
      496,
      496,
      494,
      494,
      494,
      493,
      496,
      495,
      496,
      495,
      495,
      495,
      494,
      496,
      498,
      498,
      499,
      500,
      499,
      498,
      497,
      499,
      498,
      498,
      503,
      504,
      504,
      506,
      507,
      509,
      518,
      520,
      521,
      523,
      522,
      523,
      517,
      514,
      505,
      508,
      505,
      506,
      505,
      506,
      506,
      500,
      498,
      499,
      500,
      500,
      500,
      500,
      499,
      500,
      501,
      503,
      502,
      503,
      502,
      503,
      506,
      509,
      502,
      501,
      503,
      503,
      499,
      495,
      492,
      493,
      495,
      499
    ],
    "swim:timestamps": [
      1786308346,
      1786308370,
      1786308399,
      1786308459,
      1786308519,
      1786308579,
      1786308639,
      1786308699,
      1786308759,
      1786308819,
      1786308880,
      1786308940,
      1786309000,
      1786309060,
      1786309120,
      1786309180,
      1786309240,
      1786309300,
      1786309360,
      1786309420,
      1786309488,
      1786309540,
      1786309601,
      1786309620,
      1786309661,
      1786309680,
      1786309721,
      1786309740,
      1786309781,
      1786309801,
      1786309841,
      1786309861,
      1786309901,
      1786309921,
      1786309961,
      1786309981,
      1786310021,
      1786310041,
      1786310081,
      1786310101,
      1786310141,
      1786310161,
      1786310201,
      1786310221,
      1786310261,
      1786310281,
      1786310322,
      1786310341,
      1786310382,
      1786310401,
      1786310442,
      1786310461,
      1786310502,
      1786310522,
      1786310562,
      1786310582,
      1786310622,
      1786310642,
      1786310682,
      1786310702,
      1786310742,
      1786310762,
      1786310802,
      1786310822,
      1786310882,
      1786310922,
      1786310942,
      1786310982,
      1786311002,
      1786311043,
      1786311074,
      1786311103,
      1786311134,
      1786311163,
      1786311194,
      1786311255,
      1786311315,
      1786311375,
      1786311435,
      1786311495,
      1786311555,
      1786311615,
      1786311675,
      1786311735,
      1786311795,
      1786311855,
      1786311975,
      1786312035,
      1786312096,
      1786312156,
      1786312216,
      1786312276,
      1786312336,
      1786312396,
      1786312456,
      1786312516,
      1786312576,
      1786312636,
      1786312696,
      1786312817,
      1786312868,
      1786312877,
      1786313057,
      1786313117,
      1786313297,
      1786313357,
      1786313417,
      1786313477,
      1786313598,
      1786313658,
      1786313718,
      1786313778,
      1786313838,
      1786313898,
      1786313958,
      1786314018,
      1786314078,
      1786314138,
      1786314198,
      1786314262,
      1786314322,
      1786314382,
      1786314442,
      1786314502,
      1786314562,
      1786314622,
      1786314682,
      1786314742,
      1786314802,
      1786314862,
      1786314922,
      1786314983,
      1786315043,
      1786315103,
      1786315163,
      1786315223,
      1786315283,
      1786315343,
      1786315403,
      1786315463,
      1786315523,
      1786315583,
      1786315643,
      1786315703,
      1786315764,
      1786315824,
      1786315884,
      1786315944,
      1786316004,
      1786316064,
      1786316124,
      1786316184,
      1786316244,
      1786316304,
      1786316364,
      1786316424,
      1786316485,
      1786316545,
      1786316605,
      1786316665,
      1786316725,
      1786316785,
      1786316813,
      1786316845,
      1786316873,
      1786316905,
      1786316933,
      1786316965,
      1786316993,
      1786317025,
      1786317053,
      1786317085,
      1786317113,
      1786317145,
      1786317173,
      1786317206,
      1786317233,
      1786317266,
      1786317294,
      1786317326,
      1786317354,
      1786317386,
      1786317414,
      1786317474,
      1786317534,
      1786317594,
      1786317654,
      1786317714,
      1786317774,
      1786317834,
      1786317894,
      1786317954,
      1786318015,
      1786318075,
      1786318135,
      1786318195,
      1786318255,
      1786318315,
      1786318375,
      1786318435,
      1786318495,
      1786318555,
      1786318615,
      1786318659,
      1786318675,
      1786318719,
      1786318735,
      1786318779,
      1786318796,
      1786318837,
      1786318856,
      1786318897,
      1786318916,
      1786318957,
      1786318976,
      1786319018,
      1786319036,
      1786319078,
      1786319096,
      1786319138,
      1786319156,
      1786319198,
      1786319216,
      1786319258,
      1786319276,
      1786319318,
      1786319336,
      1786319378,
      1786319396,
      1786319438,
      1786319456,
      1786319498,
      1786319517,
      1786319558,
      1786319577,
      1786319618,
      1786319637,
      1786319679,
      1786319739,
      1786319757,
      1786319799,
      1786319817,
      1786319859,
      1786319877,
      1786319919,
      1786319937,
      1786319979,
      1786319997,
      1786320039,
      1786320099,
      1786320159,
      1786320219,
      1786320280,
      1786320340,
      1786320400,
      1786320460,
      1786320520,
      1786320580,
      1786320640,
      1786320700,
      1786320760,
      1786320820,
      1786320881,
      1786320941,
      1786321013,
      1786321073,
      1786321145,
      1786321205,
      1786321265,
      1786321289,
      1786321325,
      1786321349,
      1786321385,
      1786321409,
      1786321506,
      1786321530,
      1786321566,
      1786321590,
      1786321626,
      1786321650,
      1786321686,
      1786321710,
      1786321746,
      1786321770,
      1786321806,
      1786321830,
      1786321866,
      1786321890,
      1786321926,
      1786321950,
      1786321986,
      1786322010,
      1786322047,
      1786322071,
      1786322107,
      1786322131,
      1786322167,
      1786322191,
      1786322227,
      1786322251,
      1786322311,
      1786322371,
      1786322431,
      1786322491,
      1786322551,
      1786322611,
      1786322672,
      1786322732
    ],
    "wof:geomhash": "303aa4a5cdeb8df82574069a7df5adbf",
    "wof:id": 2047900245,
    "wof:repo": "sfomuseum-data-flights-2026-08"
  },
  "bbox": [
    -122.52583333333334,
    37.61666666666667,
    -82.45527777777778,
    42.819722222222225
  ],
  "geometry": {"type":"LineString","coordinates":[[-122.38333333333334,37.61666666666667],[-122.4,37.63333333333333],[-122.42555555555556,37.64083333333333],[-122.49138888888889,37.66888888888889],[-122.52583333333334,37.72833333333333],[-122.51583333333333,37.801944444444445],[-122.42722222222223,37.83972222222222],[-122.3275,37.86611111111111],[-122.23,37.89277777777778],[-122.11861111111111,37.9225],[-121.99583333333334,37.95527777777778],[-121.8736111111111,37.98777777777778],[-121.74972222222222,38.02055555555555],[-121.62333333333332,38.053888888888885],[-121.49111111111111,38.08833333333334],[-121.3611111111111,38.12222222222222],[-121.22888888888889,38.156388888888884],[-121.09416666666667,38.191111111111105],[-120.95277777777778,38.2175],[-120.80749999999999,38.23833333333334],[-120.63527777777779,38.26083333333333],[-120.5125,38.27972222222222],[-120.36416666666666,38.3],[-120.33638888888889,38.30222222222222],[-120.21111111111111,38.31055555555555],[-120.1525,38.314166666666665],[-120.05527777777777,38.32027777777778],[-119.99333333333334,38.32194444444445],[-119.8938888888889,38.330000000000005],[-119.83611111111111,38.33305555555556],[-119.7325,38.339444444444446],[-119.67305555555556,38.341944444444444],[-119.57,38.348888888888894],[-119.51166666666667,38.350833333333334],[-119.41250000000001,38.35777777777778],[-119.35,38.36027777777778],[-119.25416666666666,38.36638888888889],[-119.19,38.36833333333333],[-119.0625,38.376666666666665],[-119.03305555555555,38.37722222222222],[-118.9075,38.38472222222222],[-118.87666666666667,38.38611111111111],[-118.75277777777778,38.39416666666666],[-118.72222222222223,38.396388888888886],[-118.59916666666666,38.418055555555554],[-118.56638888888888,38.42388888888889],[-118.44277777777778,38.44555555555555],[-118.41611111111112,38.450833333333335],[-118.28861111111111,38.48027777777778],[-118.23722222222223,38.492222222222225],[-118.13416666666667,38.51638888888889],[-118.07833333333333,38.529444444444444],[-117.98083333333334,38.546388888888885],[-117.92,38.550555555555555],[-117.81694444444445,38.551111111111105],[-117.75138888888888,38.54888888888889],[-117.64833333333334,38.54277777777778],[-117.58333333333333,38.538888888888884],[-117.47972222222222,38.532777777777774],[-117.41527777777779,38.52916666666667],[-117.31222222222222,38.522777777777776],[-117.27888888888889,38.520833333333336],[-117.14305555555556,38.51277777777778],[-117.11222222222221,38.51111111111111],[-116.9413888888889,38.50138888888889],[-116.80611111111111,38.49388888888889],[-116.77333333333333,38.49194444444444],[-116.63583333333334,38.48444444444444],[-116.60555555555555,38.48277777777778],[-116.47055555555556,38.478611111111114],[-116.40416666666667,38.47777777777778],[-116.3025,38.47777777777778],[-116.23777777777778,38.480000000000004],[-116.13527777777779,38.48916666666667],[-116.07083333333333,38.49638888888889],[-115.905,38.515277777777776],[-115.73666666666666,38.53472222222222],[-115.56944444444444,38.553888888888885],[-115.40055555555556,38.573055555555555],[-115.23694444444445,38.59166666666667],[-115.0675,38.611111111111114],[-114.8963888888889,38.63138888888889],[-114.72666666666667,38.651944444444446],[-114.59277777777777,38.668055555555554],[-114.38916666666667,38.693888888888885],[-114.22083333333333,38.71555555555556],[-113.87722222222222,38.69444444444444],[-113.74333333333334,38.68138888888889],[-113.53611111111111,38.66138888888889],[-113.36638888888888,38.64555555555555],[-113.19555555555556,38.64722222222222],[-113.02722222222222,38.6725],[-112.85833333333333,38.698055555555555],[-112.69,38.725],[-112.52916666666667,38.76638888888889],[-112.37472222222222,38.827222222222225],[-112.22111111111111,38.88305555555556],[-112.06388888888888,38.94],[-111.90777777777778,38.99611111111111],[-111.59694444444445,39.106944444444444],[-111.45027777777779,39.15888888888889],[-111.44194444444445,39.16166666666666],[-110.98194444444445,39.32277777777778],[-110.825,39.37722222222222],[-110.35222222222221,39.53916666666667],[-110.19416666666667,39.59277777777778],[-110.03555555555555,39.64611111111111],[-109.87888888888888,39.698611111111106],[-109.5625,39.80361111111111],[-109.40361111111112,39.85611111111111],[-109.24444444444444,39.90833333333333],[-109.08305555555555,39.96083333333333],[-108.92166666666667,40.01305555555555],[-108.7625,40.06444444444444],[-108.60166666666666,40.11611111111111],[-108.44305555555556,40.16638888888889],[-108.28027777777778,40.217777777777776],[-108.12027777777777,40.26833333333333],[-107.955,40.32],[-107.77555555555556,40.37555555555556],[-107.61361111111111,40.42583333333333],[-107.45138888888889,40.47555555555556],[-107.28888888888889,40.52166666666667],[-107.11805555555554,40.54833333333333],[-106.94861111111112,40.57416666666667],[-106.77583333333334,40.6],[-106.60388888888889,40.625277777777775],[-106.44277777777778,40.64888888888889],[-106.27083333333333,40.67361111111111],[-106.07027777777778,40.7025],[-105.8963888888889,40.72694444444445],[-105.72027777777778,40.75138888888889],[-105.54555555555555,40.775555555555556],[-105.36833333333333,40.79972222222222],[-105.19472222222223,40.823055555555555],[-105.02222222222223,40.846111111111114],[-104.84777777777778,40.86888888888889],[-104.66805555555555,40.89222222222222],[-104.49222222222222,40.914722222222224],[-104.31611111111111,40.93722222222222],[-104.13805555555557,40.95944444444445],[-103.95916666666668,40.981388888888894],[-103.78777777777778,41.00222222222222],[-103.61277777777777,41.02333333333333],[-103.43416666666667,41.044444444444444],[-103.26138888888889,41.06472222222222],[-103.08277777777778,41.08527777777778],[-102.89694444444446,41.10333333333333],[-102.71888888888888,41.1175],[-102.53944444444444,41.13138888888889],[-102.3586111111111,41.14527777777778],[-102.17944444444444,41.15861111111111],[-102,41.17166666666667],[-101.82222222222222,41.18444444444444],[-101.6413888888889,41.19694444444444],[-101.46222222222222,41.20916666666667],[-101.28,41.221111111111114],[-101.09861111111111,41.23305555555556],[-100.91833333333334,41.24444444444445],[-100.7725,41.25333333333333],[-100.58999999999999,41.26444444444444],[-100.40972222222223,41.275],[-100.3175,41.280277777777776],[-100.22555555555556,41.285555555555554],[-100.14111111111112,41.290277777777774],[-100.04638888888888,41.29555555555555],[-99.96333333333334,41.3],[-99.86638888888888,41.305277777777775],[-99.78416666666666,41.309444444444445],[-99.68694444444445,41.31472222222222],[-99.60388888888889,41.31888888888889],[-99.50666666666666,41.323888888888895],[-99.42361111111111,41.32777777777778],[-99.32555555555555,41.33277777777778],[-99.24222222222222,41.336666666666666],[-99.14666666666668,41.34111111111111],[-99.06472222222222,41.345],[-98.96583333333334,41.349722222222226],[-98.88527777777779,41.35333333333333],[-98.78583333333333,41.3575],[-98.70472222222223,41.361111111111114],[-98.60638888888889,41.36527777777778],[-98.52638888888889,41.368611111111115],[-98.34833333333333,41.37583333333333],[-98.17027777777778,41.38444444444444],[-97.99444444444444,41.39222222222222],[-97.81722222222221,41.4],[-97.64083333333333,41.407222222222224],[-97.46138888888889,41.414722222222224],[-97.28416666666666,41.421388888888885],[-97.10527777777777,41.42833333333333],[-96.92722222222223,41.43444444444444],[-96.74861111111112,41.440555555555555],[-96.5675,41.446666666666665],[-96.38833333333334,41.452222222222225],[-96.18805555555556,41.45805555555556],[-96.00777777777778,41.463055555555556],[-95.83055555555555,41.467777777777776],[-95.65166666666667,41.47222222222222],[-95.48222222222222,41.476111111111116],[-95.30777777777777,41.480000000000004],[-95.1286111111111,41.48361111111111],[-94.95361111111112,41.48694444444445],[-94.84083333333332,41.48888888888889],[-94.77805555555555,41.48972222222222],[-94.66194444444444,41.49166666666667],[-94.59944444444444,41.49277777777778],[-94.48527777777778,41.494166666666665],[-94.42277777777778,41.495],[-94.3086111111111,41.49666666666667],[-94.24472222222222,41.49722222222222],[-94.12888888888888,41.49861111111111],[-94.05805555555555,41.49944444444444],[-93.95166666666667,41.50055555555556],[-93.88055555555555,41.50222222222222],[-93.77388888888889,41.50388888888889],[-93.70333333333333,41.505],[-93.59722222222221,41.50666666666667],[-93.52666666666667,41.5075],[-93.41972222222223,41.509166666666665],[-93.3475,41.51],[-93.23916666666666,41.51138888888889],[-93.16805555555555,41.51222222222222],[-93.06333333333333,41.513333333333335],[-92.9875,41.513888888888886],[-92.87833333333333,41.515],[-92.80416666666666,41.51555555555556],[-92.67472222222223,41.516666666666666],[-92.61972222222222,41.51694444444444],[-92.49027777777778,41.51777777777777],[-92.43666666666667,41.518055555555556],[-92.30777777777777,41.51833333333333],[-92.25166666666667,41.51861111111111],[-92.12333333333332,41.51888888888889],[-92.06694444444445,41.51833333333333],[-91.94083333333333,41.51916666666666],[-91.88277777777778,41.519444444444446],[-91.75638888888889,41.51916666666666],[-91.5775,41.52166666666667],[-91.53999999999999,41.52194444444444],[-91.39444444444445,41.53916666666667],[-91.36,41.54333333333333],[-91.21583333333334,41.56888888888889],[-91.17972222222222,41.574444444444445],[-91.03666666666666,41.598333333333336],[-91.00194444444445,41.603611111111114],[-90.86027777777777,41.62722222222222],[-90.82305555555556,41.63361111111111],[-90.68305555555555,41.655833333333334],[-90.49388888888889,41.68611111111111],[-90.31027777777777,41.71527777777778],[-90.13083333333333,41.74333333333333],[-89.94805555555556,41.77166666666667],[-89.76416666666667,41.79972222222222],[-89.59666666666666,41.825],[-89.41388888888889,41.8525],[-89.23222222222222,41.87916666666667],[-89.05166666666666,41.90555555555555],[-88.86888888888888,41.93222222222222],[-88.68583333333333,41.958333333333336],[-88.50166666666667,41.98416666666667],[-88.31638888888888,42.01],[-88.12777777777777,42.03611111111111],[-87.94333333333334,42.06111111111111],[-87.75472222222223,42.08638888888889],[-87.5286111111111,42.11638888888889],[-87.33972222222222,42.14111111111111],[-87.10888888888888,42.170833333333334],[-86.91666666666667,42.19499999999999],[-86.85777777777777,42.20305555555556],[-86.72055555555556,42.21944444444445],[-86.65111111111112,42.2275],[-86.55,42.24055555555556],[-86.46361111111112,42.25055555555556],[-86.17277777777778,42.28611111111111],[-86.09222222222222,42.29555555555555],[-85.98083333333334,42.308611111111105],[-85.91583333333334,42.31638888888889],[-85.79472222222222,42.33027777777778],[-85.72722222222222,42.338055555555556],[-85.60833333333333,42.35166666666667],[-85.53527777777778,42.36],[-85.42472222222223,42.3725],[-85.3536111111111,42.38027777777778],[-85.24027777777778,42.393055555555556],[-85.16638888888889,42.401111111111106],[-85.05361111111111,42.413333333333334],[-84.9825,42.42111111111111],[-84.87166666666666,42.43555555555555],[-84.80166666666666,42.45444444444445],[-84.69527777777778,42.48694444444445],[-84.6211111111111,42.51],[-84.52527777777777,42.54],[-84.44611111111111,42.56472222222222],[-84.35,42.594722222222224],[-84.26944444444445,42.61972222222222],[-84.1725,42.64972222222222],[-84.09166666666667,42.67472222222222],[-84,42.70305555555556],[-83.91777777777779,42.7275],[-83.7363888888889,42.77444444444444],[-83.54888888888888,42.806666666666665],[-83.36277777777777,42.819722222222225],[-83.17833333333334,42.797777777777775],[-82.99555555555555,42.775555555555556],[-82.81555555555555,42.73888888888889],[-82.63722222222223,42.69305555555555],[-82.45527777777778,42.65555555555555]]}
}
