{
  "id": 2048083491,
  "type": "Feature",
  "properties": {
    "geom:area": 0,
    "geom:bbox": "-122.404930,37.629890,-121.294440,38.499440",
    "geom:latitude": 38.13690346299741,
    "geom:longitude": -121.94327388821576,
    "src:alt_label": "swim-takeoff",
    "src:geom": "swim",
    "swim:elevations": [
      152,
      591,
      888,
      1140,
      1270,
      1543,
      2270,
      2732,
      3176,
      3294,
      3419,
      3511,
      3912,
      4283,
      4834,
      5200,
      5447,
      5757,
      5930,
      6007,
      6146,
      6453,
      7025,
      7121,
      7435,
      7621,
      7620,
      7620,
      7620,
      7620,
      7620,
      7620,
      7620
    ],
    "swim:geom": "takeoff",
    "swim:timestamps": [
      1787268101,
      1787268130,
      1787268150,
      1787268171,
      1787268189,
      1787268210,
      1787268257,
      1787268289,
      1787268319,
      1787268328,
      1787268340,
      1787268350,
      1787268382,
      1787268409,
      1787268448,
      1787268475,
      1787268496,
      1787268521,
      1787268535,
      1787268541,
      1787268553,
      1787268579,
      1787268628,
      1787268634,
      1787268658,
      1787268682,
      1787268713,
      1787268742,
      1787268775,
      1787268796,
      1787268820,
      1787268853,
      1787268873
    ],
    "wof:geomhash": "b6820ba8320a5557d8839b22b0c091bb",
    "wof:id": 2048083491,
    "wof:repo": "sfomuseum-data-flights-2026-08"
  },
  "bbox": [
    -122.40493,
    37.62989,
    -121.29444,
    38.49944
  ],
  "geometry": {"type":"LineString","coordinates":[[-122.39417,37.62989],[-122.40493,37.65205],[-122.39183,37.66734],[-122.37361,37.68288],[-122.3575,37.69934],[-122.33958,37.72339],[-122.35475,37.78312],[-122.37655,37.82536],[-122.3714,37.86849],[-122.36115,37.87953],[-122.34411,37.89214],[-122.32972,37.90218],[-122.27934,37.93673],[-122.23522,37.96764],[-122.17077,38.01314],[-122.12528,38.04522],[-122.08902,38.07071],[-122.04498,38.10151],[-122.01917,38.11954],[-122.00842,38.12706],[-121.98682,38.14212],[-121.93941,38.1752],[-121.84824,38.2386],[-121.83693,38.24647],[-121.79202,38.27769],[-121.74669,38.30912],[-121.6853,38.35123],[-121.62318,38.39385],[-121.54865,38.43713],[-121.49589,38.45481],[-121.43401,38.46875],[-121.34683,38.48803],[-121.29444,38.49944]]}
}
