{
  "id": 2048041129,
  "type": "Feature",
  "properties": {
    "geom:area": 0,
    "geom:bbox": "-122.590050,36.720260,-121.490670,37.683950",
    "geom:latitude": 37.23666839228524,
    "geom:longitude": -122.12693259978964,
    "src:alt_label": "swim-takeoff",
    "src:geom": "swim",
    "swim:elevations": [
      213,
      661,
      1026,
      1338,
      1670,
      1808,
      2237,
      2868,
      3040,
      3551,
      3845,
      4231,
      4568,
      4796,
      4901,
      5400,
      5748,
      6062,
      6330,
      6763,
      6994,
      7216,
      7376,
      7782,
      7943,
      8117,
      8284,
      8598,
      8644,
      8924,
      9198,
      9255,
      9492,
      9705,
      10054,
      10057
    ],
    "swim:geom": "takeoff",
    "swim:timestamps": [
      1786997128,
      1786997152,
      1786997182,
      1786997209,
      1786997245,
      1786997259,
      1786997299,
      1786997338,
      1786997350,
      1786997395,
      1786997424,
      1786997448,
      1786997469,
      1786997487,
      1786997496,
      1786997542,
      1786997574,
      1786997602,
      1786997626,
      1786997668,
      1786997688,
      1786997712,
      1786997732,
      1786997779,
      1786997795,
      1786997816,
      1786997833,
      1786997868,
      1786997873,
      1786997895,
      1786997921,
      1786997929,
      1786997958,
      1786997984,
      1786998027,
      1786998032
    ],
    "wof:geomhash": "562db9f0d1c6779b426337d3a63b5b29",
    "wof:id": 2048041129,
    "wof:repo": "sfomuseum-data-flights-2026-08"
  },
  "bbox": [
    -122.59005,
    36.72026,
    -121.49067,
    37.68395
  ],
  "geometry": {"type":"LineString","coordinates":[[-122.38422,37.6225],[-122.40722,37.63207],[-122.43663,37.64451],[-122.46637,37.6575],[-122.51141,37.67679],[-122.53132,37.68395],[-122.58666,37.66777],[-122.59005,37.61957],[-122.58428,37.60468],[-122.56134,37.54528],[-122.53744,37.50558],[-122.50396,37.47989],[-122.47127,37.45756],[-122.44441,37.43893],[-122.42969,37.42831],[-122.35725,37.37522],[-122.30549,37.33817],[-122.25721,37.30379],[-122.21709,37.27512],[-122.14407,37.22266],[-122.10832,37.19698],[-122.06528,37.16606],[-122.02939,37.1401],[-121.94247,37.07687],[-121.91175,37.05486],[-121.8732,37.02708],[-121.84208,37.00442],[-121.77649,36.95642],[-121.7664,36.94913],[-121.72528,36.91783],[-121.68094,36.88062],[-121.66711,36.86909],[-121.61996,36.8279],[-121.57452,36.79012],[-121.49936,36.72757],[-121.49067,36.72026]]}
}
