{
  "id": 2047899055,
  "type": "Feature",
  "properties": {
    "geom:area": 0,
    "geom:bbox": "-122.756944,37.366667,-116.296389,43.587222",
    "geom:latitude": 40.91765454298644,
    "geom:longitude": -120.41454749266242,
    "src:alt_label": "swim-path",
    "src:geom": "swim",
    "swim:altitudes": [
      "046",
      "049",
      "057",
      "060",
      "089",
      "105",
      "108",
      "120",
      "123",
      "139",
      "144",
      "158",
      "161",
      "178",
      "193",
      "196",
      "209",
      "213",
      "222",
      "235",
      "237",
      "247",
      "249",
      "260",
      "263",
      "270",
      "273",
      "282",
      "284",
      "295",
      "299",
      "305",
      "307",
      "314",
      "318C",
      "319C",
      "319C",
      "319C",
      "319C",
      "319C",
      "319C",
      "319C",
      "319C",
      "320C",
      "320C",
      "319C",
      "319C",
      "319C",
      "319C",
      "319C",
      "319C",
      "319C",
      "319C",
      "319C",
      "320C",
      "320C",
      "319C",
      "320C",
      "319C",
      "319C",
      "319C",
      "319C",
      "320C",
      "320C",
      "319C",
      "319C",
      "319C",
      "319C",
      "319C",
      "319C",
      "319C",
      "319C",
      "319C",
      "319C",
      "320C",
      "320C",
      "319C",
      "319C",
      "319C",
      "319C",
      "320C",
      "320C",
      "319C",
      "319C",
      "319C",
      "319C",
      "320",
      "319",
      "319",
      "317",
      "298",
      "287",
      "278",
      "257",
      "237",
      "217",
      "197",
      "180",
      "176",
      "165",
      "157",
      "145",
      "138",
      "126",
      "115",
      "109",
      "110C",
      "110",
      "110C",
      "110",
      "110C",
      "107",
      "098",
      "094",
      "088",
      "082",
      "076",
      "071",
      "063",
      "058",
      "052",
      "044",
      "040",
      "040",
      "040",
      "039",
      "035",
      "030",
      "027",
      "023",
      "019",
      "009",
      "005"
    ],
    "swim:geom": "path",
    "swim:speeds": [
      192,
      207,
      261,
      269,
      276,
      278,
      295,
      300,
      337,
      329,
      361,
      348,
      363,
      374,
      371,
      385,
      379,
      391,
      406,
      405,
      409,
      405,
      415,
      423,
      420,
      424,
      426,
      434,
      433,
      433,
      432,
      434,
      431,
      434,
      435,
      430,
      435,
      435,
      440,
      439,
      440,
      437,
      437,
      435,
      434,
      434,
      432,
      432,
      432,
      432,
      432,
      433,
      432,
      434,
      433,
      434,
      434,
      435,
      436,
      435,
      435,
      435,
      436,
      436,
      436,
      436,
      436,
      436,
      436,
      437,
      437,
      437,
      436,
      437,
      438,
      439,
      438,
      438,
      438,
      438,
      439,
      441,
      442,
      443,
      443,
      443,
      443,
      444,
      444,
      444,
      431,
      424,
      422,
      414,
      406,
      399,
      389,
      379,
      382,
      372,
      372,
      363,
      364,
      356,
      348,
      332,
      317,
      311,
      315,
      287,
      265,
      251,
      256,
      260,
      255,
      247,
      247,
      248,
      247,
      251,
      248,
      227,
      211,
      194,
      177,
      180,
      171,
      171,
      156,
      156,
      153,
      145,
      143
    ],
    "swim:timestamps": [
      1786329214,
      1786329231,
      1786329283,
      1786329291,
      1786329351,
      1786329403,
      1786329411,
      1786329463,
      1786329471,
      1786329523,
      1786329531,
      1786329583,
      1786329591,
      1786329651,
      1786329703,
      1786329711,
      1786329763,
      1786329772,
      1786329823,
      1786329883,
      1786329892,
      1786329943,
      1786329952,
      1786330003,
      1786330012,
      1786330064,
      1786330072,
      1786330124,
      1786330132,
      1786330184,
      1786330192,
      1786330244,
      1786330252,
      1786330305,
      1786330312,
      1786330364,
      1786330372,
      1786330425,
      1786330432,
      1786330485,
      1786330493,
      1786330544,
      1786330553,
      1786330605,
      1786330613,
      1786330665,
      1786330673,
      1786330724,
      1786330733,
      1786330785,
      1786330793,
      1786330845,
      1786330853,
      1786330913,
      1786330965,
      1786330973,
      1786331025,
      1786331033,
      1786331085,
      1786331093,
      1786331146,
      1786331153,
      1786331206,
      1786331265,
      1786331326,
      1786331386,
      1786331445,
      1786331506,
      1786331566,
      1786331625,
      1786331686,
      1786331746,
      1786331805,
      1786331865,
      1786331926,
      1786331986,
      1786332046,
      1786332107,
      1786332166,
      1786332226,
      1786332287,
      1786332347,
      1786332407,
      1786332467,
      1786332527,
      1786332587,
      1786332647,
      1786332707,
      1786332767,
      1786332828,
      1786332888,
      1786332948,
      1786333008,
      1786333068,
      1786333128,
      1786333188,
      1786333248,
      1786333287,
      1786333308,
      1786333336,
      1786333368,
      1786333396,
      1786333428,
      1786333456,
      1786333488,
      1786333516,
      1786333548,
      1786333576,
      1786333608,
      1786333636,
      1786333669,
      1786333696,
      1786333729,
      1786333756,
      1786333789,
      1786333816,
      1786333849,
      1786333876,
      1786333909,
      1786333936,
      1786333969,
      1786334029,
      1786334056,
      1786334089,
      1786334117,
      1786334149,
      1786334177,
      1786334209,
      1786334236,
      1786334269,
      1786334297,
      1786334389,
      1786334416
    ],
    "wof:geomhash": "17a6b432cc96d1acc7cebb0a34ac81be",
    "wof:id": 2047899055,
    "wof:repo": "sfomuseum-data-flights-2026-08"
  },
  "bbox": [
    -122.75694444444444,
    37.36666666666667,
    -116.29638888888888,
    43.58722222222222
  ],
  "geometry": {"type":"LineString","coordinates":[[-116.29638888888888,43.586666666666666],[-116.31583333333333,43.58722222222222],[-116.37027777777777,43.55222222222222],[-116.38444444444445,43.54555555555555],[-116.46111111111111,43.48916666666667],[-116.52305555555556,43.44222222222222],[-116.53666666666666,43.43222222222222],[-116.60638888888889,43.3775],[-116.62694444444443,43.36611111111111],[-116.70222222222222,43.30694444444444],[-116.71777777777778,43.29666666666667],[-116.79694444444445,43.23444444444444],[-116.81527777777778,43.22277777777778],[-116.91111111111111,43.15],[-117.00194444444445,43.088055555555556],[-117.02805555555555,43.07972222222222],[-117.11999999999999,43.02194444444444],[-117.15166666666667,43.01555555555556],[-117.2725,42.99722222222222],[-117.42083333333333,42.973888888888894],[-117.45416666666667,42.971111111111114],[-117.57416666666666,42.95166666666667],[-117.60888888888888,42.94916666666666],[-117.73583333333333,42.93055555555555],[-117.76527777777778,42.92638888888889],[-117.89250000000001,42.908055555555556],[-117.92361111111111,42.90333333333333],[-118.05555555555556,42.88388888888889],[-118.08305555555555,42.87972222222222],[-118.215,42.86027777777778],[-118.24444444444444,42.85583333333334],[-118.36638888888888,42.83722222222222],[-118.40416666666667,42.831944444444446],[-118.52722222222222,42.81305555555555],[-118.56694444444445,42.80694444444444],[-118.69527777777778,42.78722222222222],[-118.72666666666667,42.7825],[-118.84861111111111,42.763333333333335],[-118.88777777777779,42.7575],[-119.0111111111111,42.738055555555555],[-119.05222222222221,42.73166666666667],[-119.18861111111111,42.70527777777778],[-119.20833333333334,42.6975],[-119.30944444444444,42.625277777777775],[-119.32472222222222,42.61277777777778],[-119.41722222222222,42.53666666666666],[-119.43305555555555,42.52444444444444],[-119.52472222222222,42.44888888888889],[-119.5411111111111,42.43527777777778],[-119.63361111111112,42.35861111111111],[-119.65,42.345555555555556],[-119.7425,42.26833333333333],[-119.7575,42.25611111111111],[-119.86611111111111,42.16583333333333],[-119.9588888888889,42.08777777777778],[-119.97500000000001,42.07472222222223],[-120.06444444444445,41.999722222222225],[-120.07027777777778,41.99472222222222],[-120.17472222222223,41.906666666666666],[-120.17916666666667,41.90277777777778],[-120.28388888888888,41.81444444444444],[-120.28472222222221,41.81388888888888],[-120.39027777777778,41.723888888888894],[-120.49722222222222,41.632777777777775],[-120.60416666666666,41.54138888888889],[-120.71083333333334,41.44944444444444],[-120.81638888888888,41.358333333333334],[-120.92333333333333,41.26583333333333],[-121.02944444444444,41.17361111111111],[-121.13361111111112,41.08277777777778],[-121.23944444444444,40.99],[-121.34222222222222,40.89972222222222],[-121.44638888888889,40.8075],[-121.55055555555555,40.71527777777778],[-121.65583333333333,40.62166666666667],[-121.75944444444444,40.52916666666667],[-121.86277777777777,40.436388888888885],[-121.96638888888889,40.343333333333334],[-122.06861111111111,40.25083333333333],[-122.17222222222223,40.15555555555555],[-122.23722222222223,40.066111111111105],[-122.28027777777778,39.94638888888888],[-122.31527777777778,39.824444444444445],[-122.35,39.70416666666667],[-122.38444444444445,39.58388888888889],[-122.41861111111112,39.46361111111111],[-122.45361111111112,39.34027777777778],[-122.48777777777778,39.219722222222224],[-122.5213888888889,39.1],[-122.55527777777777,38.98027777777778],[-122.5911111111111,38.85166666666667],[-122.6236111111111,38.73777777777778],[-122.65527777777778,38.625],[-122.68694444444445,38.51277777777778],[-122.7175,38.403888888888886],[-122.74777777777778,38.29527777777778],[-122.75694444444444,38.19],[-122.73333333333333,38.11666666666667],[-122.72722222222222,38.08638888888889],[-122.71666666666667,38.03333333333333],[-122.69861111111112,37.98722222222222],[-122.68333333333334,37.93333333333333],[-122.66583333333334,37.89416666666666],[-122.61666666666666,37.85],[-122.575,37.80694444444444],[-122.53333333333333,37.766666666666666],[-122.5025,37.738055555555555],[-122.46666666666667,37.7],[-122.43138888888889,37.671388888888885],[-122.4,37.65],[-122.36944444444444,37.61194444444445],[-122.35,37.583333333333336],[-122.33138888888888,37.54722222222222],[-122.31666666666666,37.516666666666666],[-122.29222222222222,37.483333333333334],[-122.3,37.45],[-122.30944444444444,37.41861111111111],[-122.31666666666666,37.38333333333333],[-122.27361111111111,37.3675],[-122.23333333333333,37.36666666666667],[-122.19,37.384166666666665],[-122.12305555555555,37.420833333333334],[-122.1,37.43333333333333],[-122.0825,37.467222222222226],[-122.1,37.483333333333334],[-122.11833333333333,37.50527777777778],[-122.13333333333334,37.516666666666666],[-122.16777777777779,37.53138888888889],[-122.18333333333334,37.53333333333333],[-122.21583333333334,37.551944444444445],[-122.23333333333333,37.56666666666667],[-122.30833333333334,37.590833333333336],[-122.33333333333333,37.6]]}
}
