{
  "id": 2047945471,
  "type": "Feature",
  "properties": {
    "geom:area": 0,
    "geom:bbox": "-122.416667,37.633333,-70.916667,42.747500",
    "geom:latitude": 41.223805649790975,
    "geom:longitude": -96.72151469870965,
    "src:alt_label": "swim-path",
    "src:geom": "swim",
    "swim:altitudes": [
      "007",
      "015",
      "028",
      "033",
      "042",
      "045",
      "064",
      "069",
      "085",
      "105",
      "119",
      "141",
      "161",
      "179",
      "198",
      "212",
      "225",
      "230",
      "239",
      "250",
      "254",
      "259",
      "264",
      "271",
      "278",
      "283",
      "287",
      "290",
      "296",
      "300",
      "300",
      "300",
      "303",
      "308",
      "317",
      "328",
      "330",
      "330",
      "330",
      "330",
      "330",
      "340",
      "344",
      "350C",
      "350C",
      "350C",
      "350C",
      "350C",
      "350C",
      "350C",
      "350C",
      "350C",
      "350C",
      "350C",
      "350C",
      "350C",
      "350C",
      "350C",
      "350C",
      "350C",
      "350C",
      "350C",
      "350C",
      "350C",
      "350C",
      "350C",
      "350C",
      "350C",
      "350C",
      "350C",
      "350C",
      "350C",
      "350C",
      "350C",
      "350C",
      "350C",
      "350C",
      "350C",
      "350C",
      "350C",
      "350C",
      "350C",
      "350C",
      "350C",
      "350C",
      "350C",
      "350C",
      "350C",
      "350C",
      "350C",
      "350C",
      "350C",
      "350C",
      "350C",
      "350C",
      "350C",
      "350C",
      "350C",
      "350C",
      "350C",
      "350C",
      "350C",
      "350C",
      "350C",
      "350C",
      "350C",
      "350C",
      "350C",
      "350C",
      "350C",
      "350C",
      "350C",
      "350C",
      "350C",
      "350C",
      "350C",
      "350C",
      "350C",
      "350C",
      "350C",
      "350C",
      "350C",
      "350C",
      "350C",
      "350C",
      "350C",
      "350C",
      "350C",
      "350C",
      "350C",
      "350C",
      "350C",
      "350C",
      "350C",
      "350C",
      "350C",
      "350C",
      "350C",
      "350C",
      "350C",
      "350C",
      "350C",
      "350C",
      "350C",
      "350C",
      "350C",
      "350C",
      "350C",
      "350C",
      "350C",
      "350C",
      "350C",
      "350C",
      "350C",
      "350C",
      "350C",
      "350C",
      "350C",
      "350C",
      "350C",
      "350C",
      "350C",
      "350C",
      "350C",
      "350C",
      "350C",
      "350C",
      "350C",
      "350C",
      "350C",
      "350C",
      "350C",
      "350C",
      "350C",
      "350C",
      "350C",
      "350C",
      "350C",
      "350C",
      "350C",
      "350C",
      "350C",
      "350C",
      "350C",
      "350C",
      "350C",
      "350C",
      "350C",
      "350C",
      "350C",
      "350C",
      "350C",
      "350C",
      "350C",
      "350C",
      "350C",
      "350C",
      "350C",
      "350C",
      "350C",
      "350C",
      "350C",
      "350C",
      "350C",
      "350C",
      "350C",
      "350C",
      "350C",
      "350C",
      "350C",
      "350C",
      "350C",
      "350C",
      "350C",
      "350C",
      "350C",
      "350C",
      "350C",
      "350C",
      "350C",
      "350C",
      "350C",
      "350C",
      "350C",
      "350C",
      "350C",
      "350C",
      "350C",
      "350C",
      "350C",
      "350C",
      "350C",
      "350C",
      "350C",
      "350C",
      "350C",
      "350C",
      "350C",
      "350C",
      "350C",
      "350C",
      "350C",
      "350C",
      "350C",
      "350C",
      "350C",
      "350C",
      "350C",
      "350C",
      "350C",
      "350C",
      "350C",
      "350C",
      "350C",
      "350C",
      "350C",
      "350C",
      "350C",
      "350C",
      "350C",
      "350C",
      "350C",
      "350C",
      "350C",
      "350C",
      "350C",
      "350C",
      "350C",
      "350C",
      "350C",
      "350C",
      "350C",
      "350C",
      "350C",
      "350C",
      "350C",
      "350C",
      "350C",
      "350C",
      "350C",
      "350C",
      "350C",
      "350C",
      "350C",
      "350C",
      "350C",
      "350C",
      "350C",
      "350C",
      "350C",
      "350C",
      "350C",
      "350C",
      "350C",
      "350C",
      "350C",
      "350C",
      "350C",
      "350C",
      "350C",
      "350C",
      "350C",
      "350C",
      "350C",
      "350C",
      "350C",
      "350C",
      "350C",
      "350C",
      "350",
      "353",
      "362",
      "370C",
      "370C",
      "370C",
      "370C",
      "370C",
      "370C",
      "370C",
      "370C",
      "370C",
      "370C",
      "370C",
      "370C",
      "370C",
      "370C",
      "370C",
      "370C",
      "370C",
      "370C",
      "370C",
      "370C",
      "370C",
      "370C",
      "370C",
      "370C",
      "370C",
      "370C",
      "370C",
      "370C",
      "370C",
      "370C",
      "370C",
      "370C",
      "370C",
      "370C",
      "370C",
      "370C",
      "370C",
      "370C",
      "370C",
      "370C",
      "370",
      "370",
      "363",
      "341",
      "320",
      "304",
      "286",
      "268",
      "250",
      "232",
      "214",
      "187",
      "180",
      "168",
      "150",
      "132",
      "118",
      "116",
      "103",
      "103",
      "096",
      "072",
      "057",
      "047",
      "035",
      "033",
      "030",
      "030",
      "023",
      "021",
      "013",
      "005",
      "110"
    ],
    "swim:geom": "path",
    "swim:speeds": [
      185,
      186,
      199,
      208,
      247,
      270,
      276,
      287,
      294,
      309,
      349,
      359,
      368,
      374,
      384,
      399,
      412,
      445,
      456,
      464,
      467,
      474,
      469,
      478,
      477,
      477,
      477,
      478,
      479,
      480,
      482,
      482,
      484,
      486,
      485,
      471,
      475,
      463,
      469,
      477,
      480,
      482,
      481,
      474,
      476,
      476,
      486,
      488,
      490,
      491,
      491,
      491,
      491,
      490,
      490,
      490,
      490,
      489,
      488,
      486,
      484,
      484,
      484,
      484,
      484,
      489,
      490,
      492,
      492,
      490,
      483,
      482,
      480,
      479,
      478,
      476,
      474,
      473,
      475,
      476,
      476,
      476,
      474,
      473,
      472,
      472,
      474,
      476,
      477,
      477,
      480,
      482,
      483,
      484,
      485,
      486,
      484,
      481,
      482,
      483,
      482,
      482,
      484,
      484,
      480,
      477,
      463,
      462,
      463,
      466,
      472,
      485,
      486,
      490,
      491,
      493,
      493,
      495,
      495,
      497,
      497,
      497,
      497,
      496,
      496,
      496,
      496,
      496,
      496,
      495,
      495,
      495,
      495,
      495,
      495,
      495,
      495,
      495,
      493,
      493,
      492,
      492,
      491,
      491,
      490,
      489,
      489,
      488,
      487,
      488,
      489,
      490,
      490,
      491,
      492,
      490,
      487,
      484,
      483,
      482,
      483,
      485,
      487,
      489,
      489,
      494,
      496,
      499,
      506,
      508,
      508,
      509,
      509,
      509,
      508,
      508,
      507,
      506,
      506,
      506,
      507,
      507,
      508,
      509,
      509,
      509,
      510,
      509,
      510,
      510,
      510,
      508,
      507,
      506,
      506,
      509,
      510,
      511,
      512,
      514,
      515,
      516,
      516,
      516,
      515,
      514,
      512,
      510,
      509,
      508,
      508,
      511,
      509,
      511,
      509,
      511,
      510,
      511,
      511,
      511,
      512,
      512,
      512,
      512,
      511,
      511,
      510,
      510,
      510,
      510,
      510,
      510,
      510,
      510,
      510,
      511,
      511,
      511,
      511,
      511,
      512,
      512,
      512,
      512,
      512,
      513,
      512,
      512,
      512,
      512,
      511,
      511,
      511,
      511,
      511,
      511,
      511,
      512,
      512,
      513,
      514,
      516,
      518,
      519,
      520,
      522,
      523,
      523,
      524,
      525,
      526,
      527,
      529,
      529,
      531,
      532,
      533,
      531,
      532,
      531,
      532,
      530,
      531,
      529,
      530,
      527,
      528,
      527,
      528,
      527,
      528,
      529,
      531,
      532,
      532,
      533,
      533,
      533,
      533,
      534,
      535,
      535,
      536,
      535,
      536,
      535,
      536,
      534,
      531,
      529,
      533,
      536,
      537,
      538,
      538,
      539,
      542,
      542,
      542,
      541,
      542,
      543,
      544,
      545,
      547,
      548,
      548,
      549,
      549,
      549,
      549,
      549,
      548,
      549,
      549,
      549,
      551,
      549,
      549,
      548,
      547,
      548,
      548,
      549,
      546,
      545,
      545,
      542,
      537,
      535,
      533,
      533,
      534,
      534,
      536,
      535,
      518,
      492,
      486,
      476,
      461,
      449,
      441,
      441,
      426,
      404,
      401,
      386,
      368,
      371,
      354,
      351,
      300,
      277,
      252,
      223,
      217,
      216,
      194,
      193,
      176,
      179,
      156,
      150,
      150
    ],
    "swim:timestamps": [
      1786563841,
      1786563859,
      1786563913,
      1786563919,
      1786563973,
      1786563979,
      1786564033,
      1786564039,
      1786564094,
      1786564154,
      1786564214,
      1786564274,
      1786564334,
      1786564394,
      1786564454,
      1786564514,
      1786564574,
      1786564634,
      1786564694,
      1786564754,
      1786564786,
      1786564815,
      1786564846,
      1786564875,
      1786564906,
      1786564935,
      1786564966,
      1786564995,
      1786565026,
      1786565055,
      1786565087,
      1786565115,
      1786565147,
      1786565175,
      1786565207,
      1786565235,
      1786565267,
      1786565295,
      1786565327,
      1786565355,
      1786565387,
      1786565415,
      1786565447,
      1786565476,
      1786565507,
      1786565536,
      1786565579,
      1786565596,
      1786565639,
      1786565656,
      1786565699,
      1786565716,
      1786565759,
      1786565776,
      1786565820,
      1786565836,
      1786565880,
      1786565896,
      1786565940,
      1786565956,
      1786566016,
      1786566060,
      1786566076,
      1786566120,
      1786566137,
      1786566180,
      1786566197,
      1786566240,
      1786566257,
      1786566317,
      1786566360,
      1786566377,
      1786566437,
      1786566480,
      1786566541,
      1786566601,
      1786566661,
      1786566721,
      1786566781,
      1786566841,
      1786566901,
      1786566961,
      1786567021,
      1786567081,
      1786567141,
      1786567201,
      1786567261,
      1786567322,
      1786567382,
      1786567442,
      1786567502,
      1786567574,
      1786567634,
      1786567694,
      1786567754,
      1786567814,
      1786567874,
      1786567934,
      1786567994,
      1786568036,
      1786568055,
      1786568115,
      1786568156,
      1786568175,
      1786568216,
      1786568235,
      1786568276,
      1786568295,
      1786568336,
      1786568355,
      1786568415,
      1786568456,
      1786568475,
      1786568516,
      1786568535,
      1786568576,
      1786568595,
      1786568636,
      1786568655,
      1786568697,
      1786568715,
      1786568757,
      1786568776,
      1786568817,
      1786568836,
      1786568877,
      1786568896,
      1786568937,
      1786568956,
      1786568997,
      1786569016,
      1786569057,
      1786569076,
      1786569117,
      1786569136,
      1786569196,
      1786569237,
      1786569256,
      1786569297,
      1786569316,
      1786569357,
      1786569376,
      1786569418,
      1786569436,
      1786569478,
      1786569538,
      1786569598,
      1786569658,
      1786569718,
      1786569778,
      1786569838,
      1786569898,
      1786569958,
      1786570018,
      1786570078,
      1786570139,
      1786570199,
      1786570259,
      1786570319,
      1786570379,
      1786570439,
      1786570499,
      1786570559,
      1786570619,
      1786570679,
      1786570739,
      1786570799,
      1786570860,
      1786570920,
      1786570980,
      1786571040,
      1786571100,
      1786571160,
      1786571220,
      1786571280,
      1786571340,
      1786571400,
      1786571460,
      1786571520,
      1786571580,
      1786571641,
      1786571701,
      1786571761,
      1786571881,
      1786571941,
      1786572001,
      1786572055,
      1786572121,
      1786572175,
      1786572236,
      1786572296,
      1786572362,
      1786572422,
      1786572482,
      1786572542,
      1786572656,
      1786572716,
      1786572776,
      1786572836,
      1786572956,
      1786573017,
      1786573077,
      1786573137,
      1786573197,
      1786573257,
      1786573317,
      1786573377,
      1786573437,
      1786573497,
      1786573557,
      1786573617,
      1786573637,
      1786573677,
      1786573697,
      1786573738,
      1786573757,
      1786573798,
      1786573818,
      1786573858,
      1786573878,
      1786573918,
      1786573938,
      1786573978,
      1786573998,
      1786574038,
      1786574058,
      1786574098,
      1786574118,
      1786574158,
      1786574178,
      1786574218,
      1786574238,
      1786574278,
      1786574298,
      1786574338,
      1786574358,
      1786574398,
      1786574418,
      1786574459,
      1786574479,
      1786574519,
      1786574539,
      1786574579,
      1786574599,
      1786574639,
      1786574659,
      1786574699,
      1786574719,
      1786574759,
      1786574779,
      1786574819,
      1786574839,
      1786574899,
      1786574939,
      1786574959,
      1786574999,
      1786575019,
      1786575059,
      1786575080,
      1786575119,
      1786575140,
      1786575200,
      1786575260,
      1786575320,
      1786575380,
      1786575452,
      1786575512,
      1786575572,
      1786575632,
      1786575693,
      1786575753,
      1786575813,
      1786575873,
      1786575933,
      1786575993,
      1786576053,
      1786576113,
      1786576173,
      1786576200,
      1786576233,
      1786576260,
      1786576294,
      1786576320,
      1786576351,
      1786576380,
      1786576411,
      1786576440,
      1786576471,
      1786576500,
      1786576531,
      1786576560,
      1786576591,
      1786576620,
      1786576663,
      1786576681,
      1786576741,
      1786576801,
      1786576844,
      1786576861,
      1786576904,
      1786576921,
      1786576964,
      1786576981,
      1786577024,
      1786577041,
      1786577084,
      1786577101,
      1786577161,
      1786577221,
      1786577282,
      1786577342,
      1786577402,
      1786577462,
      1786577522,
      1786577582,
      1786577642,
      1786577702,
      1786577762,
      1786577822,
      1786577882,
      1786577943,
      1786578003,
      1786578063,
      1786578123,
      1786578183,
      1786578243,
      1786578303,
      1786578363,
      1786578423,
      1786578483,
      1786578544,
      1786578604,
      1786578664,
      1786578724,
      1786578784,
      1786578844,
      1786578905,
      1786578964,
      1786579026,
      1786579086,
      1786579145,
      1786579266,
      1786579325,
      1786579385,
      1786579446,
      1786579506,
      1786579565,
      1786579626,
      1786579686,
      1786579747,
      1786579807,
      1786579867,
      1786579927,
      1786579987,
      1786580047,
      1786580107,
      1786580167,
      1786580227,
      1786580287,
      1786580347,
      1786580407,
      1786580468,
      1786580528,
      1786580588,
      1786580604,
      1786580646,
      1786580708,
      1786580768,
      1786580814,
      1786580828,
      1786580874,
      1786580888,
      1786580940,
      1786581068,
      1786581128,
      1786581188,
      1786581240,
      1786581249,
      1786581295,
      1786581309,
      1786581355,
      1786581369,
      1786581429,
      1786581489,
      1786581549
    ],
    "wof:geomhash": "c1aa51c78a6ac57a63edcfd579633878",
    "wof:id": 2047945471,
    "wof:repo": "sfomuseum-data-flights-2026-08"
  },
  "bbox": [
    -122.41666666666667,
    37.63333333333333,
    -70.91666666666667,
    42.7475
  ],
  "geometry": {"type":"LineString","coordinates":[[-122.4,37.63333333333333],[-122.41666666666667,37.63333333333333],[-122.37916666666666,37.6675],[-122.36666666666666,37.666666666666664],[-122.30499999999999,37.68861111111111],[-122.28333333333333,37.7],[-122.21555555555555,37.718611111111116],[-122.2,37.733333333333334],[-122.1275,37.760555555555555],[-122.03083333333333,37.79972222222222],[-121.9238888888889,37.844166666666666],[-121.79944444444445,37.89527777777778],[-121.68388888888889,37.94277777777778],[-121.5675,37.99055555555556],[-121.44527777777778,38.040277777777774],[-121.32138888888889,38.09055555555556],[-121.19333333333334,38.14222222222222],[-121.05666666666666,38.196666666666665],[-120.90055555555556,38.225],[-120.73972222222223,38.24805555555556],[-120.6538888888889,38.25833333333333],[-120.575,38.27111111111111],[-120.48833333333333,38.282222222222224],[-120.40944444444445,38.29388888888889],[-120.32111111111111,38.30416666666667],[-120.24361111111111,38.312777777777775],[-120.155,38.32194444444445],[-120.07638888888889,38.33166666666667],[-119.98666666666666,38.34027777777778],[-119.90694444444445,38.35194444444445],[-119.81722222222221,38.36083333333333],[-119.73722222222223,38.37444444444444],[-119.64750000000001,38.382777777777775],[-119.56888888888888,38.39694444444444],[-119.47888888888889,38.407777777777774],[-119.41611111111112,38.420833333333334],[-119.31944444444444,38.43666666666666],[-119.22694444444444,38.458333333333336],[-119.16638888888889,38.47888888888889],[-119.07527777777777,38.513888888888886],[-119.01361111111112,38.53722222222222],[-118.92500000000001,38.57472222222223],[-118.86333333333333,38.598333333333336],[-118.77555555555556,38.63611111111111],[-118.71666666666667,38.65972222222222],[-118.62583333333333,38.69638888888888],[-118.53666666666666,38.73166666666667],[-118.4725,38.75666666666667],[-118.37583333333333,38.794444444444444],[-118.31611111111111,38.81777777777778],[-118.21111111111111,38.85305555555556],[-118.15444444444445,38.86833333333333],[-118.0475,38.89722222222222],[-117.99083333333333,38.9125],[-117.87805555555555,38.94305555555555],[-117.82638888888889,38.95666666666667],[-117.71444444444445,38.98555555555556],[-117.66305555555556,38.99888888888889],[-117.54666666666667,39.02638888888889],[-117.49916666666667,39.03666666666666],[-117.33388888888888,39.07138888888889],[-117.21916666666667,39.09583333333334],[-117.16972222222223,39.10888888888889],[-117.05666666666666,39.13972222222222],[-117.01388888888889,39.15361111111111],[-116.89527777777778,39.19305555555555],[-116.85916666666667,39.205000000000005],[-116.73305555555555,39.2475],[-116.6975,39.25944444444445],[-116.53333333333333,39.30083333333333],[-116.39777777777779,39.30305555555555],[-116.36027777777777,39.30333333333333],[-116.15694444444445,39.30361111111111],[-116.05777777777777,39.303888888888885],[-115.88666666666667,39.30416666666667],[-115.71916666666667,39.30472222222222],[-115.55055555555555,39.30472222222222],[-115.38138888888888,39.30444444444444],[-115.21138888888889,39.303888888888885],[-115.0411111111111,39.30333333333333],[-114.86861111111111,39.302499999999995],[-114.70138888888889,39.30138888888889],[-114.53083333333333,39.29972222222222],[-114.36194444444443,39.30083333333333],[-114.19444444444444,39.30138888888889],[-114.02777777777777,39.30166666666666],[-113.8561111111111,39.301944444444445],[-113.68611111111112,39.30166666666666],[-113.51555555555555,39.301111111111105],[-113.34444444444443,39.300555555555555],[-113.14083333333333,39.325833333333335],[-112.94361111111111,39.37138888888889],[-112.7761111111111,39.41],[-112.6086111111111,39.448611111111106],[-112.44361111111111,39.486111111111114],[-112.27416666666666,39.52444444444444],[-112.11027777777777,39.56083333333333],[-111.95138888888889,39.60638888888889],[-111.80194444444444,39.67777777777778],[-111.70555555555556,39.72361111111111],[-111.65527777777778,39.74722222222222],[-111.5286111111111,39.80694444444444],[-111.40777777777778,39.86555555555556],[-111.40805555555556,39.86555555555556],[-111.24694444444445,39.908055555555556],[-111.21166666666667,39.907777777777774],[-111.085,39.8775],[-111.05583333333333,39.86611111111111],[-110.92972222222222,39.831944444444446],[-110.89611111111111,39.8275],[-110.72444444444444,39.8175],[-110.58805555555556,39.830000000000005],[-110.5525,39.83916666666667],[-110.41833333333334,39.86972222222222],[-110.38305555555554,39.8775],[-110.24527777777777,39.9075],[-110.21166666666667,39.914722222222224],[-110.07277777777777,39.94499999999999],[-110.03777777777778,39.9525],[-109.89805555555556,39.9825],[-109.86333333333333,39.99],[-109.72416666666666,40.019999999999996],[-109.68861111111111,40.027499999999996],[-109.5525,40.05638888888888],[-109.515,40.06444444444444],[-109.37722222222222,40.09388888888889],[-109.34138888888889,40.10166666666667],[-109.20305555555557,40.130833333333335],[-109.16638888888889,40.138333333333335],[-109.02777777777777,40.16777777777777],[-108.99333333333334,40.17444444444444],[-108.85333333333332,40.203611111111115],[-108.81805555555555,40.21083333333333],[-108.68083333333334,40.23888888888889],[-108.64361111111111,40.24638888888889],[-108.46805555555555,40.28138888888889],[-108.3475,40.306666666666665],[-108.2925,40.31777777777778],[-108.15972222222223,40.34444444444445],[-108.12055555555555,40.352222222222224],[-108.00055555555555,40.37583333333333],[-107.95138888888889,40.385555555555555],[-107.81611111111111,40.41222222222222],[-107.77805555555555,40.419444444444444],[-107.64777777777779,40.44499999999999],[-107.47666666666667,40.47805555555556],[-107.30611111111111,40.51111111111111],[-107.13527777777779,40.54361111111111],[-106.96194444444444,40.57638888888889],[-106.78999999999999,40.60861111111111],[-106.61611111111111,40.64083333333333],[-106.42750000000001,40.675555555555555],[-106.25333333333333,40.706944444444446],[-106.07722222222222,40.73861111111111],[-105.90194444444445,40.769999999999996],[-105.72472222222223,40.783055555555556],[-105.54694444444445,40.77638888888889],[-105.37277777777777,40.759166666666665],[-105.19972222222222,40.73361111111111],[-105.02583333333334,40.70472222222222],[-104.8536111111111,40.680277777777775],[-104.67472222222223,40.670833333333334],[-104.49555555555555,40.66888888888889],[-104.31555555555555,40.666666666666664],[-104.13444444444445,40.66305555555555],[-103.99083333333333,40.68083333333333],[-103.81444444444445,40.71472222222223],[-103.63555555555556,40.74805555555556],[-103.45333333333333,40.78194444444444],[-103.27305555555556,40.815555555555555],[-103.09277777777777,40.84861111111111],[-102.88722222222223,40.88583333333333],[-102.70666666666666,40.91861111111111],[-102.52166666666666,40.95194444444445],[-102.34222222222222,40.98361111111111],[-102.16111111111111,41.015277777777776],[-101.9786111111111,41.04694444444444],[-101.79861111111111,41.07777777777778],[-101.61416666666666,41.10916666666667],[-101.43305555555555,41.13972222222222],[-101.24833333333333,41.17055555555555],[-101.06583333333333,41.20055555555556],[-100.8786111111111,41.23111111111111],[-100.50888888888889,41.290277777777774],[-100.32472222222222,41.31916666666667],[-100.13861111111112,41.348333333333336],[-99.97805555555556,41.373333333333335],[-99.76916666666666,41.405277777777776],[-99.61138888888888,41.428888888888885],[-99.42527777777778,41.45638888888889],[-99.24166666666667,41.48361111111111],[-99.03083333333333,41.51444444444444],[-98.84777777777778,41.54083333333333],[-98.66527777777779,41.56666666666667],[-98.48027777777779,41.592222222222226],[-98.13361111111112,41.64055555555556],[-97.94611111111111,41.66583333333333],[-97.75861111111111,41.691111111111105],[-97.57416666666666,41.71555555555556],[-97.19583333333334,41.76444444444444],[-97.00555555555556,41.78861111111111],[-96.81416666666667,41.81222222222222],[-96.62388888888889,41.83583333333333],[-96.43444444444445,41.85916666666667],[-96.24388888888889,41.88194444444444],[-96.05444444444444,41.90416666666667],[-95.865,41.92638888888889],[-95.67750000000001,41.948055555555555],[-95.49055555555556,41.96888888888889],[-95.30222222222221,41.98972222222222],[-95.11305555555555,42.01027777777778],[-95.06805555555555,42.014722222222225],[-94.92555555555556,42.03055555555555],[-94.87916666666666,42.034166666666664],[-94.77361111111111,42.04666666666667],[-94.69444444444444,42.055],[-94.54944444444445,42.07027777777778],[-94.50361111111111,42.075],[-94.35972222222222,42.08972222222222],[-94.315,42.094166666666666],[-94.17,42.10888888888889],[-94.12555555555555,42.11333333333334],[-93.98083333333334,42.1275],[-93.93527777777778,42.13194444444444],[-93.82138888888889,42.143055555555556],[-93.7475,42.150277777777774],[-93.6325,42.16138888888889],[-93.55749999999999,42.16861111111111],[-93.44500000000001,42.178888888888885],[-93.37194444444444,42.18583333333333],[-93.25777777777778,42.19638888888888],[-93.18111111111112,42.20333333333333],[-93.06638888888888,42.21388888888889],[-92.99111111111111,42.220555555555556],[-92.87666666666667,42.23083333333334],[-92.80305555555556,42.23722222222222],[-92.6875,42.24722222222222],[-92.6125,42.25361111111111],[-92.49777777777778,42.26361111111111],[-92.42333333333333,42.26972222222222],[-92.30805555555555,42.279444444444444],[-92.23388888888888,42.285555555555554],[-92.08166666666666,42.29805555555556],[-92.04527777777777,42.301111111111105],[-91.89166666666668,42.31333333333333],[-91.85388888888889,42.31638888888889],[-91.70222222222222,42.32833333333333],[-91.66472222222222,42.33111111111111],[-91.55111111111111,42.34],[-91.47638888888889,42.34583333333334],[-91.32444444444444,42.35722222222223],[-91.28888888888889,42.359722222222224],[-91.09833333333333,42.37388888888889],[-90.94416666666667,42.38472222222222],[-90.90833333333335,42.38722222222222],[-90.75611111111111,42.39805555555556],[-90.71916666666667,42.400555555555556],[-90.56444444444445,42.405833333333334],[-90.5261111111111,42.407222222222224],[-90.37166666666666,42.41166666666666],[-90.33333333333333,42.41277777777778],[-90.13972222222223,42.41833333333333],[-89.94444444444444,42.42333333333333],[-89.73,42.42861111111111],[-89.53694444444444,42.433055555555555],[-89.33944444444444,42.43722222222222],[-89.10472222222222,42.44166666666666],[-88.91055555555556,42.44499999999999],[-88.71194444444444,42.448055555555555],[-88.51555555555555,42.450833333333335],[-88.32,42.45305555555556],[-88.12222222222222,42.455000000000005],[-87.9225,42.456944444444446],[-87.72555555555556,42.458333333333336],[-87.52722222222222,42.45944444444445],[-87.32666666666667,42.46],[-87.12722222222222,42.46027777777778],[-86.92972222222222,42.46027777777778],[-86.82638888888889,42.46055555555556],[-86.73138888888889,42.46],[-86.6525,42.46027777777778],[-86.53444444444445,42.45944444444445],[-86.41694444444445,42.45861111111111],[-86.33694444444444,42.45805555555556],[-86.2225,42.45722222222223],[-86.14194444444445,42.45666666666667],[-86.02833333333334,42.45583333333334],[-85.94666666666667,42.45527777777778],[-85.83194444444445,42.45388888888889],[-85.70944444444444,42.45277777777778],[-85.63416666666667,42.45194444444445],[-85.51194444444444,42.45027777777778],[-85.43527777777778,42.44916666666666],[-85.31,42.4475],[-85.23361111111112,42.44638888888888],[-85.03583333333333,42.44305555555555],[-84.83333333333333,42.43888888888888],[-84.67361111111111,42.43583333333333],[-84.63555555555556,42.43527777777778],[-84.47444444444444,42.43194444444444],[-84.42500000000001,42.43055555555555],[-84.26916666666666,42.426944444444445],[-84.22194444444445,42.42583333333333],[-84.07055555555556,42.42194444444444],[-84.02,42.420833333333334],[-83.86805555555554,42.41638888888889],[-83.82,42.415],[-83.61944444444444,42.409166666666664],[-83.43111111111112,42.41444444444444],[-83.23222222222222,42.42166666666667],[-83.05138888888888,42.42777777777778],[-82.84916666666666,42.43416666666666],[-82.64805555555556,42.44027777777777],[-82.44444444444444,42.44888888888889],[-82.24222222222222,42.46361111111111],[-82.04194444444444,42.47777777777778],[-81.83833333333332,42.49166666666667],[-81.6125,42.506388888888885],[-81.41083333333334,42.51916666666666],[-81.20722222222223,42.53194444444444],[-81.00138888888888,42.54472222222222],[-80.79722222222222,42.556666666666665],[-80.59166666666667,42.568333333333335],[-80.38861111111112,42.57916666666667],[-80.18138888888889,42.59055555555556],[-79.97472222222223,42.60111111111111],[-79.77333333333333,42.611111111111114],[-79.56722222222221,42.62111111111111],[-79.35888888888888,42.630833333333335],[-79.15305555555557,42.64],[-78.94722222222222,42.64888888888889],[-78.74,42.65694444444444],[-78.53666666666666,42.664722222222224],[-78.32805555555555,42.6725],[-78.12194444444444,42.68],[-77.915,42.68694444444444],[-77.70555555555556,42.69361111111111],[-77.48305555555555,42.70027777777778],[-77.27972222222222,42.70583333333334],[-77.07388888888889,42.711111111111116],[-76.86333333333333,42.71611111111111],[-76.45416666666667,42.72527777777778],[-76.2475,42.72916666666667],[-76.04083333333332,42.7325],[-75.83944444444444,42.73555555555556],[-75.63611111111112,42.73833333333334],[-75.43361111111112,42.740833333333335],[-75.2286111111111,42.7425],[-75.03083333333333,42.74444444444445],[-74.82916666666667,42.74583333333334],[-74.63138888888888,42.74666666666667],[-74.43055555555556,42.74722222222222],[-74.23222222222222,42.7475],[-74.01361111111112,42.7475],[-73.81,42.74666666666667],[-73.6086111111111,42.745555555555555],[-73.40805555555556,42.74444444444445],[-73.22083333333333,42.74194444444444],[-73.0363888888889,42.731388888888894],[-72.84972222222221,42.71],[-72.68027777777779,42.68944444444444],[-72.5111111111111,42.66972222222222],[-72.35027777777778,42.65],[-72.19083333333333,42.63111111111111],[-72.13333333333334,42.63333333333333],[-72.03333333333333,42.61666666666667],[-71.88916666666667,42.595],[-71.74694444444445,42.57472222222223],[-71.63333333333334,42.55],[-71.61138888888888,42.55305555555555],[-71.5,42.53333333333333],[-71.48055555555555,42.52722222222222],[-71.38333333333334,42.5],[-71.14611111111111,42.46638888888889],[-71.06305555555555,42.498333333333335],[-71.03,42.55777777777777],[-70.96666666666667,42.56666666666667],[-70.95583333333333,42.56888888888889],[-70.91666666666667,42.53333333333333],[-70.92777777777778,42.52333333333333],[-70.95,42.483333333333334],[-70.95111111111112,42.475833333333334],[-70.97194444444445,42.43277777777777],[-70.99083333333333,42.394444444444446],[-71.00527777777778,42.36472222222223]]}
}
