{
  "id": 2047945567,
  "type": "Feature",
  "properties": {
    "geom:area": 0,
    "geom:bbox": "-122.525278,37.633333,-116.651389,48.188611",
    "geom:latitude": 42.926851883005114,
    "geom:longitude": -119.72179799860132,
    "src:alt_label": "swim-path",
    "src:geom": "swim",
    "swim:altitudes": [
      "006",
      "012",
      "036",
      "050",
      "076",
      "100",
      "111",
      "134",
      "158",
      "182",
      "203",
      "221",
      "237",
      "252",
      "266",
      "282",
      "291",
      "301",
      "310",
      "320",
      "330",
      "339",
      "351",
      "357",
      "360C",
      "360C",
      "360C",
      "360C",
      "360C",
      "360C",
      "360C",
      "360C",
      "360C",
      "360C",
      "360C",
      "360C",
      "360C",
      "360C",
      "360C",
      "360C",
      "360C",
      "360C",
      "360C",
      "360C",
      "360C",
      "360C",
      "360C",
      "360C",
      "360C",
      "360C",
      "360C",
      "360C",
      "360C",
      "360C",
      "360C",
      "360C",
      "360C",
      "360C",
      "360C",
      "360C",
      "360C",
      "360C",
      "360C",
      "360C",
      "360C",
      "360C",
      "360C",
      "360C",
      "360C",
      "360C",
      "360C",
      "360C",
      "360C",
      "360C",
      "360C",
      "360C",
      "360C",
      "360C",
      "360C",
      "360C",
      "360C",
      "360C",
      "360C",
      "360C",
      "360C",
      "360C"
    ],
    "swim:geom": "path",
    "swim:speeds": [
      185,
      185,
      196,
      272,
      294,
      300,
      363,
      381,
      389,
      395,
      405,
      412,
      424,
      435,
      446,
      451,
      459,
      470,
      478,
      485,
      488,
      491,
      491,
      488,
      490,
      491,
      490,
      490,
      491,
      491,
      491,
      492,
      494,
      496,
      499,
      500,
      500,
      498,
      496,
      494,
      491,
      489,
      488,
      487,
      486,
      486,
      486,
      486,
      487,
      487,
      488,
      488,
      488,
      487,
      482,
      480,
      477,
      476,
      474,
      474,
      478,
      482,
      483,
      484,
      485,
      484,
      484,
      484,
      484,
      484,
      486,
      487,
      489,
      490,
      492,
      493,
      494,
      493,
      493,
      493,
      493,
      493,
      493,
      494,
      495,
      497
    ],
    "swim:timestamps": [
      1786550186,
      1786550202,
      1786550262,
      1786550322,
      1786550382,
      1786550442,
      1786550502,
      1786550562,
      1786550622,
      1786550682,
      1786550742,
      1786550802,
      1786550862,
      1786550922,
      1786550983,
      1786551043,
      1786551103,
      1786551163,
      1786551223,
      1786551283,
      1786551343,
      1786551403,
      1786551465,
      1786551523,
      1786551583,
      1786551646,
      1786551704,
      1786551764,
      1786551824,
      1786551884,
      1786551944,
      1786552004,
      1786552064,
      1786552124,
      1786552184,
      1786552244,
      1786552304,
      1786552365,
      1786552425,
      1786552485,
      1786552547,
      1786552607,
      1786552667,
      1786552727,
      1786552787,
      1786552847,
      1786552907,
      1786552967,
      1786553027,
      1786553088,
      1786553148,
      1786553208,
      1786553268,
      1786553328,
      1786553448,
      1786553508,
      1786553628,
      1786553688,
      1786553748,
      1786553808,
      1786553929,
      1786554049,
      1786554109,
      1786554169,
      1786554229,
      1786554289,
      1786554349,
      1786554409,
      1786554469,
      1786554529,
      1786554590,
      1786554650,
      1786554710,
      1786554770,
      1786554830,
      1786554890,
      1786554950,
      1786555010,
      1786555070,
      1786555130,
      1786555190,
      1786555250,
      1786555311,
      1786555371,
      1786555431,
      1786555491
    ],
    "wof:geomhash": "abc5f7ce6607b220eb017c1240a5cd6c",
    "wof:id": 2047945567,
    "wof:repo": "sfomuseum-data-flights-2026-08"
  },
  "bbox": [
    -122.52527777777777,
    37.63333333333333,
    -116.65138888888889,
    48.18861111111111
  ],
  "geometry": {"type":"LineString","coordinates":[[-122.4,37.63333333333333],[-122.40805555555556,37.635555555555555],[-122.46916666666667,37.66027777777778],[-122.52527777777777,37.70861111111111],[-122.52388888888889,37.78805555555555],[-122.44472222222223,37.83777777777778],[-122.38194444444444,37.91833333333333],[-122.32138888888889,38.01222222222222],[-122.25916666666667,38.10888888888889],[-122.19527777777778,38.20805555555556],[-122.13138888888888,38.30888888888889],[-122.08222222222221,38.41583333333333],[-122.03138888888888,38.525277777777774],[-121.97722222222222,38.640277777777776],[-121.92222222222223,38.7575],[-121.86611111111111,38.87583333333333],[-121.80749999999999,38.99722222222222],[-121.74916666666667,39.11944444444445],[-121.68861111111111,39.24611111111111],[-121.62638888888888,39.37361111111111],[-121.56444444444445,39.50111111111111],[-121.51027777777777,39.612500000000004],[-121.44805555555556,39.73916666666667],[-121.38611111111112,39.867777777777775],[-121.32305555555556,39.99611111111111],[-121.25055555555555,40.14555555555555],[-121.19722222222222,40.25138888888889],[-121.13361111111112,40.37833333333333],[-121.07027777777778,40.50527777777778],[-120.99638888888889,40.653055555555554],[-120.93166666666667,40.781666666666666],[-120.86749999999999,40.908055555555556],[-120.8025,41.03638888888889],[-120.73694444444445,41.165],[-120.67,41.29527777777778],[-120.60333333333332,41.42472222222222],[-120.53666666666666,41.553888888888885],[-120.47055555555556,41.68138888888889],[-120.40416666666667,41.808611111111105],[-120.33694444444444,41.93666666666666],[-120.2713888888889,42.06222222222222],[-120.20472222222223,42.187777777777775],[-120.13805555555557,42.312777777777775],[-120.07166666666666,42.43805555555555],[-120.00555555555556,42.56222222222222],[-119.93805555555556,42.687777777777775],[-119.87027777777777,42.81361111111111],[-119.80194444444444,42.93944444444444],[-119.73388888888888,43.06472222222222],[-119.66527777777779,43.19],[-119.59666666666666,43.315555555555555],[-119.5286111111111,43.43888888888888],[-119.45972222222223,43.56333333333333],[-119.38916666666667,43.68944444444444],[-119.25138888888888,43.93611111111111],[-119.1825,44.058055555555555],[-119.0436111111111,44.302499999999995],[-118.97472222222223,44.42305555555555],[-118.8913888888889,44.56861111111112],[-118.82194444444444,44.68861111111111],[-118.67916666666667,44.93444444444444],[-118.53416666666666,45.181666666666665],[-118.46166666666667,45.303888888888885],[-118.38722222222223,45.42972222222222],[-118.31305555555555,45.55361111111111],[-118.24,45.67583333333333],[-118.16805555555555,45.79555555555555],[-118.09333333333333,45.91888888888889],[-118.01777777777778,46.043055555555554],[-117.94222222222223,46.16694444444444],[-117.86583333333333,46.29083333333333],[-117.78861111111111,46.41583333333333],[-117.71083333333334,46.54138888888889],[-117.63166666666666,46.66833333333333],[-117.55305555555556,46.79361111111111],[-117.47444444444444,46.91888888888889],[-117.39416666666668,47.04527777777778],[-117.31388888888888,47.17194444444444],[-117.23416666666667,47.296388888888885],[-117.15444444444445,47.42027777777778],[-117.07388888888889,47.54472222222222],[-116.9825,47.686388888888885],[-116.90083333333334,47.811388888888885],[-116.81777777777778,47.9375],[-116.73444444444445,48.06361111111111],[-116.65138888888889,48.18861111111111]]}
}
