{
  "id": 2047878561,
  "type": "Feature",
  "properties": {
    "geom:area": 0,
    "geom:bbox": "-122.528611,37.633611,-101.246667,48.827778",
    "geom:latitude": 44.11113527658931,
    "geom:longitude": -112.46885286099537,
    "src:alt_label": "swim-path",
    "src:geom": "swim",
    "swim:altitudes": [
      "006",
      "022",
      "032",
      "036",
      "049",
      "066",
      "082",
      "099",
      "108",
      "113",
      "120",
      "134",
      "146",
      "160",
      "174",
      "187",
      "199",
      "209",
      "219",
      "228",
      "252",
      "257",
      "262",
      "265",
      "269",
      "272",
      "277",
      "279",
      "284",
      "287",
      "293",
      "295",
      "298",
      "301",
      "305",
      "323",
      "325",
      "329",
      "332",
      "337",
      "342",
      "346",
      "350C",
      "350C",
      "350C",
      "350C",
      "350C",
      "350",
      "350",
      "350",
      "350",
      "350",
      "356",
      "357",
      "361",
      "362",
      "367",
      "370C",
      "370C",
      "370C",
      "370C",
      "370C",
      "370C",
      "370C",
      "370C",
      "370C",
      "370C",
      "370C",
      "370C",
      "370C",
      "370C",
      "370C",
      "370C",
      "370C",
      "370C",
      "370C",
      "370C",
      "370C",
      "370C",
      "370C",
      "370C",
      "370C",
      "370C",
      "370C",
      "370C",
      "370C",
      "370C",
      "370C",
      "370C",
      "370C",
      "370C",
      "370C",
      "370C",
      "370C",
      "370C",
      "370C",
      "370C",
      "370C",
      "370C",
      "370C",
      "370C",
      "370C",
      "370C",
      "370C",
      "370C",
      "370C",
      "370C",
      "370C",
      "370C",
      "370C",
      "370C",
      "370C",
      "370C",
      "370C",
      "370C",
      "370C",
      "370C",
      "370C",
      "370C",
      "370C",
      "370C",
      "370C",
      "370C",
      "370C",
      "370C",
      "370C",
      "370C",
      "370C",
      "370C",
      "370C",
      "370C",
      "370C",
      "370C",
      "370C",
      "370C",
      "370C",
      "370C",
      "370C",
      "370C",
      "370C",
      "370C",
      "370C",
      "370C",
      "370C",
      "370C",
      "370C",
      "370C",
      "370C",
      "370C",
      "370C",
      "370C",
      "370C",
      "370C",
      "370C",
      "370C",
      "370C",
      "370C",
      "370C",
      "370C",
      "370C",
      "370C",
      "370C",
      "370C",
      "370C",
      "370C",
      "370C",
      "370C"
    ],
    "swim:geom": "path",
    "swim:speeds": [
      167,
      167,
      168,
      234,
      277,
      284,
      289,
      296,
      329,
      372,
      406,
      416,
      424,
      432,
      439,
      447,
      454,
      465,
      472,
      480,
      507,
      517,
      513,
      523,
      522,
      527,
      525,
      530,
      531,
      533,
      535,
      534,
      543,
      539,
      543,
      533,
      533,
      535,
      539,
      540,
      540,
      540,
      540,
      539,
      539,
      538,
      538,
      538,
      538,
      538,
      539,
      539,
      539,
      538,
      538,
      538,
      539,
      539,
      539,
      541,
      542,
      543,
      543,
      542,
      541,
      539,
      537,
      534,
      533,
      533,
      535,
      534,
      534,
      532,
      532,
      533,
      534,
      534,
      533,
      532,
      531,
      532,
      533,
      534,
      534,
      533,
      529,
      526,
      525,
      525,
      525,
      523,
      522,
      520,
      521,
      521,
      520,
      520,
      520,
      520,
      520,
      520,
      518,
      517,
      517,
      516,
      516,
      516,
      516,
      515,
      515,
      515,
      514,
      513,
      513,
      513,
      514,
      515,
      517,
      518,
      517,
      517,
      516,
      517,
      516,
      516,
      516,
      516,
      516,
      516,
      516,
      516,
      517,
      518,
      517,
      518,
      515,
      518,
      517,
      518,
      517,
      517,
      517,
      516,
      516,
      515,
      515,
      515,
      516,
      516,
      517,
      518,
      518,
      518,
      518,
      518,
      519,
      519,
      520,
      520,
      521,
      521,
      521,
      521,
      521,
      521,
      520
    ],
    "swim:timestamps": [
      1786164911,
      1786164971,
      1786165031,
      1786165091,
      1786165151,
      1786165211,
      1786165271,
      1786165331,
      1786165391,
      1786165451,
      1786165511,
      1786165571,
      1786165631,
      1786165692,
      1786165752,
      1786165812,
      1786165872,
      1786165932,
      1786165992,
      1786166052,
      1786166232,
      1786166292,
      1786166328,
      1786166352,
      1786166388,
      1786166412,
      1786166448,
      1786166472,
      1786166508,
      1786166532,
      1786166568,
      1786166592,
      1786166629,
      1786166652,
      1786166689,
      1786166772,
      1786166809,
      1786166832,
      1786166869,
      1786166892,
      1786166929,
      1786166953,
      1786166989,
      1786167013,
      1786167049,
      1786167073,
      1786167109,
      1786167133,
      1786167169,
      1786167193,
      1786167229,
      1786167253,
      1786167289,
      1786167313,
      1786167349,
      1786167373,
      1786167409,
      1786167469,
      1786167529,
      1786167589,
      1786167649,
      1786167709,
      1786167770,
      1786167830,
      1786167890,
      1786167950,
      1786168010,
      1786168070,
      1786168130,
      1786168190,
      1786168250,
      1786168310,
      1786168370,
      1786168430,
      1786168490,
      1786168550,
      1786168610,
      1786168670,
      1786168730,
      1786168790,
      1786168850,
      1786168911,
      1786168971,
      1786169031,
      1786169091,
      1786169151,
      1786169211,
      1786169271,
      1786169331,
      1786169391,
      1786169451,
      1786169511,
      1786169571,
      1786169631,
      1786169691,
      1786169751,
      1786169811,
      1786169871,
      1786169931,
      1786169991,
      1786170051,
      1786170111,
      1786170172,
      1786170232,
      1786170292,
      1786170352,
      1786170412,
      1786170472,
      1786170532,
      1786170592,
      1786170652,
      1786170712,
      1786170772,
      1786170832,
      1786170892,
      1786170952,
      1786171012,
      1786171072,
      1786171132,
      1786171192,
      1786171252,
      1786171312,
      1786171372,
      1786171432,
      1786171493,
      1786171553,
      1786171613,
      1786171673,
      1786171733,
      1786171793,
      1786171853,
      1786171913,
      1786171973,
      1786172033,
      1786172093,
      1786172153,
      1786172170,
      1786172213,
      1786172230,
      1786172273,
      1786172290,
      1786172333,
      1786172351,
      1786172393,
      1786172411,
      1786172453,
      1786172471,
      1786172513,
      1786172531,
      1786172573,
      1786172591,
      1786172651,
      1786172693,
      1786172711,
      1786172753,
      1786172771,
      1786172831,
      1786172874,
      1786172891,
      1786172934,
      1786172951,
      1786172994,
      1786173011,
      1786173054,
      1786173071,
      1786173131,
      1786173191
    ],
    "wof:geomhash": "f5bc7358bd141d2245fbf2f9eb539c02",
    "wof:id": 2047878561,
    "wof:repo": "sfomuseum-data-flights-2026-08"
  },
  "bbox": [
    -122.5286111111111,
    37.63361111111111,
    -101.24666666666667,
    48.82777777777778
  ],
  "geometry": {"type":"LineString","coordinates":[[-122.4063888888889,37.63361111111111],[-122.45805555555556,37.65555555555555],[-122.5111111111111,37.67666666666666],[-122.5286111111111,37.73111111111111],[-122.51583333333333,37.80444444444444],[-122.43111111111112,37.84277777777778],[-122.38527777777779,37.914722222222224],[-122.33749999999999,37.98833333333334],[-122.28611111111111,38.06777777777778],[-122.22833333333334,38.157222222222224],[-122.16472222222222,38.25527777777778],[-122.08888888888889,38.355000000000004],[-121.9925,38.43277777777777],[-121.88583333333334,38.51972222222222],[-121.77555555555556,38.60888888888889],[-121.66361111111112,38.69888888888889],[-121.54888888888888,38.79083333333333],[-121.43027777777779,38.88583333333333],[-121.31166666666667,38.98027777777778],[-121.18972222222223,39.07694444444445],[-120.81055555555555,39.374722222222225],[-120.67861111111111,39.47777777777778],[-120.60333333333332,39.53472222222222],[-120.5461111111111,39.580555555555556],[-120.46805555555555,39.63972222222222],[-120.41111111111111,39.684999999999995],[-120.33277777777778,39.743611111111115],[-120.275,39.78972222222222],[-120.19611111111111,39.849444444444444],[-120.13805555555557,39.894444444444446],[-120.05722222222222,39.955555555555556],[-120.00027777777778,39.99944444444444],[-119.91888888888889,40.06194444444444],[-119.86222222222221,40.10611111111111],[-119.78111111111112,40.16888888888889],[-119.58611111111111,40.31861111111112],[-119.50472222222223,40.380833333333335],[-119.4475,40.42444444444444],[-119.36444444444444,40.487500000000004],[-119.30555555555556,40.53194444444444],[-119.2225,40.595],[-119.16555555555556,40.63805555555555],[-119.08166666666666,40.70111111111111],[-119.02555555555556,40.74333333333333],[-118.94250000000001,40.80555555555555],[-118.88416666666667,40.849444444444444],[-118.80055555555555,40.91166666666666],[-118.74277777777777,40.95472222222222],[-118.65972222222223,41.01611111111111],[-118.60111111111111,41.05972222222222],[-118.5175,41.12138888888889],[-118.45833333333334,41.165],[-118.37416666666665,41.22666666666667],[-118.34527777777777,41.24805555555556],[-118.23138888888889,41.33111111111111],[-118.20194444444445,41.35277777777778],[-118.08972222222222,41.43444444444444],[-117.94361111111111,41.53944444444444],[-117.79333333333334,41.6375],[-117.64166666666668,41.73777777777778],[-117.49,41.83777777777778],[-117.33777777777777,41.9375],[-117.21583333333334,42.01694444444444],[-117.06388888888888,42.11555555555556],[-116.9088888888889,42.215833333333336],[-116.75666666666666,42.31361111111111],[-116.60388888888889,42.41138888888889],[-116.45222222222222,42.507777777777775],[-116.30083333333333,42.603611111111114],[-116.14861111111112,42.69944444444444],[-115.99555555555555,42.79527777777778],[-115.8111111111111,42.91],[-115.65666666666667,43.00555555555555],[-115.50333333333333,43.1],[-115.34888888888888,43.19444444444444],[-115.19472222222223,43.28861111111111],[-115.03777777777778,43.38361111111111],[-114.88055555555555,43.47833333333333],[-114.72500000000001,43.57166666666667],[-114.56916666666666,43.664722222222224],[-114.41166666666668,43.757777777777775],[-114.2538888888889,43.85111111111111],[-114.09472222222222,43.94444444444444],[-113.92694444444444,44.03],[-113.77583333333334,44.10111111111111],[-113.60222222222221,44.1825],[-113.43083333333334,44.26222222222222],[-113.26222222222222,44.34],[-113.08944444444444,44.41972222222222],[-112.91694444444445,44.498333333333335],[-112.74666666666667,44.575833333333335],[-112.575,44.65333333333333],[-112.40166666666667,44.73111111111111],[-112.22888888888889,44.808055555555555],[-112.05694444444444,44.88444444444444],[-111.8825,44.96138888888889],[-111.705,45.03916666666667],[-111.51805555555555,45.120555555555555],[-111.34083333333332,45.197222222222216],[-111.16277777777778,45.27361111111111],[-110.985,45.349722222222226],[-110.82166666666666,45.41888888888889],[-110.64333333333335,45.494166666666665],[-110.49138888888889,45.558055555555555],[-110.31361111111111,45.63194444444444],[-110.13916666666667,45.70444444444445],[-109.96305555555556,45.776666666666664],[-109.78583333333333,45.849444444444444],[-109.60638888888889,45.92222222222222],[-109.43111111111112,45.99305555555556],[-109.25277777777778,46.06472222222222],[-109.07333333333332,46.13611111111111],[-108.89416666666668,46.206944444444446],[-108.71666666666667,46.276944444444446],[-108.5363888888889,46.347500000000004],[-108.35638888888889,46.41722222222222],[-108.1725,46.488055555555555],[-107.99111111111111,46.55777777777777],[-107.80777777777777,46.6275],[-107.62333333333332,46.697222222222216],[-107.44083333333333,46.76583333333333],[-107.25833333333334,46.83361111111111],[-107.07222222222222,46.902499999999996],[-106.88833333333334,46.97027777777778],[-106.70277777777778,47.03805555555555],[-106.51861111111111,47.10472222222222],[-106.33111111111111,47.1725],[-106.12694444444443,47.24527777777778],[-105.94055555555556,47.311388888888885],[-105.75138888888888,47.378055555555555],[-105.56361111111111,47.443888888888885],[-105.37527777777777,47.509166666666665],[-105.18583333333333,47.574444444444445],[-104.99666666666667,47.63916666666667],[-104.80722222222222,47.703611111111115],[-104.61527777777778,47.76833333333333],[-104.57888888888888,47.78055555555555],[-104.42166666666667,47.83305555555556],[-104.3863888888889,47.844722222222224],[-104.22833333333334,47.89722222222222],[-104.19472222222223,47.90833333333333],[-104.035,47.961111111111116],[-103.99888888888889,47.97277777777778],[-103.83999999999999,48.02472222222222],[-103.80611111111111,48.03583333333333],[-103.68611111111112,48.075],[-103.61388888888888,48.098333333333336],[-103.49055555555556,48.13805555555555],[-103.41638888888889,48.16166666666666],[-103.29777777777778,48.19972222222222],[-103.2213888888889,48.22416666666667],[-103.02722222222222,48.285555555555554],[-102.90583333333333,48.323888888888895],[-102.83388888888888,48.34638888888889],[-102.71027777777778,48.385],[-102.63472222222222,48.40861111111111],[-102.43944444444445,48.46888888888889],[-102.315,48.507222222222225],[-102.24222222222222,48.529444444444444],[-102.11861111111111,48.56722222222223],[-102.04083333333332,48.590833333333336],[-101.92083333333333,48.62694444444445],[-101.84388888888888,48.650277777777774],[-101.72166666666666,48.68694444444444],[-101.64555555555556,48.709722222222226],[-101.44722222222222,48.76861111111111],[-101.24666666666667,48.82777777777778]]}
}
