{
  "id": 2047916553,
  "type": "Feature",
  "properties": {
    "geom:area": 0,
    "geom:bbox": "-122.403350,37.623440,-121.248830,38.423780",
    "geom:latitude": 38.02922433995117,
    "geom:longitude": -121.8464441985616,
    "src:alt_label": "swim-takeoff",
    "src:geom": "swim",
    "swim:elevations": [
      152,
      430,
      595,
      734,
      981,
      1424,
      1670,
      1877,
      1904,
      1945,
      1982,
      2683,
      3036,
      3152,
      3353,
      3510,
      3581,
      3633,
      3657,
      3741,
      3954,
      4167,
      4413,
      4782,
      5034,
      5379,
      5478,
      5708,
      5934,
      6088
    ],
    "swim:geom": "takeoff",
    "swim:timestamps": [
      1786387856,
      1786387883,
      1786387910,
      1786387936,
      1786387971,
      1786388005,
      1786388027,
      1786388045,
      1786388049,
      1786388054,
      1786388057,
      1786388118,
      1786388152,
      1786388163,
      1786388205,
      1786388238,
      1786388247,
      1786388255,
      1786388259,
      1786388273,
      1786388304,
      1786388340,
      1786388372,
      1786388415,
      1786388447,
      1786388486,
      1786388499,
      1786388538,
      1786388571,
      1786388602
    ],
    "wof:geomhash": "08630075abea00728b0d63671ceb48d0",
    "wof:id": 2047916553,
    "wof:repo": "sfomuseum-data-flights-2026-08"
  },
  "bbox": [
    -122.40335,
    37.62344,
    -121.24883,
    38.42378
  ],
  "geometry": {"type":"LineString","coordinates":[[-122.38597,37.62344],[-122.40335,37.63887],[-122.39013,37.65973],[-122.35841,37.67178],[-122.30606,37.68634],[-122.25836,37.70978],[-122.24506,37.73638],[-122.23691,37.76085],[-122.23516,37.76547],[-122.23213,37.77186],[-122.22978,37.7756],[-122.15066,37.83487],[-122.10353,37.86689],[-122.08806,37.87722],[-122.02377,37.91994],[-121.9701,37.95547],[-121.95462,37.96573],[-121.94126,37.97455],[-121.93284,37.98016],[-121.90814,37.99648],[-121.85103,38.03416],[-121.78372,38.07838],[-121.72202,38.119],[-121.63648,38.17505],[-121.57201,38.21731],[-121.49424,38.26817],[-121.46614,38.28647],[-121.38648,38.33819],[-121.31573,38.38286],[-121.24883,38.42378]]}
}
