{
  "id": 2047917327,
  "type": "Feature",
  "properties": {
    "geom:area": 0,
    "geom:bbox": "-122.385000,37.633333,-76.430000,42.492500",
    "geom:latitude": 40.93131352417232,
    "geom:longitude": -99.54487626594468,
    "src:alt_label": "swim-path",
    "src:geom": "swim",
    "swim:altitudes": [
      "006",
      "022",
      "043",
      "065",
      "087",
      "106",
      "116",
      "137",
      "156",
      "175",
      "198",
      "212",
      "227",
      "253",
      "264",
      "273",
      "274",
      "286",
      "288",
      "297",
      "298",
      "307",
      "308",
      "317",
      "327",
      "338",
      "344",
      "346",
      "350C",
      "350C",
      "350C",
      "350C",
      "350C",
      "350C",
      "350C",
      "350C",
      "350C",
      "350C",
      "350C",
      "350C",
      "350C",
      "350C",
      "350C",
      "350C",
      "350C",
      "350C",
      "350C",
      "350C",
      "350C",
      "350C",
      "350C",
      "350C",
      "350C",
      "350C",
      "350C",
      "350C",
      "350C",
      "350C",
      "350C",
      "350C",
      "350C",
      "350C",
      "350C",
      "350C",
      "350C",
      "350C",
      "350C",
      "350C",
      "350C",
      "350C",
      "350C",
      "350C",
      "350C",
      "350C",
      "350C",
      "350C",
      "350C",
      "350C",
      "350C",
      "350C",
      "350C",
      "350C",
      "350C",
      "350C",
      "350C",
      "350C",
      "350C",
      "350C",
      "350C",
      "350C",
      "350C",
      "350C",
      "350C",
      "350C",
      "350C",
      "350C",
      "350C",
      "350C",
      "350C",
      "350C",
      "350C",
      "350C",
      "350C",
      "350C",
      "350C",
      "350C",
      "350C",
      "350C",
      "350C",
      "350C",
      "350C",
      "350C",
      "350C",
      "350C",
      "350C",
      "350C",
      "350C",
      "350C",
      "350C",
      "350C",
      "350C",
      "350C",
      "350C",
      "350C",
      "350C",
      "350C",
      "350C",
      "350C",
      "350C",
      "350C",
      "350C",
      "350C",
      "350C",
      "350C",
      "350C",
      "350C",
      "350C",
      "350C",
      "350C",
      "350C",
      "350C",
      "350C",
      "350C",
      "350C",
      "350C",
      "350C",
      "350C",
      "350C",
      "350C",
      "350C",
      "350C",
      "350C",
      "350C",
      "350C",
      "350C",
      "350C",
      "350C",
      "350C",
      "350C",
      "350C",
      "350C",
      "350C",
      "350C",
      "350",
      "350",
      "357",
      "359",
      "365",
      "367",
      "370C",
      "370C",
      "370C",
      "370C",
      "370C",
      "370C",
      "370C",
      "370C",
      "370C",
      "370C",
      "370C",
      "370C",
      "370C",
      "370C",
      "370C",
      "370C",
      "370C",
      "370C",
      "370C",
      "370C",
      "370C",
      "370C",
      "370C",
      "370C",
      "370C",
      "370C",
      "370C",
      "370C",
      "370C",
      "370C",
      "370C",
      "370C",
      "370C",
      "370C",
      "370C",
      "370C",
      "370C",
      "370C",
      "370C",
      "370C",
      "370C",
      "370C",
      "370C",
      "370C",
      "370C",
      "370C",
      "370C",
      "370C",
      "370C",
      "370C",
      "370C",
      "370C",
      "370C",
      "370C",
      "370C",
      "370C",
      "372C",
      "370C",
      "370C",
      "370C",
      "370C",
      "370C",
      "370C",
      "370C",
      "370C",
      "370C",
      "370C",
      "370C",
      "370C",
      "370C",
      "370C",
      "370C",
      "370C",
      "370C",
      "370C",
      "370C",
      "370C",
      "370C",
      "370C",
      "370C",
      "370C",
      "370C",
      "370C",
      "370C",
      "370C",
      "370C",
      "370C",
      "370C",
      "370C",
      "370C",
      "370C",
      "370C",
      "370C",
      "370C",
      "370C",
      "370C",
      "370C",
      "370C",
      "370C",
      "370C",
      "370C",
      "370C",
      "370C",
      "370C",
      "370C",
      "370C",
      "370C",
      "370C",
      "370C",
      "370C",
      "370C",
      "370C",
      "370C",
      "370C",
      "370C",
      "370C",
      "370C",
      "370C",
      "370C",
      "370C",
      "370C",
      "370C",
      "370C",
      "370C",
      "370C",
      "370C",
      "370C",
      "370C",
      "370C",
      "370C",
      "370C",
      "370C",
      "370C",
      "370C",
      "370C",
      "370C",
      "370C",
      "370C",
      "370C",
      "370C",
      "370C",
      "370C",
      "370C",
      "370C",
      "370C",
      "370C",
      "370C",
      "370C",
      "370C",
      "370C",
      "370C",
      "370C",
      "370C",
      "370C",
      "370C",
      "370C",
      "370C",
      "370C",
      "370C",
      "370C",
      "370C",
      "370C",
      "370C",
      "370C",
      "370C",
      "370",
      "370",
      "370",
      "363",
      "362",
      "348",
      "347",
      "346",
      "338",
      "337",
      "328",
      "322",
      "299",
      "279",
      "275",
      "253",
      "237",
      "232",
      "224",
      "215",
      "210",
      "203",
      "194",
      "181",
      "175",
      "171",
      "160",
      "152",
      "151",
      "150",
      "146",
      "140",
      "133",
      "130",
      "131",
      "131",
      "130",
      "130",
      "130",
      "130",
      "124",
      "119",
      "110",
      "110",
      "109",
      "109",
      "099",
      "094",
      "081",
      "069",
      "065",
      "052",
      "048",
      "039",
      "040",
      "039",
      "040",
      "040",
      "040",
      "030",
      "030",
      "028",
      "027",
      "024",
      "024",
      "020",
      "019",
      "012",
      "009",
      "004",
      "002"
    ],
    "swim:geom": "path",
    "swim:speeds": [
      164,
      235,
      267,
      282,
      302,
      326,
      378,
      395,
      409,
      415,
      420,
      438,
      447,
      468,
      480,
      484,
      488,
      486,
      493,
      494,
      495,
      501,
      500,
      501,
      507,
      508,
      508,
      509,
      509,
      509,
      509,
      509,
      510,
      510,
      512,
      514,
      512,
      515,
      511,
      512,
      510,
      511,
      510,
      510,
      510,
      511,
      511,
      513,
      513,
      514,
      515,
      515,
      516,
      516,
      516,
      517,
      517,
      516,
      516,
      516,
      516,
      517,
      516,
      518,
      520,
      521,
      521,
      521,
      520,
      520,
      520,
      521,
      522,
      523,
      524,
      525,
      526,
      525,
      524,
      523,
      523,
      523,
      523,
      523,
      524,
      524,
      525,
      526,
      527,
      529,
      530,
      530,
      530,
      532,
      529,
      532,
      528,
      528,
      529,
      530,
      527,
      530,
      529,
      531,
      529,
      531,
      530,
      530,
      530,
      528,
      527,
      526,
      525,
      523,
      522,
      521,
      520,
      519,
      518,
      517,
      517,
      516,
      515,
      515,
      515,
      515,
      516,
      516,
      517,
      517,
      518,
      519,
      520,
      521,
      521,
      522,
      523,
      524,
      524,
      525,
      525,
      526,
      526,
      526,
      525,
      525,
      525,
      526,
      528,
      529,
      530,
      530,
      529,
      528,
      526,
      526,
      526,
      525,
      525,
      525,
      525,
      524,
      478,
      523,
      526,
      523,
      523,
      522,
      523,
      523,
      523,
      524,
      524,
      522,
      524,
      519,
      524,
      517,
      513,
      515,
      513,
      514,
      513,
      512,
      511,
      511,
      511,
      510,
      509,
      508,
      506,
      504,
      503,
      501,
      501,
      500,
      500,
      500,
      500,
      499,
      499,
      499,
      499,
      497,
      496,
      496,
      496,
      495,
      493,
      491,
      489,
      490,
      492,
      492,
      490,
      489,
      487,
      487,
      487,
      494,
      500,
      502,
      505,
      511,
      513,
      513,
      513,
      514,
      516,
      518,
      519,
      518,
      517,
      517,
      517,
      517,
      517,
      517,
      515,
      516,
      508,
      506,
      504,
      503,
      503,
      503,
      502,
      502,
      501,
      501,
      500,
      499,
      498,
      498,
      499,
      500,
      501,
      501,
      500,
      500,
      500,
      500,
      499,
      499,
      498,
      497,
      497,
      498,
      498,
      492,
      490,
      488,
      488,
      486,
      487,
      486,
      486,
      486,
      486,
      485,
      484,
      484,
      482,
      481,
      480,
      479,
      478,
      477,
      475,
      475,
      474,
      474,
      474,
      474,
      474,
      474,
      475,
      475,
      476,
      476,
      477,
      477,
      478,
      478,
      480,
      480,
      480,
      481,
      483,
      481,
      481,
      483,
      482,
      482,
      483,
      482,
      483,
      483,
      483,
      485,
      487,
      487,
      489,
      489,
      492,
      492,
      494,
      494,
      496,
      496,
      493,
      491,
      489,
      489,
      489,
      490,
      490,
      489,
      488,
      485,
      484,
      482,
      490,
      492,
      498,
      499,
      500,
      495,
      492,
      479,
      465,
      468,
      459,
      460,
      458,
      449,
      450,
      431,
      429,
      423,
      414,
      414,
      408,
      381,
      375,
      372,
      369,
      371,
      369,
      370,
      364,
      327,
      323,
      320,
      321,
      313,
      312,
      306,
      311,
      311,
      312,
      305,
      303,
      304,
      296,
      292,
      288,
      301,
      306,
      269,
      258,
      257,
      250,
      246,
      188,
      192,
      167,
      180,
      179,
      172,
      170,
      157,
      151,
      154,
      156
    ],
    "swim:timestamps": [
      1786427222,
      1786427290,
      1786427350,
      1786427411,
      1786427471,
      1786427531,
      1786427591,
      1786427651,
      1786427711,
      1786427771,
      1786427831,
      1786427891,
      1786427951,
      1786428071,
      1786428131,
      1786428183,
      1786428191,
      1786428243,
      1786428251,
      1786428303,
      1786428311,
      1786428363,
      1786428371,
      1786428423,
      1786428483,
      1786428551,
      1786428603,
      1786428611,
      1786428663,
      1786428671,
      1786428723,
      1786428731,
      1786428783,
      1786428792,
      1786428852,
      1786428903,
      1786428912,
      1786428963,
      1786428972,
      1786429023,
      1786429032,
      1786429083,
      1786429144,
      1786429152,
      1786429212,
      1786429264,
      1786429272,
      1786429324,
      1786429332,
      1786429392,
      1786429444,
      1786429452,
      1786429504,
      1786429512,
      1786429572,
      1786429624,
      1786429632,
      1786429684,
      1786429692,
      1786429744,
      1786429812,
      1786429864,
      1786429872,
      1786429924,
      1786429984,
      1786430044,
      1786430104,
      1786430164,
      1786430224,
      1786430284,
      1786430344,
      1786430404,
      1786430465,
      1786430525,
      1786430585,
      1786430645,
      1786430705,
      1786430765,
      1786430825,
      1786430885,
      1786430945,
      1786431005,
      1786431065,
      1786431125,
      1786431185,
      1786431245,
      1786431305,
      1786431365,
      1786431425,
      1786431485,
      1786431545,
      1786431605,
      1786431665,
      1786431693,
      1786431725,
      1786431753,
      1786431785,
      1786431845,
      1786431905,
      1786431966,
      1786431993,
      1786432026,
      1786432053,
      1786432086,
      1786432113,
      1786432146,
      1786432173,
      1786432206,
      1786432233,
      1786432266,
      1786432293,
      1786432326,
      1786432353,
      1786432386,
      1786432413,
      1786432446,
      1786432474,
      1786432506,
      1786432534,
      1786432566,
      1786432594,
      1786432626,
      1786432654,
      1786432686,
      1786432714,
      1786432746,
      1786432774,
      1786432806,
      1786432834,
      1786432866,
      1786432894,
      1786432926,
      1786432954,
      1786432986,
      1786433014,
      1786433046,
      1786433074,
      1786433106,
      1786433134,
      1786433166,
      1786433194,
      1786433226,
      1786433254,
      1786433314,
      1786433374,
      1786433434,
      1786433494,
      1786433554,
      1786433614,
      1786433674,
      1786433734,
      1786433794,
      1786433854,
      1786433914,
      1786433974,
      1786434035,
      1786434095,
      1786434155,
      1786434215,
      1786434275,
      1786434335,
      1786434395,
      1786434406,
      1786434455,
      1786434466,
      1786434515,
      1786434526,
      1786434575,
      1786434586,
      1786434635,
      1786434646,
      1786434695,
      1786434706,
      1786434755,
      1786434766,
      1786434815,
      1786434826,
      1786434875,
      1786434886,
      1786434935,
      1786434946,
      1786434995,
      1786435006,
      1786435055,
      1786435066,
      1786435115,
      1786435126,
      1786435175,
      1786435186,
      1786435235,
      1786435246,
      1786435295,
      1786435306,
      1786435355,
      1786435366,
      1786435415,
      1786435426,
      1786435475,
      1786435486,
      1786435536,
      1786435546,
      1786435607,
      1786435667,
      1786435727,
      1786435787,
      1786435847,
      1786435907,
      1786435967,
      1786436027,
      1786436087,
      1786436147,
      1786436207,
      1786436267,
      1786436327,
      1786436387,
      1786436447,
      1786436507,
      1786436567,
      1786436627,
      1786436687,
      1786436747,
      1786436807,
      1786436867,
      1786436927,
      1786436987,
      1786436994,
      1786437048,
      1786437108,
      1786437168,
      1786437228,
      1786437288,
      1786437348,
      1786437408,
      1786437468,
      1786437474,
      1786437528,
      1786437588,
      1786437648,
      1786437713,
      1786437768,
      1786437828,
      1786437892,
      1786437952,
      1786438012,
      1786438073,
      1786438131,
      1786438191,
      1786438252,
      1786438314,
      1786438372,
      1786438378,
      1786438436,
      1786438496,
      1786438556,
      1786438613,
      1786438674,
      1786438732,
      1786438793,
      1786438854,
      1786438913,
      1786438973,
      1786439034,
      1786439094,
      1786439154,
      1786439214,
      1786439275,
      1786439339,
      1786439399,
      1786439459,
      1786439519,
      1786439579,
      1786439630,
      1786439639,
      1786439690,
      1786439699,
      1786439749,
      1786439759,
      1786439809,
      1786439816,
      1786439871,
      1786439931,
      1786439937,
      1786439997,
      1786440051,
      1786440057,
      1786440112,
      1786440174,
      1786440234,
      1786440293,
      1786440353,
      1786440413,
      1786440473,
      1786440531,
      1786440538,
      1786440591,
      1786440598,
      1786440651,
      1786440658,
      1786440710,
      1786440718,
      1786440770,
      1786440778,
      1786440830,
      1786440838,
      1786440890,
      1786440898,
      1786440951,
      1786440958,
      1786440965,
      1786441011,
      1786441018,
      1786441024,
      1786441071,
      1786441078,
      1786441084,
      1786441131,
      1786441146,
      1786441191,
      1786441199,
      1786441253,
      1786441310,
      1786441319,
      1786441370,
      1786441379,
      1786441430,
      1786441439,
      1786441490,
      1786441505,
      1786441550,
      1786441565,
      1786441610,
      1786441623,
      1786441670,
      1786441680,
      1786441733,
      1786441790,
      1786441800,
      1786441861,
      1786441867,
      1786441910,
      1786441918,
      1786441927,
      1786441978,
      1786441987,
      1786442033,
      1786442047,
      1786442093,
      1786442153,
      1786442165,
      1786442226,
      1786442264,
      1786442284,
      1786442301,
      1786442331,
      1786442346,
      1786442360,
      1786442391,
      1786442421,
      1786442452,
      1786442466,
      1786442487,
      1786442512,
      1786442526,
      1786442541,
      1786442571,
      1786442586,
      1786442607,
      1786442646,
      1786442667,
      1786442707,
      1786442727,
      1786442781,
      1786442827,
      1786442847,
      1786442887,
      1786442907,
      1786442947,
      1786442973,
      1786443007,
      1786443027,
      1786443067,
      1786443087,
      1786443135,
      1786443187,
      1786443207,
      1786443247,
      1786443261,
      1786443307,
      1786443315,
      1786443368,
      1786443387,
      1786443428,
      1786443435,
      1786443488,
      1786443507,
      1786443548,
      1786443561,
      1786443608,
      1786443621,
      1786443665,
      1786443675,
      1786443725,
      1786443747,
      1786443785,
      1786443845
    ],
    "wof:geomhash": "b2905c6593cf436b86834fddb4a59fa9",
    "wof:id": 2047917327,
    "wof:repo": "sfomuseum-data-flights-2026-08"
  },
  "bbox": [
    -122.385,
    37.63333333333333,
    -76.43,
    42.4925
  ],
  "geometry": {"type":"LineString","coordinates":[[-122.38333333333334,37.63333333333333],[-122.38166666666666,37.67388888888889],[-122.33638888888889,37.736111111111114],[-122.36916666666666,37.809444444444445],[-122.385,37.888888888888886],[-122.33055555555555,37.96194444444445],[-122.21722222222222,38.0075],[-122.09305555555555,38.0575],[-121.96416666666667,38.10888888888889],[-121.83583333333333,38.160555555555554],[-121.69277777777778,38.216944444444444],[-121.55499999999999,38.271388888888886],[-121.41555555555556,38.32611111111112],[-121.15972222222223,38.478611111111114],[-121.02777777777777,38.559999999999995],[-120.90944444444445,38.632222222222225],[-120.89166666666668,38.64333333333333],[-120.76944444444445,38.71416666666667],[-120.7525,38.728611111111114],[-120.63083333333333,38.800555555555555],[-120.61444444444444,38.812777777777775],[-120.48861111111111,38.886944444444445],[-120.47055555555556,38.9],[-120.3461111111111,38.971944444444446],[-120.20305555555557,39.06027777777778],[-120.03,39.16444444444444],[-119.91333333333334,39.23361111111111],[-119.88472222222222,39.25055555555556],[-119.76861111111111,39.31861111111112],[-119.7388888888889,39.33694444444445],[-119.62277777777777,39.40416666666667],[-119.59138888888889,39.42361111111111],[-119.47583333333334,39.49138888888889],[-119.44472222222223,39.50972222222222],[-119.29722222222222,39.59583333333334],[-119.18138888888889,39.66305555555555],[-119.14777777777779,39.6825],[-119.03111111111112,39.75],[-118.99916666666667,39.76888888888889],[-118.88222222222221,39.83638888888889],[-118.85027777777778,39.85472222222222],[-118.7275,39.91277777777778],[-118.56222222222222,39.980555555555554],[-118.52722222222222,39.99472222222222],[-118.36472222222221,40.06055555555555],[-118.23861111111111,40.111111111111114],[-118.19944444444445,40.12694444444445],[-118.07111111111111,40.17833333333333],[-118.03305555555555,40.19361111111111],[-117.85972222222222,40.2475],[-117.72694444444444,40.2875],[-117.68833333333333,40.299166666666665],[-117.55055555555555,40.34055555555556],[-117.515,40.35111111111111],[-117.33722222222222,40.403888888888886],[-117.19972222222222,40.44444444444444],[-117.16027777777778,40.45583333333334],[-117.02111111111111,40.49666666666667],[-116.98222222222222,40.50805555555556],[-116.83972222222222,40.54972222222222],[-116.65722222222223,40.602222222222224],[-116.48416666666667,40.65222222222222],[-116.48083333333334,40.653055555555554],[-116.30527777777777,40.70333333333333],[-116.12666666666667,40.75388888888889],[-115.94722222222222,40.80444444444444],[-115.76833333333333,40.85444444444445],[-115.58749999999999,40.905],[-115.41027777777778,40.953611111111115],[-115.2286111111111,41.00333333333333],[-115.05111111111111,41.05138888888889],[-114.87055555555555,41.1],[-114.71638888888889,41.14138888888889],[-114.53388888888888,41.19],[-114.34916666666666,41.23888888888889],[-114.16722222222222,41.28361111111111],[-113.98222222222222,41.32833333333333],[-113.79388888888889,41.37138888888889],[-113.6061111111111,41.405833333333334],[-113.42,41.439722222222215],[-113.23138888888889,41.473333333333336],[-113.04194444444444,41.50694444444444],[-112.85333333333332,41.540277777777774],[-112.66583333333334,41.57277777777778],[-112.47500000000001,41.605555555555554],[-112.28333333333333,41.638333333333335],[-112.09277777777777,41.67027777777778],[-111.90111111111112,41.702222222222225],[-111.70722222222223,41.73388888888889],[-111.51222222222222,41.76583333333333],[-111.32027777777778,41.79694444444444],[-111.12472222222222,41.82805555555556],[-110.915,41.861111111111114],[-110.83833333333332,41.87444444444444],[-110.72194444444445,41.89083333333333],[-110.6463888888889,41.90416666666667],[-110.53055555555555,41.92027777777778],[-110.33916666666666,41.94944444444444],[-110.14500000000001,41.978611111111114],[-109.94833333333334,42.0075],[-109.87027777777777,42.018055555555556],[-109.75333333333333,42.03194444444444],[-109.6738888888889,42.043055555555554],[-109.55499999999999,42.05722222222222],[-109.47805555555556,42.066944444444445],[-109.35944444444443,42.08222222222223],[-109.28083333333333,42.091944444444444],[-109.16250000000001,42.106944444444444],[-109.08555555555554,42.11638888888889],[-108.9675,42.130833333333335],[-108.89027777777778,42.140277777777776],[-108.77583333333334,42.153888888888886],[-108.69777777777779,42.163333333333334],[-108.58222222222221,42.176944444444445],[-108.50666666666666,42.18583333333333],[-108.42833333333334,42.195277777777775],[-108.31527777777778,42.208333333333336],[-108.23722222222223,42.217222222222226],[-108.12388888888889,42.23027777777778],[-108.04472222222222,42.23916666666667],[-107.93138888888889,42.25222222222222],[-107.85583333333332,42.260555555555555],[-107.7425,42.27305555555555],[-107.66638888888889,42.281666666666666],[-107.54972222222221,42.294444444444444],[-107.47305555555556,42.30277777777778],[-107.36055555555555,42.31472222222222],[-107.28194444444445,42.323055555555555],[-107.16638888888889,42.33555555555556],[-107.09083333333332,42.343333333333334],[-106.97444444444444,42.355555555555554],[-106.89416666666668,42.36361111111111],[-106.80361111111111,42.37638888888889],[-106.68583333333333,42.39472222222222],[-106.61138888888888,42.406388888888884],[-106.49361111111111,42.42472222222222],[-106.41888888888889,42.436388888888885],[-106.30305555555556,42.45416666666667],[-106.22361111111111,42.46611111111111],[-106.10833333333333,42.483333333333334],[-106.02944444444444,42.490833333333335],[-105.91111111111111,42.49166666666667],[-105.83305555555555,42.49166666666667],[-105.63666666666667,42.492222222222225],[-105.43833333333333,42.4925],[-105.24222222222222,42.492222222222225],[-105.04333333333334,42.49166666666667],[-104.84916666666666,42.490833333333335],[-104.61833333333333,42.47555555555556],[-104.42555555555556,42.45472222222222],[-104.23083333333334,42.433055555555555],[-104.03444444444445,42.41111111111111],[-103.83888888888889,42.38916666666667],[-103.64583333333334,42.36694444444444],[-103.45138888888889,42.344166666666666],[-103.25638888888889,42.321111111111115],[-103.06083333333333,42.2975],[-102.86805555555554,42.27388888888889],[-102.67333333333333,42.249722222222225],[-102.48055555555555,42.22527777777778],[-102.28694444444444,42.20055555555556],[-102.12055555555555,42.17916666666667],[-102.07416666666666,42.1725],[-101.92583333333334,42.15361111111111],[-101.88138888888888,42.1475],[-101.73416666666667,42.12833333333333],[-101.69083333333333,42.12222222222222],[-101.54194444444444,42.1025],[-101.49805555555555,42.09527777777778],[-101.35111111111111,42.07611111111112],[-101.30444444444444,42.06916666666667],[-101.15583333333333,42.049166666666665],[-101.11055555555555,42.04222222222222],[-100.96277777777777,42.02222222222222],[-100.92,42.01555555555556],[-100.77527777777777,41.99583333333334],[-100.73138888888889,41.98888888888889],[-100.58638888888889,41.968611111111116],[-100.54777777777778,41.963055555555556],[-100.39888888888889,41.94138888888889],[-100.35944444444443,41.93555555555555],[-100.21000000000001,41.913333333333334],[-100.15472222222223,41.905277777777776],[-100.02305555555556,41.885555555555555],[-99.96861111111112,41.8775],[-99.83472222222221,41.85722222222223],[-99.78583333333333,41.849722222222226],[-99.65083333333334,41.82916666666667],[-99.59888888888888,41.82138888888889],[-99.465,41.80083333333333],[-99.41611111111112,41.793055555555554],[-99.28472222222221,41.7725],[-99.23444444444445,41.764722222222225],[-99.10083333333333,41.743611111111115],[-99.05277777777778,41.73583333333333],[-98.92222222222223,41.71527777777778],[-98.87305555555555,41.70722222222223],[-98.7388888888889,41.68555555555555],[-98.69194444444445,41.67805555555555],[-98.55916666666667,41.656388888888884],[-98.51166666666667,41.64861111111111],[-98.33138888888888,41.61888888888889],[-98.15138888888889,41.58888888888889],[-97.97055555555556,41.55833333333333],[-97.79305555555555,41.52833333333333],[-97.61305555555555,41.4975],[-97.43555555555555,41.46638888888889],[-97.25611111111111,41.448055555555555],[-97.0736111111111,41.44361111111111],[-96.89277777777778,41.43888888888888],[-96.71472222222222,41.43416666666666],[-96.5325,41.42861111111111],[-96.34888888888888,41.42305555555555],[-96.18194444444445,41.4175],[-96.00222222222222,41.41166666666666],[-95.82222222222222,41.405277777777776],[-95.64222222222223,41.39888888888889],[-95.47055555555556,41.39194444444444],[-95.28999999999999,41.385],[-95.10916666666667,41.37722222222222],[-94.92277777777778,41.36944444444445],[-94.73694444444445,41.36083333333333],[-94.54944444444445,41.352222222222224],[-94.36305555555555,41.343611111111116],[-94.16388888888889,41.333333333333336],[-94.12722222222222,41.331388888888895],[-93.97416666666666,41.32361111111111],[-93.78388888888888,41.31361111111111],[-93.59222222222222,41.30305555555555],[-93.40083333333334,41.29222222222222],[-93.20777777777778,41.28111111111111],[-93.02,41.269999999999996],[-92.82805555555555,41.25805555555556],[-92.63666666666667,41.24583333333334],[-92.63666666666667,41.24583333333334],[-92.44666666666667,41.23361111111111],[-92.25611111111111,41.22083333333334],[-92.06611111111111,41.20722222222223],[-91.87972222222221,41.19499999999999],[-91.68916666666667,41.18083333333333],[-91.50416666666666,41.16722222222222],[-91.30583333333333,41.153055555555554],[-91.1211111111111,41.138888888888886],[-90.93916666666667,41.124722222222225],[-90.755,41.11],[-90.56972222222223,41.094722222222224],[-90.38722222222223,41.07972222222222],[-90.20361111111112,41.06388888888888],[-90.01722222222222,41.04805555555556],[-89.83472222222221,41.03194444444444],[-89.83833333333332,41.0325],[-89.65861111111111,41.01638888888889],[-89.4775,40.999722222222225],[-89.2975,40.98277777777778],[-89.09972222222221,40.964444444444446],[-88.91916666666667,40.946666666666665],[-88.7538888888889,40.922777777777775],[-88.58,40.88583333333333],[-88.40472222222223,40.848888888888894],[-88.23027777777779,40.81222222222222],[-88.05388888888889,40.775555555555556],[-87.88,40.73972222222222],[-87.70611111111111,40.70416666666667],[-87.53138888888888,40.66833333333333],[-87.35833333333333,40.63305555555556],[-87.18277777777779,40.59722222222222],[-86.97083333333333,40.57194444444445],[-86.78611111111111,40.558055555555555],[-86.60333333333332,40.54361111111111],[-86.42555555555556,40.52916666666667],[-86.24722222222222,40.51444444444444],[-86.12472222222222,40.504444444444445],[-86.07,40.499722222222225],[-85.94805555555556,40.489444444444445],[-85.905,40.48583333333333],[-85.7625,40.473333333333336],[-85.73,40.470555555555556],[-85.56333333333333,40.46138888888889],[-85.57555555555555,40.461111111111116],[-85.38833333333334,40.467222222222226],[-85.2125,40.473055555555554],[-85.2238888888889,40.472500000000004],[-85.04833333333333,40.47972222222222],[-84.89750000000001,40.488055555555555],[-84.86222222222221,40.49],[-84.72222222222223,40.4975],[-84.51916666666666,40.51027777777778],[-84.34777777777778,40.52194444444444],[-84.1763888888889,40.534166666666664],[-84.00638888888889,40.54694444444444],[-83.83388888888888,40.56055555555555],[-83.66250000000001,40.57472222222223],[-83.5125,40.58777777777778],[-83.47666666666667,40.590833333333336],[-83.33972222222222,40.60277777777778],[-83.30166666666666,40.60611111111111],[-83.16805555555555,40.615],[-83.12944444444443,40.61138888888889],[-82.99861111111112,40.58083333333334],[-82.96333333333334,40.57222222222222],[-82.83111111111111,40.53944444444444],[-82.79555555555555,40.530833333333334],[-82.66583333333334,40.498333333333335],[-82.63,40.489444444444445],[-82.49805555555555,40.45638888888889],[-82.46305555555556,40.4475],[-82.33166666666666,40.41416666666667],[-82.2961111111111,40.405],[-82.28694444444444,40.40222222222222],[-82.16388888888889,40.37138888888889],[-82.13027777777778,40.36277777777778],[-82.11944444444444,40.36],[-81.99833333333333,40.32888888888889],[-81.96361111111112,40.32],[-81.9525,40.31777777777778],[-81.82944444444443,40.285],[-81.78555555555555,40.27361111111111],[-81.65555555555557,40.23972222222222],[-81.64111111111112,40.236111111111114],[-81.485,40.19499999999999],[-81.32027777777778,40.15138888888889],[-81.30666666666666,40.14805555555556],[-81.14805555555556,40.10583333333334],[-81.13944444444445,40.10388888888889],[-80.98111111111112,40.06111111111111],[-80.97055555555556,40.05833333333333],[-80.80833333333334,40.015277777777776],[-80.77722222222222,40.009166666666665],[-80.6363888888889,39.98083333333334],[-80.60194444444444,39.97416666666667],[-80.46361111111112,39.94638888888888],[-80.43055555555556,39.939722222222215],[-80.2961111111111,39.9125],[-80.28444444444445,39.91027777777778],[-80.12416666666665,39.87722222222222],[-79.95111111111112,39.841944444444444],[-79.94305555555556,39.84027777777778],[-79.77305555555556,39.805],[-79.74888888888889,39.8],[-79.61361111111111,39.77166666666667],[-79.60527777777777,39.76972222222222],[-79.5825,39.765],[-79.43277777777779,39.73361111111111],[-79.41194444444444,39.72916666666667],[-79.26944444444445,39.69888888888889],[-79.23444444444445,39.691111111111105],[-79.095,39.66111111111111],[-78.93138888888889,39.62583333333333],[-78.89583333333334,39.61805555555556],[-78.72972222222222,39.58222222222223],[-78.6,39.55],[-78.56805555555555,39.54666666666667],[-78.5,39.53333333333333],[-78.4375,39.51777777777777],[-78.40277777777779,39.51],[-78.35,39.5],[-78.29333333333334,39.48583333333333],[-78.2,39.46666666666667],[-78.1375,39.45333333333333],[-78.10638888888889,39.450833333333335],[-78.03333333333333,39.45],[-77.98805555555556,39.450833333333335],[-77.96055555555556,39.45055555555556],[-77.9,39.45],[-77.85083333333333,39.45055555555556],[-77.81083333333333,39.450833333333335],[-77.76666666666667,39.45],[-77.68305555555555,39.45027777777778],[-77.63333333333334,39.45],[-77.55305555555556,39.448611111111106],[-77.5,39.45],[-77.38333333333334,39.45],[-77.30777777777777,39.44472222222222],[-77.26666666666667,39.45],[-77.19361111111111,39.43944444444444],[-77.15,39.43333333333333],[-77.0825,39.43527777777778],[-77.03333333333333,39.43333333333333],[-76.97111111111111,39.430277777777775],[-76.91666666666667,39.43333333333333],[-76.86166666666666,39.41138888888889],[-76.81666666666666,39.4],[-76.73333333333333,39.38333333333333],[-76.65138888888889,39.361666666666665],[-76.61666666666666,39.35],[-76.57527777777777,39.314166666666665],[-76.56666666666666,39.3],[-76.52583333333334,39.24027777777778],[-76.51666666666667,39.233333333333334],[-76.48277777777778,39.175],[-76.46666666666667,39.15],[-76.44194444444445,39.11],[-76.43333333333334,39.1],[-76.43,39.04277777777778],[-76.45,39.03333333333333],[-76.49,39.019999999999996],[-76.5,39.03333333333333],[-76.54166666666667,39.047777777777775],[-76.55,39.06666666666667],[-76.58583333333333,39.08083333333334],[-76.6,39.083333333333336],[-76.61944444444444,39.117777777777775],[-76.63333333333334,39.13333333333333],[-76.65111111111112,39.151944444444446],[-76.68111111111112,39.18416666666666]]}
}
