{
  "id": 2032131153,
  "type": "Feature",
  "properties": {
    "geom:area": 0,
    "geom:bbox": "-122.361910,37.492050,-121.258230,37.617010",
    "geom:latitude": 37.542881949575786,
    "geom:longitude": -121.81748222172409,
    "src:alt_label": "swim-approach",
    "src:geom": "swim",
    "swim:elevations": [
      4617,
      4401,
      3906,
      3570,
      3330,
      3252,
      3108,
      3014,
      2726,
      2619,
      2496,
      2351,
      2225,
      2069,
      1829,
      1795,
      1719,
      1577,
      1418,
      1333,
      1233,
      1035,
      917,
      892,
      791,
      674,
      615,
      355,
      303,
      127,
      70,
      356
    ],
    "swim:geom": "approach",
    "swim:timestamps": [
      1786050578,
      1786050601,
      1786050652,
      1786050686,
      1786050710,
      1786050721,
      1786050762,
      1786050792,
      1786050827,
      1786050838,
      1786050859,
      1786050889,
      1786050907,
      1786050935,
      1786050986,
      1786051009,
      1786051048,
      1786051074,
      1786051096,
      1786051110,
      1786051121,
      1786051146,
      1786051168,
      1786051175,
      1786051195,
      1786051218,
      1786051230,
      1786051289,
      1786051302,
      1786051341,
      1786051355,
      1786051380
    ],
    "wof:geomhash": "dab9ea17d6eaa41557aaf655a5d8de64",
    "wof:id": 2032131153,
    "wof:repo": "sfomuseum-data-flights-2026-08"
  },
  "bbox": [
    -122.36191,
    37.49205,
    -121.25823,
    37.61701
  ],
  "geometry": {"type":"LineString","coordinates":[[-121.25823,37.59331],[-121.3042,37.58743],[-121.40785,37.57623],[-121.47552,37.56845],[-121.52329,37.56285],[-121.54249,37.56053],[-121.61949,37.55135],[-121.66883,37.54017],[-121.72437,37.52704],[-121.74195,37.52285],[-121.77669,37.51465],[-121.82474,37.50302],[-121.8526,37.49623],[-121.89715,37.49205],[-121.97879,37.49681],[-122.01335,37.49883],[-122.06627,37.50169],[-122.09491,37.5046],[-122.11691,37.5122],[-122.13065,37.51796],[-122.14055,37.52232],[-122.1643,37.53242],[-122.18449,37.54091],[-122.19088,37.54356],[-122.20857,37.55109],[-122.22911,37.5597],[-122.23986,37.56419],[-122.29164,37.586],[-122.30289,37.59081],[-122.33482,37.60399],[-122.34538,37.60858],[-122.36191,37.61701]]}
}
