{
  "id": 2047960295,
  "type": "Feature",
  "properties": {
    "geom:area": 0,
    "geom:bbox": "-122.409180,37.625640,-121.257150,37.963460",
    "geom:latitude": 37.83064041790004,
    "geom:longitude": -121.85658168916547,
    "src:alt_label": "swim-takeoff",
    "src:geom": "swim",
    "swim:elevations": [
      152,
      576,
      810,
      844,
      930,
      1196,
      2947,
      3231,
      3693,
      4002,
      4297,
      4769,
      5542,
      5643,
      5810,
      6709,
      6734
    ],
    "swim:geom": "takeoff",
    "swim:timestamps": [
      1786614150,
      1786614186,
      1786614210,
      1786614213,
      1786614218,
      1786614257,
      1786614410,
      1786614445,
      1786614507,
      1786614537,
      1786614568,
      1786614609,
      1786614684,
      1786614694,
      1786614708,
      1786614813,
      1786614817
    ],
    "wof:geomhash": "0fc34e2114af8efece37bab4551e7479",
    "wof:id": 2047960295,
    "wof:repo": "sfomuseum-data-flights-2026-08"
  },
  "bbox": [
    -122.40918,
    37.62564,
    -121.25715,
    37.96346
  ],
  "geometry": {"type":"LineString","coordinates":[[-122.39128,37.62564],[-122.40918,37.65051],[-122.39111,37.66617],[-122.3877,37.66713],[-122.38127,37.66839],[-122.33429,37.67733],[-122.10945,37.77212],[-122.05544,37.80011],[-121.9388,37.84056],[-121.87616,37.85025],[-121.8115,37.86164],[-121.72272,37.87822],[-121.55873,37.90907],[-121.53751,37.91296],[-121.50536,37.91876],[-121.26653,37.96178],[-121.25715,37.96346]]}
}
