{
  "id": 2047879571,
  "type": "Feature",
  "properties": {
    "geom:area": 0,
    "geom:bbox": "-122.546760,37.215830,-121.282660,37.668990",
    "geom:latitude": 37.384368295118165,
    "geom:longitude": -122.0136305646314,
    "src:alt_label": "swim-takeoff",
    "src:geom": "swim",
    "swim:elevations": [
      378,
      427,
      528,
      758,
      1119,
      1273,
      1422,
      1914,
      2405,
      2760,
      3128,
      3290,
      3588,
      3975,
      4240,
      4391,
      4672,
      5088,
      5437,
      5692,
      5815,
      6549,
      6675,
      6895,
      6920,
      7165,
      7329,
      7460,
      7705,
      7953,
      8051
    ],
    "swim:geom": "takeoff",
    "swim:timestamps": [
      1786166095,
      1786166101,
      1786166116,
      1786166146,
      1786166183,
      1786166210,
      1786166234,
      1786166272,
      1786166303,
      1786166327,
      1786166354,
      1786166378,
      1786166426,
      1786166455,
      1786166478,
      1786166490,
      1786166514,
      1786166546,
      1786166576,
      1786166600,
      1786166612,
      1786166666,
      1786166678,
      1786166726,
      1786166732,
      1786166768,
      1786166788,
      1786166803,
      1786166833,
      1786166867,
      1786166880
    ],
    "wof:geomhash": "b00777e72584de46b34829210602acf5",
    "wof:id": 2047879571,
    "wof:repo": "sfomuseum-data-flights-2026-08"
  },
  "bbox": [
    -122.54676,
    37.21583,
    -121.28266,
    37.66899
  ],
  "geometry": {"type":"LineString","coordinates":[[-122.40602,37.6341],[-122.4114,37.63624],[-122.42568,37.64195],[-122.45664,37.65487],[-122.49948,37.66899],[-122.53387,37.6581],[-122.54676,37.63021],[-122.52391,37.58219],[-122.50325,37.54341],[-122.48719,37.51338],[-122.46113,37.48292],[-122.42669,37.46193],[-122.34532,37.41786],[-122.28609,37.40124],[-122.23882,37.3918],[-122.21312,37.38663],[-122.16111,37.37628],[-122.09067,37.36228],[-122.02501,37.3492],[-121.97172,37.33851],[-121.94457,37.3331],[-121.82224,37.30839],[-121.79518,37.30295],[-121.68246,37.2801],[-121.66767,37.27705],[-121.57624,37.25834],[-121.52478,37.24783],[-121.48621,37.23989],[-121.40721,37.2269],[-121.3174,37.21925],[-121.28266,37.21583]]}
}
