{
  "id": 2032128835,
  "type": "Feature",
  "properties": {
    "geom:area": 0,
    "geom:bbox": "-122.871690,37.304840,-122.153210,38.504310",
    "geom:latitude": 37.771251342588,
    "geom:longitude": -122.48704839413456,
    "src:alt_label": "swim-approach",
    "src:geom": "swim",
    "swim:elevations": [
      7833,
      7742,
      7478,
      7031,
      6792,
      6578,
      6206,
      5877,
      5620,
      5306,
      5252,
      4934,
      4596,
      4273,
      3598,
      3411,
      3352,
      3353,
      3353,
      3353,
      3353,
      3170,
      3044,
      2980,
      2676,
      2570,
      2357,
      2225,
      1930,
      1830,
      1829,
      1829,
      1829,
      1829,
      1746,
      1664,
      1383,
      1227,
      1098,
      951,
      861,
      588,
      539,
      438,
      416,
      301,
      51
    ],
    "swim:geom": "approach",
    "swim:timestamps": [
      1786015290,
      1786015300,
      1786015327,
      1786015372,
      1786015397,
      1786015419,
      1786015458,
      1786015491,
      1786015519,
      1786015553,
      1786015560,
      1786015592,
      1786015623,
      1786015660,
      1786015730,
      1786015759,
      1786015792,
      1786015804,
      1786015849,
      1786015884,
      1786015917,
      1786015948,
      1786015969,
      1786015983,
      1786016033,
      1786016053,
      1786016085,
      1786016107,
      1786016158,
      1786016182,
      1786016222,
      1786016272,
      1786016293,
      1786016333,
      1786016367,
      1786016374,
      1786016417,
      1786016449,
      1786016478,
      1786016513,
      1786016531,
      1786016569,
      1786016580,
      1786016595,
      1786016599,
      1786016630,
      1786016698
    ],
    "wof:geomhash": "e1907272d63f73d65a78a7d14a886d0d",
    "wof:id": 2032128835,
    "wof:repo": "sfomuseum-data-flights-2026-08"
  },
  "bbox": [
    -122.87169,
    37.30484,
    -122.15321,
    38.50431
  ],
  "geometry": {"type":"LineString","coordinates":[[-122.87169,38.50431],[-122.86544,38.4865],[-122.84641,38.43807],[-122.81697,38.35854],[-122.80116,38.3159],[-122.78703,38.27748],[-122.76379,38.21188],[-122.74806,38.1576],[-122.73446,38.11079],[-122.71814,38.05461],[-122.71488,38.04331],[-122.7003,37.99307],[-122.6859,37.94333],[-122.66025,37.88833],[-122.57044,37.80242],[-122.53384,37.7679],[-122.49419,37.73034],[-122.4814,37.71817],[-122.43592,37.67557],[-122.40411,37.64556],[-122.37258,37.61585],[-122.34917,37.58706],[-122.33809,37.565],[-122.3318,37.55041],[-122.30234,37.4997],[-122.29848,37.47831],[-122.30695,37.44558],[-122.31324,37.42267],[-122.3283,37.3704],[-122.33494,37.34574],[-122.31614,37.30981],[-122.24478,37.30484],[-122.21718,37.3122],[-122.19304,37.35388],[-122.18072,37.39205],[-122.17801,37.40044],[-122.16328,37.44789],[-122.15321,37.48227],[-122.16536,37.51183],[-122.19156,37.53944],[-122.20812,37.5489],[-122.24637,37.56462],[-122.2573,37.56919],[-122.27103,37.57501],[-122.27405,37.57635],[-122.29942,37.58701],[-122.35103,37.60857]]}
}
