{
  "id": 2047927335,
  "type": "Feature",
  "properties": {
    "geom:area": 0,
    "geom:bbox": "-122.358380,37.451190,-121.280630,37.615580",
    "geom:latitude": 37.54308010039034,
    "geom:longitude": -121.82472097001157,
    "src:alt_label": "swim-approach",
    "src:geom": "swim",
    "swim:elevations": [
      4738,
      4621,
      4226,
      3927,
      3839,
      3465,
      3276,
      3068,
      3048,
      3048,
      3047,
      2979,
      2867,
      2744,
      2698,
      2408,
      2189,
      2125,
      2067,
      1924,
      1792,
      1340,
      1250,
      1099,
      1023,
      792,
      587,
      513,
      494,
      334,
      183,
      91,
      110
    ],
    "swim:geom": "approach",
    "swim:timestamps": [
      1786469081,
      1786469102,
      1786469147,
      1786469178,
      1786469190,
      1786469243,
      1786469270,
      1786469298,
      1786469321,
      1786469354,
      1786469378,
      1786469401,
      1786469443,
      1786469474,
      1786469525,
      1786469582,
      1786469621,
      1786469636,
      1786469649,
      1786469673,
      1786469705,
      1786469758,
      1786469779,
      1786469801,
      1786469822,
      1786469861,
      1786469903,
      1786469921,
      1786469925,
      1786469961,
      1786469998,
      1786470022,
      1786470041
    ],
    "wof:geomhash": "36c1b2015e1dbb550cc5518b9126db00",
    "wof:id": 2047927335,
    "wof:repo": "sfomuseum-data-flights-2026-08"
  },
  "bbox": [
    -122.35838,
    37.45119,
    -121.28063,
    37.61558
  ],
  "geometry": {"type":"LineString","coordinates":[[-121.28063,37.59109],[-121.318,37.58655],[-121.39839,37.57641],[-121.45328,37.57015],[-121.47536,37.56773],[-121.56836,37.5582],[-121.61442,37.55285],[-121.66166,37.54541],[-121.69383,37.55912],[-121.72731,37.58943],[-121.75085,37.60991],[-121.78207,37.61558],[-121.80565,37.57809],[-121.80055,37.54341],[-121.8219,37.49136],[-121.87084,37.45119],[-121.92504,37.45766],[-121.94514,37.46007],[-121.96237,37.46211],[-121.99444,37.4656],[-122.03305,37.47734],[-122.09772,37.50401],[-122.1201,37.51351],[-122.14338,37.52355],[-122.16436,37.53254],[-122.20414,37.54931],[-122.24603,37.56674],[-122.26262,37.57373],[-122.26612,37.57523],[-122.29589,37.58788],[-122.32531,37.60021],[-122.34473,37.60824],[-122.35838,37.61416]]}
}
