{
  "id": 2047874023,
  "type": "Feature",
  "properties": {
    "geom:area": 0,
    "geom:bbox": "-122.368333,35.685833,-73.514167,40.617500",
    "geom:latitude": 37.07889001607437,
    "geom:longitude": -96.96782479722921,
    "src:alt_label": "swim-path",
    "src:geom": "swim",
    "swim:altitudes": [
      "012",
      "032",
      "064",
      "096",
      "115",
      "132",
      "153",
      "179",
      "199",
      "224",
      "241",
      "250",
      "262",
      "277",
      "291",
      "307",
      "322",
      "335",
      "344",
      "358C",
      "360C",
      "360C",
      "360C",
      "360C",
      "360C",
      "360C",
      "360C",
      "360C",
      "360C",
      "360C",
      "360C",
      "360C",
      "360C",
      "360C",
      "360C",
      "360C",
      "360C",
      "360C",
      "360C",
      "360C",
      "360C",
      "360C",
      "360C",
      "360C",
      "360C",
      "360C",
      "360C",
      "360C",
      "360C",
      "360C",
      "360C",
      "360C",
      "360C",
      "360C",
      "360C",
      "360C",
      "360C",
      "360C",
      "360C",
      "360C",
      "360C",
      "360C",
      "360C",
      "360C",
      "360C",
      "360C",
      "360C",
      "360C",
      "360C",
      "360C",
      "360C",
      "360C",
      "360C",
      "360C",
      "360C",
      "360C",
      "360C",
      "360C",
      "360C",
      "360C",
      "360C",
      "360C",
      "360C",
      "360C",
      "360C",
      "360C",
      "360C",
      "360C",
      "360C",
      "360C",
      "360C",
      "360C",
      "360C",
      "360C",
      "360C",
      "360C",
      "360C",
      "360C",
      "360C",
      "360C",
      "360C",
      "360C",
      "360C",
      "360C",
      "360C",
      "360C",
      "360C",
      "360C",
      "360C",
      "360C",
      "360C",
      "360C",
      "360C",
      "360C",
      "360C",
      "360C",
      "360C",
      "360C",
      "360C",
      "360C",
      "360C",
      "360C",
      "360C",
      "360C",
      "360C",
      "360C",
      "360C",
      "360C",
      "360C",
      "360C",
      "360C",
      "360C",
      "360C",
      "360C",
      "360C",
      "360C",
      "360C",
      "360C",
      "360C",
      "360C",
      "360C",
      "360C",
      "360C",
      "360C",
      "360C",
      "360C",
      "360C",
      "360C",
      "360C",
      "360C",
      "360C",
      "360C",
      "360C",
      "360C",
      "360C",
      "360C",
      "360C",
      "360C",
      "360C",
      "360C",
      "360C",
      "360C",
      "360C",
      "360C",
      "360C",
      "360C",
      "360C",
      "360C",
      "360C",
      "360C",
      "360C",
      "360C",
      "360C",
      "360C",
      "360C",
      "360C",
      "360C",
      "360C",
      "360C",
      "360C",
      "360C",
      "360C",
      "360C",
      "360C",
      "360C",
      "360C",
      "360C",
      "360C",
      "360C",
      "360C",
      "360C",
      "360C",
      "360C",
      "360C",
      "360C",
      "360C",
      "360C",
      "360C",
      "360C",
      "360C",
      "360C",
      "360C",
      "360C",
      "360C",
      "360C",
      "360C",
      "360C",
      "360C",
      "360C",
      "360C",
      "360C",
      "360C",
      "360C",
      "360C",
      "360C",
      "360C",
      "360C",
      "360C",
      "360C",
      "360C",
      "360C",
      "360C",
      "360C",
      "360C",
      "360C",
      "360C",
      "360C",
      "360C",
      "360C",
      "360C",
      "360C",
      "360C",
      "360C",
      "360C",
      "360C",
      "360C",
      "360C",
      "360C",
      "360C",
      "360C",
      "360C",
      "360C",
      "360C",
      "360C",
      "360C",
      "360C",
      "360C",
      "360C",
      "360C",
      "360C",
      "360C",
      "360C",
      "360C",
      "360C",
      "360C",
      "360C",
      "360C",
      "360C",
      "360C",
      "360C",
      "360C",
      "360C",
      "360C",
      "360C",
      "360C",
      "360C",
      "360C",
      "360C",
      "360C",
      "360C",
      "360C",
      "360C",
      "360C",
      "360C",
      "360C",
      "360C",
      "360C",
      "360C",
      "360C",
      "360C",
      "360C",
      "360C",
      "360C",
      "360C",
      "360C",
      "360C",
      "360C",
      "360C",
      "360C",
      "360C",
      "360C",
      "360C",
      "360C",
      "360C",
      "360C",
      "360C",
      "360C",
      "360C",
      "360C",
      "360C",
      "360C",
      "360C",
      "360C",
      "360C",
      "360C",
      "360C",
      "360C",
      "360C",
      "360C",
      "360C",
      "360C",
      "360C",
      "360C",
      "360C",
      "360C",
      "360C",
      "360C",
      "360C",
      "360C",
      "360C",
      "360C",
      "360C",
      "360C",
      "360C",
      "360C",
      "360C",
      "360C",
      "360C",
      "360C",
      "360C",
      "360C",
      "360C",
      "360C",
      "360C",
      "360C",
      "360C",
      "360C",
      "360C",
      "360C",
      "360C",
      "360C",
      "360C",
      "360C",
      "360C",
      "360C",
      "360C",
      "360C",
      "360C",
      "360C",
      "360C",
      "360C",
      "360C",
      "360C",
      "360C",
      "360C",
      "360C",
      "360C",
      "360C",
      "360C",
      "360C",
      "360C",
      "360C",
      "360C",
      "360C",
      "360C",
      "360C",
      "360C",
      "360C",
      "360C",
      "360C",
      "360C",
      "360C",
      "360C",
      "360C",
      "360C",
      "360C",
      "360C",
      "360C",
      "360C",
      "360C",
      "360C",
      "360C",
      "360C",
      "360C",
      "360C",
      "360C",
      "360C",
      "360C",
      "360C",
      "360C",
      "360C",
      "360C",
      "360C",
      "360C",
      "360C",
      "360C",
      "360C",
      "360C",
      "360C",
      "360C",
      "360C",
      "360C",
      "359C",
      "360C",
      "360C",
      "360C",
      "360C",
      "360C",
      "360C",
      "360C",
      "360C",
      "360C",
      "360C",
      "360C",
      "360C",
      "360C",
      "360C",
      "360C",
      "360C",
      "360C",
      "360C",
      "360C",
      "360C",
      "360C",
      "360C",
      "360C",
      "360C",
      "360C",
      "360C",
      "360C",
      "360C",
      "360C",
      "360C",
      "360",
      "360",
      "353",
      "350",
      "343",
      "342C",
      "340C",
      "340C",
      "340C",
      "340C",
      "340C",
      "340C",
      "340C",
      "339",
      "328",
      "316",
      "306",
      "300",
      "300",
      "300",
      "300",
      "281",
      "272",
      "248",
      "223",
      "208",
      "202",
      "197",
      "194",
      "184",
      "179",
      "169",
      "166",
      "154",
      "151",
      "137",
      "136",
      "125",
      "124",
      "108",
      "106",
      "092",
      "090",
      "080",
      "080",
      "076",
      "070",
      "071C",
      "071",
      "059",
      "043",
      "033",
      "032",
      "024",
      "023",
      "015",
      "014",
      "007",
      "006",
      "001"
    ],
    "swim:geom": "path",
    "swim:speeds": [
      167,
      222,
      283,
      285,
      324,
      363,
      372,
      394,
      410,
      398,
      407,
      437,
      459,
      470,
      474,
      477,
      474,
      473,
      475,
      474,
      465,
      462,
      462,
      462,
      463,
      463,
      465,
      467,
      467,
      467,
      467,
      467,
      465,
      463,
      459,
      461,
      459,
      459,
      458,
      458,
      458,
      457,
      458,
      456,
      457,
      456,
      457,
      455,
      457,
      455,
      456,
      455,
      456,
      455,
      456,
      455,
      456,
      457,
      453,
      450,
      449,
      447,
      449,
      448,
      449,
      448,
      449,
      448,
      448,
      449,
      447,
      448,
      446,
      447,
      445,
      446,
      445,
      445,
      446,
      445,
      446,
      446,
      447,
      447,
      447,
      448,
      448,
      448,
      449,
      450,
      450,
      450,
      451,
      451,
      451,
      451,
      452,
      452,
      452,
      452,
      449,
      448,
      446,
      446,
      444,
      444,
      443,
      443,
      442,
      443,
      442,
      441,
      441,
      441,
      442,
      445,
      447,
      449,
      450,
      451,
      451,
      452,
      452,
      453,
      453,
      452,
      452,
      452,
      452,
      452,
      452,
      454,
      454,
      453,
      454,
      454,
      455,
      455,
      456,
      455,
      456,
      455,
      456,
      455,
      455,
      455,
      455,
      456,
      456,
      457,
      457,
      458,
      458,
      458,
      459,
      460,
      460,
      459,
      458,
      457,
      457,
      459,
      460,
      462,
      464,
      466,
      467,
      467,
      467,
      466,
      467,
      468,
      469,
      469,
      469,
      468,
      466,
      467,
      469,
      466,
      468,
      466,
      467,
      465,
      467,
      465,
      466,
      465,
      466,
      466,
      466,
      466,
      466,
      467,
      467,
      468,
      468,
      469,
      468,
      469,
      469,
      468,
      468,
      468,
      467,
      467,
      465,
      465,
      463,
      463,
      458,
      459,
      455,
      454,
      452,
      453,
      451,
      452,
      450,
      450,
      449,
      450,
      449,
      449,
      448,
      449,
      451,
      452,
      456,
      458,
      459,
      460,
      460,
      460,
      460,
      460,
      460,
      460,
      460,
      459,
      459,
      459,
      459,
      458,
      458,
      457,
      454,
      454,
      454,
      453,
      452,
      451,
      451,
      451,
      451,
      452,
      453,
      455,
      457,
      459,
      460,
      461,
      465,
      466,
      466,
      466,
      466,
      464,
      459,
      463,
      459,
      462,
      459,
      462,
      460,
      462,
      460,
      462,
      461,
      462,
      461,
      462,
      462,
      462,
      463,
      464,
      464,
      464,
      464,
      464,
      464,
      464,
      464,
      464,
      464,
      463,
      463,
      462,
      462,
      460,
      460,
      460,
      460,
      460,
      460,
      459,
      463,
      459,
      462,
      460,
      461,
      460,
      461,
      461,
      461,
      461,
      461,
      460,
      461,
      460,
      460,
      459,
      459,
      457,
      457,
      457,
      458,
      460,
      462,
      464,
      466,
      467,
      467,
      468,
      469,
      470,
      471,
      473,
      474,
      475,
      476,
      477,
      478,
      477,
      476,
      474,
      472,
      470,
      471,
      470,
      463,
      467,
      467,
      467,
      467,
      468,
      470,
      468,
      468,
      469,
      467,
      462,
      462,
      461,
      460,
      458,
      459,
      459,
      459,
      459,
      459,
      459,
      459,
      459,
      459,
      459,
      459,
      459,
      458,
      458,
      457,
      457,
      457,
      457,
      458,
      459,
      460,
      460,
      461,
      461,
      461,
      460,
      460,
      459,
      458,
      458,
      458,
      457,
      450,
      457,
      454,
      458,
      455,
      458,
      456,
      459,
      457,
      461,
      460,
      462,
      461,
      462,
      462,
      462,
      462,
      463,
      463,
      463,
      463,
      462,
      462,
      463,
      463,
      463,
      463,
      463,
      463,
      463,
      463,
      463,
      463,
      462,
      462,
      462,
      462,
      462,
      462,
      463,
      463,
      461,
      457,
      457,
      457,
      458,
      460,
      465,
      467,
      466,
      467,
      469,
      469,
      470,
      471,
      470,
      460,
      426,
      421,
      394,
      386,
      390,
      360,
      354,
      340,
      341,
      331,
      335,
      325,
      329,
      319,
      321,
      279,
      277,
      254,
      258,
      251,
      254,
      251,
      250,
      248,
      242,
      243,
      225,
      234,
      230,
      203,
      201,
      178,
      180,
      146,
      150,
      153,
      150,
      130
    ],
    "swim:timestamps": [
      1786141469,
      1786141528,
      1786141590,
      1786141650,
      1786141710,
      1786141770,
      1786141829,
      1786141890,
      1786141950,
      1786142009,
      1786142070,
      1786142130,
      1786142190,
      1786142250,
      1786142310,
      1786142370,
      1786142431,
      1786142491,
      1786142550,
      1786142610,
      1786142670,
      1786142730,
      1786142790,
      1786142850,
      1786142910,
      1786142970,
      1786143031,
      1786143091,
      1786143151,
      1786143211,
      1786143271,
      1786143331,
      1786143391,
      1786143451,
      1786143490,
      1786143511,
      1786143550,
      1786143571,
      1786143611,
      1786143632,
      1786143671,
      1786143692,
      1786143731,
      1786143752,
      1786143791,
      1786143812,
      1786143851,
      1786143872,
      1786143911,
      1786143932,
      1786143971,
      1786143992,
      1786144031,
      1786144052,
      1786144091,
      1786144112,
      1786144172,
      1786144233,
      1786144293,
      1786144353,
      1786144413,
      1786144459,
      1786144473,
      1786144519,
      1786144533,
      1786144579,
      1786144593,
      1786144639,
      1786144653,
      1786144699,
      1786144713,
      1786144759,
      1786144773,
      1786144820,
      1786144833,
      1786144880,
      1786144894,
      1786144954,
      1786145000,
      1786145014,
      1786145060,
      1786145074,
      1786145120,
      1786145134,
      1786145180,
      1786145194,
      1786145240,
      1786145254,
      1786145300,
      1786145314,
      1786145360,
      1786145374,
      1786145420,
      1786145434,
      1786145480,
      1786145494,
      1786145541,
      1786145555,
      1786145601,
      1786145615,
      1786145661,
      1786145675,
      1786145721,
      1786145735,
      1786145781,
      1786145795,
      1786145841,
      1786145855,
      1786145901,
      1786145915,
      1786145961,
      1786145975,
      1786146021,
      1786146081,
      1786146141,
      1786146202,
      1786146262,
      1786146322,
      1786146382,
      1786146442,
      1786146502,
      1786146562,
      1786146622,
      1786146682,
      1786146742,
      1786146760,
      1786146802,
      1786146820,
      1786146862,
      1786146880,
      1786146923,
      1786146941,
      1786147001,
      1786147043,
      1786147061,
      1786147103,
      1786147121,
      1786147163,
      1786147181,
      1786147223,
      1786147241,
      1786147283,
      1786147301,
      1786147343,
      1786147361,
      1786147403,
      1786147421,
      1786147463,
      1786147481,
      1786147523,
      1786147541,
      1786147583,
      1786147601,
      1786147644,
      1786147661,
      1786147722,
      1786147782,
      1786147842,
      1786147902,
      1786147962,
      1786148022,
      1786148082,
      1786148142,
      1786148202,
      1786148262,
      1786148322,
      1786148382,
      1786148442,
      1786148503,
      1786148563,
      1786148623,
      1786148683,
      1786148743,
      1786148803,
      1786148821,
      1786148863,
      1786148881,
      1786148923,
      1786148941,
      1786148983,
      1786149001,
      1786149043,
      1786149061,
      1786149103,
      1786149121,
      1786149163,
      1786149181,
      1786149223,
      1786149241,
      1786149284,
      1786149301,
      1786149344,
      1786149362,
      1786149404,
      1786149422,
      1786149464,
      1786149482,
      1786149524,
      1786149542,
      1786149584,
      1786149602,
      1786149644,
      1786149662,
      1786149704,
      1786149764,
      1786149782,
      1786149824,
      1786149842,
      1786149884,
      1786149902,
      1786149944,
      1786149962,
      1786150004,
      1786150022,
      1786150064,
      1786150083,
      1786150125,
      1786150143,
      1786150185,
      1786150203,
      1786150245,
      1786150263,
      1786150305,
      1786150323,
      1786150365,
      1786150383,
      1786150425,
      1786150443,
      1786150485,
      1786150503,
      1786150545,
      1786150563,
      1786150605,
      1786150623,
      1786150665,
      1786150683,
      1786150725,
      1786150744,
      1786150785,
      1786150845,
      1786150864,
      1786150905,
      1786150924,
      1786150965,
      1786150984,
      1786151026,
      1786151104,
      1786151146,
      1786151164,
      1786151224,
      1786151284,
      1786151344,
      1786151405,
      1786151465,
      1786151525,
      1786151585,
      1786151645,
      1786151705,
      1786151765,
      1786151825,
      1786151885,
      1786151945,
      1786152065,
      1786152126,
      1786152186,
      1786152246,
      1786152366,
      1786152426,
      1786152458,
      1786152486,
      1786152518,
      1786152546,
      1786152579,
      1786152606,
      1786152639,
      1786152666,
      1786152699,
      1786152726,
      1786152756,
      1786152786,
      1786152817,
      1786152847,
      1786152877,
      1786152907,
      1786152937,
      1786152967,
      1786152997,
      1786153027,
      1786153057,
      1786153087,
      1786153117,
      1786153147,
      1786153178,
      1786153207,
      1786153238,
      1786153267,
      1786153298,
      1786153327,
      1786153358,
      1786153387,
      1786153414,
      1786153447,
      1786153474,
      1786153507,
      1786153534,
      1786153568,
      1786153594,
      1786153628,
      1786153654,
      1786153688,
      1786153714,
      1786153748,
      1786153774,
      1786153808,
      1786153834,
      1786153867,
      1786153894,
      1786153927,
      1786153955,
      1786153987,
      1786154015,
      1786154047,
      1786154075,
      1786154135,
      1786154195,
      1786154255,
      1786154315,
      1786154375,
      1786154435,
      1786154495,
      1786154555,
      1786154615,
      1786154676,
      1786154736,
      1786154796,
      1786154856,
      1786154916,
      1786154976,
      1786155036,
      1786155096,
      1786155156,
      1786155216,
      1786155276,
      1786155342,
      1786155397,
      1786155457,
      1786155515,
      1786155522,
      1786155575,
      1786155635,
      1786155697,
      1786155755,
      1786155816,
      1786155877,
      1786155936,
      1786155996,
      1786156057,
      1786156116,
      1786156176,
      1786156238,
      1786156296,
      1786156356,
      1786156418,
      1786156476,
      1786156536,
      1786156598,
      1786156657,
      1786156718,
      1786156778,
      1786156837,
      1786156897,
      1786156959,
      1786157017,
      1786157079,
      1786157139,
      1786157197,
      1786157257,
      1786157319,
      1786157378,
      1786157438,
      1786157499,
      1786157559,
      1786157618,
      1786157678,
      1786157738,
      1786157798,
      1786157858,
      1786157918,
      1786157978,
      1786158099,
      1786158159,
      1786158219,
      1786158279,
      1786158339,
      1786158399,
      1786158459,
      1786158519,
      1786158579,
      1786158592,
      1786158639,
      1786158652,
      1786158699,
      1786158712,
      1786158759,
      1786158773,
      1786158820,
      1786158833,
      1786158880,
      1786158893,
      1786158940,
      1786158953,
      1786159000,
      1786159013,
      1786159060,
      1786159073,
      1786159120,
      1786159133,
      1786159180,
      1786159193,
      1786159240,
      1786159253,
      1786159300,
      1786159313,
      1786159360,
      1786159373,
      1786159420,
      1786159433,
      1786159480,
      1786159493,
      1786159541,
      1786159553,
      1786159601,
      1786159613,
      1786159661,
      1786159674,
      1786159721,
      1786159734,
      1786159781,
      1786159794,
      1786159854,
      1786159901,
      1786159914,
      1786159961,
      1786159974,
      1786160034,
      1786160094,
      1786160154,
      1786160214,
      1786160274,
      1786160334,
      1786160394,
      1786160454,
      1786160514,
      1786160575,
      1786160635,
      1786160675,
      1786160735,
      1786160815,
      1786160855,
      1786160875,
      1786160915,
      1786160935,
      1786160975,
      1786160995,
      1786161035,
      1786161055,
      1786161095,
      1786161115,
      1786161155,
      1786161175,
      1786161216,
      1786161235,
      1786161276,
      1786161295,
      1786161336,
      1786161355,
      1786161396,
      1786161415,
      1786161476,
      1786161516,
      1786161536,
      1786161576,
      1786161636,
      1786161716,
      1786161756,
      1786161776,
      1786161816,
      1786161836,
      1786161876,
      1786161896,
      1786161936,
      1786161956,
      1786162016
    ],
    "wof:geomhash": "704159754d1cb431b4229f5b98f84fd1",
    "wof:id": 2047874023,
    "wof:repo": "sfomuseum-data-flights-2026-08"
  },
  "bbox": [
    -122.36833333333333,
    35.68583333333333,
    -73.51416666666667,
    40.6175
  ],
  "geometry": {"type":"LineString","coordinates":[[-73.78944444444444,40.6175],[-73.78583333333333,40.57888888888889],[-73.67333333333333,40.55138888888889],[-73.60416666666666,40.4925],[-73.54555555555555,40.42166666666667],[-73.51416666666667,40.32611111111112],[-73.51833333333333,40.24527777777778],[-73.52444444444444,40.11361111111111],[-73.53166666666667,40.004444444444445],[-73.57555555555555,39.91861111111111],[-73.6725,39.8075],[-73.76,39.70638888888889],[-73.85333333333332,39.600833333333334],[-73.94888888888889,39.49277777777778],[-74.05277777777778,39.386944444444445],[-74.13833333333334,39.301944444444445],[-74.24083333333333,39.19944444444444],[-74.34555555555555,39.094722222222224],[-74.44916666666667,38.99027777777778],[-74.55333333333333,38.885555555555555],[-74.65444444444445,38.782777777777774],[-74.7538888888889,38.681666666666665],[-74.85416666666666,38.57916666666667],[-74.95361111111112,38.477222222222224],[-75.05305555555556,38.375],[-75.13222222222221,38.29361111111111],[-75.25416666666666,38.16722222222222],[-75.35388888888889,38.06361111111111],[-75.45333333333333,37.959722222222226],[-75.55333333333333,37.855000000000004],[-75.65055555555556,37.7525],[-75.74861111111112,37.64944444444444],[-75.84583333333333,37.54722222222222],[-75.95416666666667,37.450833333333335],[-76.02888888888889,37.386944444444445],[-76.06222222222222,37.35777777777778],[-76.13805555555557,37.29416666666666],[-76.16944444444445,37.265277777777776],[-76.245,37.20111111111111],[-76.27694444444444,37.17222222222222],[-76.35333333333332,37.1075],[-76.38361111111112,37.07944444444445],[-76.45861111111111,37.01361111111111],[-76.49194444444444,36.984722222222224],[-76.56444444444445,36.920833333333334],[-76.59805555555555,36.89194444444444],[-76.6738888888889,36.82777777777778],[-76.70527777777778,36.7975],[-76.77944444444444,36.73388888888889],[-76.81277777777777,36.70277777777778],[-76.88527777777779,36.64083333333333],[-76.91777777777779,36.609722222222224],[-76.99166666666667,36.547777777777775],[-77.02361111111111,36.51583333333333],[-77.095,36.45277777777778],[-77.14194444444445,36.410555555555554],[-77.23416666666667,36.3275],[-77.33444444444444,36.227222222222224],[-77.46388888888889,36.16361111111111],[-77.62777777777777,36.146388888888886],[-77.77944444444444,36.132222222222225],[-77.90027777777779,36.12111111111111],[-77.93166666666667,36.117222222222225],[-78.0525,36.10472222222222],[-78.08388888888888,36.10194444444445],[-78.20444444444445,36.09055555555556],[-78.235,36.086666666666666],[-78.35527777777777,36.07472222222223],[-78.38694444444445,36.07083333333334],[-78.51638888888888,36.05583333333333],[-78.53694444444444,36.05333333333333],[-78.65805555555556,36.03861111111111],[-78.68694444444445,36.035],[-78.80583333333333,36.020833333333336],[-78.83472222222221,36.01722222222222],[-78.95611111111111,36.0025],[-78.985,35.99916666666667],[-79.1363888888889,35.980555555555554],[-79.25444444444445,35.965833333333336],[-79.28472222222221,35.96194444444445],[-79.40222222222222,35.947222222222216],[-79.43555555555555,35.94305555555555],[-79.55527777777777,35.92777777777778],[-79.58805555555556,35.92361111111111],[-79.70611111111111,35.90833333333333],[-79.7388888888889,35.90416666666667],[-79.85916666666667,35.88861111111111],[-79.89083333333333,35.88444444444444],[-80.01361111111112,35.86833333333333],[-80.04055555555556,35.86472222222223],[-80.16527777777779,35.84805555555556],[-80.21138888888889,35.841944444444444],[-80.33416666666666,35.825833333333335],[-80.36472222222221,35.82166666666667],[-80.48944444444444,35.81666666666667],[-80.51861111111111,35.81861111111112],[-80.64250000000001,35.82944444444445],[-80.67277777777778,35.83222222222223],[-80.79555555555555,35.84305555555556],[-80.82333333333332,35.844166666666666],[-80.94638888888889,35.83361111111111],[-80.97611111111111,35.830000000000005],[-81.09527777777777,35.81722222222223],[-81.125,35.81361111111111],[-81.24194444444444,35.8],[-81.27555555555556,35.79611111111111],[-81.3888888888889,35.78361111111111],[-81.415,35.780833333333334],[-81.53444444444445,35.76833333333333],[-81.565,35.76638888888889],[-81.6825,35.751666666666665],[-81.7125,35.74777777777778],[-81.82888888888888,35.730000000000004],[-81.97638888888889,35.7075],[-82.12666666666667,35.68583333333333],[-82.2775,35.69138888888889],[-82.42944444444444,35.70444444444445],[-82.58416666666666,35.7175],[-82.7363888888889,35.730000000000004],[-82.8888888888889,35.7425],[-83.04194444444444,35.755],[-83.19805555555556,35.76722222222222],[-83.35805555555555,35.77972222222222],[-83.51083333333334,35.79138888888889],[-83.66472222222222,35.80277777777778],[-83.72583333333334,35.806666666666665],[-83.81944444444444,35.814166666666665],[-83.88,35.81805555555556],[-83.9713888888889,35.82555555555556],[-84.03361111111111,35.82944444444445],[-84.125,35.846111111111114],[-84.15944444444445,35.85444444444445],[-84.3086111111111,35.89],[-84.42083333333333,35.91722222222222],[-84.45611111111111,35.92583333333333],[-84.56916666666666,35.95388888888889],[-84.60666666666665,35.96333333333334],[-84.7175,35.990833333333335],[-84.755,36],[-84.86388888888888,36.026944444444446],[-84.92083333333333,36.04138888888889],[-85.00972222222222,36.06333333333333],[-85.06944444444444,36.07694444444445],[-85.12805555555555,36.086666666666666],[-85.2213888888889,36.10333333333333],[-85.34166666666667,36.128055555555555],[-85.37166666666666,36.13472222222222],[-85.49194444444444,36.16222222222222],[-85.52166666666666,36.16916666666666],[-85.64277777777778,36.197222222222216],[-85.67222222222223,36.20388888888889],[-85.79388888888889,36.23111111111111],[-85.82638888888889,36.23833333333334],[-85.92055555555557,36.259166666666665],[-85.97972222222222,36.2725],[-86.13333333333334,36.3075],[-86.2875,36.33305555555556],[-86.4413888888889,36.35805555555556],[-86.59805555555555,36.37166666666667],[-86.7525,36.38],[-86.90111111111112,36.38388888888889],[-87.05611111111111,36.386944444444445],[-87.21416666666667,36.38972222222222],[-87.3761111111111,36.3925],[-87.53555555555555,36.39527777777778],[-87.69527777777778,36.397777777777776],[-87.85833333333333,36.39972222222222],[-88.01861111111111,36.401666666666664],[-88.18388888888889,36.40361111111111],[-88.34805555555555,36.405277777777776],[-88.50777777777778,36.406666666666666],[-88.67194444444445,36.407777777777774],[-88.83333333333333,36.40861111111111],[-88.99583333333334,36.409166666666664],[-89.02694444444444,36.409444444444446],[-89.1563888888889,36.409444444444446],[-89.20555555555556,36.409444444444446],[-89.33611111111111,36.40972222222222],[-89.365,36.40972222222222],[-89.49416666666667,36.41],[-89.52777777777777,36.40972222222222],[-89.65361111111112,36.40972222222222],[-89.6875,36.409444444444446],[-89.81527777777778,36.409166666666664],[-89.84583333333333,36.40888888888889],[-89.97722222222222,36.40833333333333],[-90.00888888888889,36.40833333333333],[-90.13611111111112,36.407777777777774],[-90.1675,36.4075],[-90.2975,36.42305555555555],[-90.32916666666667,36.426944444444445],[-90.45527777777778,36.44305555555555],[-90.48833333333333,36.447222222222216],[-90.61527777777778,36.46666666666667],[-90.64555555555556,36.472500000000004],[-90.77166666666666,36.496944444444445],[-90.80305555555556,36.503055555555555],[-90.93083333333334,36.52833333333333],[-90.9625,36.53444444444444],[-91.08722222222222,36.55888888888889],[-91.11972222222222,36.56527777777777],[-91.2461111111111,36.589444444444446],[-91.26805555555555,36.59388888888889],[-91.40222222222222,36.620555555555555],[-91.54972222222221,36.64972222222222],[-91.5825,36.65611111111111],[-91.70583333333333,36.67916666666667],[-91.73916666666666,36.68555555555555],[-91.86083333333333,36.70805555555556],[-91.89194444444445,36.71388888888889],[-92.01416666666667,36.736666666666665],[-92.0475,36.74305555555556],[-92.16777777777779,36.764722222222225],[-92.19972222222222,36.76972222222222],[-92.32138888888889,36.79],[-92.35277777777777,36.794999999999995],[-92.47555555555556,36.81444444444444],[-92.50666666666666,36.81944444444445],[-92.62666666666667,36.839444444444446],[-92.65694444444445,36.844722222222224],[-92.77972222222222,36.85111111111111],[-92.81305555555555,36.84805555555556],[-92.93583333333333,36.838055555555556],[-92.96916666666667,36.835],[-93.0925,36.82361111111111],[-93.12138888888889,36.818333333333335],[-93.24305555555556,36.79361111111111],[-93.28194444444445,36.78972222222222],[-93.40194444444445,36.776944444444446],[-93.43916666666667,36.77388888888889],[-93.56138888888889,36.7625],[-93.59694444444445,36.759166666666665],[-93.71972222222223,36.74722222222222],[-93.75472222222223,36.743611111111115],[-93.88138888888888,36.73083333333334],[-93.91416666666667,36.7275],[-94.03694444444444,36.71527777777778],[-94.07027777777778,36.71194444444445],[-94.19416666666667,36.69916666666666],[-94.35111111111111,36.683055555555555],[-94.38416666666667,36.67944444444444],[-94.50972222222222,36.66638888888889],[-94.54083333333332,36.663333333333334],[-94.66472222222222,36.65],[-94.69777777777779,36.64666666666667],[-94.81944444444444,36.63333333333333],[-95.005,36.61333333333334],[-95.12833333333333,36.599722222222226],[-95.16083333333334,36.596111111111114],[-95.31694444444445,36.578611111111115],[-95.47111111111111,36.58444444444444],[-95.62555555555555,36.58833333333334],[-95.78305555555555,36.58972222222222],[-95.9375,36.59138888888889],[-96.0925,36.594166666666666],[-96.24777777777778,36.598333333333336],[-96.40611111111112,36.60194444444445],[-96.56305555555555,36.60527777777778],[-96.72166666666666,36.60861111111111],[-96.88027777777778,36.611666666666665],[-97.04027777777777,36.614444444444445],[-97.19972222222222,36.617222222222225],[-97.53111111111112,36.621944444444445],[-97.69361111111111,36.62388888888889],[-97.84583333333333,36.62555555555556],[-98.00555555555556,36.62722222222222],[-98.32777777777777,36.63861111111111],[-98.48694444444445,36.657777777777774],[-98.57972222222222,36.66916666666666],[-98.64166666666668,36.676944444444445],[-98.7375,36.69],[-98.8,36.698055555555555],[-98.89305555555556,36.71083333333333],[-98.95722222222223,36.718611111111116],[-99.05083333333333,36.72972222222222],[-99.11555555555555,36.73166666666667],[-99.21027777777778,36.737500000000004],[-99.27472222222222,36.740833333333335],[-99.37027777777777,36.74638888888889],[-99.43194444444445,36.750277777777775],[-99.53222222222222,36.756388888888885],[-99.5911111111111,36.75833333333333],[-99.6888888888889,36.76166666666666],[-99.75111111111111,36.76361111111111],[-99.85083333333333,36.76694444444444],[-99.91055555555556,36.76888888888889],[-100.00472222222223,36.77194444444444],[-100.07277777777777,36.77388888888889],[-100.16527777777779,36.776666666666664],[-100.22666666666667,36.77861111111111],[-100.32388888888889,36.78138888888889],[-100.3888888888889,36.783055555555556],[-100.48861111111111,36.78583333333333],[-100.54888888888888,36.7875],[-100.64805555555556,36.790277777777774],[-100.71000000000001,36.791666666666664],[-100.80916666666667,36.79416666666666],[-100.87055555555555,36.79555555555555],[-100.96861111111112,36.79805555555556],[-101.0286111111111,36.79944444444444],[-101.12472222222222,36.800555555555555],[-101.1888888888889,36.80277777777778],[-101.28388888888888,36.80416666666667],[-101.34722222222221,36.80611111111111],[-101.44361111111111,36.80694444444444],[-101.50583333333333,36.80916666666666],[-101.60472222222222,36.81111111111111],[-101.6675,36.81194444444444],[-101.76527777777778,36.81361111111111],[-101.82583333333334,36.81472222222222],[-101.92500000000001,36.816111111111105],[-101.98777777777778,36.816944444444445],[-102.08416666666666,36.81861111111112],[-102.14472222222223,36.81916666666667],[-102.24527777777777,36.82055555555556],[-102.30722222222222,36.82138888888889],[-102.40361111111112,36.82222222222222],[-102.46472222222222,36.823055555555555],[-102.54333333333334,36.823888888888895],[-102.62388888888889,36.824444444444445],[-102.70166666666667,36.82527777777778],[-102.78361111111111,36.825833333333335],[-102.85944444444443,36.82666666666667],[-103.01944444444445,36.8275],[-103.17777777777778,36.82833333333333],[-103.33555555555554,36.82888888888889],[-103.49472222222222,36.82944444444445],[-103.65583333333333,36.82944444444445],[-103.81805555555555,36.82944444444445],[-103.97888888888889,36.82916666666667],[-104.14250000000001,36.828611111111115],[-104.30638888888889,36.82805555555556],[-104.4675,36.82694444444445],[-104.63083333333333,36.825833333333335],[-104.7925,36.824444444444445],[-104.96333333333334,36.82277777777778],[-105.12638888888888,36.821111111111115],[-105.28694444444444,36.81916666666667],[-105.45055555555555,36.81666666666667],[-105.62333333333332,36.814166666666665],[-105.7911111111111,36.811388888888885],[-105.96000000000001,36.808055555555555],[-106.12722222222222,36.82083333333334],[-106.26888888888888,36.85055555555556],[-106.42777777777778,36.88361111111111],[-106.585,36.916666666666664],[-106.73944444444444,36.9475],[-106.74138888888889,36.94944444444444],[-106.89472222222223,36.980000000000004],[-107.0525,37.01027777777778],[-107.20666666666666,37.044999999999995],[-107.36222222222221,37.075],[-107.51861111111111,37.10722222222223],[-107.67944444444444,37.14],[-107.83833333333332,37.16972222222222],[-107.99722222222222,37.202222222222225],[-108.15472222222223,37.23305555555556],[-108.31611111111111,37.26277777777778],[-108.47555555555556,37.29333333333333],[-108.6286111111111,37.32277777777778],[-108.78972222222222,37.352222222222224],[-108.94500000000001,37.38194444444444],[-109.09805555555555,37.41],[-109.25861111111111,37.439166666666665],[-109.41583333333334,37.467777777777776],[-109.59444444444443,37.499722222222225],[-109.72638888888889,37.52305555555555],[-109.90833333333335,37.555277777777775],[-110.06444444444445,37.5825],[-110.21555555555555,37.60861111111111],[-110.37166666666666,37.635555555555555],[-110.53555555555555,37.663333333333334],[-110.68722222222223,37.689166666666665],[-110.84944444444444,37.71638888888889],[-111.0075,37.7425],[-111.155,37.76694444444444],[-111.31388888888888,37.79277777777778],[-111.47833333333334,37.81944444444445],[-111.62944444444443,37.843611111111116],[-111.78555555555555,37.86833333333333],[-111.95027777777779,37.894444444444446],[-112.10638888888889,37.91888888888889],[-112.2575,37.94222222222222],[-112.41472222222222,37.96611111111111],[-112.57,37.98972222222222],[-112.72777777777777,38.01361111111111],[-112.8863888888889,38.03722222222222],[-113.045,38.06055555555555],[-113.20138888888889,38.083333333333336],[-113.51944444444445,38.12916666666667],[-113.68027777777779,38.151944444444446],[-113.83944444444444,38.174166666666665],[-113.9975,38.19611111111111],[-114.15527777777778,38.217777777777776],[-114.31583333333333,38.23972222222222],[-114.47500000000001,38.239444444444445],[-114.63555555555556,38.23583333333333],[-114.79527777777777,38.2275],[-114.82166666666666,38.22694444444445],[-114.95527777777778,38.21666666666667],[-114.98277777777778,38.21472222222223],[-115.11861111111111,38.205555555555556],[-115.1438888888889,38.20388888888889],[-115.27916666666667,38.19472222222222],[-115.30472222222222,38.19305555555555],[-115.46666666666667,38.1825],[-115.46805555555555,38.183055555555555],[-115.62805555555555,38.171388888888885],[-115.62972222222221,38.1725],[-115.79277777777777,38.15972222222222],[-115.79305555555555,38.160555555555554],[-115.92222222222223,38.150555555555556],[-115.9888888888889,38.145833333333336],[-116.08333333333333,38.138888888888886],[-116.15083333333334,38.13388888888889],[-116.24777777777778,38.12694444444445],[-116.31277777777777,38.121944444444445],[-116.40861111111111,38.11472222222223],[-116.44444444444444,38.11194444444445],[-116.57249999999999,38.102222222222224],[-116.63722222222223,38.09722222222222],[-116.73388888888888,38.089444444444446],[-116.76916666666666,38.086666666666666],[-116.89750000000001,38.07666666666667],[-116.9325,38.07361111111111],[-117.06166666666667,38.06333333333333],[-117.09694444444445,38.06055555555555],[-117.23083333333334,38.04944444444444],[-117.26611111111112,38.046388888888885],[-117.39722222222223,38.03527777777778],[-117.42944444444444,38.0325],[-117.56027777777777,38.021388888888886],[-117.59222222222222,38.01861111111111],[-117.72083333333333,38.0075],[-117.75583333333333,38.00472222222222],[-117.88166666666666,37.99194444444444],[-117.91888888888889,37.98777777777778],[-118.04277777777777,37.974444444444444],[-118.07944444444443,37.970555555555556],[-118.23805555555556,37.953611111111115],[-118.36416666666666,37.94],[-118.39750000000001,37.936388888888885],[-118.52361111111111,37.9225],[-118.55722222222222,37.91888888888889],[-118.71777777777778,37.90083333333333],[-118.88055555555555,37.8825],[-119.05194444444444,37.863055555555555],[-119.21305555555556,37.844166666666666],[-119.37722222222222,37.825],[-119.53972222222222,37.80583333333333],[-119.70416666666667,37.78611111111111],[-119.86611111111111,37.76611111111111],[-120.03138888888888,37.74583333333334],[-120.19305555555556,37.725833333333334],[-120.35472222222222,37.70527777777778],[-120.45,37.7],[-120.6,37.68333333333333],[-120.78861111111111,37.65416666666667],[-120.88333333333334,37.65],[-120.9213888888889,37.63805555555555],[-121.01666666666667,37.63333333333333],[-121.04833333333333,37.62166666666667],[-121.13333333333334,37.61666666666667],[-121.16527777777779,37.60583333333334],[-121.25,37.6],[-121.25861111111111,37.593333333333334],[-121.35,37.583333333333336],[-121.37249999999999,37.580000000000005],[-121.46666666666667,37.56666666666667],[-121.48444444444445,37.56722222222223],[-121.56666666666666,37.55],[-121.58555555555554,37.55555555555555],[-121.66666666666667,37.55],[-121.67416666666666,37.54833333333333],[-121.75,37.55],[-121.76333333333334,37.551111111111105],[-121.81666666666666,37.516666666666666],[-121.81777777777778,37.51305555555555],[-121.81222222222222,37.44833333333333],[-121.88333333333334,37.43333333333333],[-121.89277777777778,37.43333333333333],[-121.96666666666667,37.45],[-122.03333333333333,37.483333333333334],[-122.10944444444443,37.509166666666665],[-122.16666666666667,37.53333333333333],[-122.17527777777778,37.53666666666666],[-122.21666666666667,37.55],[-122.23111111111112,37.56055555555555],[-122.26666666666667,37.583333333333336],[-122.28055555555555,37.581388888888895],[-122.31666666666666,37.6],[-122.32666666666667,37.600833333333334],[-122.36833333333333,37.61805555555556]]}
}
