{
  "id": 2032098909,
  "type": "Feature",
  "properties": {
    "geom:area": 0,
    "geom:bbox": "-122.363570,37.434010,-121.247920,37.615850",
    "geom:latitude": 37.53595500906871,
    "geom:longitude": -121.80966031210116,
    "src:alt_label": "swim-approach",
    "src:geom": "swim",
    "swim:elevations": [
      4726,
      4378,
      4269,
      4144,
      4075,
      3846,
      3608,
      3488,
      3353,
      3353,
      3320,
      3206,
      3176,
      3066,
      2915,
      2744,
      2705,
      2676,
      2506,
      2440,
      2429,
      2199,
      2156,
      1985,
      1840,
      1785,
      1577,
      1524,
      1460,
      1295,
      1090,
      976,
      714,
      662,
      487,
      454,
      400,
      331,
      203,
      154,
      294
    ],
    "swim:geom": "approach",
    "swim:timestamps": [
      1785881911,
      1785881956,
      1785881981,
      1785882022,
      1785882037,
      1785882083,
      1785882113,
      1785882125,
      1785882170,
      1785882178,
      1785882197,
      1785882212,
      1785882215,
      1785882231,
      1785882266,
      1785882296,
      1785882305,
      1785882313,
      1785882342,
      1785882356,
      1785882361,
      1785882404,
      1785882440,
      1785882472,
      1785882503,
      1785882535,
      1785882565,
      1785882594,
      1785882615,
      1785882648,
      1785882682,
      1785882695,
      1785882736,
      1785882748,
      1785882778,
      1785882784,
      1785882796,
      1785882811,
      1785882841,
      1785882853,
      1785882896
    ],
    "wof:geomhash": "590c8bc1444c20587f2411a5215108be",
    "wof:id": 2032098909,
    "wof:repo": "sfomuseum-data-flights-2026-08"
  },
  "bbox": [
    -122.36357,
    37.43401,
    -121.24792,
    37.61585
  ],
  "geometry": {"type":"LineString","coordinates":[[-121.24792,37.59475],[-121.34124,37.5835],[-121.39038,37.57813],[-121.46452,37.56966],[-121.49129,37.56649],[-121.56289,37.55807],[-121.60869,37.55268],[-121.62683,37.55449],[-121.68458,37.58332],[-121.69439,37.58853],[-121.71875,37.60053],[-121.74062,37.60334],[-121.745,37.60291],[-121.7665,37.59437],[-121.77784,37.55738],[-121.76526,37.52489],[-121.76153,37.51518],[-121.75898,37.50673],[-121.76956,37.47553],[-121.77723,37.46161],[-121.78048,37.45655],[-121.83553,37.43898],[-121.88461,37.43438],[-121.93039,37.43401],[-121.96833,37.44963],[-122.00732,37.46587],[-122.04421,37.48127],[-122.07871,37.49599],[-122.10381,37.50669],[-122.1399,37.52206],[-122.17402,37.53638],[-122.1862,37.54156],[-122.22547,37.55811],[-122.23714,37.56308],[-122.26769,37.57586],[-122.27351,37.57833],[-122.28447,37.583],[-122.29717,37.58842],[-122.3214,37.59858],[-122.33087,37.60254],[-122.36357,37.61585]]}
}
