{
  "id": 2048092215,
  "type": "Feature",
  "properties": {
    "geom:area": 0,
    "geom:bbox": "-122.671680,37.390600,-122.112970,38.497300",
    "geom:latitude": 37.80417483228578,
    "geom:longitude": -122.45192004532308,
    "src:alt_label": "swim-approach",
    "src:geom": "swim",
    "swim:elevations": [
      7367,
      7068,
      6723,
      6665,
      6405,
      6015,
      5655,
      5388,
      5123,
      4727,
      4364,
      4271,
      4143,
      3914,
      3760,
      3565,
      3353,
      3353,
      3353,
      3353,
      3333,
      3081,
      2685,
      2447,
      2418,
      2251,
      2177,
      2134,
      2134,
      2075,
      1919,
      1841,
      1676,
      1618,
      1426,
      1061,
      1014,
      775,
      695,
      546,
      427,
      316,
      120
    ],
    "swim:geom": "approach",
    "swim:timestamps": [
      1787315205,
      1787315233,
      1787315273,
      1787315281,
      1787315311,
      1787315352,
      1787315392,
      1787315425,
      1787315457,
      1787315503,
      1787315546,
      1787315564,
      1787315594,
      1787315628,
      1787315650,
      1787315684,
      1787315731,
      1787315765,
      1787315791,
      1787315829,
      1787315852,
      1787315883,
      1787315931,
      1787315968,
      1787315972,
      1787316014,
      1787316032,
      1787316068,
      1787316101,
      1787316135,
      1787316172,
      1787316191,
      1787316231,
      1787316241,
      1787316276,
      1787316325,
      1787316332,
      1787316369,
      1787316396,
      1787316425,
      1787316459,
      1787316481,
      1787316533
    ],
    "wof:geomhash": "e9fdc2eb62bb7e98dc57aca6ddc53b33",
    "wof:id": 2048092215,
    "wof:repo": "sfomuseum-data-flights-2026-08"
  },
  "bbox": [
    -122.67168,
    37.3906,
    -122.11297,
    38.4973
  ],
  "geometry": {"type":"LineString","coordinates":[[-122.65167,38.4973],[-122.65332,38.45139],[-122.65575,38.38333],[-122.65631,38.36934],[-122.65806,38.32008],[-122.66062,38.25],[-122.66299,38.18377],[-122.66489,38.13064],[-122.66669,38.07957],[-122.66932,38.00618],[-122.67168,37.93932],[-122.67074,37.91268],[-122.64547,37.87291],[-122.60347,37.83337],[-122.57595,37.80791],[-122.53597,37.77062],[-122.48189,37.71949],[-122.4485,37.68814],[-122.42546,37.66614],[-122.39186,37.63443],[-122.37179,37.61541],[-122.34993,37.58771],[-122.32568,37.54176],[-122.30607,37.50622],[-122.30393,37.50263],[-122.28115,37.465],[-122.27199,37.45],[-122.2528,37.4217],[-122.21565,37.40923],[-122.17657,37.39933],[-122.13363,37.3906],[-122.11297,37.40004],[-122.11343,37.43674],[-122.11854,37.44564],[-122.13656,37.47674],[-122.16076,37.51955],[-122.16488,37.52477],[-122.2002,37.54595],[-122.22676,37.55608],[-122.25126,37.56657],[-122.27928,37.57855],[-122.29753,37.58612],[-122.33838,37.60332]]}
}
