{
  "id": 2032058057,
  "type": "Feature",
  "properties": {
    "date:cessation_lower": "2026-08-01",
    "date:cessation_upper": "2026-08-01",
    "date:inception_lower": "1970-01-01",
    "date:inception_upper": "1970-01-01",
    "edtf:cessation": "2026-08-01T12:05:50-07:00",
    "edtf:inception": "1970-01-01T00:00:00Z",
    "flysfo:actual_timestamp": -1,
    "flysfo:airline": "MX",
    "flysfo:date": "2026-08-01",
    "flysfo:estimated_timestamp": 1785636720,
    "flysfo:event": "A",
    "flysfo:flight_number": "MX2312",
    "flysfo:gate": "D10",
    "flysfo:journey": "PVU-SFO",
    "flysfo:scheduled_timestamp": 1785636840,
    "flysfo:timestamp": 1785636840,
    "geom:area": 0,
    "geom:bbox": "-122.370943,37.617990,-111.722380,40.219724",
    "geom:latitude": 38.918857,
    "geom:longitude": -117.0466615,
    "iata:airline": "MX",
    "icao:aircraft": "BCS3",
    "icao:airline": "MXY",
    "lbl:latitude": 37.617908,
    "lbl:longitude": -122.381084,
    "sfomuseum:aircraft_id": 1813375783,
    "sfomuseum:airline_id": 1763552131,
    "sfomuseum:arrival_id": 102527513,
    "sfomuseum:departure_id": 102532277,
    "sfomuseum:flight_id": "20260801-A-MXY-2312",
    "sfomuseum:flight_number": [
      "MXY2312",
      "MX2312"
    ],
    "sfomuseum:placetype": "flight",
    "src:geom": "flysfo",
    "src:geom_alt": [
      "swim-path",
      "swim-approach"
    ],
    "wof:belongsto": [
      1947304067,
      102527513,
      1947304595,
      102191575,
      85633793,
      102087579,
      85922583,
      554784711,
      85688637,
      1947304603,
      1947304591,
      102085387
    ],
    "wof:country": "US",
    "wof:created": 1785686788,
    "wof:geomhash": "d887ded7dd7ecdf1f3f44081817da1ef",
    "wof:hierarchy": [
      {
        "building_id": 1947304067,
        "campus_id": 102527513,
        "concourse_id": 1947304595,
        "continent_id": 102191575,
        "country_id": 85633793,
        "county_id": 102087579,
        "custom_id": 2032058057,
        "flight_id": 2032058057,
        "locality_id": 85922583,
        "postalcode_id": 554784711,
        "region_id": 85688637,
        "venue_id": 1947304603,
        "wing_id": 1947304591
      },
      {
        "building_id": 1947304067,
        "campus_id": 102527513,
        "concourse_id": 1947304595,
        "continent_id": 102191575,
        "country_id": 85633793,
        "county_id": 102085387,
        "custom_id": 2032058057,
        "flight_id": 2032058057,
        "region_id": 85688637,
        "venue_id": 1947304603,
        "wing_id": 1947304591
      }
    ],
    "wof:id": 2032058057,
    "wof:involves": [
      1813375783,
      102527513,
      102532277,
      1763552131,
      1947304603
    ],
    "wof:lastmodified": 1785687530,
    "wof:name": "MX2312 (PVU-SFO)",
    "wof:parent_id": 1947304603,
    "wof:placetype": "custom",
    "wof:placetype_alt": [
      "flight"
    ],
    "wof:repo": "sfomuseum-data-flights-2026-08",
    "wof:superseded_by": [],
    "wof:supersedes": []
  },
  "bbox": [
    -122.370943,
    37.61799,
    -111.72238,
    40.219724
  ],
  "geometry": {"coordinates":[[-111.72238,40.219724],[-122.370943,37.61799]],"type":"MultiPoint"}
}
