{
  "id": 2047875695,
  "type": "Feature",
  "properties": {
    "geom:area": 0,
    "geom:bbox": "-122.326944,37.483333,-88.000000,41.983333",
    "geom:latitude": 39.84294757119822,
    "geom:longitude": -105.25233619105248,
    "src:alt_label": "swim-path",
    "src:geom": "swim",
    "swim:altitudes": [
      "030",
      "039",
      "044",
      "054",
      "059",
      "079",
      "102",
      "109",
      "123",
      "145",
      "162",
      "177",
      "215",
      "227",
      "242",
      "260",
      "266",
      "275",
      "283",
      "292",
      "298",
      "307",
      "315",
      "320C",
      "320C",
      "320C",
      "320C",
      "320C",
      "320C",
      "320C",
      "320C",
      "320C",
      "320C",
      "320C",
      "320C",
      "320C",
      "320C",
      "320C",
      "320C",
      "320C",
      "320C",
      "320C",
      "320C",
      "320C",
      "320C",
      "320C",
      "320C",
      "320C",
      "320C",
      "320C",
      "320C",
      "320C",
      "320C",
      "320C",
      "320C",
      "320C",
      "320C",
      "320C",
      "320C",
      "320C",
      "320C",
      "320C",
      "320C",
      "320C",
      "320C",
      "320C",
      "320C",
      "320C",
      "320C",
      "320C",
      "320C",
      "320C",
      "320C",
      "320C",
      "320C",
      "320C",
      "320C",
      "320C",
      "320C",
      "320C",
      "320",
      "327",
      "336",
      "340C",
      "340C",
      "340C",
      "340C",
      "340C",
      "340C",
      "340C",
      "340C",
      "340C",
      "340C",
      "340C",
      "340C",
      "340C",
      "340C",
      "340C",
      "340C",
      "340C",
      "340C",
      "340C",
      "340C",
      "340C",
      "340C",
      "340C",
      "340C",
      "340C",
      "340C",
      "340C",
      "340C",
      "340C",
      "340C",
      "340C",
      "340C",
      "340C",
      "340C",
      "340C",
      "340C",
      "340C",
      "340C",
      "340C",
      "340C",
      "340C",
      "340C",
      "340C",
      "340C",
      "340C",
      "340C",
      "340C",
      "340C",
      "340C",
      "340C",
      "340C",
      "340C",
      "340C",
      "340C",
      "340C",
      "340C",
      "340C",
      "340C",
      "340C",
      "340C",
      "340C",
      "340C",
      "340C",
      "340C",
      "340C",
      "340C",
      "340C",
      "340C",
      "340C",
      "340C",
      "340C",
      "340C",
      "340C",
      "340C",
      "340C",
      "340C",
      "340C",
      "340C",
      "340C",
      "340C",
      "340C",
      "340C",
      "340C",
      "340C",
      "340C",
      "340C",
      "340C",
      "340C",
      "340C",
      "340C",
      "340C",
      "340C",
      "340C",
      "340C",
      "340C",
      "340C",
      "340C",
      "340C",
      "340C",
      "340C",
      "340C",
      "340C",
      "340C",
      "340C",
      "340C",
      "340C",
      "340C",
      "340C",
      "340C",
      "340C",
      "340C",
      "340C",
      "340C",
      "340C",
      "340C",
      "340C",
      "340C",
      "340C",
      "340C",
      "340C",
      "340C",
      "340C",
      "340C",
      "340C",
      "340C",
      "340C",
      "340C",
      "340C",
      "340C",
      "340C",
      "340C",
      "340C",
      "340C",
      "340C",
      "340C",
      "340C",
      "340C",
      "340C",
      "340C",
      "340C",
      "340C",
      "340C",
      "340C",
      "340C",
      "340C",
      "340C",
      "340C",
      "340C",
      "340C",
      "340C",
      "340C",
      "340C",
      "340C",
      "340C",
      "340C",
      "340C",
      "340C",
      "340C",
      "340C",
      "340C",
      "340C",
      "340C",
      "340C",
      "340C",
      "340C",
      "340C",
      "340C",
      "340C",
      "340C",
      "340C",
      "340C",
      "340C",
      "340C",
      "340C",
      "340C",
      "340C",
      "340C",
      "340C",
      "340C",
      "340C",
      "340C",
      "340C",
      "340C",
      "340C",
      "340C",
      "340C",
      "340C",
      "340C",
      "340C",
      "340C",
      "340C",
      "340C",
      "340C",
      "340C",
      "340C",
      "340C",
      "340C",
      "340C",
      "340C",
      "340C",
      "340C",
      "340C",
      "340C",
      "340C",
      "340C",
      "340C",
      "340C",
      "340C",
      "340C",
      "340C",
      "340C",
      "340C",
      "340C",
      "340C",
      "340C",
      "340C",
      "340C",
      "340C",
      "340C",
      "340C",
      "340",
      "340",
      "335",
      "310",
      "294",
      "274",
      "253",
      "236",
      "232",
      "215",
      "211",
      "194",
      "190",
      "174",
      "169",
      "151",
      "140",
      "114",
      "108",
      "107",
      "102",
      "100",
      "098",
      "097",
      "092",
      "091",
      "087",
      "085",
      "079",
      "074",
      "066",
      "063",
      "055",
      "051",
      "040",
      "033",
      "025",
      "023",
      "018",
      "015",
      "009",
      "007"
    ],
    "swim:geom": "path",
    "swim:speeds": [
      180,
      229,
      245,
      259,
      263,
      264,
      284,
      346,
      388,
      388,
      398,
      411,
      418,
      435,
      435,
      445,
      441,
      445,
      442,
      438,
      441,
      431,
      431,
      424,
      425,
      422,
      423,
      420,
      415,
      418,
      415,
      415,
      414,
      413,
      412,
      412,
      411,
      411,
      411,
      411,
      413,
      411,
      416,
      415,
      418,
      420,
      420,
      421,
      421,
      422,
      422,
      423,
      422,
      423,
      422,
      421,
      421,
      420,
      420,
      419,
      418,
      417,
      416,
      415,
      414,
      413,
      413,
      412,
      411,
      410,
      409,
      408,
      407,
      406,
      406,
      405,
      404,
      404,
      403,
      403,
      403,
      407,
      412,
      416,
      418,
      417,
      415,
      412,
      411,
      412,
      414,
      419,
      421,
      423,
      425,
      427,
      428,
      429,
      429,
      428,
      427,
      426,
      426,
      425,
      425,
      425,
      425,
      426,
      426,
      426,
      428,
      429,
      428,
      429,
      430,
      429,
      431,
      430,
      431,
      431,
      431,
      431,
      430,
      430,
      430,
      428,
      427,
      427,
      426,
      425,
      425,
      425,
      425,
      425,
      427,
      425,
      427,
      426,
      427,
      427,
      427,
      429,
      427,
      432,
      428,
      433,
      428,
      435,
      429,
      436,
      429,
      436,
      429,
      436,
      429,
      435,
      432,
      434,
      434,
      433,
      434,
      431,
      434,
      430,
      434,
      428,
      433,
      427,
      432,
      427,
      430,
      426,
      426,
      427,
      426,
      428,
      428,
      429,
      428,
      431,
      432,
      433,
      433,
      434,
      434,
      435,
      434,
      436,
      435,
      436,
      435,
      436,
      435,
      435,
      435,
      434,
      435,
      434,
      435,
      434,
      435,
      435,
      435,
      437,
      436,
      438,
      437,
      440,
      439,
      442,
      440,
      443,
      446,
      444,
      446,
      445,
      446,
      446,
      445,
      445,
      443,
      443,
      441,
      440,
      439,
      438,
      437,
      437,
      436,
      436,
      436,
      436,
      436,
      435,
      435,
      435,
      435,
      435,
      434,
      434,
      434,
      434,
      434,
      433,
      433,
      432,
      431,
      430,
      430,
      429,
      430,
      431,
      432,
      432,
      433,
      433,
      434,
      435,
      435,
      435,
      435,
      435,
      436,
      435,
      435,
      433,
      432,
      430,
      429,
      429,
      428,
      428,
      428,
      426,
      428,
      429,
      427,
      430,
      431,
      431,
      431,
      431,
      431,
      431,
      431,
      431,
      431,
      422,
      416,
      417,
      417,
      417,
      419,
      421,
      423,
      442,
      446,
      447,
      448,
      448,
      447,
      447,
      447,
      447,
      447,
      447,
      448,
      448,
      438,
      426,
      415,
      419,
      407,
      408,
      398,
      402,
      392,
      396,
      350,
      316,
      306,
      266,
      263,
      253,
      256,
      253,
      252,
      243,
      248,
      242,
      245,
      243,
      244,
      239,
      242,
      231,
      225,
      187,
      190,
      176,
      174,
      164,
      164,
      160,
      152
    ],
    "swim:timestamps": [
      1786103157,
      1786103209,
      1786103223,
      1786103269,
      1786103283,
      1786103329,
      1786103389,
      1786103449,
      1786103510,
      1786103570,
      1786103630,
      1786103690,
      1786103810,
      1786103870,
      1786103930,
      1786103990,
      1786104023,
      1786104050,
      1786104083,
      1786104110,
      1786104143,
      1786104171,
      1786104203,
      1786104231,
      1786104263,
      1786104291,
      1786104323,
      1786104351,
      1786104383,
      1786104411,
      1786104443,
      1786104471,
      1786104503,
      1786104531,
      1786104563,
      1786104591,
      1786104623,
      1786104684,
      1786104711,
      1786104744,
      1786104772,
      1786104804,
      1786104832,
      1786104864,
      1786104892,
      1786104924,
      1786104952,
      1786104984,
      1786105012,
      1786105044,
      1786105072,
      1786105104,
      1786105132,
      1786105164,
      1786105192,
      1786105224,
      1786105252,
      1786105284,
      1786105312,
      1786105344,
      1786105373,
      1786105404,
      1786105433,
      1786105465,
      1786105493,
      1786105525,
      1786105553,
      1786105585,
      1786105613,
      1786105645,
      1786105673,
      1786105705,
      1786105733,
      1786105765,
      1786105793,
      1786105825,
      1786105853,
      1786105885,
      1786105945,
      1786106005,
      1786106065,
      1786106125,
      1786106186,
      1786106246,
      1786106306,
      1786106366,
      1786106426,
      1786106486,
      1786106546,
      1786106606,
      1786106666,
      1786106726,
      1786106786,
      1786106846,
      1786106907,
      1786106967,
      1786107027,
      1786107087,
      1786107139,
      1786107147,
      1786107199,
      1786107207,
      1786107267,
      1786107319,
      1786107327,
      1786107387,
      1786107447,
      1786107500,
      1786107507,
      1786107567,
      1786107620,
      1786107680,
      1786107688,
      1786107748,
      1786107800,
      1786107808,
      1786107860,
      1786107868,
      1786107920,
      1786107980,
      1786108040,
      1786108048,
      1786108100,
      1786108108,
      1786108168,
      1786108220,
      1786108280,
      1786108340,
      1786108401,
      1786108461,
      1786108521,
      1786108581,
      1786108641,
      1786108701,
      1786108725,
      1786108761,
      1786108785,
      1786108821,
      1786108845,
      1786108881,
      1786108905,
      1786108941,
      1786108965,
      1786109001,
      1786109025,
      1786109061,
      1786109085,
      1786109122,
      1786109145,
      1786109182,
      1786109205,
      1786109242,
      1786109265,
      1786109302,
      1786109325,
      1786109362,
      1786109385,
      1786109422,
      1786109445,
      1786109482,
      1786109505,
      1786109542,
      1786109566,
      1786109602,
      1786109626,
      1786109662,
      1786109686,
      1786109722,
      1786109746,
      1786109782,
      1786109806,
      1786109843,
      1786109866,
      1786109903,
      1786109926,
      1786109963,
      1786109986,
      1786110023,
      1786110046,
      1786110083,
      1786110106,
      1786110143,
      1786110166,
      1786110203,
      1786110226,
      1786110263,
      1786110287,
      1786110323,
      1786110347,
      1786110383,
      1786110407,
      1786110443,
      1786110467,
      1786110503,
      1786110527,
      1786110564,
      1786110587,
      1786110624,
      1786110647,
      1786110684,
      1786110707,
      1786110744,
      1786110767,
      1786110804,
      1786110827,
      1786110864,
      1786110887,
      1786110924,
      1786110947,
      1786110984,
      1786111008,
      1786111044,
      1786111068,
      1786111104,
      1786111128,
      1786111164,
      1786111188,
      1786111248,
      1786111285,
      1786111308,
      1786111345,
      1786111368,
      1786111405,
      1786111428,
      1786111465,
      1786111488,
      1786111525,
      1786111548,
      1786111585,
      1786111608,
      1786111645,
      1786111668,
      1786111705,
      1786111729,
      1786111765,
      1786111789,
      1786111825,
      1786111849,
      1786111885,
      1786111909,
      1786111945,
      1786111969,
      1786112005,
      1786112029,
      1786112066,
      1786112126,
      1786112209,
      1786112269,
      1786112329,
      1786112389,
      1786112450,
      1786112510,
      1786112570,
      1786112630,
      1786112690,
      1786112750,
      1786112810,
      1786112870,
      1786112930,
      1786112990,
      1786113050,
      1786113110,
      1786113170,
      1786113231,
      1786113291,
      1786113351,
      1786113411,
      1786113471,
      1786113591,
      1786113651,
      1786113711,
      1786113771,
      1786113831,
      1786113892,
      1786113952,
      1786114012,
      1786114073,
      1786114192,
      1786114253,
      1786114313,
      1786114372,
      1786114433,
      1786114493,
      1786114552,
      1786114612,
      1786114673,
      1786114733,
      1786114793,
      1786114913,
      1786114973,
      1786115034,
      1786115093,
      1786115153,
      1786115214,
      1786115273,
      1786115334,
      1786115394,
      1786115454,
      1786115514,
      1786115574,
      1786115634,
      1786115694,
      1786115755,
      1786115815,
      1786115875,
      1786115935,
      1786115995,
      1786116055,
      1786116115,
      1786116175,
      1786116212,
      1786116235,
      1786116272,
      1786116295,
      1786116332,
      1786116355,
      1786116393,
      1786116415,
      1786116475,
      1786116518,
      1786116596,
      1786116639,
      1786116656,
      1786116699,
      1786116716,
      1786116758,
      1786116776,
      1786116818,
      1786116836,
      1786116879,
      1786116896,
      1786116933,
      1786116956,
      1786116993,
      1786117016,
      1786117053,
      1786117076,
      1786117119,
      1786117136,
      1786117179,
      1786117196,
      1786117233,
      1786117257,
      1786117293,
      1786117317
    ],
    "wof:geomhash": "efdadf1632e7adf5a19bafc6c35beba6",
    "wof:id": 2047875695,
    "wof:repo": "sfomuseum-data-flights-2026-08"
  },
  "bbox": [
    -122.32694444444444,
    37.483333333333334,
    -88,
    41.983333333333334
  ],
  "geometry": {"type":"LineString","coordinates":[[-88,41.983333333333334],[-88.05944444444444,41.98222222222223],[-88.08333333333333,41.983333333333334],[-88.15305555555557,41.974722222222226],[-88.18333333333334,41.96666666666667],[-88.25,41.965833333333336],[-88.35444444444444,41.95638888888889],[-88.47361111111111,41.94499999999999],[-88.61416666666666,41.93194444444444],[-88.75666666666666,41.918055555555554],[-88.8863888888889,41.91],[-89.03555555555555,41.905833333333334],[-89.34472222222222,41.88722222222222],[-89.50361111111111,41.87138888888889],[-89.66416666666667,41.85527777777778],[-89.86027777777777,41.83555555555556],[-89.93277777777779,41.82611111111112],[-90.01833333333333,41.81944444444445],[-90.08555555555554,41.81027777777778],[-90.17777777777778,41.802499999999995],[-90.245,41.794444444444444],[-90.31666666666666,41.78777777777778],[-90.40194444444445,41.776944444444446],[-90.46888888888888,41.771388888888886],[-90.55611111111111,41.76],[-90.6463888888889,41.75194444444445],[-90.71055555555556,41.74444444444445],[-90.80222222222221,41.73444444444444],[-90.86194444444443,41.72694444444445],[-90.95305555555557,41.7175],[-91.01472222222222,41.71],[-91.10666666666665,41.7],[-91.18694444444445,41.69083333333333],[-91.25555555555556,41.683055555555555],[-91.31722222222221,41.675],[-91.40861111111111,41.665277777777774],[-91.46722222222222,41.657222222222224],[-91.61805555555554,41.63972222222222],[-91.70833333333334,41.62972222222222],[-91.7863888888889,41.62027777777778],[-91.86194444444443,41.611111111111114],[-91.93777777777778,41.60138888888889],[-92.01638888888888,41.592222222222226],[-92.09888888888888,41.58222222222223],[-92.17027777777778,41.573055555555555],[-92.25222222222222,41.56305555555555],[-92.32249999999999,41.55416666666667],[-92.40722222222223,41.54361111111111],[-92.47916666666667,41.53444444444444],[-92.56166666666667,41.52388888888889],[-92.63333333333334,41.514722222222225],[-92.70777777777778,41.505],[-92.76777777777778,41.49722222222222],[-92.86055555555555,41.48527777777778],[-92.92194444444445,41.477222222222224],[-93.01472222222222,41.465],[-93.0736111111111,41.45722222222223],[-93.16583333333334,41.44499999999999],[-93.22583333333334,41.43694444444444],[-93.31722222222221,41.42472222222222],[-93.37555555555555,41.416666666666664],[-93.46555555555555,41.404444444444444],[-93.525,41.39666666666667],[-93.61694444444444,41.38444444444444],[-93.67666666666668,41.376666666666665],[-93.76611111111112,41.36472222222223],[-93.825,41.35666666666667],[-93.91472222222222,41.34444444444445],[-93.97111111111111,41.33694444444445],[-94.06138888888889,41.324444444444445],[-94.12083333333332,41.31638888888889],[-94.20805555555556,41.30444444444444],[-94.26666666666667,41.29611111111111],[-94.3475,41.285],[-94.41166666666668,41.27583333333333],[-94.49416666666667,41.26444444444444],[-94.55722222222222,41.25555555555555],[-94.64055555555557,41.243611111111115],[-94.7863888888889,41.22277777777778],[-94.93194444444445,41.20166666666667],[-95.0786111111111,41.180277777777775],[-95.22361111111111,41.159166666666664],[-95.37416666666665,41.13666666666666],[-95.52722222222222,41.11361111111111],[-95.67888888888889,41.090833333333336],[-95.83027777777778,41.0675],[-95.98027777777779,41.044444444444444],[-96.12777777777777,41.021388888888886],[-96.2761111111111,40.998333333333335],[-96.42555555555556,40.974722222222226],[-96.57722222222222,40.95027777777778],[-96.72722222222222,40.92666666666666],[-96.88222222222221,40.91027777777778],[-97.0363888888889,40.895833333333336],[-97.19305555555556,40.88055555555555],[-97.35027777777778,40.86527777777778],[-97.50472222222223,40.849722222222226],[-97.6613888888889,40.83388888888889],[-97.81027777777777,40.81888888888889],[-97.81416666666667,40.818333333333335],[-97.96555555555555,40.802499999999995],[-97.96916666666667,40.80222222222222],[-98.12333333333332,40.78611111111111],[-98.27194444444444,40.77027777777778],[-98.27638888888889,40.76972222222222],[-98.43,40.753055555555555],[-98.58416666666666,40.736111111111114],[-98.735,40.719722222222224],[-98.73972222222223,40.71888888888889],[-98.89250000000001,40.70194444444445],[-99.04472222222222,40.68472222222222],[-99.19888888888889,40.66694444444444],[-99.205,40.66611111111111],[-99.36027777777777,40.64805555555556],[-99.51027777777777,40.63055555555555],[-99.51527777777778,40.63],[-99.66666666666667,40.61194444444445],[-99.67194444444445,40.61138888888889],[-99.82277777777777,40.59305555555556],[-99.97638888888889,40.574444444444445],[-100.13361111111112,40.555],[-100.135,40.55472222222222],[-100.28777777777778,40.53583333333333],[-100.30916666666667,40.533055555555556],[-100.44972222222222,40.515277777777776],[-100.59944444444444,40.49611111111111],[-100.72111111111111,40.48027777777778],[-100.87722222222222,40.46],[-101.02916666666667,40.44361111111111],[-101.18444444444445,40.42972222222222],[-101.33805555555556,40.415],[-101.4925,40.39944444444444],[-101.64472222222223,40.38444444444444],[-101.79805555555555,40.36888888888889],[-101.8561111111111,40.36388888888889],[-101.95222222222222,40.35333333333333],[-102.01222222222222,40.346111111111114],[-102.10499999999999,40.337500000000006],[-102.16555555555556,40.32972222222222],[-102.26027777777777,40.321111111111115],[-102.32,40.31361111111111],[-102.41611111111112,40.30472222222222],[-102.47472222222223,40.29833333333333],[-102.57166666666666,40.28805555555555],[-102.6325,40.28055555555555],[-102.75083333333333,40.26833333333333],[-102.78805555555556,40.26416666666667],[-102.90527777777778,40.25138888888889],[-102.94416666666667,40.24777777777778],[-103.06194444444444,40.23388888888889],[-103.09972222222221,40.22944444444445],[-103.21944444444445,40.21611111111111],[-103.255,40.213055555555556],[-103.37555555555555,40.198055555555555],[-103.4113888888889,40.19361111111111],[-103.53055555555555,40.18],[-103.56916666666666,40.175],[-103.68555555555555,40.161944444444444],[-103.72694444444444,40.155833333333334],[-103.83888888888889,40.14361111111111],[-103.88222222222221,40.13777777777778],[-103.99333333333334,40.125],[-104.03722222222223,40.11888888888889],[-104.14416666666668,40.10666666666667],[-104.19055555555556,40.10055555555556],[-104.29722222222222,40.08777777777778],[-104.34222222222222,40.081944444444446],[-104.44777777777779,40.06916666666667],[-104.49555555555555,40.062777777777775],[-104.59861111111111,40.05027777777777],[-104.6463888888889,40.04361111111111],[-104.74888888888889,40.03111111111111],[-104.7975,40.02388888888889],[-104.90055555555556,40.01166666666666],[-104.95027777777779,40.00361111111111],[-105.05361111111111,39.99166666666667],[-105.10777777777777,39.98388888888889],[-105.2063888888889,39.97166666666667],[-105.26138888888889,39.96388888888889],[-105.35944444444443,39.95138888888889],[-105.41666666666667,39.94305555555555],[-105.51472222222222,39.93055555555555],[-105.57166666666666,39.92333333333333],[-105.66777777777779,39.90972222222222],[-105.72666666666667,39.901666666666664],[-105.82416666666666,39.888333333333335],[-105.88138888888888,39.87888888888889],[-105.9775,39.86694444444444],[-106.03722222222223,39.8575],[-106.13222222222221,39.845555555555556],[-106.19194444444445,39.837500000000006],[-106.28722222222223,39.82361111111111],[-106.34527777777777,39.81527777777777],[-106.44027777777778,39.80166666666666],[-106.50027777777778,39.79194444444444],[-106.59666666666666,39.78055555555555],[-106.65416666666667,39.77305555555555],[-106.75138888888888,39.765],[-106.80888888888889,39.75861111111111],[-106.90472222222223,39.74805555555556],[-106.96305555555556,39.74111111111111],[-107.05972222222222,39.730555555555554],[-107.11972222222222,39.723055555555554],[-107.21166666666667,39.71333333333334],[-107.27555555555556,39.70444444444445],[-107.37055555555555,39.69499999999999],[-107.43333333333334,39.6875],[-107.52972222222222,39.67666666666666],[-107.5911111111111,39.66861111111111],[-107.69333333333334,39.6575],[-107.74833333333333,39.65],[-107.85333333333332,39.63861111111111],[-107.91805555555555,39.630833333333335],[-108.01388888888889,39.619166666666665],[-108.065,39.613055555555555],[-108.17361111111111,39.599722222222226],[-108.22194444444445,39.59388888888889],[-108.38361111111112,39.573888888888895],[-108.49277777777777,39.56027777777778],[-108.54333333333334,39.553888888888885],[-108.6375,39.54194444444444],[-108.70166666666667,39.53388888888889],[-108.79694444444445,39.52194444444444],[-108.86166666666666,39.51361111111111],[-108.95583333333333,39.50138888888889],[-109.01777777777778,39.49333333333333],[-109.11027777777777,39.481388888888894],[-109.17222222222223,39.473055555555554],[-109.26388888888889,39.461111111111116],[-109.3275,39.4525],[-109.41972222222223,39.44027777777777],[-109.48055555555555,39.43222222222222],[-109.57138888888889,39.419999999999995],[-109.63555555555556,39.41138888888889],[-109.72666666666667,39.39888888888889],[-109.78972222222222,39.390277777777776],[-109.88055555555555,39.37777777777778],[-109.94055555555556,39.36944444444445],[-110.03305555555555,39.356944444444444],[-110.09583333333333,39.34861111111111],[-110.18583333333333,39.336666666666666],[-110.24805555555555,39.32833333333333],[-110.33749999999999,39.316111111111105],[-110.40138888888889,39.30722222222222],[-110.49194444444444,39.29472222222222],[-110.64305555555556,39.27388888888889],[-110.85638888888889,39.244166666666665],[-111.00638888888889,39.22277777777778],[-111.15805555555556,39.20111111111111],[-111.31666666666666,39.17805555555555],[-111.46694444444445,39.156388888888884],[-111.61749999999999,39.134166666666665],[-111.76972222222223,39.111666666666665],[-111.92055555555557,39.08888888888889],[-112.07305555555556,39.06583333333333],[-112.22527777777778,39.0425],[-112.3761111111111,39.019444444444446],[-112.52722222222222,38.99583333333334],[-112.68,38.971944444444446],[-112.83027777777778,38.948055555555555],[-112.98277777777778,38.92361111111111],[-113.1325,38.89944444444444],[-113.28444444444445,38.874722222222225],[-113.43694444444445,38.85],[-113.58749999999999,38.825],[-113.73777777777778,38.8],[-113.88611111111112,38.775],[-114.03472222222221,38.749722222222225],[-114.32916666666667,38.69916666666666],[-114.47833333333334,38.67333333333333],[-114.62555555555555,38.6475],[-114.77527777777777,38.62111111111111],[-114.92166666666667,38.595],[-115.07138888888889,38.56888888888889],[-115.2175,38.541666666666664],[-115.38055555555555,38.511944444444445],[-115.53055555555555,38.48527777777778],[-115.825,38.42972222222222],[-115.97694444444444,38.401111111111106],[-116.125,38.37305555555555],[-116.27055555555556,38.34527777777778],[-116.42166666666667,38.314166666666665],[-116.56583333333333,38.280833333333334],[-116.71138888888889,38.24777777777778],[-116.85833333333333,38.214444444444446],[-117.00444444444445,38.18111111111111],[-117.15027777777779,38.1475],[-117.27777777777777,38.11638888888889],[-117.45611111111111,37.93805555555555],[-117.53222222222222,37.839444444444446],[-117.61194444444443,37.73972222222222],[-117.74055555555556,37.69888888888889],[-117.88944444444445,37.70027777777778],[-118.04055555555556,37.702222222222225],[-118.18722222222223,37.70333333333333],[-118.3436111111111,37.70416666666667],[-118.50222222222222,37.70527777777778],[-118.66055555555556,37.70583333333334],[-118.8386111111111,37.70638888888889],[-118.99583333333334,37.70666666666667],[-119.15277777777779,37.70666666666667],[-119.30777777777777,37.70638888888889],[-119.46555555555555,37.70611111111111],[-119.62222222222222,37.70527777777778],[-119.77777777777777,37.70444444444445],[-119.9363888888889,37.70333333333333],[-120.09305555555555,37.702222222222225],[-120.21916666666667,37.70111111111111],[-120.37249999999999,37.69916666666666],[-120.52055555555556,37.68583333333333],[-120.63333333333334,37.666666666666664],[-120.66583333333334,37.66861111111111],[-120.78333333333333,37.65],[-120.80916666666667,37.65138888888889],[-120.91666666666667,37.63333333333333],[-120.94777777777779,37.63472222222222],[-121.05,37.61666666666667],[-121.08472222222221,37.61666666666667],[-121.2325,37.596944444444446],[-121.31666666666666,37.583333333333336],[-121.44944444444445,37.57138888888889],[-121.51666666666667,37.56666666666667],[-121.54388888888889,37.56027777777778],[-121.61666666666666,37.55],[-121.63083333333333,37.549166666666665],[-121.7,37.53333333333333],[-121.71583333333334,37.528888888888886],[-121.76666666666667,37.5],[-121.785,37.49194444444444],[-121.85,37.483333333333334],[-121.86777777777777,37.48916666666667],[-121.91666666666667,37.5],[-121.95138888888889,37.49527777777778],[-122,37.5],[-122.03527777777778,37.5],[-122.08333333333333,37.5],[-122.11361111111111,37.51083333333333],[-122.15,37.53333333333333],[-122.17333333333333,37.53611111111111],[-122.21666666666667,37.55],[-122.22805555555556,37.55916666666666],[-122.26666666666667,37.56666666666667],[-122.2786111111111,37.580555555555556],[-122.31666666666666,37.6],[-122.32694444444444,37.60055555555556]]}
}
