{
  "id": 2048079129,
  "type": "Feature",
  "properties": {
    "geom:area": 0,
    "geom:bbox": "-122.351920,37.503400,-122.013450,37.611230",
    "geom:latitude": 37.55759282800348,
    "geom:longitude": -122.18262627554195,
    "src:alt_label": "swim-approach",
    "src:geom": "swim",
    "swim:elevations": [
      1660,
      1319,
      1289,
      973,
      914,
      914,
      547,
      549,
      337,
      246,
      131,
      60
    ],
    "swim:geom": "approach",
    "swim:timestamps": [
      1787245251,
      1787245287,
      1787245290,
      1787245343,
      1787245369,
      1787245391,
      1787245464,
      1787245478,
      1787245523,
      1787245556,
      1787245582,
      1787245606
    ],
    "wof:geomhash": "51465a22f601f4fbad49f88f3a549800",
    "wof:id": 2048079129,
    "wof:repo": "sfomuseum-data-flights-2026-08"
  },
  "bbox": [
    -122.35192,
    37.5034,
    -122.01345,
    37.61123
  ],
  "geometry": {"type":"LineString","coordinates":[[-122.01345,37.5034],[-122.06149,37.51885],[-122.06587,37.52021],[-122.1314,37.54193],[-122.15776,37.55066],[-122.17909,37.55721],[-122.24915,37.57869],[-122.25959,37.58222],[-122.2938,37.59263],[-122.31816,37.59944],[-122.33668,37.60509],[-122.35192,37.61123]]}
}
