{
  "id": 2047954427,
  "type": "Feature",
  "properties": {
    "geom:area": 0,
    "geom:bbox": "-122.362470,36.739530,-121.960040,37.613580",
    "geom:latitude": 37.201232366753494,
    "geom:longitude": -122.15124527886636,
    "src:alt_label": "swim-approach",
    "src:geom": "swim",
    "swim:elevations": [
      4752,
      4556,
      4461,
      4359,
      4250,
      4102,
      3841,
      3695,
      3541,
      3252,
      3116,
      2967,
      2871,
      2720,
      2652,
      2489,
      2435,
      2305,
      2163,
      1930,
      1828,
      1829,
      1829,
      1748,
      1511,
      1403,
      1210,
      1040,
      945,
      914,
      884,
      741,
      486,
      400,
      304,
      180,
      141,
      0
    ],
    "swim:geom": "approach",
    "swim:timestamps": [
      1786651272,
      1786651315,
      1786651333,
      1786651365,
      1786651404,
      1786651429,
      1786651460,
      1786651481,
      1786651504,
      1786651549,
      1786651574,
      1786651603,
      1786651624,
      1786651657,
      1786651670,
      1786651703,
      1786651718,
      1786651767,
      1786651789,
      1786651827,
      1786651853,
      1786651875,
      1786651907,
      1786651936,
      1786651973,
      1786651996,
      1786652031,
      1786652054,
      1786652076,
      1786652125,
      1786652133,
      1786652163,
      1786652217,
      1786652237,
      1786652264,
      1786652300,
      1786652315,
      1786652356
    ],
    "wof:geomhash": "bbc986c3e6831b9d35f3e1e73033fe89",
    "wof:id": 2047954427,
    "wof:repo": "sfomuseum-data-flights-2026-08"
  },
  "bbox": [
    -122.36247,
    36.73953,
    -121.96004,
    37.61358
  ],
  "geometry": {"type":"LineString","coordinates":[[-122.1249,36.73953],[-122.0801,36.79392],[-122.06077,36.8182],[-122.03001,36.85665],[-121.99397,36.90067],[-121.97162,36.92754],[-121.96004,36.9663],[-121.97701,36.98788],[-122.00554,37.00078],[-122.05781,37.03519],[-122.08261,37.05598],[-122.11278,37.08076],[-122.13312,37.09752],[-122.1662,37.12454],[-122.17947,37.13516],[-122.21158,37.1616],[-122.2261,37.17375],[-122.27356,37.21367],[-122.28508,37.23624],[-122.29194,37.27827],[-122.26852,37.30003],[-122.24333,37.31481],[-122.21626,37.34401],[-122.19338,37.37112],[-122.16491,37.40585],[-122.1473,37.42685],[-122.12971,37.45805],[-122.13623,37.4794],[-122.1442,37.4992],[-122.1769,37.53488],[-122.18521,37.53846],[-122.216,37.55192],[-122.26695,37.57336],[-122.28176,37.57958],[-122.30075,37.58748],[-122.32519,37.59772],[-122.33534,37.60207],[-122.36247,37.61358]]}
}
