{
  "id": 2047993177,
  "type": "Feature",
  "properties": {
    "date:cessation_lower": "2026-08-16",
    "date:cessation_upper": "2026-08-16",
    "date:inception_lower": "1970-01-01",
    "date:inception_upper": "1970-01-01",
    "edtf:cessation": "2026-08-16T00:23:41-07:00",
    "edtf:inception": "1970-01-01T00:00:00Z",
    "flysfo:actual_timestamp": -1,
    "flysfo:airline": "UA",
    "flysfo:base_airline": "",
    "flysfo:base_flight_number": "4080",
    "flysfo:date": "2026-08-16",
    "flysfo:estimated_timestamp": 1786890540,
    "flysfo:event": "A",
    "flysfo:flight_number": "UA2363",
    "flysfo:gate": "D8",
    "flysfo:journey": "ONT-SFO",
    "flysfo:scheduled_timestamp": 1786890900,
    "flysfo:timestamp": 1786890900,
    "geom:area": 0,
    "geom:bbox": "-117.587749,0.000000,0.000000,34.059934",
    "geom:latitude": 17.029967,
    "geom:longitude": -58.7938745,
    "iata:airline": "UA",
    "iata:base_airline": "",
    "icao:aircraft": "B39M",
    "icao:airline": "UAL",
    "icao:base_airline": "ACA",
    "lbl:latitude": 37.617421,
    "lbl:longitude": -122.380916,
    "sfomuseum:aircraft_id": 1528104577,
    "sfomuseum:airline_id": 1159285413,
    "sfomuseum:arrival_id": 102527513,
    "sfomuseum:base_flight_id": "20260816-A-ACA-4080",
    "sfomuseum:departure_id": 102533575,
    "sfomuseum:flight_id": "20260816-A-UAL-2363",
    "sfomuseum:flight_number": [
      "UAL2363",
      "UA2363"
    ],
    "sfomuseum:placetype": "flight",
    "src:geom": "flysfo",
    "src:geom_alt": [
      "swim-approach"
    ],
    "swim:tail_number": "N17550",
    "wof:belongsto": [
      1947304067,
      102527513,
      1947304595,
      102191575,
      85633793,
      102087579,
      85922583,
      554784711,
      85688637,
      1947304617,
      1947304591,
      102085387
    ],
    "wof:country": "US",
    "wof:created": 1786983363,
    "wof:geomhash": "d3120cbbd3b449b692972c55433ce6f3",
    "wof:hierarchy": [
      {
        "building_id": 1947304067,
        "campus_id": 102527513,
        "concourse_id": 1947304595,
        "continent_id": 102191575,
        "country_id": 85633793,
        "county_id": 102087579,
        "custom_id": 2047993177,
        "flight_id": 2047993177,
        "locality_id": 85922583,
        "postalcode_id": 554784711,
        "region_id": 85688637,
        "venue_id": 1947304617,
        "wing_id": 1947304591
      },
      {
        "building_id": 1947304067,
        "campus_id": 102527513,
        "concourse_id": 1947304595,
        "continent_id": 102191575,
        "country_id": 85633793,
        "county_id": 102085387,
        "custom_id": 2047993177,
        "flight_id": 2047993177,
        "region_id": 85688637,
        "venue_id": 1947304617,
        "wing_id": 1947304591
      }
    ],
    "wof:id": 2047993177,
    "wof:involves": [
      1528104577,
      102527513,
      102533575,
      1159285413,
      1947304617,
      1159283597
    ],
    "wof:lastmodified": 1786984051,
    "wof:name": "UA2363 (ONT-SFO)",
    "wof:parent_id": 1947304617,
    "wof:placetype": "custom",
    "wof:placetype_alt": [
      "flight"
    ],
    "wof:repo": "sfomuseum-data-flights-2026-08",
    "wof:superseded_by": [],
    "wof:supersedes": []
  },
  "bbox": [
    -117.587749,
    0,
    0,
    34.059934
  ],
  "geometry": {"type":"MultiPoint","coordinates":[[-117.587749,34.059934],[0,0]]}
}
