{
  "id": 2047983349,
  "type": "Feature",
  "properties": {
    "geom:area": 0,
    "geom:bbox": "-122.526990,37.627630,-121.443390,38.510200",
    "geom:latitude": 38.07742990944808,
    "geom:longitude": -122.0620647536863,
    "src:alt_label": "swim-takeoff",
    "src:geom": "swim",
    "swim:elevations": [
      152,
      616,
      850,
      1060,
      1141,
      1361,
      1929,
      2070,
      2539,
      2763,
      3197,
      3311,
      3526,
      3619,
      4038,
      4267,
      4528,
      4828,
      5070,
      5369,
      5463,
      5752,
      6078,
      6226,
      6506,
      6794,
      6938,
      7246
    ],
    "swim:geom": "takeoff",
    "swim:timestamps": [
      1786814357,
      1786814396,
      1786814420,
      1786814446,
      1786814472,
      1786814497,
      1786814543,
      1786814556,
      1786814594,
      1786814611,
      1786814650,
      1786814679,
      1786814722,
      1786814735,
      1786814779,
      1786814803,
      1786814829,
      1786814863,
      1786814893,
      1786814928,
      1786814947,
      1786814980,
      1786815018,
      1786815037,
      1786815066,
      1786815108,
      1786815125,
      1786815170
    ],
    "wof:geomhash": "5424b509cf91ecef65595a031dc8d735",
    "wof:id": 2047983349,
    "wof:repo": "sfomuseum-data-flights-2026-08"
  },
  "bbox": [
    -122.52699,
    37.62763,
    -121.44339,
    38.5102
  ],
  "geometry": {"type":"LineString","coordinates":[[-122.39569,37.62763],[-122.43088,37.64292],[-122.45375,37.65268],[-122.48043,37.66407],[-122.5095,37.67793],[-122.52522,37.70572],[-122.52699,37.76626],[-122.52661,37.78277],[-122.48591,37.82029],[-122.45873,37.82962],[-122.40326,37.85888],[-122.36194,37.88792],[-122.29586,37.93378],[-122.27462,37.94847],[-122.19927,38.00063],[-122.15844,38.02883],[-122.1124,38.06064],[-122.05084,38.10289],[-121.99639,38.1404],[-121.93136,38.18502],[-121.89595,38.2092],[-121.83279,38.25242],[-121.75694,38.30409],[-121.72008,38.3292],[-121.66148,38.36941],[-121.57668,38.42657],[-121.54209,38.44934],[-121.44339,38.5102]]}
}
