{
  "id": 2032077715,
  "type": "Feature",
  "properties": {
    "geom:area": 0,
    "geom:bbox": "-120.498611,38.883056,-104.694167,40.845556",
    "geom:latitude": 40.42632329358671,
    "geom:longitude": -112.5995581982732,
    "src:alt_label": "swim-path",
    "src:geom": "swim",
    "swim:altitudes": [
      "310C",
      "310C",
      "310C",
      "310",
      "316",
      "316",
      "331",
      "342",
      "357",
      "357",
      "360",
      "360",
      "360",
      "360",
      "360",
      "370C",
      "370C",
      "370C",
      "370C",
      "370C",
      "370C",
      "370C",
      "370C",
      "370C",
      "370C",
      "370C",
      "370C",
      "370C",
      "370C",
      "370C",
      "370C",
      "370C",
      "370C",
      "370C",
      "370C",
      "370C",
      "370C",
      "370C",
      "370C",
      "370C",
      "370C",
      "370C",
      "370C",
      "370C",
      "370C",
      "370C",
      "370C",
      "370C",
      "370C",
      "370C",
      "370C",
      "370C",
      "370C",
      "370C",
      "370C",
      "370C",
      "370C",
      "370C",
      "370C",
      "370C",
      "370C",
      "370C",
      "370C",
      "370C",
      "370C",
      "370C",
      "370C",
      "370C",
      "370C",
      "370C",
      "370C",
      "370",
      "363",
      "352",
      "343",
      "333",
      "332",
      "323",
      "314",
      "310C",
      "310",
      "310",
      "310",
      "310",
      "310",
      "310",
      "297",
      "271",
      "265",
      "262",
      "249",
      "242",
      "225",
      "217",
      "201",
      "194",
      "185",
      "179",
      "171",
      "158",
      "148",
      "128",
      "123",
      "117",
      "107",
      "099",
      "089",
      "083",
      "078",
      "073",
      "070",
      "070",
      "070",
      "068",
      "054",
      "053",
      "053"
    ],
    "swim:geom": "path",
    "swim:speeds": [
      503,
      502,
      502,
      503,
      504,
      508,
      511,
      511,
      510,
      511,
      511,
      511,
      514,
      511,
      510,
      512,
      511,
      512,
      512,
      512,
      511,
      512,
      512,
      513,
      513,
      513,
      514,
      514,
      514,
      514,
      514,
      514,
      513,
      513,
      512,
      513,
      512,
      512,
      513,
      513,
      514,
      514,
      515,
      514,
      513,
      511,
      509,
      509,
      509,
      509,
      509,
      510,
      511,
      512,
      513,
      514,
      514,
      514,
      513,
      512,
      509,
      507,
      507,
      512,
      511,
      508,
      506,
      505,
      502,
      504,
      503,
      503,
      502,
      501,
      501,
      501,
      502,
      502,
      503,
      505,
      505,
      505,
      504,
      504,
      504,
      503,
      490,
      476,
      456,
      459,
      454,
      458,
      459,
      458,
      438,
      431,
      404,
      395,
      391,
      399,
      401,
      284,
      276,
      263,
      264,
      260,
      262,
      250,
      218,
      180,
      162,
      158,
      159,
      165,
      142,
      123,
      56
    ],
    "swim:timestamps": [
      1785732273,
      1785732333,
      1785732386,
      1785732446,
      1785732506,
      1785732513,
      1785732573,
      1785732634,
      1785732686,
      1785732694,
      1785732754,
      1785732806,
      1785732866,
      1785732934,
      1785732994,
      1785733046,
      1785733054,
      1785733106,
      1785733166,
      1785733226,
      1785733234,
      1785733286,
      1785733294,
      1785733347,
      1785733407,
      1785733414,
      1785733467,
      1785733474,
      1785733534,
      1785733587,
      1785733594,
      1785733647,
      1785733715,
      1785733767,
      1785733775,
      1785733827,
      1785733947,
      1785734007,
      1785734067,
      1785734127,
      1785734187,
      1785734247,
      1785734307,
      1785734428,
      1785734488,
      1785734548,
      1785734608,
      1785734668,
      1785734728,
      1785734788,
      1785734848,
      1785734908,
      1785734968,
      1785735028,
      1785735088,
      1785735208,
      1785735268,
      1785735329,
      1785735389,
      1785735449,
      1785735569,
      1785735629,
      1785735689,
      1785735755,
      1785735815,
      1785735869,
      1785735935,
      1785735995,
      1785736055,
      1785736109,
      1785736175,
      1785736229,
      1785736295,
      1785736350,
      1785736410,
      1785736470,
      1785736476,
      1785736536,
      1785736590,
      1785736650,
      1785736656,
      1785736716,
      1785736776,
      1785736836,
      1785736896,
      1785736956,
      1785737076,
      1785737136,
      1785737177,
      1785737196,
      1785737226,
      1785737256,
      1785737285,
      1785737316,
      1785737346,
      1785737376,
      1785737407,
      1785737436,
      1785737464,
      1785737496,
      1785737521,
      1785737646,
      1785737676,
      1785737707,
      1785737736,
      1785737761,
      1785737797,
      1785737821,
      1785737857,
      1785737879,
      1785737917,
      1785737939,
      1785737977,
      1785737993,
      1785738121,
      1785738157,
      1785738217
    ],
    "wof:geomhash": "8208424d8383385aa140f11d6c9ff358",
    "wof:id": 2032077715,
    "wof:repo": "sfomuseum-data-flights-2026-08"
  },
  "bbox": [
    -120.49861111111112,
    38.88305555555556,
    -104.69416666666667,
    40.845555555555556
  ],
  "geometry": {"coordinates":[[-120.49861111111112,38.88305555555556],[-120.35555555555555,38.969166666666666],[-120.2363888888889,39.040277777777774],[-120.09305555555555,39.12583333333333],[-119.94833333333334,39.21138888888889],[-119.94638888888889,39.21388888888889],[-119.80027777777778,39.300555555555555],[-119.65583333333333,39.38583333333333],[-119.51027777777777,39.47083333333334],[-119.50722222222223,39.473055555555554],[-119.35972222222222,39.559444444444445],[-119.24555555555555,39.62722222222222],[-119.06555555555555,39.73027777777778],[-118.91444444444446,39.8175],[-118.76166666666667,39.899166666666666],[-118.63416666666667,39.950833333333335],[-118.59888888888888,39.96527777777778],[-118.46916666666667,40.01833333333333],[-118.27416666666666,40.096944444444446],[-118.11083333333333,40.1625],[-118.10555555555555,40.16444444444444],[-117.94055555555556,40.217777777777776],[-117.93138888888889,40.22],[-117.76,40.26],[-117.58166666666666,40.30138888888889],[-117.58166666666666,40.30138888888889],[-117.40305555555557,40.342222222222226],[-117.4,40.34305555555556],[-117.22111111111111,40.38388888888889],[-117.04472222222222,40.42361111111111],[-117.04138888888889,40.42444444444444],[-116.89361111111111,40.4575],[-116.66888888888889,40.507777777777775],[-116.52916666666667,40.538333333333334],[-116.4875,40.5475],[-116.34444444444443,40.57083333333334],[-115.97166666666666,40.599444444444444],[-115.78694444444444,40.61333333333334],[-115.60027777777778,40.626666666666665],[-115.41222222222223,40.64],[-115.22666666666667,40.65277777777778],[-115.04055555555556,40.665277777777774],[-114.85138888888888,40.677499999999995],[-114.47194444444445,40.70166666666667],[-114.28333333333333,40.70805555555556],[-114.09972222222221,40.71416666666667],[-113.91361111111112,40.720555555555556],[-113.72833333333334,40.72805555555556],[-113.54472222222222,40.74277777777778],[-113.35805555555555,40.75666666666667],[-113.17222222222223,40.76972222222222],[-112.9875,40.783055555555556],[-112.8025,40.796388888888885],[-112.61388888888888,40.80916666666666],[-112.42666666666668,40.82166666666667],[-112.05388888888889,40.845555555555556],[-111.86916666666666,40.844722222222224],[-111.68722222222223,40.83583333333333],[-111.50083333333333,40.82638888888889],[-111.31722222222221,40.81666666666667],[-110.94694444444445,40.79611111111111],[-110.76222222222222,40.78583333333333],[-110.57944444444443,40.775],[-110.35333333333332,40.76083333333333],[-110.16694444444445,40.74916666666667],[-110.00027777777778,40.73861111111111],[-109.80499999999999,40.725833333333334],[-109.61722222222221,40.71333333333334],[-109.44916666666667,40.70166666666667],[-109.26305555555555,40.68833333333333],[-109.08277777777778,40.67527777777777],[-108.88861111111112,40.6625],[-108.71583333333334,40.65138888888889],[-108.52666666666667,40.63916666666667],[-108.34444444444443,40.62638888888889],[-108.16444444444446,40.61361111111111],[-108.14888888888889,40.61277777777778],[-107.97361111111111,40.6],[-107.79888888888888,40.58694444444445],[-107.615,40.573055555555555],[-107.60722222222222,40.572500000000005],[-107.4238888888889,40.55888888888889],[-107.24388888888889,40.544999999999995],[-107.06277777777777,40.530833333333334],[-106.88027777777778,40.51611111111111],[-106.69916666666667,40.50138888888889],[-106.34222222222222,40.470555555555556],[-106.17,40.45472222222222],[-106.03333333333333,40.45],[-106.01305555555555,40.441111111111105],[-105.9,40.43333333333333],[-105.85111111111111,40.4225],[-105.73333333333333,40.4],[-105.68666666666667,40.396388888888886],[-105.58333333333333,40.38333333333333],[-105.53055555555555,40.371944444444445],[-105.43333333333334,40.35],[-105.36944444444444,40.346111111111114],[-105.3,40.333333333333336],[-105.22583333333334,40.325833333333335],[-105.16666666666667,40.31666666666667],[-104.91666666666667,40.266666666666666],[-104.86777777777777,40.24527777777778],[-104.81666666666666,40.233333333333334],[-104.78777777777778,40.205555555555556],[-104.76666666666667,40.18333333333333],[-104.74666666666667,40.14111111111111],[-104.73333333333333,40.11666666666667],[-104.70555555555556,40.0825],[-104.7,40.06666666666667],[-104.69444444444444,40.035],[-104.7,40.016666666666666],[-104.69527777777778,39.99111111111111],[-104.7,39.983333333333334],[-104.7,39.9],[-104.69638888888889,39.88194444444444],[-104.69416666666667,39.87361111111111]],"type":"LineString"}
}
