{
  "id": 2032129811,
  "type": "Feature",
  "properties": {
    "geom:area": 0,
    "geom:bbox": "-122.359840,37.440330,-121.250030,37.613790",
    "geom:latitude": 37.53166824225296,
    "geom:longitude": -121.81423762732148,
    "src:alt_label": "swim-approach",
    "src:geom": "swim",
    "swim:elevations": [
      4698,
      4482,
      4113,
      3813,
      3551,
      3461,
      3282,
      3169,
      3014,
      2870,
      2589,
      2434,
      2345,
      2282,
      2224,
      2161,
      2133,
      2164,
      1965,
      1849,
      1803,
      1780,
      1764,
      1692,
      1443,
      1162,
      998,
      956,
      862,
      824,
      693,
      620,
      396,
      321,
      221,
      116,
      0
    ],
    "swim:geom": "approach",
    "swim:timestamps": [
      1786054224,
      1786054246,
      1786054284,
      1786054314,
      1786054341,
      1786054350,
      1786054372,
      1786054407,
      1786054434,
      1786054455,
      1786054498,
      1786054526,
      1786054544,
      1786054556,
      1786054567,
      1786054582,
      1786054612,
      1786054642,
      1786054677,
      1786054698,
      1786054728,
      1786054734,
      1786054740,
      1786054748,
      1786054775,
      1786054825,
      1786054857,
      1786054864,
      1786054884,
      1786054890,
      1786054915,
      1786054930,
      1786054976,
      1786054997,
      1786055021,
      1786055057,
      1786055085
    ],
    "wof:geomhash": "8a786a811feefd32f9ea1ebe0e0f28e2",
    "wof:id": 2032129811,
    "wof:repo": "sfomuseum-data-flights-2026-08"
  },
  "bbox": [
    -122.35984,
    37.44033,
    -121.25003,
    37.61379
  ],
  "geometry": {"type":"LineString","coordinates":[[-121.25003,37.59404],[-121.29519,37.588],[-121.37277,37.57917],[-121.43218,37.57263],[-121.48505,37.5665],[-121.50253,37.56448],[-121.54512,37.55947],[-121.60806,37.55207],[-121.65052,37.54405],[-121.68102,37.53658],[-121.74187,37.52209],[-121.77715,37.50644],[-121.79808,37.49442],[-121.81162,37.48667],[-121.82258,37.47932],[-121.83528,37.46614],[-121.86508,37.44479],[-121.90712,37.44033],[-121.95361,37.444],[-121.97923,37.45409],[-122.0158,37.46944],[-122.02299,37.47249],[-122.03,37.47557],[-122.03964,37.47964],[-122.07117,37.49298],[-122.12932,37.51752],[-122.1665,37.53334],[-122.17425,37.53659],[-122.19694,37.54612],[-122.20369,37.54896],[-122.22881,37.55954],[-122.24378,37.56588],[-122.28541,37.58337],[-122.30143,37.59014],[-122.31833,37.59727],[-122.34217,37.60729],[-122.35984,37.61379]]}
}
