{
  "id": 2047888767,
  "type": "Feature",
  "properties": {
    "geom:area": 0,
    "geom:bbox": "-122.389600,37.666320,-121.243000,38.427060",
    "geom:latitude": 38.03936330549625,
    "geom:longitude": -121.81738296209164,
    "src:alt_label": "swim-takeoff",
    "src:geom": "swim",
    "swim:elevations": [
      884,
      1217,
      1371,
      1723,
      1926,
      2363,
      2501,
      2713,
      2750,
      2819,
      3264,
      3553,
      3688,
      4322,
      5172,
      5614,
      6068,
      6128,
      6284,
      6523
    ],
    "swim:geom": "takeoff",
    "swim:timestamps": [
      1786200794,
      1786200841,
      1786200863,
      1786200898,
      1786200912,
      1786200949,
      1786200986,
      1786201046,
      1786201075,
      1786201083,
      1786201132,
      1786201189,
      1786201217,
      1786201286,
      1786201373,
      1786201416,
      1786201467,
      1786201472,
      1786201495,
      1786201525
    ],
    "wof:geomhash": "9886e6c3d19a2adacf3dea7e7883042b",
    "wof:id": 2047888767,
    "wof:repo": "sfomuseum-data-flights-2026-08"
  },
  "bbox": [
    -122.3896,
    37.66632,
    -121.243,
    38.42706
  ],
  "geometry": {"type":"LineString","coordinates":[[-122.3896,37.66632],[-122.33186,37.67997],[-122.30059,37.69005],[-122.24878,37.70689],[-122.22669,37.71448],[-122.18528,37.74993],[-122.14881,37.79078],[-122.08838,37.85702],[-122.05622,37.88739],[-122.04495,37.8955],[-121.97921,37.94017],[-121.89197,37.99905],[-121.84314,38.03211],[-121.71804,38.11637],[-121.55248,38.2274],[-121.46797,38.28386],[-121.36553,38.35196],[-121.35567,38.35824],[-121.30814,38.38743],[-121.243,38.42706]]}
}
