{
  "id": 2047888495,
  "type": "Feature",
  "properties": {
    "geom:area": 0,
    "geom:bbox": "-122.399500,37.648550,-121.258190,37.981690",
    "geom:latitude": 37.86523067203185,
    "geom:longitude": -121.84163147226649,
    "src:alt_label": "swim-takeoff",
    "src:geom": "swim",
    "swim:elevations": [
      677,
      760,
      768,
      1037,
      1219,
      1936,
      1973,
      2420,
      2908,
      3055,
      3604,
      3660,
      3714,
      4262,
      4711,
      4845,
      5117,
      5246,
      5482,
      6413,
      6462,
      6525,
      6656
    ],
    "swim:geom": "takeoff",
    "swim:timestamps": [
      1786180737,
      1786180749,
      1786180753,
      1786180788,
      1786180849,
      1786180918,
      1786180921,
      1786180958,
      1786181001,
      1786181013,
      1786181059,
      1786181066,
      1786181070,
      1786181120,
      1786181172,
      1786181202,
      1786181228,
      1786181243,
      1786181269,
      1786181393,
      1786181400,
      1786181412,
      1786181430
    ],
    "wof:geomhash": "f0f346dbb937eaed7b9aa7095bf840aa",
    "wof:id": 2047888495,
    "wof:repo": "sfomuseum-data-flights-2026-08"
  },
  "bbox": [
    -122.3995,
    37.64855,
    -121.25819,
    37.98169
  ],
  "geometry": {"type":"LineString","coordinates":[[-122.3995,37.64855],[-122.39154,37.65546],[-122.38785,37.65741],[-122.35413,37.66749],[-122.28546,37.69246],[-122.18533,37.73379],[-122.18119,37.73593],[-122.12982,37.76188],[-122.06649,37.7936],[-122.04821,37.80291],[-121.98131,37.83759],[-121.97045,37.84329],[-121.96404,37.8467],[-121.88829,37.88822],[-121.80851,37.93347],[-121.75208,37.9502],[-121.69853,37.95524],[-121.66757,37.95655],[-121.61438,37.95969],[-121.34364,37.9764],[-121.32632,37.97747],[-121.29831,37.97921],[-121.25819,37.98169]]}
}
