{
  "id": 2047882305,
  "type": "Feature",
  "properties": {
    "geom:area": 0,
    "geom:bbox": "-123.485500,36.974780,-122.067880,37.611800",
    "geom:latitude": 37.299554536319334,
    "geom:longitude": -122.67872455043351,
    "src:alt_label": "swim-approach",
    "src:geom": "swim",
    "swim:elevations": [
      6157,
      6035,
      5700,
      5420,
      5126,
      4982,
      4683,
      4283,
      4030,
      3928,
      3395,
      3267,
      3048,
      3048,
      3048,
      3048,
      3066,
      3004,
      2875,
      2768,
      2591,
      2438,
      2438,
      2209,
      1971,
      1855,
      1495,
      1322,
      1248,
      1219,
      1219,
      1178,
      1022,
      856,
      733,
      588,
      458,
      386,
      275,
      141,
      35
    ],
    "swim:geom": "approach",
    "swim:timestamps": [
      1786236058,
      1786236082,
      1786236118,
      1786236147,
      1786236177,
      1786236192,
      1786236223,
      1786236265,
      1786236292,
      1786236301,
      1786236358,
      1786236372,
      1786236416,
      1786236437,
      1786236477,
      1786236502,
      1786236535,
      1786236566,
      1786236598,
      1786236616,
      1786236643,
      1786236688,
      1786236712,
      1786236745,
      1786236778,
      1786236791,
      1786236833,
      1786236866,
      1786236885,
      1786236906,
      1786236930,
      1786236960,
      1786236999,
      1786237041,
      1786237071,
      1786237107,
      1786237134,
      1786237152,
      1786237179,
      1786237210,
      1786237233
    ],
    "wof:geomhash": "5875cc6601e336197abb6344ffe77cad",
    "wof:id": 2047882305,
    "wof:repo": "sfomuseum-data-flights-2026-08"
  },
  "bbox": [
    -123.4855,
    36.97478,
    -122.06788,
    37.6118
  ],
  "geometry": {"type":"LineString","coordinates":[[-123.4855,36.97478],[-123.43922,36.99608],[-123.36928,37.02747],[-123.31423,37.05283],[-123.25842,37.07818],[-123.23174,37.09046],[-123.17407,37.11638],[-123.09802,37.15117],[-123.0501,37.17298],[-123.03411,37.18026],[-122.93429,37.2256],[-122.9108,37.2362],[-122.83248,37.26463],[-122.79343,37.27383],[-122.71866,37.29152],[-122.6723,37.30223],[-122.61033,37.31669],[-122.5536,37.32985],[-122.49886,37.34252],[-122.46889,37.34943],[-122.42471,37.35946],[-122.35169,37.37638],[-122.31277,37.38535],[-122.25894,37.39759],[-122.20478,37.40997],[-122.18395,37.41475],[-122.1168,37.43003],[-122.07905,37.45616],[-122.06788,37.47587],[-122.07289,37.49634],[-122.0976,37.50496],[-122.12525,37.51575],[-122.15863,37.52992],[-122.19452,37.54509],[-122.21937,37.55562],[-122.24908,37.56815],[-122.27242,37.57793],[-122.2871,37.58403],[-122.30945,37.59366],[-122.33411,37.60396],[-122.35293,37.6118]]}
}
