{
  "id": 2032103311,
  "type": "Feature",
  "properties": {
    "geom:area": 0,
    "geom:bbox": "-120.057778,34.967222,-80.952500,38.675000",
    "geom:latitude": 37.56207984743774,
    "geom:longitude": -100.23075661045614,
    "src:alt_label": "swim-path",
    "src:geom": "swim",
    "swim:altitudes": [
      "241",
      "258",
      "271",
      "278",
      "282",
      "294",
      "311",
      "315",
      "321",
      "330C",
      "330C",
      "330C",
      "330C",
      "330C",
      "330C",
      "330C",
      "330C",
      "330C",
      "330C",
      "330C",
      "331C",
      "330C",
      "330C",
      "330C",
      "330C",
      "330C",
      "330C",
      "330C",
      "330C",
      "330C",
      "331C",
      "330C",
      "330C",
      "330C",
      "330C",
      "330C",
      "330C",
      "330",
      "333",
      "339",
      "341",
      "346",
      "349C",
      "350C",
      "350C",
      "351C",
      "350C",
      "350C",
      "350C",
      "350C",
      "350C",
      "350C",
      "350C",
      "351C",
      "351C",
      "350C",
      "350C",
      "350C",
      "350C",
      "350C",
      "350C",
      "350C",
      "350C",
      "350C",
      "350C",
      "350C",
      "350C",
      "350C",
      "350C",
      "350C",
      "351C",
      "351C",
      "350C",
      "350C",
      "350C",
      "350C",
      "350C",
      "350C",
      "350C",
      "350C",
      "350C",
      "350C",
      "350C",
      "350C",
      "350C",
      "350C",
      "350C",
      "350C",
      "350C",
      "351C",
      "350C",
      "350C",
      "350C",
      "350C",
      "350C",
      "350C",
      "350C",
      "350C",
      "350C",
      "350C",
      "350C",
      "350C",
      "350C",
      "350C",
      "350C",
      "350C",
      "350C",
      "350C",
      "351C",
      "351C",
      "350C",
      "350C",
      "350C",
      "350C",
      "350C",
      "350C",
      "350C",
      "350C",
      "350C",
      "350C",
      "350C",
      "350C",
      "350C",
      "350C",
      "350C",
      "350C",
      "350C",
      "350C",
      "350C",
      "350C",
      "350C",
      "350C",
      "350C",
      "350C",
      "350C",
      "350C",
      "350C",
      "350C",
      "350C",
      "350C",
      "350C",
      "350C",
      "351C",
      "351C",
      "351C",
      "351C",
      "351C",
      "351C",
      "351C",
      "351C",
      "350C",
      "350C",
      "351C",
      "351C",
      "351C",
      "350C",
      "351C",
      "351C",
      "350C",
      "351C",
      "351C",
      "351C",
      "351C",
      "350C",
      "351C",
      "351C",
      "351C",
      "350C",
      "350C",
      "351C",
      "351C",
      "351C",
      "351C",
      "351C",
      "350C",
      "350C",
      "350C",
      "351C",
      "351C",
      "351C",
      "351C",
      "350C",
      "350C",
      "350C",
      "351C",
      "351C",
      "351C",
      "351C",
      "351C",
      "350C",
      "350",
      "341",
      "331C",
      "331C",
      "331C",
      "330C",
      "330C",
      "330C",
      "330C",
      "331C",
      "331C",
      "330C",
      "331C",
      "331C",
      "331C",
      "330C",
      "331C",
      "330C",
      "330C",
      "330C",
      "330C",
      "330C",
      "331C",
      "330",
      "331",
      "294",
      "277",
      "253",
      "234",
      "214",
      "196",
      "193",
      "182",
      "179",
      "165",
      "163",
      "151",
      "133",
      "116",
      "102",
      "100",
      "100",
      "097",
      "094",
      "076",
      "065",
      "060",
      "048",
      "045",
      "040",
      "040",
      "035",
      "032",
      "025",
      "025",
      "018",
      "015",
      "009",
      "008"
    ],
    "swim:geom": "path",
    "swim:speeds": [
      453,
      460,
      467,
      477,
      477,
      484,
      469,
      470,
      475,
      481,
      482,
      483,
      483,
      483,
      484,
      483,
      483,
      483,
      484,
      485,
      486,
      486,
      485,
      484,
      481,
      480,
      478,
      478,
      479,
      481,
      484,
      485,
      484,
      483,
      483,
      482,
      482,
      484,
      483,
      481,
      479,
      477,
      477,
      479,
      482,
      488,
      490,
      496,
      496,
      496,
      495,
      494,
      495,
      495,
      495,
      496,
      495,
      495,
      495,
      495,
      495,
      494,
      494,
      493,
      493,
      494,
      494,
      494,
      495,
      498,
      501,
      502,
      503,
      502,
      501,
      499,
      496,
      496,
      496,
      496,
      496,
      497,
      497,
      496,
      496,
      496,
      495,
      496,
      496,
      495,
      494,
      492,
      490,
      491,
      489,
      491,
      488,
      491,
      488,
      487,
      486,
      486,
      484,
      484,
      483,
      483,
      483,
      484,
      484,
      485,
      485,
      484,
      483,
      482,
      479,
      477,
      476,
      476,
      478,
      480,
      481,
      482,
      483,
      484,
      484,
      482,
      481,
      480,
      481,
      482,
      484,
      486,
      488,
      490,
      492,
      495,
      500,
      502,
      502,
      499,
      496,
      494,
      492,
      491,
      490,
      490,
      489,
      487,
      487,
      486,
      485,
      486,
      485,
      487,
      485,
      483,
      481,
      479,
      472,
      473,
      474,
      475,
      476,
      477,
      480,
      480,
      480,
      479,
      477,
      477,
      477,
      477,
      476,
      473,
      470,
      469,
      469,
      468,
      469,
      469,
      469,
      463,
      461,
      460,
      458,
      457,
      458,
      457,
      456,
      455,
      453,
      453,
      454,
      452,
      450,
      448,
      446,
      444,
      443,
      444,
      443,
      442,
      443,
      443,
      443,
      443,
      444,
      443,
      443,
      444,
      445,
      446,
      446,
      440,
      439,
      427,
      420,
      401,
      386,
      379,
      367,
      361,
      357,
      361,
      383,
      380,
      380,
      370,
      361,
      359,
      344,
      340,
      286,
      292,
      285,
      278,
      281,
      274,
      274,
      236,
      235,
      211,
      214,
      199,
      203,
      160,
      160,
      145,
      150
    ],
    "swim:timestamps": [
      1785907990,
      1785908110,
      1785908226,
      1785908290,
      1785908346,
      1785908406,
      1785908526,
      1785908586,
      1785908650,
      1785908830,
      1785908890,
      1785908946,
      1785909006,
      1785909070,
      1785909126,
      1785909186,
      1785909251,
      1785909306,
      1785909366,
      1785909426,
      1785909486,
      1785909546,
      1785909607,
      1785909667,
      1785909787,
      1785909847,
      1785910147,
      1785910327,
      1785910387,
      1785910447,
      1785910507,
      1785910627,
      1785910687,
      1785910747,
      1785910807,
      1785910867,
      1785910927,
      1785910967,
      1785910987,
      1785911027,
      1785911048,
      1785911108,
      1785911168,
      1785911208,
      1785911240,
      1785911268,
      1785911300,
      1785911360,
      1785911388,
      1785911420,
      1785911448,
      1785911480,
      1785911508,
      1785911540,
      1785911568,
      1785911600,
      1785911628,
      1785911660,
      1785911688,
      1785911720,
      1785911748,
      1785911780,
      1785911808,
      1785911840,
      1785911868,
      1785911900,
      1785911928,
      1785911960,
      1785911988,
      1785912168,
      1785912228,
      1785912288,
      1785912348,
      1785912408,
      1785912468,
      1785912528,
      1785912588,
      1785912648,
      1785912708,
      1785912768,
      1785912828,
      1785912949,
      1785913009,
      1785913129,
      1785913189,
      1785913249,
      1785913309,
      1785913369,
      1785913429,
      1785913489,
      1785913549,
      1785913609,
      1785913669,
      1785913701,
      1785913729,
      1785913760,
      1785913789,
      1785913821,
      1785913849,
      1785913909,
      1785913969,
      1785914000,
      1785914029,
      1785914060,
      1785914089,
      1785914120,
      1785914149,
      1785914180,
      1785914209,
      1785914243,
      1785914269,
      1785914302,
      1785914329,
      1785914361,
      1785914389,
      1785914423,
      1785914449,
      1785914509,
      1785914542,
      1785914569,
      1785914603,
      1785914629,
      1785914690,
      1785914721,
      1785914781,
      1785914843,
      1785914901,
      1785914961,
      1785915021,
      1785915081,
      1785915143,
      1785915204,
      1785915262,
      1785915321,
      1785915383,
      1785915441,
      1785915561,
      1785915621,
      1785915682,
      1785915803,
      1785915861,
      1785915921,
      1785915982,
      1785916043,
      1785916102,
      1785916162,
      1785916225,
      1785916343,
      1785916402,
      1785916462,
      1785916582,
      1785916645,
      1785916705,
      1785916883,
      1785916942,
      1785917005,
      1785917065,
      1785917125,
      1785917302,
      1785917422,
      1785917483,
      1785917545,
      1785917665,
      1785917725,
      1785917845,
      1785917906,
      1785917966,
      1785918023,
      1785918146,
      1785918203,
      1785918263,
      1785918326,
      1785918384,
      1785918444,
      1785918506,
      1785918565,
      1785918625,
      1785918686,
      1785918805,
      1785918866,
      1785918925,
      1785918986,
      1785919046,
      1785919105,
      1785919166,
      1785919226,
      1785919346,
      1785919406,
      1785919466,
      1785919526,
      1785919646,
      1785919706,
      1785919766,
      1785919827,
      1785919886,
      1785919947,
      1785920007,
      1785920066,
      1785920127,
      1785920246,
      1785920306,
      1785920366,
      1785920427,
      1785920487,
      1785920547,
      1785920607,
      1785920667,
      1785920786,
      1785920846,
      1785920906,
      1785921086,
      1785921146,
      1785921206,
      1785921326,
      1785921447,
      1785921567,
      1785921627,
      1785921687,
      1785921747,
      1785921807,
      1785921867,
      1785921879,
      1785921915,
      1785921927,
      1785921975,
      1785921987,
      1785922047,
      1785922107,
      1785922167,
      1785922215,
      1785922275,
      1785922287,
      1785922335,
      1785922347,
      1785922407,
      1785922449,
      1785922467,
      1785922509,
      1785922527,
      1785922569,
      1785922587,
      1785922635,
      1785922647,
      1785922695,
      1785922707,
      1785922809,
      1785922827,
      1785922875,
      1785922887
    ],
    "wof:geomhash": "bf22e7e9ac2844fa1d23f2ad4422116f",
    "wof:id": 2032103311,
    "wof:repo": "sfomuseum-data-flights-2026-08"
  },
  "bbox": [
    -120.05777777777777,
    34.967222222222226,
    -80.9525,
    38.675
  ],
  "geometry": {"type":"LineString","coordinates":[[-120.05777777777777,38.19638888888888],[-119.7363888888889,38.237500000000004],[-119.42527777777778,38.27444444444444],[-119.22472222222223,38.30083333333333],[-119.09194444444444,38.31666666666667],[-118.92222222222223,38.336111111111116],[-118.5975,38.374722222222225],[-118.43361111111112,38.39416666666666],[-118.23305555555555,38.41694444444444],[-117.74166666666667,38.47166666666667],[-117.57083333333333,38.49],[-117.40083333333334,38.50833333333333],[-117.22611111111111,38.52361111111111],[-117.05222222222221,38.5325],[-116.88111111111111,38.54111111111111],[-116.71138888888889,38.54944444444444],[-116.5375,38.5575],[-116.36583333333333,38.565555555555555],[-116.19305555555556,38.573055555555555],[-116.02111111111111,38.580555555555556],[-115.8475,38.58777777777778],[-115.70944444444444,38.59305555555556],[-115.5375,38.6],[-115.36694444444444,38.60611111111111],[-115.02361111111111,38.61833333333333],[-114.85555555555555,38.62361111111111],[-114.00305555555556,38.647777777777776],[-113.49416666666667,38.659166666666664],[-113.32444444444444,38.6625],[-113.15138888888889,38.66583333333333],[-112.97944444444444,38.6675],[-112.63222222222221,38.670833333333334],[-112.45972222222223,38.67222222222222],[-112.28944444444444,38.67333333333333],[-112.11666666666666,38.674166666666665],[-111.94694444444445,38.67472222222222],[-111.77444444444444,38.675],[-111.67194444444445,38.675],[-111.60055555555554,38.675],[-111.50222222222222,38.67472222222222],[-111.43277777777779,38.67472222222222],[-111.26555555555555,38.67444444444444],[-111.0936111111111,38.67361111111111],[-110.99138888888889,38.67305555555555],[-110.92277777777778,38.672777777777775],[-110.79638888888888,38.67194444444444],[-110.72611111111111,38.671388888888885],[-110.55027777777778,38.66972222222222],[-110.44388888888889,38.66888888888889],[-110.37277777777777,38.668055555555554],[-110.27083333333333,38.66694444444444],[-110.16361111111112,38.66555555555556],[-110.0936111111111,38.664722222222224],[-109.98916666666666,38.663333333333334],[-109.91861111111112,38.66222222222222],[-109.81388888888888,38.660555555555554],[-109.74361111111111,38.659444444444446],[-109.63861111111112,38.657777777777774],[-109.56916666666666,38.656388888888884],[-109.46388888888889,38.65333333333333],[-109.39555555555556,38.64888888888889],[-109.29166666666667,38.6425],[-109.22194444444445,38.638333333333335],[-109.11805555555554,38.63166666666667],[-109.04861111111111,38.6275],[-108.94305555555556,38.620555555555555],[-108.87222222222222,38.61611111111111],[-108.76944444444445,38.60944444444445],[-108.70138888888889,38.60472222222222],[-108.1738888888889,38.56861111111112],[-107.99583333333334,38.55583333333333],[-107.81833333333333,38.54277777777778],[-107.64250000000001,38.52972222222222],[-107.46666666666667,38.51611111111111],[-107.2925,38.5025],[-107.1211111111111,38.48888888888889],[-106.94583333333334,38.475],[-106.77527777777777,38.46083333333333],[-106.59888888888888,38.44583333333333],[-106.42500000000001,38.43111111111111],[-106.25166666666667,38.41611111111111],[-105.87972222222221,38.38944444444444],[-105.69777777777779,38.37833333333333],[-105.34861111111111,38.35666666666667],[-105.1738888888889,38.34527777777778],[-105.00472222222223,38.33416666666667],[-104.82833333333333,38.32222222222222],[-104.65527777777778,38.31027777777778],[-104.47888888888889,38.297777777777775],[-104.30333333333333,38.28861111111111],[-104.13055555555555,38.280833333333334],[-103.95944444444444,38.272777777777776],[-103.78583333333333,38.26444444444444],[-103.71444444444445,38.26083333333333],[-103.61222222222221,38.25555555555555],[-103.5425,38.2525],[-103.43861111111111,38.24666666666667],[-103.37833333333333,38.24333333333333],[-103.30194444444444,38.239444444444445],[-103.13111111111111,38.23027777777778],[-102.92833333333334,38.21888888888889],[-102.8611111111111,38.215],[-102.75638888888889,38.20888888888889],[-102.69305555555556,38.20527777777778],[-102.59027777777777,38.19194444444444],[-102.52666666666667,38.18111111111111],[-102.42361111111111,38.163888888888884],[-102.35777777777777,38.150555555555556],[-102.25805555555556,38.13],[-102.19361111111111,38.11694444444444],[-102.09138888888889,38.09638888888889],[-102.02666666666667,38.08361111111111],[-101.92611111111111,38.0625],[-101.865,38.04694444444444],[-101.76722222222222,38.022777777777776],[-101.70722222222223,38.00833333333333],[-101.60888888888888,37.98555555555556],[-101.44638888888889,37.948055555555555],[-101.38388888888889,37.933611111111105],[-101.28416666666666,37.91],[-101.22083333333333,37.89527777777778],[-101.15222222222222,37.879444444444445],[-100.98722222222223,37.84],[-100.88944444444445,37.81666666666667],[-100.72222222222223,37.77833333333333],[-100.57472222222222,37.75388888888889],[-100.39027777777778,37.72222222222222],[-100.22611111111111,37.69361111111111],[-100.06361111111111,37.665],[-99.89611111111111,37.635555555555555],[-99.73111111111112,37.605555555555554],[-99.56472222222222,37.57638888888889],[-99.39861111111112,37.54694444444444],[-99.23111111111112,37.519444444444446],[-99.05944444444444,37.50944444444445],[-98.8863888888889,37.499722222222225],[-98.53833333333333,37.47944444444445],[-98.36472222222221,37.46888888888889],[-98.19111111111111,37.45805555555556],[-97.84944444444444,37.436388888888885],[-97.67833333333334,37.425],[-97.50805555555556,37.413333333333334],[-97.33805555555556,37.401666666666664],[-97.16722222222222,37.38972222222222],[-96.99777777777778,37.3775],[-96.82777777777777,37.37444444444444],[-96.65555555555557,37.388333333333335],[-96.31611111111111,37.41555555555556],[-96.14472222222223,37.424166666666665],[-95.97722222222222,37.427499999999995],[-95.6363888888889,37.41722222222222],[-95.46805555555555,37.40083333333333],[-95.29944444444445,37.38444444444444],[-94.79083333333332,37.33166666666667],[-94.62166666666666,37.31388888888888],[-94.45777777777778,37.296388888888885],[-94.28916666666666,37.278055555555554],[-94.125,37.26027777777778],[-93.65222222222222,37.206944444444446],[-93.32833333333333,37.169444444444444],[-93.16333333333334,37.15],[-92.96888888888888,37.126666666666665],[-92.64333333333335,37.08694444444445],[-92.47722222222222,37.06638888888889],[-92.14888888888889,37.025],[-91.98527777777778,37.00388888888889],[-91.82194444444444,36.98277777777778],[-91.68972222222223,36.96527777777778],[-91.3325,36.91777777777777],[-91.20111111111112,36.9],[-91.04194444444444,36.878055555555555],[-90.84666666666666,36.85111111111111],[-90.71722222222222,36.83305555555556],[-90.55472222222222,36.809999999999995],[-90.36305555555555,36.782777777777774],[-90.235,36.76416666666667],[-90.05555555555556,36.739444444444445],[-89.88305555555554,36.71277777777778],[-89.5775,36.67055555555555],[-89.43111111111112,36.656666666666666],[-89.25666666666666,36.63916666666667],[-89.10916666666667,36.623333333333335],[-88.94833333333334,36.60638888888889],[-88.78583333333333,36.59055555555556],[-88.63361111111112,36.572500000000005],[-88.4775,36.555277777777775],[-88.16444444444446,36.52055555555555],[-88.00444444444445,36.50222222222222],[-87.85055555555554,36.48444444444444],[-87.69638888888889,36.46666666666667],[-87.3875,36.43],[-87.23472222222222,36.41166666666666],[-87.07694444444444,36.3925],[-86.92416666666666,36.37361111111111],[-86.76055555555556,36.35305555555556],[-86.60722222222222,36.33388888888889],[-86.4563888888889,36.31472222222222],[-86.33888888888889,36.29972222222222],[-86.15666666666667,36.27611111111111],[-85.88722222222223,36.24055555555556],[-85.71805555555555,36.21805555555556],[-85.56944444444444,36.198055555555555],[-85.41805555555555,36.17722222222222],[-85.26611111111112,36.156388888888884],[-85.115,36.135555555555555],[-84.96277777777777,36.11416666666667],[-84.81083333333333,36.0925],[-84.50777777777778,36.049166666666665],[-84.38861111111112,36.031666666666666],[-84.2375,36.00944444444445],[-83.78527777777778,35.94194444444444],[-83.635,35.919444444444444],[-83.48388888888888,35.89611111111111],[-83.19583333333334,35.83305555555556],[-82.87972222222221,35.7625],[-82.59555555555555,35.69833333333333],[-82.48361111111112,35.672777777777775],[-82.32527777777777,35.63638888888889],[-82.19861111111112,35.606944444444444],[-82.07444444444444,35.57833333333333],[-81.96000000000001,35.53861111111111],[-81.93861111111111,35.53],[-81.8711111111111,35.50694444444444],[-81.84833333333333,35.498333333333335],[-81.75444444444445,35.463055555555556],[-81.73055555555555,35.455555555555556],[-81.61055555555555,35.41777777777777],[-81.4925,35.384166666666665],[-81.37888888888888,35.35194444444445],[-81.28194444444445,35.32333333333334],[-81.17,35.29138888888889],[-81.15333333333334,35.28777777777778],[-81.07583333333334,35.25555555555555],[-81.06944444444444,35.246944444444445],[-81.06444444444445,35.16888888888889],[-81.05944444444444,35.11],[-81.05749999999999,35.09111111111111],[-81.05222222222221,35.033055555555556],[-81.05083333333333,35.01555555555556],[-81.02888888888889,34.97],[-81.00916666666667,34.967222222222226],[-80.96583333333334,34.99638888888889],[-80.96166666666667,35.00472222222222],[-80.9525,35.05222222222222],[-80.95333333333333,35.06055555555555],[-80.96222222222222,35.147777777777776],[-80.96166666666667,35.157777777777774],[-80.96555555555555,35.19361111111111],[-80.96527777777779,35.19916666666666]]}
}
