{
  "id": 2047880089,
  "type": "Feature",
  "properties": {
    "geom:area": 0,
    "geom:bbox": "-122.015000,29.993056,-95.115000,38.518333",
    "geom:latitude": 36.23415127365177,
    "geom:longitude": -107.65313834112311,
    "src:alt_label": "swim-path",
    "src:geom": "swim",
    "swim:altitudes": [
      "107",
      "120",
      "136",
      "156",
      "190",
      "207",
      "220",
      "233",
      "246",
      "258",
      "263",
      "270",
      "276",
      "281",
      "284",
      "285",
      "289C",
      "290C",
      "290C",
      "290C",
      "290C",
      "290C",
      "290C",
      "290C",
      "290C",
      "290C",
      "290C",
      "290C",
      "290C",
      "290C",
      "290C",
      "290C",
      "290C",
      "290C",
      "290C",
      "290C",
      "290C",
      "290C",
      "290C",
      "290C",
      "290C",
      "290C",
      "290C",
      "290C",
      "290C",
      "290C",
      "290C",
      "290",
      "290",
      "291",
      "298",
      "302",
      "308",
      "311",
      "315",
      "316",
      "320",
      "325",
      "334",
      "339",
      "346",
      "349C",
      "350C",
      "350C",
      "350C",
      "350C",
      "350C",
      "350C",
      "350C",
      "350C",
      "350C",
      "350C",
      "350C",
      "350C",
      "350C",
      "350C",
      "350C",
      "350C",
      "350C",
      "350C",
      "350C",
      "350C",
      "350C",
      "350C",
      "350C",
      "350C",
      "350C",
      "350C",
      "350C",
      "350C",
      "350C",
      "350C",
      "350C",
      "350C",
      "350C",
      "350C",
      "350C",
      "350C",
      "350C",
      "350C",
      "350C",
      "350C",
      "350C",
      "350C",
      "350C",
      "350C",
      "350C",
      "350C",
      "350C",
      "350C",
      "350C",
      "350C",
      "350C",
      "350C",
      "350C",
      "350C",
      "350C",
      "350C",
      "350C",
      "350C",
      "350C",
      "350C",
      "350C",
      "350C",
      "350C",
      "350C",
      "350C",
      "350C",
      "350C",
      "350C",
      "350C",
      "350C",
      "350C",
      "350C",
      "350C",
      "350C",
      "350C",
      "350C",
      "350C",
      "350C",
      "350C",
      "350C",
      "350C",
      "350C",
      "350C",
      "350C",
      "350C",
      "350C",
      "350C",
      "350C",
      "350C",
      "350C",
      "350C",
      "350C",
      "350C",
      "350C",
      "350C",
      "350C",
      "350C",
      "350C",
      "350C",
      "350C",
      "350C",
      "350C",
      "350C",
      "350C",
      "350C",
      "350C",
      "350C",
      "350C",
      "350C",
      "350C",
      "350C",
      "350C",
      "350C",
      "350C",
      "350C",
      "350C",
      "350C",
      "350C",
      "350C",
      "350C",
      "350C",
      "350C",
      "350C",
      "350C",
      "350C",
      "350C",
      "350C",
      "350C",
      "350C",
      "350C",
      "350C",
      "350C",
      "350C",
      "350C",
      "350C",
      "350C",
      "350C",
      "350C",
      "350C",
      "350C",
      "350C",
      "350C",
      "350C",
      "350C",
      "350C",
      "350C",
      "350C",
      "350C",
      "350C",
      "350",
      "350",
      "350",
      "339",
      "330C",
      "330C",
      "330C",
      "330C",
      "330C",
      "330C",
      "330C",
      "330C",
      "330C",
      "330C",
      "330C",
      "330C",
      "330C",
      "330C",
      "330C",
      "330C",
      "330C",
      "330C",
      "330C",
      "330C",
      "330C",
      "330C",
      "330C",
      "330C",
      "330C",
      "330C",
      "330C",
      "330C",
      "330C",
      "330C",
      "330C",
      "330C",
      "330C",
      "330C",
      "330C",
      "330C",
      "330C",
      "330C",
      "330C",
      "330",
      "328",
      "325",
      "317",
      "316",
      "308",
      "306",
      "298",
      "296",
      "288",
      "279",
      "266",
      "258",
      "256",
      "250",
      "237",
      "216",
      "210",
      "195",
      "190",
      "174",
      "173",
      "161",
      "158C",
      "150",
      "149",
      "138",
      "135",
      "124",
      "121",
      "112",
      "107",
      "098",
      "095",
      "084",
      "082",
      "075",
      "073",
      "066",
      "064",
      "048",
      "045",
      "029",
      "025",
      "020",
      "020",
      "020",
      "017",
      "007"
    ],
    "swim:geom": "path",
    "swim:speeds": [
      299,
      335,
      351,
      362,
      381,
      385,
      395,
      405,
      413,
      420,
      421,
      424,
      422,
      427,
      426,
      445,
      447,
      457,
      454,
      474,
      471,
      494,
      493,
      497,
      500,
      498,
      500,
      497,
      499,
      497,
      496,
      496,
      496,
      496,
      496,
      497,
      497,
      497,
      497,
      497,
      496,
      496,
      496,
      495,
      495,
      495,
      495,
      495,
      495,
      495,
      495,
      493,
      492,
      491,
      491,
      491,
      495,
      496,
      491,
      487,
      481,
      479,
      478,
      477,
      476,
      476,
      475,
      474,
      474,
      473,
      473,
      474,
      475,
      476,
      478,
      478,
      478,
      477,
      477,
      477,
      477,
      476,
      475,
      476,
      474,
      473,
      473,
      472,
      471,
      471,
      471,
      471,
      471,
      471,
      472,
      472,
      472,
      472,
      473,
      473,
      473,
      473,
      473,
      472,
      472,
      471,
      470,
      469,
      469,
      469,
      469,
      469,
      469,
      469,
      470,
      470,
      470,
      468,
      467,
      467,
      466,
      466,
      465,
      465,
      465,
      465,
      466,
      467,
      468,
      467,
      466,
      465,
      464,
      464,
      463,
      463,
      461,
      460,
      458,
      457,
      457,
      456,
      456,
      457,
      465,
      461,
      465,
      462,
      464,
      463,
      465,
      464,
      465,
      465,
      465,
      464,
      464,
      462,
      460,
      459,
      459,
      458,
      457,
      457,
      457,
      457,
      457,
      457,
      457,
      458,
      457,
      458,
      458,
      459,
      463,
      466,
      471,
      473,
      474,
      476,
      476,
      475,
      478,
      477,
      478,
      478,
      479,
      480,
      478,
      480,
      478,
      480,
      478,
      480,
      478,
      479,
      479,
      479,
      479,
      478,
      478,
      477,
      477,
      475,
      474,
      471,
      471,
      470,
      470,
      469,
      468,
      467,
      467,
      466,
      467,
      468,
      468,
      473,
      477,
      479,
      479,
      480,
      481,
      481,
      480,
      479,
      477,
      475,
      474,
      474,
      474,
      474,
      474,
      472,
      471,
      469,
      468,
      469,
      468,
      467,
      466,
      466,
      458,
      464,
      460,
      463,
      460,
      462,
      460,
      461,
      460,
      462,
      462,
      463,
      464,
      465,
      465,
      468,
      470,
      470,
      469,
      467,
      468,
      469,
      478,
      478,
      471,
      466,
      458,
      452,
      439,
      441,
      430,
      426,
      413,
      399,
      367,
      370,
      345,
      334,
      321,
      319,
      308,
      311,
      306,
      302,
      281,
      283,
      273,
      277,
      255,
      256,
      225,
      227,
      223,
      223,
      213,
      216,
      208,
      211,
      195,
      175,
      165
    ],
    "swim:timestamps": [
      1786150939,
      1786151000,
      1786151060,
      1786151120,
      1786151240,
      1786151300,
      1786151360,
      1786151420,
      1786151480,
      1786151540,
      1786151574,
      1786151600,
      1786151634,
      1786151660,
      1786151694,
      1786151720,
      1786151754,
      1786151780,
      1786151814,
      1786151841,
      1786151874,
      1786151901,
      1786151934,
      1786151961,
      1786151994,
      1786152021,
      1786152054,
      1786152081,
      1786152115,
      1786152141,
      1786152175,
      1786152201,
      1786152235,
      1786152261,
      1786152295,
      1786152321,
      1786152355,
      1786152381,
      1786152415,
      1786152441,
      1786152475,
      1786152501,
      1786152535,
      1786152561,
      1786152595,
      1786152622,
      1786152655,
      1786152682,
      1786152715,
      1786152742,
      1786152775,
      1786152802,
      1786152835,
      1786152862,
      1786152896,
      1786152922,
      1786152956,
      1786152982,
      1786153016,
      1786153042,
      1786153076,
      1786153102,
      1786153136,
      1786153162,
      1786153196,
      1786153256,
      1786153316,
      1786153376,
      1786153436,
      1786153496,
      1786153556,
      1786153617,
      1786153677,
      1786153737,
      1786153797,
      1786153857,
      1786153917,
      1786153977,
      1786154037,
      1786154097,
      1786154157,
      1786154277,
      1786154338,
      1786154351,
      1786154398,
      1786154458,
      1786154471,
      1786154518,
      1786154531,
      1786154578,
      1786154591,
      1786154638,
      1786154652,
      1786154698,
      1786154712,
      1786154758,
      1786154772,
      1786154818,
      1786154832,
      1786154878,
      1786154892,
      1786154938,
      1786154952,
      1786154998,
      1786155012,
      1786155072,
      1786155119,
      1786155132,
      1786155179,
      1786155192,
      1786155239,
      1786155252,
      1786155312,
      1786155359,
      1786155373,
      1786155419,
      1786155433,
      1786155493,
      1786155539,
      1786155553,
      1786155599,
      1786155613,
      1786155659,
      1786155719,
      1786155733,
      1786155779,
      1786155793,
      1786155853,
      1786155913,
      1786155973,
      1786156033,
      1786156094,
      1786156154,
      1786156214,
      1786156274,
      1786156334,
      1786156394,
      1786156454,
      1786156574,
      1786156634,
      1786156694,
      1786156754,
      1786156815,
      1786156875,
      1786156904,
      1786156935,
      1786156964,
      1786156995,
      1786157024,
      1786157055,
      1786157084,
      1786157115,
      1786157144,
      1786157175,
      1786157204,
      1786157325,
      1786157355,
      1786157385,
      1786157415,
      1786157445,
      1786157475,
      1786157505,
      1786157535,
      1786157565,
      1786157596,
      1786157625,
      1786157656,
      1786157685,
      1786157716,
      1786157745,
      1786157776,
      1786157805,
      1786157836,
      1786157863,
      1786157923,
      1786157983,
      1786158043,
      1786158103,
      1786158163,
      1786158283,
      1786158343,
      1786158403,
      1786158457,
      1786158464,
      1786158517,
      1786158524,
      1786158584,
      1786158637,
      1786158644,
      1786158697,
      1786158704,
      1786158757,
      1786158764,
      1786158817,
      1786158824,
      1786158877,
      1786158884,
      1786158937,
      1786158944,
      1786158997,
      1786159004,
      1786159057,
      1786159064,
      1786159117,
      1786159125,
      1786159177,
      1786159185,
      1786159238,
      1786159245,
      1786159298,
      1786159305,
      1786159358,
      1786159365,
      1786159426,
      1786159486,
      1786159538,
      1786159546,
      1786159598,
      1786159666,
      1786159718,
      1786159726,
      1786159778,
      1786159838,
      1786159898,
      1786159958,
      1786160018,
      1786160078,
      1786160139,
      1786160199,
      1786160259,
      1786160319,
      1786160379,
      1786160439,
      1786160499,
      1786160559,
      1786160619,
      1786160679,
      1786160739,
      1786160816,
      1786160859,
      1786160876,
      1786160919,
      1786160937,
      1786160979,
      1786160997,
      1786161039,
      1786161057,
      1786161100,
      1786161117,
      1786161160,
      1786161177,
      1786161220,
      1786161237,
      1786161280,
      1786161297,
      1786161340,
      1786161357,
      1786161400,
      1786161417,
      1786161460,
      1786161477,
      1786161520,
      1786161537,
      1786161580,
      1786161640,
      1786161717,
      1786161760,
      1786161777,
      1786161798,
      1786161837,
      1786161882,
      1786161897,
      1786161940,
      1786161957,
      1786162000,
      1786162017,
      1786162062,
      1786162077,
      1786162121,
      1786162137,
      1786162181,
      1786162198,
      1786162243,
      1786162258,
      1786162301,
      1786162318,
      1786162363,
      1786162378,
      1786162423,
      1786162438,
      1786162483,
      1786162498,
      1786162543,
      1786162558,
      1786162603,
      1786162618,
      1786162663,
      1786162678,
      1786162724,
      1786162738,
      1786162784,
      1786162844,
      1786162918
    ],
    "wof:geomhash": "8623953725c854863a8b3854577b1a24",
    "wof:id": 2047880089,
    "wof:repo": "sfomuseum-data-flights-2026-08"
  },
  "bbox": [
    -122.015,
    29.993055555555557,
    -95.115,
    38.51833333333333
  ],
  "geometry": {"type":"LineString","coordinates":[[-122.015,37.82055555555556],[-121.9038888888889,37.844722222222224],[-121.78361111111111,37.86694444444444],[-121.64222222222223,37.893055555555556],[-121.38611111111112,37.94],[-121.25138888888888,37.964444444444446],[-121.11944444444444,37.988055555555555],[-120.97944444444444,38.01027777777778],[-120.83694444444444,38.03194444444444],[-120.69055555555556,38.05472222222222],[-120.6211111111111,38.06388888888888],[-120.5425,38.07694444444445],[-120.47416666666666,38.08527777777778],[-120.39611111111111,38.09916666666667],[-120.32527777777777,38.10888888888889],[-120.24333333333334,38.121944444444445],[-120.1675,38.130833333333335],[-120.08361111111111,38.14555555555555],[-120.00916666666667,38.15555555555555],[-119.92111111111112,38.16916666666666],[-119.84333333333333,38.17916666666667],[-119.74944444444445,38.19361111111111],[-119.66916666666667,38.20333333333333],[-119.5761111111111,38.218611111111116],[-119.49583333333334,38.22833333333333],[-119.39888888888889,38.24388888888889],[-119.3236111111111,38.25333333333333],[-119.22027777777778,38.26861111111111],[-119.15222222222222,38.276666666666664],[-119.04888888888888,38.29222222222222],[-118.98111111111112,38.30083333333333],[-118.87777777777777,38.315555555555555],[-118.80916666666667,38.323888888888895],[-118.7038888888889,38.339444444444446],[-118.63611111111112,38.347500000000004],[-118.53194444444445,38.36222222222222],[-118.43222222222222,38.37555555555556],[-118.35916666666667,38.38527777777778],[-118.27277777777778,38.396388888888886],[-118.18722222222223,38.4075],[-118.10111111111111,38.41833333333333],[-118.02888888888889,38.427499999999995],[-117.92583333333334,38.44083333333333],[-117.85694444444444,38.44972222222222],[-117.75333333333333,38.463055555555556],[-117.68083333333334,38.47222222222222],[-117.57833333333333,38.485],[-117.50805555555556,38.493611111111115],[-117.40583333333333,38.505833333333335],[-117.33194444444445,38.514722222222225],[-117.22694444444444,38.51833333333333],[-117.15694444444445,38.51638888888889],[-117.05361111111111,38.51361111111111],[-116.98083333333334,38.51138888888889],[-116.87666666666667,38.50833333333333],[-116.80472222222222,38.50611111111111],[-116.70111111111112,38.50277777777778],[-116.6261111111111,38.500277777777775],[-116.52472222222222,38.49666666666667],[-116.45472222222223,38.494166666666665],[-116.35416666666666,38.49055555555556],[-116.28472222222221,38.488055555555555],[-116.18694444444445,38.48444444444444],[-116.11722222222221,38.48166666666667],[-116.01833333333333,38.47805555555556],[-115.85,38.47138888888889],[-115.68138888888889,38.46416666666667],[-115.51222222222222,38.456944444444446],[-115.34694444444445,38.44972222222222],[-115.17777777777778,38.44222222222222],[-115.01027777777777,38.43416666666666],[-114.8425,38.42611111111111],[-114.67583333333334,38.41777777777777],[-114.50638888888889,38.409166666666664],[-114.33833333333332,38.39833333333333],[-114.1738888888889,38.362500000000004],[-114.01027777777777,38.32416666666667],[-113.85083333333333,38.28638888888889],[-113.68916666666667,38.2475],[-113.53805555555556,38.190555555555555],[-113.3875,38.130833333333335],[-113.06777777777778,38.04888888888889],[-112.90555555555557,38.01583333333333],[-112.87388888888889,38.00944444444445],[-112.74277777777777,37.9825],[-112.58027777777778,37.94916666666666],[-112.54916666666666,37.942499999999995],[-112.4538888888889,37.92305555555555],[-112.38944444444445,37.90972222222222],[-112.29194444444444,37.88944444444444],[-112.22805555555556,37.876111111111115],[-112.13166666666666,37.85611111111111],[-112.06888888888888,37.8425],[-111.9713888888889,37.82361111111111],[-111.90555555555557,37.81333333333333],[-111.80777777777777,37.79833333333333],[-111.74166666666667,37.78805555555555],[-111.64527777777778,37.772777777777776],[-111.57888888888888,37.761944444444445],[-111.48194444444445,37.74638888888889],[-111.4175,37.73638888888889],[-111.31888888888888,37.720555555555556],[-111.25555555555556,37.71027777777778],[-111.15611111111112,37.69416666666666],[-111.0936111111111,37.68388888888889],[-110.93194444444445,37.6575],[-110.83694444444444,37.641666666666666],[-110.7725,37.63111111111111],[-110.67527777777778,37.615],[-110.61194444444443,37.60444444444445],[-110.51388888888889,37.58777777777778],[-110.47722222222222,37.58166666666667],[-110.31694444444445,37.55444444444444],[-110.19444444444444,37.53333333333333],[-110.155,37.526666666666664],[-110.03472222222221,37.506388888888885],[-109.99555555555555,37.5025],[-109.83027777777778,37.50416666666667],[-109.69444444444444,37.507222222222225],[-109.67,37.507777777777775],[-109.53305555555555,37.51083333333333],[-109.50694444444444,37.51138888888889],[-109.37083333333332,37.51416666666667],[-109.20805555555556,37.5175],[-109.18055555555556,37.51777777777777],[-109.04583333333333,37.52027777777778],[-109.01833333333333,37.520833333333336],[-108.85444444444444,37.52361111111111],[-108.6888888888889,37.52611111111111],[-108.52777777777777,37.52833333333333],[-108.36555555555555,37.53],[-108.20222222222222,37.53194444444444],[-108.03916666666666,37.53361111111111],[-107.87833333333333,37.53472222222222],[-107.71555555555555,37.53583333333333],[-107.55333333333333,37.536944444444444],[-107.39333333333335,37.53722222222222],[-107.23305555555555,37.53777777777778],[-106.91305555555556,37.53777777777778],[-106.75361111111111,37.53777777777778],[-106.59527777777777,37.5375],[-106.43416666666667,37.536944444444444],[-106.27527777777777,37.53583333333333],[-106.11777777777777,37.516666666666666],[-106.05916666666667,37.49638888888889],[-105.96972222222223,37.465833333333336],[-105.90527777777778,37.44333333333333],[-105.81972222222223,37.413888888888884],[-105.75555555555556,37.39138888888889],[-105.67111111111112,37.36194444444445],[-105.60722222222222,37.33972222222222],[-105.52333333333333,37.31027777777778],[-105.46000000000001,37.28777777777778],[-105.37222222222222,37.25694444444444],[-105.31166666666667,37.23583333333333],[-105.01888888888888,37.13166666666667],[-104.93,37.1],[-104.84472222222222,37.06916666666667],[-104.78694444444444,37.04833333333333],[-104.7,37.01722222222222],[-104.6438888888889,36.99722222222222],[-104.55722222222222,36.965833333333336],[-104.50027777777778,36.945277777777775],[-104.41388888888889,36.91361111111111],[-104.3561111111111,36.89222222222222],[-104.26944444444445,36.86055555555556],[-104.21361111111112,36.84027777777778],[-104.1261111111111,36.808055555555555],[-104.07138888888889,36.78805555555555],[-103.98222222222222,36.75527777777778],[-103.89888888888889,36.724722222222226],[-103.84083333333332,36.70305555555556],[-103.75416666666666,36.67055555555555],[-103.69805555555556,36.64972222222222],[-103.55083333333333,36.595],[-103.4038888888889,36.53972222222222],[-103.25611111111111,36.48388888888889],[-103.10944444444443,36.42833333333333],[-102.95972222222223,36.37166666666667],[-102.68194444444445,36.265277777777776],[-102.53361111111111,36.20777777777778],[-102.38555555555556,36.150555555555556],[-102.23805555555556,36.093611111111116],[-102.23694444444445,36.0925],[-102.08888888888889,36.03583333333333],[-102.08888888888889,36.03472222222222],[-101.95138888888889,35.96194444444445],[-101.8325,35.87166666666667],[-101.83166666666666,35.87],[-101.71388888888889,35.77972222222222],[-101.71333333333334,35.77833333333333],[-101.59444444444443,35.6875],[-101.5961111111111,35.68722222222222],[-101.47611111111111,35.594166666666666],[-101.47583333333334,35.59305555555556],[-101.35777777777777,35.50055555555556],[-101.35777777777777,35.50055555555556],[-101.23972222222223,35.407777777777774],[-101.23777777777778,35.40611111111111],[-101.12194444444444,35.31472222222222],[-101.11999999999999,35.31305555555555],[-101.00416666666666,35.22138888888889],[-101.00416666666666,35.22138888888889],[-100.89,35.130833333333335],[-100.88777777777779,35.12888888888889],[-100.77555555555556,35.03944444444444],[-100.77388888888889,35.03805555555555],[-100.66777777777779,34.95305555555556],[-100.66000000000001,34.94694444444444],[-100.55444444444444,34.86194444444445],[-100.54722222222222,34.85611111111111],[-100.43666666666667,34.7675],[-100.43472222222222,34.76583333333333],[-100.32944444444443,34.68055555555555],[-100.21000000000001,34.58388888888889],[-100.10444444444444,34.49777777777778],[-100.09694444444445,34.49166666666667],[-100.00555555555556,34.41638888888889],[-99.87527777777777,34.31027777777778],[-99.77583333333334,34.228611111111114],[-99.76027777777777,34.215833333333336],[-99.65972222222223,34.13305555555556],[-99.5325,34.02777777777778],[-99.41972222222223,33.93388888888889],[-99.3175,33.84861111111111],[-99.20583333333333,33.75555555555555],[-99.09388888888888,33.66166666666666],[-98.98083333333334,33.566111111111105],[-98.87055555555555,33.473333333333336],[-98.75805555555556,33.37833333333333],[-98.64833333333334,33.285],[-98.53805555555556,33.19083333333333],[-98.42611111111111,33.09527777777778],[-98.31777777777778,33.0025],[-98.20916666666668,32.909166666666664],[-98.10166666666666,32.81666666666667],[-97.99444444444444,32.72361111111111],[-97.88416666666667,32.635555555555555],[-97.73916666666666,32.52027777777778],[-97.66166666666668,32.4575],[-97.6261111111111,32.431666666666665],[-97.55305555555556,32.36972222222222],[-97.52555555555556,32.347500000000004],[-97.44611111111111,32.277499999999996],[-97.41638888888889,32.25],[-97.34388888888888,32.183611111111105],[-97.31277777777777,32.155277777777776],[-97.2425,32.090833333333336],[-97.21111111111111,32.06166666666666],[-97.14027777777778,31.99638888888889],[-97.10777777777777,31.96611111111111],[-97.0261111111111,31.890277777777776],[-97.00527777777778,31.871111111111112],[-96.9213888888889,31.793333333333337],[-96.90277777777779,31.77611111111111],[-96.81916666666666,31.698333333333334],[-96.79972222222221,31.68],[-96.71527777777779,31.601111111111113],[-96.69555555555556,31.5825],[-96.6125,31.504166666666666],[-96.59194444444444,31.485277777777778],[-96.50972222222222,31.408055555555553],[-96.48944444444444,31.388055555555557],[-96.42416666666666,31.298333333333336],[-96.34444444444443,31.18305555555556],[-96.24916666666667,31.04527777777778],[-96.18722222222223,30.955277777777777],[-96.1713888888889,30.9325],[-96.13861111111112,30.883888888888887],[-96.09777777777778,30.824444444444445],[-96.03694444444444,30.732499999999998],[-96.01722222222222,30.706666666666667],[-95.96888888888888,30.635555555555555],[-95.95277777777778,30.611944444444447],[-95.9,30.534444444444446],[-95.88583333333334,30.513055555555557],[-95.82527777777777,30.44361111111111],[-95.81333333333333,30.43305555555556],[-95.75611111111111,30.37472222222222],[-95.74027777777778,30.35888888888889],[-95.6888888888889,30.305833333333332],[-95.67444444444445,30.291111111111114],[-95.62249999999999,30.234722222222224],[-95.61083333333333,30.22472222222222],[-95.57083333333333,30.18305555555556],[-95.55055555555555,30.16222222222222],[-95.49972222222222,30.108333333333334],[-95.4888888888889,30.1],[-95.41722222222222,30.092222222222222],[-95.40333333333334,30.092499999999998],[-95.3325,30.093055555555555],[-95.31888888888888,30.092499999999998],[-95.25527777777778,30.092222222222222],[-95.24333333333334,30.092499999999998],[-95.18527777777778,30.091944444444444],[-95.17277777777778,30.092499999999998],[-95.11916666666666,30.079722222222223],[-95.115,30.07138888888889],[-95.11888888888888,30.022777777777776],[-95.12083333333332,30.012777777777778],[-95.16611111111112,29.99361111111111],[-95.22638888888889,29.993055555555557],[-95.28694444444444,29.99361111111111]]}
}
