{
  "id": 2047992283,
  "type": "Feature",
  "properties": {
    "date:inception_lower": "2026-08-16",
    "date:inception_upper": "2026-08-16",
    "edtf:cessation": "",
    "edtf:inception": "2026-08-16",
    "flysfo:actual_timestamp": -1,
    "flysfo:airline": "LA",
    "flysfo:base_airline": "",
    "flysfo:base_flight_number": "7024",
    "flysfo:date": "2026-08-16",
    "flysfo:estimated_timestamp": 1786940040,
    "flysfo:event": "A",
    "flysfo:flight_number": "LA7024",
    "flysfo:gate": "C7",
    "flysfo:journey": "BOS-SFO",
    "flysfo:scheduled_timestamp": 1786938660,
    "flysfo:timestamp": 1786940040,
    "geom:area": 0,
    "geom:bbox": "-71.014750,0.000000,0.000000,42.362322",
    "geom:latitude": 21.181161,
    "geom:longitude": -35.507375,
    "iata:airline": "LA",
    "iata:base_airline": "",
    "icao:airline": "LAN",
    "icao:base_airline": "LAN",
    "lbl:latitude": 37.61799,
    "lbl:longitude": -122.370943,
    "sfomuseum:airline_id": 1159285641,
    "sfomuseum:arrival_id": 102527513,
    "sfomuseum:base_flight_id": "20260816-A-LAN-7024",
    "sfomuseum:departure_id": 102530741,
    "sfomuseum:flight_id": "20260816-A-LAN-7024",
    "sfomuseum:flight_number": [
      "LAN7024",
      "LA7024"
    ],
    "sfomuseum:placetype": "flight",
    "src:geom": "flysfo",
    "wof:belongsto": [
      1947304067,
      102527513,
      1947304663,
      102191575,
      85633793,
      102087579,
      85922583,
      554784711,
      85688637,
      1947304669,
      1947304591,
      102085387
    ],
    "wof:country": "US",
    "wof:created": 1786983232,
    "wof:geomhash": "cd1e89ef383f117e12f9509cefd6a1e8",
    "wof:hierarchy": [
      {
        "building_id": 1947304067,
        "campus_id": 102527513,
        "concourse_id": 1947304663,
        "continent_id": 102191575,
        "country_id": 85633793,
        "county_id": 102087579,
        "custom_id": 2047992283,
        "flight_id": 2047992283,
        "locality_id": 85922583,
        "postalcode_id": 554784711,
        "region_id": 85688637,
        "venue_id": 1947304669,
        "wing_id": 1947304591
      },
      {
        "building_id": 1947304067,
        "campus_id": 102527513,
        "concourse_id": 1947304663,
        "continent_id": 102191575,
        "country_id": 85633793,
        "county_id": 102085387,
        "custom_id": 2047992283,
        "flight_id": 2047992283,
        "region_id": 85688637,
        "venue_id": 1947304669,
        "wing_id": 1947304591
      }
    ],
    "wof:id": 2047992283,
    "wof:involves": [
      102527513,
      102530741,
      1159285641,
      1947304669,
      1159285641
    ],
    "wof:lastmodified": 1786983232,
    "wof:name": "LA7024 (BOS-SFO)",
    "wof:parent_id": 1947304669,
    "wof:placetype": "custom",
    "wof:placetype_alt": [
      "flight"
    ],
    "wof:repo": "sfomuseum-data-flights-2026-08",
    "wof:superseded_by": [],
    "wof:supersedes": []
  },
  "bbox": [
    -71.01475,
    0,
    0,
    42.362322
  ],
  "geometry": {"type":"MultiPoint","coordinates":[[-71.01475,42.362322],[0,0]]}
}
