{
  "id": 2047914431,
  "type": "Feature",
  "properties": {
    "date:cessation_lower": "2026-08-10",
    "date:cessation_upper": "2026-08-10",
    "date:inception_lower": "2026-08-10",
    "date:inception_upper": "2026-08-10",
    "edtf:cessation": "2026-08-10T23:22:34Z",
    "edtf:inception": "2026-08-10T17:44:00Z",
    "flysfo:actual_timestamp": -1,
    "flysfo:airline": "AA",
    "flysfo:date": "2026-08-10",
    "flysfo:estimated_timestamp": 1786346340,
    "flysfo:event": "D",
    "flysfo:flight_number": "AA663",
    "flysfo:gate": "",
    "flysfo:journey": "SFO-PHL",
    "flysfo:scheduled_timestamp": 1786346340,
    "flysfo:timestamp": 1786346340,
    "geom:area": 0,
    "geom:bbox": "-122.370943,37.617990,-75.247885,39.880952",
    "geom:latitude": 38.749471,
    "geom:longitude": -98.809414,
    "iata:airline": "AA",
    "icao:airline": "AAL",
    "lbl:latitude": 37.61799,
    "lbl:longitude": -122.370943,
    "sfomuseum:airline_id": 1159283849,
    "sfomuseum:arrival_id": 102529403,
    "sfomuseum:departure_id": 102527513,
    "sfomuseum:flight_id": "20260810-D-AAL-663",
    "sfomuseum:flight_number": [
      "AAL663",
      "AA663"
    ],
    "sfomuseum:placetype": "flight",
    "src:geom": "flysfo",
    "src:geom_alt": [
      "swim-path"
    ],
    "wof:belongsto": [],
    "wof:concordances": {
      "swim:flight_ref": "154224708"
    },
    "wof:country": "US",
    "wof:created": 1786464686,
    "wof:geomhash": "262283982e32a09ea653beb1776c6fc7",
    "wof:hierarchy": [
      {
        "custom_id": 2047914431,
        "flight_id": 2047914431
      }
    ],
    "wof:id": 2047914431,
    "wof:involves": [
      102529403,
      102527513,
      1159283849,
      -1
    ],
    "wof:lastmodified": 1786465287,
    "wof:name": "AA663 (SFO-PHL)",
    "wof:parent_id": -1,
    "wof:placetype": "custom",
    "wof:placetype_alt": [
      "flight"
    ],
    "wof:repo": "sfomuseum-data-flights-2026-08",
    "wof:superseded_by": [],
    "wof:supersedes": []
  },
  "bbox": [
    -122.370943,
    37.61799,
    -75.247885,
    39.880952
  ],
  "geometry": {"type":"MultiPoint","coordinates":[[-122.370943,37.61799],[-75.247885,39.880952]]}
}
