{
  "id": 2047993017,
  "type": "Feature",
  "properties": {
    "geom:area": 0,
    "geom:bbox": "-122.356540,36.721600,-121.878200,37.611000",
    "geom:latitude": 37.210120600499465,
    "geom:longitude": -122.06921055865507,
    "src:alt_label": "swim-approach",
    "src:geom": "swim",
    "swim:elevations": [
      5285,
      5063,
      4883,
      4583,
      4483,
      4256,
      4135,
      3786,
      3693,
      3321,
      3211,
      3029,
      2886,
      2865,
      2693,
      2540,
      2273,
      2105,
      1949,
      1885,
      1726,
      1540,
      1469,
      1344,
      1295,
      1100,
      998,
      852,
      575,
      492,
      365,
      334,
      208,
      94,
      18
    ],
    "swim:geom": "approach",
    "swim:timestamps": [
      1786911838,
      1786911864,
      1786911884,
      1786911920,
      1786911930,
      1786911956,
      1786911971,
      1786912016,
      1786912025,
      1786912067,
      1786912080,
      1786912114,
      1786912135,
      1786912140,
      1786912185,
      1786912208,
      1786912251,
      1786912271,
      1786912292,
      1786912303,
      1786912337,
      1786912377,
      1786912392,
      1786912413,
      1786912426,
      1786912457,
      1786912489,
      1786912511,
      1786912558,
      1786912581,
      1786912614,
      1786912626,
      1786912664,
      1786912697,
      1786912715
    ],
    "wof:geomhash": "feb4b81cace6d7e06f8e09b7ba83badd",
    "wof:id": 2047993017,
    "wof:repo": "sfomuseum-data-flights-2026-08"
  },
  "bbox": [
    -122.35654,
    36.7216,
    -121.8782,
    37.611
  ],
  "geometry": {"type":"LineString","coordinates":[[-121.8782,36.7216],[-121.89946,36.76233],[-121.90874,36.79484],[-121.92497,36.85207],[-121.92943,36.86782],[-121.94077,36.90883],[-121.94735,36.93209],[-121.97121,36.99863],[-121.97637,37.01185],[-122.00043,37.07363],[-122.00779,37.09239],[-122.02647,37.14002],[-122.03809,37.16908],[-122.0403,37.17455],[-122.06098,37.22863],[-122.07121,37.25508],[-122.0902,37.30244],[-122.09877,37.32412],[-122.10846,37.34864],[-122.11362,37.36196],[-122.12675,37.39778],[-122.14049,37.43791],[-122.14521,37.45203],[-122.15175,37.47203],[-122.15576,37.48369],[-122.16553,37.51166],[-122.18056,37.53588],[-122.20066,37.54542],[-122.24315,37.56336],[-122.26172,37.57112],[-122.28586,37.58125],[-122.29457,37.58487],[-122.32166,37.59638],[-122.34512,37.60606],[-122.35654,37.611]]}
}
