{
  "id": 2047882915,
  "type": "Feature",
  "properties": {
    "geom:area": 0,
    "geom:bbox": "-122.650000,37.345278,-70.782500,43.473333",
    "geom:latitude": 42.32585753858728,
    "geom:longitude": -97.43592190735556,
    "src:alt_label": "swim-path",
    "src:geom": "swim",
    "swim:altitudes": [
      "004",
      "029",
      "055",
      "076",
      "097",
      "109",
      "117",
      "131",
      "145",
      "165",
      "182",
      "193",
      "206",
      "228",
      "237",
      "259",
      "260",
      "260",
      "263",
      "277",
      "287",
      "296",
      "303",
      "320C",
      "320C",
      "320C",
      "320C",
      "320C",
      "320C",
      "320C",
      "320C",
      "320C",
      "320C",
      "320C",
      "320C",
      "320C",
      "320C",
      "320C",
      "320C",
      "320C",
      "320C",
      "320C",
      "320C",
      "320C",
      "320C",
      "320C",
      "321C",
      "320C",
      "320C",
      "320C",
      "320C",
      "320C",
      "320C",
      "320C",
      "320C",
      "320C",
      "320C",
      "320C",
      "320C",
      "320C",
      "320C",
      "320C",
      "320C",
      "320C",
      "320C",
      "320C",
      "320C",
      "320C",
      "320C",
      "320C",
      "320C",
      "320C",
      "320C",
      "320C",
      "320C",
      "320C",
      "320C",
      "320C",
      "320C",
      "320C",
      "320C",
      "320C",
      "320C",
      "320C",
      "320C",
      "321C",
      "320C",
      "320C",
      "320C",
      "320C",
      "320C",
      "320C",
      "320C",
      "320C",
      "320C",
      "320C",
      "320C",
      "320C",
      "320C",
      "320C",
      "320C",
      "320C",
      "320C",
      "320C",
      "320C",
      "320C",
      "320C",
      "320C",
      "320C",
      "320C",
      "320C",
      "320C",
      "320C",
      "320C",
      "320C",
      "320C",
      "320C",
      "320C",
      "320C",
      "320C",
      "320C",
      "320C",
      "320C",
      "320C",
      "320C",
      "320C",
      "320C",
      "320C",
      "320C",
      "320C",
      "320C",
      "320C",
      "320C",
      "320C",
      "320C",
      "320C",
      "320C",
      "320C",
      "320C",
      "320C",
      "320C",
      "320C",
      "320C",
      "320C",
      "320C",
      "320C",
      "320C",
      "320C",
      "320C",
      "320C",
      "320C",
      "320C",
      "320C",
      "320C",
      "320C",
      "320C",
      "320C",
      "320C",
      "320C",
      "320C",
      "320C",
      "320C",
      "320C",
      "320C",
      "319C",
      "320C",
      "320C",
      "320C",
      "320C",
      "320C",
      "320C",
      "320C",
      "320C",
      "320C",
      "320C",
      "320C",
      "320C",
      "320C",
      "320C",
      "320C",
      "320C",
      "320C",
      "320C",
      "320C",
      "320C",
      "320C",
      "320C",
      "320C",
      "320C",
      "320C",
      "320C",
      "320C",
      "320C",
      "320C",
      "320C",
      "320C",
      "320C",
      "320C",
      "320C",
      "320C",
      "320C",
      "320C",
      "320C",
      "320C",
      "320C",
      "320C",
      "320C",
      "320C",
      "320C",
      "320C",
      "320C",
      "320C",
      "320C",
      "320C",
      "320C",
      "320C",
      "320C",
      "320C",
      "320C",
      "320C",
      "320C",
      "320C",
      "320C",
      "320C",
      "320C",
      "320C",
      "320C",
      "320C",
      "320C",
      "320C",
      "320C",
      "320C",
      "320C",
      "320C",
      "320C",
      "320C",
      "320C",
      "320C",
      "324",
      "333",
      "340C",
      "340C",
      "340C",
      "340C",
      "340C",
      "340C",
      "340C",
      "340C",
      "340C",
      "340C",
      "340C",
      "340C",
      "340C",
      "340C",
      "340C",
      "340C",
      "340C",
      "340C",
      "340C",
      "340C",
      "340C",
      "340C",
      "340C",
      "340C",
      "340C",
      "340C",
      "340C",
      "340C",
      "340C",
      "340C",
      "340C",
      "340C",
      "340C",
      "340C",
      "340C",
      "341C",
      "341C",
      "340C",
      "340C",
      "340C",
      "340C",
      "340C",
      "340C",
      "340C",
      "340C",
      "340C",
      "340C",
      "340C",
      "340C",
      "340C",
      "340C",
      "340C",
      "340C",
      "340C",
      "340C",
      "340C",
      "340C",
      "340C",
      "340C",
      "340C",
      "340C",
      "340C",
      "340C",
      "340C",
      "341C",
      "341C",
      "341C",
      "340C",
      "340C",
      "340C",
      "340C",
      "340C",
      "340C",
      "340C",
      "340C",
      "340C",
      "340C",
      "340C",
      "340C",
      "340C",
      "340C",
      "340C",
      "340C",
      "340C",
      "340C",
      "340C",
      "340C",
      "340C",
      "340C",
      "340C",
      "340C",
      "340C",
      "340C",
      "340C",
      "340C",
      "340C",
      "340C",
      "340C",
      "340C",
      "340C",
      "340C",
      "340C",
      "340C",
      "340C",
      "340C",
      "340C",
      "340C",
      "341C",
      "341C",
      "340C",
      "340C",
      "340C",
      "340C",
      "340C",
      "340C",
      "340C",
      "340C",
      "340C",
      "340C",
      "340C",
      "340C",
      "340C",
      "340C",
      "340C",
      "341C",
      "341C",
      "341C",
      "340C",
      "340C",
      "340C",
      "340C",
      "340C",
      "340C",
      "340C",
      "340C",
      "340C",
      "340C",
      "340C",
      "340C",
      "340C",
      "340C",
      "340C",
      "340C",
      "340C",
      "340C",
      "340C",
      "340C",
      "340C",
      "340C",
      "340C",
      "340C",
      "340C",
      "340C",
      "340C",
      "340C",
      "340C",
      "340C",
      "340C",
      "341C",
      "341C",
      "340C",
      "340C",
      "340C",
      "340C",
      "340C",
      "340C",
      "340C",
      "340C",
      "340C",
      "340C",
      "340C",
      "340C",
      "340C",
      "340C",
      "340C",
      "340C",
      "340C",
      "340C",
      "340C",
      "340C",
      "340C",
      "340C",
      "340C",
      "340C",
      "340C",
      "341C",
      "340C",
      "340C",
      "340C",
      "340C",
      "340C",
      "340C",
      "340C",
      "340C",
      "340C",
      "340C",
      "340C",
      "340C",
      "340C",
      "340C",
      "340C",
      "340C",
      "340C",
      "340C",
      "340C",
      "340C",
      "340C",
      "340C",
      "340C",
      "340C",
      "340C",
      "340C",
      "340C",
      "340C",
      "340C",
      "340C",
      "340C",
      "340C",
      "340C",
      "340C",
      "340C",
      "340C",
      "340C",
      "340C",
      "340C",
      "340C",
      "340C",
      "340C",
      "340C",
      "340C",
      "340C",
      "340C",
      "340C",
      "340C",
      "340C",
      "340C",
      "340C",
      "340C",
      "340C",
      "340C",
      "340C",
      "340C",
      "340C",
      "340C",
      "340C",
      "340C",
      "340C",
      "340C",
      "340C",
      "340C",
      "340C",
      "340C",
      "340C",
      "341C",
      "340C",
      "340C",
      "340C",
      "340C",
      "340C",
      "340C",
      "340",
      "334",
      "320",
      "306",
      "292",
      "279",
      "266",
      "248",
      "237",
      "229",
      "228",
      "209",
      "209",
      "188",
      "170",
      "151",
      "130",
      "113",
      "110",
      "110",
      "109",
      "108C",
      "096",
      "095",
      "080",
      "070",
      "066",
      "057",
      "045",
      "040",
      "032",
      "022",
      "012",
      "005",
      "110"
    ],
    "swim:geom": "path",
    "swim:speeds": [
      175,
      227,
      297,
      272,
      282,
      315,
      364,
      385,
      407,
      412,
      397,
      397,
      404,
      384,
      382,
      384,
      383,
      383,
      394,
      430,
      433,
      433,
      431,
      426,
      422,
      422,
      423,
      423,
      425,
      424,
      426,
      425,
      427,
      425,
      427,
      430,
      428,
      430,
      429,
      430,
      429,
      429,
      428,
      429,
      429,
      429,
      428,
      428,
      427,
      427,
      426,
      427,
      427,
      427,
      427,
      427,
      427,
      427,
      426,
      425,
      424,
      423,
      423,
      421,
      420,
      418,
      417,
      416,
      416,
      416,
      416,
      416,
      414,
      415,
      415,
      415,
      413,
      412,
      412,
      411,
      410,
      410,
      411,
      412,
      413,
      414,
      414,
      414,
      414,
      414,
      414,
      414,
      415,
      415,
      415,
      417,
      419,
      421,
      423,
      423,
      423,
      414,
      421,
      419,
      418,
      419,
      421,
      420,
      424,
      421,
      420,
      422,
      420,
      421,
      418,
      414,
      414,
      414,
      414,
      415,
      415,
      416,
      416,
      416,
      417,
      416,
      416,
      416,
      415,
      415,
      414,
      413,
      413,
      412,
      412,
      411,
      411,
      411,
      410,
      410,
      409,
      409,
      409,
      409,
      409,
      409,
      409,
      409,
      409,
      409,
      409,
      409,
      409,
      409,
      408,
      407,
      406,
      405,
      403,
      403,
      403,
      403,
      402,
      401,
      400,
      400,
      416,
      407,
      399,
      403,
      404,
      405,
      405,
      405,
      405,
      405,
      405,
      405,
      405,
      405,
      405,
      405,
      404,
      404,
      404,
      403,
      402,
      402,
      401,
      401,
      401,
      401,
      401,
      400,
      399,
      399,
      399,
      399,
      399,
      400,
      400,
      401,
      401,
      401,
      401,
      401,
      401,
      401,
      402,
      402,
      403,
      403,
      403,
      403,
      403,
      403,
      403,
      403,
      403,
      404,
      405,
      405,
      406,
      406,
      407,
      407,
      407,
      406,
      406,
      406,
      406,
      406,
      407,
      408,
      409,
      410,
      411,
      413,
      416,
      417,
      419,
      417,
      416,
      415,
      415,
      415,
      415,
      417,
      414,
      416,
      416,
      414,
      417,
      417,
      414,
      417,
      418,
      414,
      418,
      418,
      415,
      417,
      415,
      417,
      416,
      415,
      416,
      416,
      415,
      416,
      417,
      415,
      417,
      418,
      415,
      418,
      419,
      415,
      419,
      421,
      419,
      418,
      416,
      418,
      418,
      417,
      416,
      417,
      417,
      417,
      417,
      417,
      417,
      417,
      416,
      416,
      417,
      416,
      416,
      417,
      417,
      418,
      417,
      419,
      420,
      422,
      421,
      422,
      422,
      422,
      422,
      422,
      422,
      422,
      421,
      421,
      422,
      421,
      422,
      422,
      420,
      422,
      419,
      422,
      419,
      419,
      418,
      418,
      416,
      418,
      415,
      418,
      414,
      412,
      413,
      408,
      412,
      407,
      410,
      405,
      409,
      404,
      404,
      404,
      404,
      405,
      404,
      406,
      405,
      406,
      406,
      407,
      405,
      405,
      404,
      404,
      404,
      402,
      403,
      402,
      401,
      401,
      403,
      403,
      405,
      406,
      407,
      406,
      407,
      406,
      405,
      405,
      403,
      401,
      401,
      401,
      402,
      402,
      402,
      403,
      403,
      404,
      404,
      403,
      403,
      403,
      404,
      405,
      404,
      404,
      405,
      407,
      408,
      409,
      410,
      409,
      407,
      406,
      407,
      407,
      407,
      408,
      407,
      407,
      407,
      408,
      409,
      410,
      411,
      411,
      410,
      410,
      411,
      413,
      414,
      415,
      415,
      415,
      415,
      416,
      417,
      418,
      418,
      420,
      419,
      421,
      420,
      421,
      420,
      419,
      419,
      415,
      415,
      413,
      414,
      411,
      413,
      409,
      412,
      408,
      411,
      408,
      410,
      408,
      410,
      410,
      411,
      411,
      412,
      412,
      413,
      412,
      412,
      412,
      412,
      412,
      412,
      412,
      413,
      413,
      412,
      412,
      412,
      412,
      412,
      411,
      411,
      412,
      413,
      413,
      413,
      414,
      414,
      414,
      414,
      414,
      415,
      415,
      415,
      414,
      415,
      415,
      415,
      415,
      416,
      417,
      418,
      419,
      420,
      419,
      418,
      418,
      419,
      420,
      421,
      421,
      421,
      421,
      421,
      422,
      423,
      424,
      427,
      433,
      435,
      442,
      426,
      407,
      396,
      390,
      395,
      384,
      388,
      381,
      373,
      364,
      365,
      337,
      305,
      306,
      269,
      272,
      256,
      260,
      258,
      246,
      249,
      240,
      232,
      226,
      200,
      196,
      162,
      135,
      122
    ],
    "swim:timestamps": [
      1786232285,
      1786232357,
      1786232467,
      1786232527,
      1786232587,
      1786232647,
      1786232707,
      1786232768,
      1786232828,
      1786232888,
      1786232948,
      1786233008,
      1786233068,
      1786233128,
      1786233188,
      1786233308,
      1786233368,
      1786233428,
      1786233488,
      1786233669,
      1786233729,
      1786233789,
      1786233849,
      1786233969,
      1786234029,
      1786234089,
      1786234149,
      1786234182,
      1786234209,
      1786234242,
      1786234270,
      1786234302,
      1786234330,
      1786234362,
      1786234390,
      1786234422,
      1786234450,
      1786234482,
      1786234510,
      1786234543,
      1786234570,
      1786234603,
      1786234630,
      1786234663,
      1786234690,
      1786234723,
      1786234750,
      1786234783,
      1786234810,
      1786234843,
      1786234870,
      1786234903,
      1786234930,
      1786234963,
      1786234990,
      1786235023,
      1786235051,
      1786235083,
      1786235111,
      1786235144,
      1786235171,
      1786235204,
      1786235231,
      1786235264,
      1786235291,
      1786235324,
      1786235351,
      1786235384,
      1786235444,
      1786235504,
      1786235564,
      1786235624,
      1786235684,
      1786235745,
      1786235805,
      1786235865,
      1786235925,
      1786235985,
      1786236045,
      1786236165,
      1786236225,
      1786236285,
      1786236346,
      1786236406,
      1786236466,
      1786236526,
      1786236586,
      1786236646,
      1786236706,
      1786236766,
      1786236826,
      1786236886,
      1786236947,
      1786237007,
      1786237067,
      1786237127,
      1786237187,
      1786237247,
      1786237307,
      1786237367,
      1786237427,
      1786237527,
      1786237595,
      1786237608,
      1786237647,
      1786237668,
      1786237715,
      1786237728,
      1786237767,
      1786237775,
      1786237788,
      1786237828,
      1786237848,
      1786237888,
      1786237908,
      1786237955,
      1786237968,
      1786238008,
      1786238028,
      1786238068,
      1786238088,
      1786238128,
      1786238136,
      1786238148,
      1786238196,
      1786238208,
      1786238256,
      1786238269,
      1786238308,
      1786238316,
      1786238329,
      1786238376,
      1786238389,
      1786238428,
      1786238449,
      1786238489,
      1786238496,
      1786238509,
      1786238556,
      1786238569,
      1786238609,
      1786238629,
      1786238669,
      1786238689,
      1786238729,
      1786238736,
      1786238796,
      1786238857,
      1786238910,
      1786238917,
      1786238977,
      1786239037,
      1786239090,
      1786239157,
      1786239217,
      1786239270,
      1786239337,
      1786239397,
      1786239451,
      1786239457,
      1786239511,
      1786239517,
      1786239577,
      1786239631,
      1786239638,
      1786239691,
      1786239698,
      1786239758,
      1786239818,
      1786239871,
      1786239938,
      1786239991,
      1786240052,
      1786240058,
      1786240118,
      1786240172,
      1786240178,
      1786240232,
      1786240238,
      1786240298,
      1786240352,
      1786240359,
      1786240412,
      1786240419,
      1786240479,
      1786240539,
      1786240592,
      1786240599,
      1786240653,
      1786240659,
      1786240713,
      1786240773,
      1786240779,
      1786240839,
      1786240893,
      1786240953,
      1786240959,
      1786241019,
      1786241079,
      1786241131,
      1786241139,
      1786241191,
      1786241200,
      1786241260,
      1786241311,
      1786241320,
      1786241371,
      1786241380,
      1786241440,
      1786241491,
      1786241500,
      1786241551,
      1786241560,
      1786241620,
      1786241680,
      1786241740,
      1786241800,
      1786241860,
      1786241920,
      1786241980,
      1786242040,
      1786242101,
      1786242161,
      1786242221,
      1786242281,
      1786242341,
      1786242401,
      1786242461,
      1786242521,
      1786242581,
      1786242641,
      1786242701,
      1786242761,
      1786242821,
      1786242881,
      1786242941,
      1786243001,
      1786243062,
      1786243122,
      1786243182,
      1786243242,
      1786243302,
      1786243362,
      1786243422,
      1786243482,
      1786243542,
      1786243602,
      1786243631,
      1786243642,
      1786243662,
      1786243691,
      1786243702,
      1786243722,
      1786243752,
      1786243762,
      1786243782,
      1786243812,
      1786243822,
      1786243842,
      1786243872,
      1786243882,
      1786243902,
      1786243942,
      1786243962,
      1786243992,
      1786244002,
      1786244022,
      1786244052,
      1786244062,
      1786244083,
      1786244112,
      1786244122,
      1786244143,
      1786244172,
      1786244182,
      1786244203,
      1786244232,
      1786244242,
      1786244263,
      1786244302,
      1786244323,
      1786244352,
      1786244362,
      1786244383,
      1786244412,
      1786244472,
      1786244483,
      1786244503,
      1786244533,
      1786244543,
      1786244563,
      1786244603,
      1786244623,
      1786244663,
      1786244683,
      1786244713,
      1786244723,
      1786244743,
      1786244773,
      1786244783,
      1786244803,
      1786244833,
      1786244843,
      1786244863,
      1786244893,
      1786244903,
      1786244923,
      1786244963,
      1786244983,
      1786245013,
      1786245023,
      1786245043,
      1786245073,
      1786245083,
      1786245133,
      1786245193,
      1786245204,
      1786245253,
      1786245264,
      1786245324,
      1786245374,
      1786245384,
      1786245434,
      1786245444,
      1786245494,
      1786245504,
      1786245554,
      1786245564,
      1786245614,
      1786245624,
      1786245674,
      1786245684,
      1786245734,
      1786245794,
      1786245804,
      1786245854,
      1786245864,
      1786245914,
      1786245924,
      1786245974,
      1786245984,
      1786246034,
      1786246044,
      1786246094,
      1786246105,
      1786246155,
      1786246165,
      1786246215,
      1786246225,
      1786246285,
      1786246335,
      1786246345,
      1786246395,
      1786246405,
      1786246455,
      1786246515,
      1786246525,
      1786246575,
      1786246585,
      1786246645,
      1786246695,
      1786246705,
      1786246755,
      1786246765,
      1786246815,
      1786246875,
      1786246885,
      1786246935,
      1786246946,
      1786246996,
      1786247066,
      1786247126,
      1786247186,
      1786247246,
      1786247306,
      1786247366,
      1786247426,
      1786247486,
      1786247546,
      1786247606,
      1786247666,
      1786247726,
      1786247786,
      1786247847,
      1786247907,
      1786247967,
      1786248027,
      1786248087,
      1786248147,
      1786248207,
      1786248267,
      1786248327,
      1786248387,
      1786248447,
      1786248507,
      1786248567,
      1786248627,
      1786248687,
      1786248748,
      1786248808,
      1786248868,
      1786248928,
      1786248988,
      1786249048,
      1786249108,
      1786249168,
      1786249228,
      1786249288,
      1786249348,
      1786249408,
      1786249468,
      1786249528,
      1786249588,
      1786249648,
      1786249708,
      1786249768,
      1786249829,
      1786249889,
      1786249949,
      1786250009,
      1786250043,
      1786250069,
      1786250104,
      1786250129,
      1786250164,
      1786250189,
      1786250224,
      1786250249,
      1786250284,
      1786250309,
      1786250344,
      1786250369,
      1786250404,
      1786250429,
      1786250464,
      1786250489,
      1786250524,
      1786250549,
      1786250584,
      1786250609,
      1786250644,
      1786250669,
      1786250704,
      1786250729,
      1786250764,
      1786250789,
      1786250824,
      1786250849,
      1786250884,
      1786250909,
      1786250944,
      1786250970,
      1786251004,
      1786251030,
      1786251064,
      1786251090,
      1786251124,
      1786251150,
      1786251184,
      1786251210,
      1786251244,
      1786251270,
      1786251305,
      1786251330,
      1786251365,
      1786251390,
      1786251425,
      1786251450,
      1786251485,
      1786251510,
      1786251545,
      1786251570,
      1786251605,
      1786251630,
      1786251665,
      1786251690,
      1786251725,
      1786251750,
      1786251785,
      1786251810,
      1786251845,
      1786251870,
      1786251905,
      1786251930,
      1786251965,
      1786252025,
      1786252085,
      1786252157,
      1786252217,
      1786252277,
      1786252337,
      1786252397,
      1786252457,
      1786252517,
      1786252577,
      1786252638,
      1786252698,
      1786252758,
      1786252818,
      1786252878,
      1786252938,
      1786252998,
      1786253058,
      1786253118,
      1786253178,
      1786253238,
      1786253298,
      1786253358,
      1786253384,
      1786253408,
      1786253418,
      1786253468,
      1786253478,
      1786253538,
      1786253594,
      1786253648,
      1786253718,
      1786253780,
      1786253834,
      1786253888,
      1786253948,
      1786253958,
      1786254008,
      1786254018,
      1786254078,
      1786254138,
      1786254198,
      1786254258,
      1786254319,
      1786254374,
      1786254439,
      1786254499,
      1786254554,
      1786254614,
      1786254679
    ],
    "wof:geomhash": "ade17cbc3268a60d78bc96d8f6cf9d31",
    "wof:id": 2047882915,
    "wof:repo": "sfomuseum-data-flights-2026-08"
  },
  "bbox": [
    -122.65,
    37.34527777777778,
    -70.7825,
    43.473333333333336
  ],
  "geometry": {"type":"LineString","coordinates":[[-71.01666666666667,42.35],[-70.95,42.31666666666667],[-70.7825,42.31388888888888],[-70.78944444444444,42.244166666666665],[-70.88055555555555,42.26222222222222],[-70.93694444444445,42.33861111111111],[-71.00222222222222,42.424166666666665],[-71.07055555555556,42.51611111111111],[-71.1061111111111,42.62416666666667],[-71.13194444444444,42.737500000000004],[-71.21611111111112,42.82472222222223],[-71.36472222222221,42.840833333333336],[-71.51805555555555,42.85388888888889],[-71.66388888888889,42.86638888888889],[-71.78472222222221,42.876666666666665],[-72.07055555555556,42.89972222222222],[-72.21444444444445,42.91111111111111],[-72.36999999999999,42.92333333333333],[-72.51722222222222,42.93472222222222],[-73.00166666666667,42.97027777777778],[-73.1725,42.9825],[-73.33527777777778,42.99388888888889],[-73.47472222222223,42.99777777777778],[-73.79805555555555,43.00527777777778],[-73.9575,43.00861111111111],[-74.11611111111111,43.01166666666666],[-74.27722222222222,43.015277777777776],[-74.37583333333333,43.01916666666666],[-74.44027777777778,43.022777777777776],[-74.53694444444444,43.026666666666664],[-74.60194444444444,43.02972222222222],[-74.69888888888889,43.033055555555556],[-74.76361111111112,43.03666666666666],[-74.86222222222221,43.03972222222222],[-74.92833333333334,43.04333333333333],[-75.0261111111111,43.04722222222222],[-75.0911111111111,43.04972222222222],[-75.1913888888889,43.05361111111111],[-75.25527777777778,43.05611111111111],[-75.35472222222222,43.059444444444445],[-75.42111111111112,43.06111111111111],[-75.51972222222223,43.06361111111111],[-75.585,43.065555555555555],[-75.68444444444445,43.06805555555556],[-75.74777777777778,43.069722222222225],[-75.84722222222221,43.07222222222222],[-75.9113888888889,43.073888888888895],[-76.01,43.07611111111112],[-76.07333333333332,43.0775],[-76.17055555555557,43.07972222222222],[-76.23361111111112,43.08083333333334],[-76.33222222222221,43.08277777777778],[-76.39611111111111,43.08416666666667],[-76.49555555555555,43.086111111111116],[-76.55805555555555,43.08722222222222],[-76.65583333333333,43.088055555555556],[-76.72083333333333,43.08388888888889],[-76.81527777777778,43.071111111111115],[-76.87777777777777,43.0625],[-76.97472222222223,43.04888888888889],[-77.03527777777778,43.040277777777774],[-77.13,43.026666666666664],[-77.19111111111111,43.018055555555556],[-77.28666666666666,43.003055555555555],[-77.34388888888888,42.99027777777778],[-77.43611111111112,42.967777777777776],[-77.49361111111111,42.95416666666667],[-77.5825,42.930277777777775],[-77.71888888888888,42.88972222222222],[-77.8625,42.84444444444445],[-78.00555555555556,42.79972222222222],[-78.1538888888889,42.766666666666666],[-78.30527777777777,42.7475],[-78.46388888888889,42.745555555555555],[-78.61777777777777,42.7425],[-78.7761111111111,42.739444444444445],[-78.93111111111112,42.73638888888889],[-79.08388888888888,42.733333333333334],[-79.24055555555556,42.72972222222222],[-79.54972222222221,42.722500000000004],[-79.7038888888889,42.718611111111116],[-79.85749999999999,42.714444444444446],[-80.01555555555555,42.71],[-80.17027777777778,42.70527777777778],[-80.3275,42.70027777777778],[-80.48277777777778,42.69555555555555],[-80.63972222222223,42.69027777777777],[-80.79416666666667,42.68472222222222],[-80.95,42.67916666666667],[-81.10749999999999,42.67333333333333],[-81.26333333333334,42.669444444444444],[-81.41777777777779,42.68472222222222],[-81.57305555555556,42.69944444444444],[-81.75333333333333,42.714444444444446],[-81.89333333333335,42.726111111111116],[-82.04888888888888,42.73888888888889],[-82.2088888888889,42.751666666666665],[-82.36749999999999,42.76416666666667],[-82.52583333333334,42.77638888888889],[-82.68611111111112,42.788888888888884],[-82.84277777777777,42.800555555555555],[-83.10499999999999,42.81944444444445],[-83.2936111111111,42.83361111111111],[-83.31472222222222,42.834722222222226],[-83.41805555555555,42.842222222222226],[-83.47416666666666,42.845555555555556],[-83.61083333333333,42.856944444444444],[-83.62444444444444,42.85861111111111],[-83.73472222222222,42.87],[-83.77,42.87361111111111],[-83.78083333333333,42.874722222222225],[-83.89305555555556,42.88611111111111],[-83.93722222222223,42.89055555555556],[-84.04916666666666,42.901944444444446],[-84.09138888888889,42.90611111111111],[-84.23611111111111,42.92055555555555],[-84.24527777777777,42.921388888888885],[-84.3586111111111,42.9325],[-84.4213888888889,42.93861111111111],[-84.51583333333333,42.948055555555555],[-84.57722222222222,42.95388888888889],[-84.67277777777778,42.963055555555556],[-84.7038888888889,42.965833333333336],[-84.73444444444445,42.96888888888889],[-84.8611111111111,42.98083333333334],[-84.89,42.983333333333334],[-85.01638888888888,42.995],[-85.0461111111111,42.99777777777778],[-85.13972222222223,43.006388888888885],[-85.17,43.009166666666665],[-85.2,43.011944444444445],[-85.32583333333334,43.02305555555555],[-85.35499999999999,43.02583333333333],[-85.44833333333334,43.03388888888889],[-85.50805555555556,43.03916666666667],[-85.60194444444444,43.0475],[-85.63361111111112,43.05027777777777],[-85.66277777777778,43.05277777777778],[-85.78694444444444,43.06361111111111],[-85.81583333333333,43.06583333333333],[-85.90972222222223,43.073888888888895],[-85.97305555555556,43.07916666666667],[-86.08333333333333,43.08833333333334],[-86.12833333333333,43.092222222222226],[-86.23527777777778,43.100833333333334],[-86.23527777777778,43.100833333333334],[-86.38972222222223,43.113055555555555],[-86.54333333333334,43.125277777777775],[-86.69861111111112,43.13722222222222],[-86.69861111111112,43.13722222222222],[-86.85194444444444,43.14888888888889],[-87.00638888888889,43.16027777777778],[-87.16027777777778,43.17166666666667],[-87.31472222222222,43.18277777777777],[-87.47527777777778,43.19444444444444],[-87.62666666666667,43.20472222222222],[-87.78361111111111,43.21527777777778],[-87.93694444444445,43.22555555555556],[-88.08555555555554,43.23555555555556],[-88.08777777777777,43.23555555555556],[-88.2375,43.24527777777778],[-88.24277777777777,43.245555555555555],[-88.3963888888889,43.255],[-88.51472222222222,43.2625],[-88.54833333333333,43.26444444444444],[-88.66888888888889,43.27166666666667],[-88.70166666666667,43.27194444444444],[-88.85444444444444,43.282222222222224],[-89.01083333333334,43.291666666666664],[-89.1286111111111,43.29805555555556],[-89.31916666666666,43.30833333333333],[-89.43861111111111,43.31472222222222],[-89.5925,43.32277777777778],[-89.6261111111111,43.324444444444445],[-89.78138888888888,43.3325],[-89.89944444444446,43.33833333333334],[-89.93527777777778,43.34],[-90.05222222222221,43.345555555555556],[-90.08805555555556,43.34722222222222],[-90.24222222222222,43.35444444444445],[-90.35972222222222,43.359722222222224],[-90.39250000000001,43.36138888888889],[-90.51333333333334,43.36638888888889],[-90.54416666666667,43.367777777777775],[-90.69888888888889,43.37416666666667],[-90.84944444444444,43.38027777777778],[-90.97111111111111,43.38527777777778],[-91.00083333333333,43.38638888888889],[-91.12305555555555,43.39111111111111],[-91.15361111111112,43.39222222222222],[-91.27416666666666,43.39666666666667],[-91.45611111111111,43.40333333333333],[-91.4588888888889,43.40333333333333],[-91.60833333333333,43.40861111111111],[-91.75888888888889,43.41361111111111],[-91.90861111111111,43.41833333333333],[-91.9113888888889,43.41833333333333],[-92.0625,43.42305555555555],[-92.215,43.427499999999995],[-92.36444444444444,43.43138888888889],[-92.36722222222221,43.43138888888889],[-92.51805555555555,43.43555555555555],[-92.52055555555556,43.43555555555555],[-92.67222222222223,43.43944444444444],[-92.82388888888889,43.44305555555555],[-92.82388888888889,43.44305555555555],[-92.97555555555556,43.44638888888888],[-92.97555555555556,43.44638888888888],[-93.12944444444443,43.44972222222222],[-93.28277777777778,43.45277777777778],[-93.31361111111111,43.45333333333333],[-93.43611111111112,43.455555555555556],[-93.46777777777778,43.45583333333334],[-93.62055555555555,43.45861111111111],[-93.77444444444444,43.461111111111116],[-93.92694444444444,43.463055555555556],[-94.08027777777778,43.46527777777778],[-94.2363888888889,43.466944444444444],[-94.36194444444443,43.46805555555556],[-94.51666666666667,43.469722222222224],[-94.67055555555557,43.47083333333334],[-94.82666666666667,43.47166666666667],[-94.98027777777779,43.472500000000004],[-95.13583333333334,43.473055555555554],[-95.29305555555555,43.473333333333336],[-95.44944444444445,43.473333333333336],[-95.60333333333332,43.473333333333336],[-95.75833333333334,43.473055555555554],[-95.91527777777779,43.472500000000004],[-96.06944444444444,43.471944444444446],[-96.22416666666666,43.47083333333334],[-96.38138888888888,43.469722222222224],[-96.5375,43.468333333333334],[-96.69555555555556,43.466944444444444],[-96.85277777777777,43.465],[-97.00861111111111,43.463055555555556],[-97.16611111111112,43.46083333333333],[-97.32666666666667,43.458333333333336],[-97.48666666666666,43.45583333333334],[-97.64555555555556,43.45277777777778],[-97.80611111111111,43.44972222222222],[-97.96583333333334,43.44638888888888],[-98.12249999999999,43.44277777777778],[-98.28194444444445,43.439166666666665],[-98.44027777777778,43.434999999999995],[-98.59805555555555,43.43083333333333],[-98.76694444444445,43.42611111111111],[-98.82888888888888,43.42444444444444],[-98.85888888888888,43.42305555555555],[-98.92750000000001,43.421388888888885],[-98.98916666666666,43.419444444444444],[-99.01888888888888,43.41888888888889],[-99.08666666666666,43.41638888888889],[-99.14944444444446,43.41444444444444],[-99.17916666666667,43.413333333333334],[-99.24555555555555,43.41111111111111],[-99.30777777777777,43.409166666666664],[-99.33805555555556,43.4075],[-99.40472222222223,43.405833333333334],[-99.47027777777778,43.40361111111111],[-99.49805555555555,43.40222222222222],[-99.56416666666667,43.400555555555556],[-99.65777777777778,43.39694444444444],[-99.72361111111111,43.394444444444446],[-99.78583333333333,43.39222222222222],[-99.8175,43.39083333333333],[-99.88277777777778,43.388333333333335],[-99.94333333333334,43.38611111111111],[-99.97500000000001,43.384166666666665],[-100.04027777777777,43.382222222222225],[-100.10444444444444,43.37972222222222],[-100.13333333333334,43.37833333333333],[-100.19944444444445,43.376111111111115],[-100.26416666666667,43.37305555555555],[-100.30499999999999,43.37027777777778],[-100.36083333333333,43.369166666666665],[-100.42361111111111,43.36638888888889],[-100.46416666666667,43.36333333333334],[-100.52111111111111,43.36222222222222],[-100.62666666666667,43.356944444444444],[-100.67833333333334,43.355000000000004],[-100.74361111111111,43.35194444444445],[-100.78166666666667,43.348333333333336],[-100.83805555555556,43.34777777777778],[-100.90055555555556,43.344722222222224],[-101.06027777777777,43.33694444444445],[-101.10083333333333,43.33361111111111],[-101.15416666666667,43.3325],[-101.21888888888888,43.32916666666667],[-101.2575,43.32527777777778],[-101.315,43.32416666666667],[-101.41694444444445,43.31638888888889],[-101.47333333333333,43.316111111111105],[-101.57388888888889,43.3075],[-101.63,43.30777777777777],[-101.69388888888889,43.30416666666667],[-101.73166666666667,43.3],[-101.7875,43.299166666666665],[-101.86083333333333,43.294999999999995],[-101.88944444444445,43.28972222222222],[-101.94638888888889,43.290277777777774],[-102.01888888888888,43.28611111111111],[-102.04777777777778,43.280833333333334],[-102.1061111111111,43.28111111111111],[-102.18027777777779,43.276944444444446],[-102.2088888888889,43.27111111111111],[-102.26694444444445,43.27166666666667],[-102.36888888888888,43.2625],[-102.42888888888889,43.261944444444445],[-102.5,43.2575],[-102.52833333333334,43.251666666666665],[-102.58972222222222,43.25194444444445],[-102.65916666666668,43.24777777777778],[-102.68833333333333,43.24194444444444],[-102.81833333333333,43.237500000000004],[-102.9775,43.227222222222224],[-103.00722222222223,43.22138888888889],[-103.1363888888889,43.21666666666667],[-103.16611111111112,43.211111111111116],[-103.32472222222222,43.20166666666667],[-103.45305555555557,43.19499999999999],[-103.48416666666667,43.190555555555555],[-103.61,43.18388888888889],[-103.64277777777778,43.18083333333333],[-103.76916666666666,43.17222222222222],[-103.79777777777778,43.17027777777778],[-103.9263888888889,43.16083333333333],[-103.95416666666667,43.159166666666664],[-104.08194444444445,43.149166666666666],[-104.10972222222222,43.146388888888886],[-104.2363888888889,43.1375],[-104.26611111111112,43.135],[-104.39305555555556,43.125277777777775],[-104.54583333333333,43.11333333333334],[-104.57249999999999,43.111666666666665],[-104.6975,43.100833333333334],[-104.72500000000001,43.1],[-104.84777777777778,43.08861111111111],[-104.87777777777777,43.086666666666666],[-104.99944444444445,43.07611111111112],[-105.02833333333334,43.07416666666667],[-105.15111111111112,43.06305555555555],[-105.17833333333334,43.06166666666666],[-105.30222222222221,43.05027777777777],[-105.33055555555555,43.047777777777775],[-105.48305555555555,43.03444444444444],[-105.48305555555555,43.03444444444444],[-105.63777777777779,43.020833333333336],[-105.635,43.02055555555555],[-105.75722222222223,43.01],[-105.94,42.99333333333333],[-105.94222222222223,42.99305555555556],[-106.09138888888889,42.97916666666667],[-106.09416666666667,42.97888888888889],[-106.24333333333334,42.965],[-106.39333333333335,42.95055555555556],[-106.39583333333334,42.95027777777778],[-106.54444444444444,42.93583333333333],[-106.54444444444444,42.93583333333333],[-106.69694444444445,42.92111111111111],[-106.84444444444443,42.90611111111111],[-106.84694444444445,42.905833333333334],[-106.99555555555555,42.882222222222225],[-107.01055555555556,42.87972222222222],[-107.14583333333334,42.85527777777778],[-107.27972222222222,42.83111111111111],[-107.30916666666667,42.825833333333335],[-107.42694444444444,42.80444444444444],[-107.4588888888889,42.79861111111111],[-107.57444444444444,42.77722222222222],[-107.7525,42.744166666666665],[-107.90138888888889,42.71638888888889],[-108.0475,42.68888888888888],[-108.19277777777778,42.66138888888889],[-108.33833333333332,42.63333333333333],[-108.48444444444445,42.60527777777778],[-108.63055555555555,42.57694444444445],[-108.775,42.54861111111111],[-108.92027777777778,42.519999999999996],[-109.06777777777778,42.490833333333335],[-109.21305555555556,42.461666666666666],[-109.35972222222222,42.43222222222222],[-109.50472222222223,42.40277777777778],[-109.65111111111112,42.37305555555555],[-109.79527777777777,42.343333333333334],[-109.93972222222223,42.31333333333333],[-110.08694444444444,42.2825],[-110.23111111111112,42.25222222222222],[-110.37583333333333,42.22166666666667],[-110.52083333333333,42.19083333333333],[-110.66583333333334,42.15972222222222],[-110.81222222222222,42.12777777777778],[-110.97361111111111,42.09277777777778],[-111.12027777777777,42.06055555555555],[-111.26722222222222,42.02833333333333],[-111.41194444444444,41.99583333333334],[-111.55527777777777,41.96388888888889],[-111.70055555555555,41.93111111111111],[-111.84583333333333,41.89833333333333],[-111.99,41.86555555555556],[-112.13305555555554,41.8325],[-112.27666666666667,41.79944444444444],[-112.42194444444445,41.76555555555556],[-112.565,41.731944444444444],[-112.7075,41.698611111111106],[-112.85194444444444,41.66444444444444],[-112.99694444444445,41.62972222222222],[-113.1413888888889,41.595],[-113.28611111111111,41.559999999999995],[-113.43083333333334,41.525],[-113.57416666666666,41.48972222222222],[-113.71944444444445,41.45416666666667],[-113.86333333333333,41.41833333333333],[-114.00861111111111,41.382222222222225],[-114.15333333333334,41.34583333333334],[-114.29972222222221,41.30916666666666],[-114.44583333333334,41.27194444444444],[-114.58916666666666,41.23527777777778],[-114.73277777777778,41.19833333333333],[-114.9,41.155277777777776],[-114.95972222222223,41.13916666666667],[-115.04805555555555,41.11666666666667],[-115.1061111111111,41.10138888888889],[-115.19333333333334,41.078611111111115],[-115.2525,41.06305555555555],[-115.34138888888889,41.03972222222222],[-115.39944444444446,41.02388888888889],[-115.48472222222222,41.001666666666665],[-115.54444444444444,40.98555555555556],[-115.63083333333333,40.96277777777778],[-115.68805555555556,40.94777777777777],[-115.77305555555556,40.92472222222222],[-115.82944444444443,40.909444444444446],[-115.91416666666667,40.88638888888889],[-115.97055555555556,40.87111111111111],[-116.05472222222222,40.848333333333336],[-116.11055555555555,40.833333333333336],[-116.19527777777778,40.809999999999995],[-116.25111111111111,40.79472222222222],[-116.33472222222221,40.77194444444444],[-116.39083333333333,40.75666666666667],[-116.47361111111111,40.73361111111111],[-116.55888888888889,40.71],[-116.61305555555555,40.69499999999999],[-116.70027777777779,40.67055555555555],[-116.75416666666666,40.65555555555555],[-116.8386111111111,40.63194444444444],[-116.89250000000001,40.61694444444444],[-116.97777777777777,40.59277777777778],[-117.03194444444445,40.5775],[-117.11833333333333,40.55305555555555],[-117.17166666666667,40.53777777777778],[-117.25638888888889,40.513888888888886],[-117.3111111111111,40.498333333333335],[-117.39722222222223,40.47361111111111],[-117.45055555555555,40.458333333333336],[-117.53722222222223,40.43333333333333],[-117.59138888888889,40.4175],[-117.6763888888889,40.393055555555556],[-117.73138888888889,40.37722222222222],[-117.81527777777778,40.35277777777778],[-117.8711111111111,40.336666666666666],[-117.95527777777778,40.31194444444444],[-118.01027777777777,40.295833333333334],[-118.09805555555555,40.269999999999996],[-118.14944444444446,40.25472222222222],[-118.23583333333333,40.22944444444445],[-118.28916666666666,40.21361111111111],[-118.37694444444443,40.1875],[-118.42861111111111,40.17222222222222],[-118.51555555555555,40.14611111111111],[-118.5675,40.13055555555555],[-118.65472222222223,40.10444444444445],[-118.70861111111111,40.08833333333334],[-118.79527777777777,40.06222222222222],[-118.84833333333333,40.04611111111111],[-118.93388888888889,40.019999999999996],[-118.98694444444445,40.00388888888889],[-119.07111111111111,39.97833333333333],[-119.12444444444444,39.96194444444445],[-119.21000000000001,39.93583333333333],[-119.26527777777778,39.91861111111111],[-119.34916666666666,39.893055555555556],[-119.40333333333334,39.876111111111115],[-119.48861111111111,39.849722222222226],[-119.62805555555555,39.80638888888888],[-119.76666666666667,39.76305555555555],[-119.90833333333335,39.718611111111116],[-120.07472222222222,39.66611111111111],[-120.21972222222223,39.62],[-120.35916666666667,39.57555555555556],[-120.49694444444445,39.53138888888889],[-120.6363888888889,39.48638888888889],[-120.77722222222222,39.440555555555555],[-120.915,39.395833333333336],[-121.05472222222222,39.349444444444444],[-121.18,39.2875],[-121.27638888888889,39.23166666666667],[-121.42111111111112,39.14722222222222],[-121.54083333333332,39.077222222222225],[-121.66194444444444,39.00611111111111],[-121.78222222222222,38.934999999999995],[-121.90333333333334,38.86333333333334],[-122.025,38.79111111111111],[-122.14833333333334,38.7175],[-122.26305555555555,38.634166666666665],[-122.32638888888889,38.525],[-122.38472222222222,38.42111111111111],[-122.41666666666667,38.36666666666667],[-122.43333333333334,38.31666666666667],[-122.44027777777778,38.321111111111115],[-122.5,38.21666666666667],[-122.49472222222222,38.22277777777778],[-122.54916666666666,38.125],[-122.6,38.016666666666666],[-122.65,37.93333333333333],[-122.61444444444444,37.844166666666666],[-122.51666666666667,37.766666666666666],[-122.46666666666667,37.7],[-122.4,37.63333333333333],[-122.35,37.56666666666667],[-122.34416666666667,37.5675],[-122.3,37.5],[-122.30472222222222,37.50388888888889],[-122.2863888888889,37.437777777777775],[-122.34388888888888,37.38861111111111],[-122.29388888888889,37.34527777777778],[-122.21694444444445,37.37111111111111],[-122.18222222222222,37.42833333333333],[-122.15,37.483333333333334],[-122.1713888888889,37.534166666666664],[-122.22944444444444,37.55972222222222],[-122.28333333333333,37.583333333333336],[-122.33333333333333,37.6],[-122.36916666666666,37.61833333333333]]}
}
